{
    "type": "FeatureCollection",
    "features": [
        {
            "type": "Feature",
            "geometry": {
                "type": "Polygon",
                "coordinates": [
                    [
                        [
                            "-73.29",
                            "24.13"
                        ],
                        [
                            "-73.71",
                            "23.66"
                        ],
                        [
                            "-73.91",
                            "23.32"
                        ],
                        [
                            "-74.08",
                            "22.60"
                        ],
                        [
                            "-73.62",
                            "22.21"
                        ],
                        [
                            "-73.09",
                            "22.46"
                        ],
                        [
                            "-72.34",
                            "22.66"
                        ],
                        [
                            "-71.92",
                            "22.75"
                        ],
                        [
                            "-71.31",
                            "22.92"
                        ],
                        [
                            "-70.75",
                            "23.20"
                        ],
                        [
                            "-70.43",
                            "23.51"
                        ],
                        [
                            "-70.49",
                            "23.91"
                        ],
                        [
                            "-71.26",
                            "24.14"
                        ],
                        [
                            "-72.05",
                            "24.21"
                        ],
                        [
                            "-72.84",
                            "24.34"
                        ],
                        [
                            "-73.29",
                            "24.13"
                        ]
                    ]
                ]
            },
            "properties": {
                "forecastId": null,
                "geometryId": null,
                "tag": "1C",
                "forecastHour": 3,
                "hazard": "FZLVL",
                "frequency": null,
                "severity": null,
                "status": "NRML",
                "base": null,
                "top": null,
                "fzlBase": null,
                "fzlTop": null,
                "level": "160",
                "product": "ZULU",
                "rawAirSigmet": null,
                "validTimeTo": "2026-08-19T06:00:00.000",
                "validTimeFrom": [
                    "2026-08-19T02:45"
                ]
            }
        },
        {
            "type": "Feature",
            "geometry": {
                "type": "LineString",
                "coordinates": [
                    [
                        "-129.10",
                        "27.47"
                    ],
                    [
                        "-127.69",
                        "30.04"
                    ],
                    [
                        "-126.18",
                        "32.95"
                    ],
                    [
                        "-125.21",
                        "34.29"
                    ],
                    [
                        "-123.84",
                        "35.31"
                    ],
                    [
                        "-124.18",
                        "36.76"
                    ],
                    [
                        "-123.57",
                        "38.23"
                    ],
                    [
                        "-122.51",
                        "39.48"
                    ],
                    [
                        "-121.05",
                        "40.49"
                    ],
                    [
                        "-118.98",
                        "41.43"
                    ],
                    [
                        "-117.31",
                        "41.73"
                    ],
                    [
                        "-114.97",
                        "41.64"
                    ],
                    [
                        "-112.78",
                        "41.42"
                    ],
                    [
                        "-110.01",
                        "41.31"
                    ],
                    [
                        "-107.96",
                        "40.95"
                    ],
                    [
                        "-106.33",
                        "40.13"
                    ],
                    [
                        "-104.19",
                        "39.76"
                    ],
                    [
                        "-101.96",
                        "39.30"
                    ],
                    [
                        "-99.78",
                        "39.16"
                    ],
                    [
                        "-98.74",
                        "38.85"
                    ],
                    [
                        "-97.98",
                        "38.40"
                    ],
                    [
                        "-97.24",
                        "37.06"
                    ],
                    [
                        "-96.66",
                        "36.14"
                    ],
                    [
                        "-95.94",
                        "35.48"
                    ],
                    [
                        "-94.50",
                        "34.67"
                    ],
                    [
                        "-92.64",
                        "34.03"
                    ],
                    [
                        "-90.22",
                        "33.89"
                    ],
                    [
                        "-88.78",
                        "34.11"
                    ],
                    [
                        "-87.92",
                        "34.45"
                    ],
                    [
                        "-85.96",
                        "34.81"
                    ],
                    [
                        "-82.96",
                        "36.57"
                    ],
                    [
                        "-81.14",
                        "37.63"
                    ],
                    [
                        "-79.68",
                        "38.33"
                    ],
                    [
                        "-78.15",
                        "39.22"
                    ],
                    [
                        "-76.57",
                        "39.84"
                    ],
                    [
                        "-72.67",
                        "41.11"
                    ],
                    [
                        "-70.83",
                        "41.77"
                    ],
                    [
                        "-68.99",
                        "42.20"
                    ],
                    [
                        "-67.45",
                        "41.93"
                    ],
                    [
                        "-67.03",
                        "41.11"
                    ],
                    [
                        "-67.33",
                        "39.39"
                    ],
                    [
                        "-67.08",
                        "38.93"
                    ],
                    [
                        "-66.34",
                        "38.98"
                    ],
                    [
                        "-65.39",
                        "39.08"
                    ],
                    [
                        "-63.61",
                        "39.42"
                    ]
                ]
            },
            "properties": {
                "forecastId": null,
                "geometryId": null,
                "tag": "1C",
                "forecastHour": 3,
                "hazard": "FZLVL",
                "frequency": null,
                "severity": null,
                "status": "NRML",
                "base": null,
                "top": null,
                "fzlBase": null,
                "fzlTop": null,
                "level": "160",
                "product": "ZULU",
                "rawAirSigmet": null,
                "validTimeTo": "2026-08-19T06:00:00.000",
                "validTimeFrom": [
                    "2026-08-19T02:45"
                ]
            }
        },
        {
            "type": "Feature",
            "geometry": {
                "type": "Polygon",
                "coordinates": [
                    [
                        [
                            "-121.21",
                            "49.05"
                        ],
                        [
                            "-117.78",
                            "48.87"
                        ],
                        [
                            "-118.85",
                            "46.79"
                        ],
                        [
                            "-120.55",
                            "47.43"
                        ],
                        [
                            "-121.21",
                            "49.05"
                        ]
                    ]
                ]
            },
            "properties": {
                "forecastId": null,
                "geometryId": null,
                "tag": "5E",
                "forecastHour": 3,
                "hazard": "MT_OBSC",
                "frequency": null,
                "severity": null,
                "status": "NRML",
                "base": null,
                "top": null,
                "fzlBase": null,
                "fzlTop": null,
                "level": null,
                "product": "SIERRA",
                "rawAirSigmet": "FU HZ",
                "validTimeTo": "2026-08-19T06:00:00.000",
                "validTimeFrom": [
                    "2026-08-19T04:08"
                ]
            }
        },
        {
            "type": "Feature",
            "geometry": {
                "type": "Polygon",
                "coordinates": [
                    [
                        [
                            "-117.37",
                            "45.97"
                        ],
                        [
                            "-115.79",
                            "44.71"
                        ],
                        [
                            "-116.81",
                            "44.16"
                        ],
                        [
                            "-118.26",
                            "45.67"
                        ],
                        [
                            "-117.37",
                            "45.97"
                        ]
                    ]
                ]
            },
            "properties": {
                "forecastId": null,
                "geometryId": null,
                "tag": "9E",
                "forecastHour": 3,
                "hazard": "MT_OBSC",
                "frequency": null,
                "severity": null,
                "status": "NRML",
                "base": null,
                "top": null,
                "fzlBase": null,
                "fzlTop": null,
                "level": null,
                "product": "SIERRA",
                "rawAirSigmet": "FU HZ",
                "validTimeTo": "2026-08-19T06:00:00.000",
                "validTimeFrom": [
                    "2026-08-19T04:08"
                ]
            }
        },
        {
            "type": "Feature",
            "geometry": {
                "type": "Polygon",
                "coordinates": [
                    [
                        [
                            "-121.63",
                            "45.48"
                        ],
                        [
                            "-119.45",
                            "44.43"
                        ],
                        [
                            "-119.19",
                            "43.80"
                        ],
                        [
                            "-120.56",
                            "43.15"
                        ],
                        [
                            "-122.13",
                            "44.98"
                        ],
                        [
                            "-121.63",
                            "45.48"
                        ]
                    ]
                ]
            },
            "properties": {
                "forecastId": null,
                "geometryId": null,
                "tag": "7E",
                "forecastHour": 3,
                "hazard": "MT_OBSC",
                "frequency": null,
                "severity": null,
                "status": "NRML",
                "base": null,
                "top": null,
                "fzlBase": null,
                "fzlTop": null,
                "level": null,
                "product": "SIERRA",
                "rawAirSigmet": "FU HZ",
                "validTimeTo": "2026-08-19T06:00:00.000",
                "validTimeFrom": [
                    "2026-08-19T04:08"
                ]
            }
        },
        {
            "type": "Feature",
            "geometry": {
                "type": "LineString",
                "coordinates": [
                    [
                        "-112.79",
                        "57.75"
                    ],
                    [
                        "-112.78",
                        "57.13"
                    ],
                    [
                        "-112.33",
                        "56.53"
                    ],
                    [
                        "-111.09",
                        "55.95"
                    ],
                    [
                        "-109.96",
                        "55.19"
                    ],
                    [
                        "-109.47",
                        "53.94"
                    ],
                    [
                        "-108.93",
                        "52.64"
                    ],
                    [
                        "-108.05",
                        "51.78"
                    ],
                    [
                        "-106.72",
                        "51.23"
                    ],
                    [
                        "-105.77",
                        "50.27"
                    ],
                    [
                        "-103.61",
                        "48.65"
                    ],
                    [
                        "-101.25",
                        "47.13"
                    ],
                    [
                        "-100.24",
                        "46.45"
                    ],
                    [
                        "-98.86",
                        "45.85"
                    ],
                    [
                        "-95.83",
                        "44.85"
                    ],
                    [
                        "-94.43",
                        "44.31"
                    ],
                    [
                        "-92.80",
                        "43.97"
                    ],
                    [
                        "-90.76",
                        "44.08"
                    ],
                    [
                        "-88.30",
                        "44.00"
                    ],
                    [
                        "-85.11",
                        "43.89"
                    ],
                    [
                        "-83.50",
                        "43.35"
                    ],
                    [
                        "-82.13",
                        "43.03"
                    ],
                    [
                        "-76.14",
                        "44.65"
                    ],
                    [
                        "-73.92",
                        "46.20"
                    ],
                    [
                        "-72.82",
                        "47.04"
                    ],
                    [
                        "-71.48",
                        "47.73"
                    ],
                    [
                        "-70.26",
                        "48.23"
                    ],
                    [
                        "-69.11",
                        "48.97"
                    ],
                    [
                        "-66.38",
                        "50.26"
                    ],
                    [
                        "-65.33",
                        "51.12"
                    ],
                    [
                        "-63.79",
                        "51.35"
                    ],
                    [
                        "-61.98",
                        "51.55"
                    ],
                    [
                        "-60.12",
                        "52.00"
                    ],
                    [
                        "-60.08",
                        "53.31"
                    ],
                    [
                        "-59.66",
                        "54.23"
                    ]
                ]
            },
            "properties": {
                "forecastId": null,
                "geometryId": null,
                "tag": "1C",
                "forecastHour": 3,
                "hazard": "FZLVL",
                "frequency": null,
                "severity": null,
                "status": "NRML",
                "base": null,
                "top": null,
                "fzlBase": null,
                "fzlTop": null,
                "level": "120",
                "product": "ZULU",
                "rawAirSigmet": null,
                "validTimeTo": "2026-08-19T06:00:00.000",
                "validTimeFrom": [
                    "2026-08-19T02:45"
                ]
            }
        },
        {
            "type": "Feature",
            "geometry": {
                "type": "Polygon",
                "coordinates": [
                    [
                        [
                            "-123.59",
                            "48.55"
                        ],
                        [
                            "-122.16",
                            "47.46"
                        ],
                        [
                            "-123.60",
                            "44.01"
                        ],
                        [
                            "-123.97",
                            "40.35"
                        ],
                        [
                            "-124.27",
                            "42.88"
                        ],
                        [
                            "-124.09",
                            "44.72"
                        ],
                        [
                            "-124.15",
                            "46.97"
                        ],
                        [
                            "-124.65",
                            "48.32"
                        ],
                        [
                            "-123.59",
                            "48.55"
                        ]
                    ]
                ]
            },
            "properties": {
                "forecastId": null,
                "geometryId": null,
                "tag": "8E",
                "forecastHour": 3,
                "hazard": "MT_OBSC",
                "frequency": null,
                "severity": null,
                "status": "NRML",
                "base": null,
                "top": null,
                "fzlBase": null,
                "fzlTop": null,
                "level": null,
                "product": "SIERRA",
                "rawAirSigmet": "MTNS OBSC BY CLDS BR",
                "validTimeTo": "2026-08-19T06:00:00.000",
                "validTimeFrom": [
                    "2026-08-19T04:08"
                ]
            }
        },
        {
            "type": "Feature",
            "geometry": {
                "type": "Polygon",
                "coordinates": [
                    [
                        [
                            "-68.85",
                            "46.55"
                        ],
                        [
                            "-68.47",
                            "45.58"
                        ],
                        [
                            "-71.30",
                            "43.41"
                        ],
                        [
                            "-71.93",
                            "44.25"
                        ],
                        [
                            "-68.85",
                            "46.55"
                        ]
                    ]
                ]
            },
            "properties": {
                "forecastId": null,
                "geometryId": null,
                "tag": "4E",
                "forecastHour": 3,
                "hazard": "MT_OBSC",
                "frequency": null,
                "severity": null,
                "status": "NRML",
                "base": null,
                "top": null,
                "fzlBase": null,
                "fzlTop": null,
                "level": null,
                "product": "SIERRA",
                "rawAirSigmet": "MTNS OBSC BY CLDS BR FG",
                "validTimeTo": "2026-08-19T06:00:00.000",
                "validTimeFrom": [
                    "2026-08-19T04:08"
                ]
            }
        },
        {
            "type": "Feature",
            "geometry": {
                "type": "Polygon",
                "coordinates": [
                    [
                        [
                            "-88.14",
                            "44.28"
                        ],
                        [
                            "-87.52",
                            "42.29"
                        ],
                        [
                            "-91.96",
                            "41.95"
                        ],
                        [
                            "-91.24",
                            "44.09"
                        ],
                        [
                            "-88.14",
                            "44.28"
                        ]
                    ]
                ]
            },
            "properties": {
                "forecastId": null,
                "geometryId": null,
                "tag": "5E",
                "forecastHour": 3,
                "hazard": "IFR",
                "frequency": null,
                "severity": null,
                "status": "NRML",
                "base": null,
                "top": null,
                "fzlBase": null,
                "fzlTop": null,
                "level": null,
                "product": "SIERRA",
                "rawAirSigmet": "CIG BLW 010 VIS BLW 3SM BR FG",
                "validTimeTo": "2026-08-19T06:00:00.000",
                "validTimeFrom": [
                    "2026-08-19T04:08"
                ]
            }
        },
        {
            "type": "Feature",
            "geometry": {
                "type": "Polygon",
                "coordinates": [
                    [
                        [
                            "-124.90",
                            "48.64"
                        ],
                        [
                            "-123.37",
                            "48.41"
                        ],
                        [
                            "-122.58",
                            "48.28"
                        ],
                        [
                            "-123.59",
                            "48.13"
                        ],
                        [
                            "-124.27",
                            "48.32"
                        ],
                        [
                            "-124.15",
                            "47.61"
                        ],
                        [
                            "-123.34",
                            "47.22"
                        ],
                        [
                            "-123.50",
                            "46.04"
                        ],
                        [
                            "-123.86",
                            "44.38"
                        ],
                        [
                            "-124.07",
                            "43.06"
                        ],
                        [
                            "-124.62",
                            "42.30"
                        ],
                        [
                            "-124.03",
                            "41.83"
                        ],
                        [
                            "-123.85",
                            "40.49"
                        ],
                        [
                            "-124.23",
                            "40.03"
                        ],
                        [
                            "-123.45",
                            "38.64"
                        ],
                        [
                            "-122.41",
                            "38.12"
                        ],
                        [
                            "-122.06",
                            "37.53"
                        ],
                        [
                            "-122.29",
                            "37.16"
                        ],
                        [
                            "-121.81",
                            "37.17"
                        ],
                        [
                            "-121.38",
                            "36.56"
                        ],
                        [
                            "-121.86",
                            "36.35"
                        ],
                        [
                            "-121.53",
                            "35.77"
                        ],
                        [
                            "-120.37",
                            "35.00"
                        ],
                        [
                            "-120.43",
                            "34.38"
                        ],
                        [
                            "-119.85",
                            "34.06"
                        ],
                        [
                            "-118.39",
                            "33.24"
                        ],
                        [
                            "-117.20",
                            "33.39"
                        ],
                        [
                            "-116.85",
                            "32.66"
                        ],
                        [
                            "-120.92",
                            "30.72"
                        ],
                        [
                            "-127.16",
                            "39.90"
                        ],
                        [
                            "-126.38",
                            "45.04"
                        ],
                        [
                            "-127.92",
                            "48.36"
                        ],
                        [
                            "-124.90",
                            "48.64"
                        ]
                    ]
                ]
            },
            "properties": {
                "forecastId": null,
                "geometryId": null,
                "tag": "2E",
                "forecastHour": 3,
                "hazard": "IFR",
                "frequency": null,
                "severity": null,
                "status": "NRML",
                "base": null,
                "top": null,
                "fzlBase": null,
                "fzlTop": null,
                "level": null,
                "product": "SIERRA",
                "rawAirSigmet": "CIG BLW 010 VIS BLW 3SM BR FG",
                "validTimeTo": "2026-08-19T06:00:00.000",
                "validTimeFrom": [
                    "2026-08-19T04:08"
                ]
            }
        },
        {
            "type": "Feature",
            "geometry": {
                "type": "Polygon",
                "coordinates": [
                    [
                        [
                            "-69.38",
                            "47.47"
                        ],
                        [
                            "-67.86",
                            "47.00"
                        ],
                        [
                            "-67.79",
                            "45.58"
                        ],
                        [
                            "-66.90",
                            "44.82"
                        ],
                        [
                            "-67.03",
                            "39.51"
                        ],
                        [
                            "-74.53",
                            "36.76"
                        ],
                        [
                            "-75.98",
                            "38.55"
                        ],
                        [
                            "-75.75",
                            "39.87"
                        ],
                        [
                            "-72.80",
                            "40.03"
                        ],
                        [
                            "-73.23",
                            "41.47"
                        ],
                        [
                            "-71.36",
                            "42.57"
                        ],
                        [
                            "-74.27",
                            "43.52"
                        ],
                        [
                            "-73.94",
                            "44.40"
                        ],
                        [
                            "-69.41",
                            "45.63"
                        ],
                        [
                            "-69.38",
                            "47.47"
                        ]
                    ]
                ]
            },
            "properties": {
                "forecastId": null,
                "geometryId": null,
                "tag": "4E",
                "forecastHour": 3,
                "hazard": "IFR",
                "frequency": null,
                "severity": null,
                "status": "NRML",
                "base": null,
                "top": null,
                "fzlBase": null,
                "fzlTop": null,
                "level": null,
                "product": "SIERRA",
                "rawAirSigmet": "CIG BLW 010 VIS BLW 3SM BR FG",
                "validTimeTo": "2026-08-19T06:00:00.000",
                "validTimeFrom": [
                    "2026-08-19T04:08"
                ]
            }
        },
        {
            "type": "Feature",
            "geometry": {
                "type": "Polygon",
                "coordinates": [
                    [
                        [
                            "-82.39",
                            "40.02"
                        ],
                        [
                            "-79.57",
                            "39.60"
                        ],
                        [
                            "-78.03",
                            "37.96"
                        ],
                        [
                            "-80.41",
                            "37.05"
                        ],
                        [
                            "-84.20",
                            "37.03"
                        ],
                        [
                            "-82.39",
                            "40.02"
                        ]
                    ]
                ]
            },
            "properties": {
                "forecastId": null,
                "geometryId": null,
                "tag": "1E",
                "forecastHour": 3,
                "hazard": "IFR",
                "frequency": null,
                "severity": null,
                "status": "NRML",
                "base": null,
                "top": null,
                "fzlBase": null,
                "fzlTop": null,
                "level": null,
                "product": "SIERRA",
                "rawAirSigmet": "CIG BLW 010 VIS BLW 3SM BR FG",
                "validTimeTo": "2026-08-19T06:00:00.000",
                "validTimeFrom": [
                    "2026-08-19T04:08"
                ]
            }
        },
        {
            "type": "Feature",
            "geometry": {
                "type": "Polygon",
                "coordinates": [
                    [
                        [
                            "-95.67",
                            "38.84"
                        ],
                        [
                            "-94.67",
                            "38.46"
                        ],
                        [
                            "-94.10",
                            "37.85"
                        ],
                        [
                            "-94.19",
                            "37.01"
                        ],
                        [
                            "-95.20",
                            "36.40"
                        ],
                        [
                            "-96.07",
                            "36.10"
                        ],
                        [
                            "-96.65",
                            "36.30"
                        ],
                        [
                            "-97.55",
                            "36.88"
                        ],
                        [
                            "-98.50",
                            "36.87"
                        ],
                        [
                            "-99.55",
                            "36.81"
                        ],
                        [
                            "-99.93",
                            "37.03"
                        ],
                        [
                            "-99.67",
                            "37.57"
                        ],
                        [
                            "-98.66",
                            "38.16"
                        ],
                        [
                            "-97.12",
                            "38.77"
                        ],
                        [
                            "-95.67",
                            "38.84"
                        ]
                    ]
                ]
            },
            "properties": {
                "forecastId": null,
                "geometryId": null,
                "tag": "1W",
                "forecastHour": 3,
                "hazard": "LLWS",
                "frequency": null,
                "severity": null,
                "status": "NRML",
                "base": null,
                "top": null,
                "fzlBase": null,
                "fzlTop": null,
                "level": null,
                "product": "TANGO",
                "rawAirSigmet": "AIR SPEED LOSS OR GAIN OF 20KTS OR MORE BELOW 2000 FT AGL",
                "validTimeTo": "2026-08-19T06:00:00.000",
                "validTimeFrom": [
                    "2026-08-19T02:45"
                ]
            }
        },
        {
            "type": "Feature",
            "geometry": {
                "type": "Polygon",
                "coordinates": [
                    [
                        [
                            "-82.50",
                            "45.30"
                        ],
                        [
                            "-82.00",
                            "43.25"
                        ],
                        [
                            "-83.10",
                            "42.07"
                        ],
                        [
                            "-87.57",
                            "40.84"
                        ],
                        [
                            "-92.22",
                            "39.80"
                        ],
                        [
                            "-95.68",
                            "39.92"
                        ],
                        [
                            "-99.03",
                            "40.38"
                        ],
                        [
                            "-100.18",
                            "41.39"
                        ],
                        [
                            "-100.27",
                            "42.88"
                        ],
                        [
                            "-98.72",
                            "44.04"
                        ],
                        [
                            "-97.11",
                            "44.36"
                        ],
                        [
                            "-92.98",
                            "44.33"
                        ],
                        [
                            "-89.29",
                            "44.56"
                        ],
                        [
                            "-85.43",
                            "44.63"
                        ],
                        [
                            "-82.50",
                            "45.30"
                        ]
                    ]
                ]
            },
            "properties": {
                "forecastId": null,
                "geometryId": null,
                "tag": "1W",
                "forecastHour": 3,
                "hazard": "TURB-HI",
                "frequency": null,
                "severity": "MOD",
                "status": "NRML",
                "base": "320",
                "top": "440",
                "fzlBase": null,
                "fzlTop": null,
                "level": null,
                "product": "TANGO",
                "rawAirSigmet": null,
                "validTimeTo": "2026-08-19T06:00:00.000",
                "validTimeFrom": [
                    "2026-08-19T02:45"
                ]
            }
        },
        {
            "type": "Feature",
            "geometry": {
                "type": "Polygon",
                "coordinates": [
                    [
                        [
                            "-118.55",
                            "46.57"
                        ],
                        [
                            "-113.05",
                            "45.58"
                        ],
                        [
                            "-110.67",
                            "44.32"
                        ],
                        [
                            "-111.60",
                            "43.20"
                        ],
                        [
                            "-114.90",
                            "42.82"
                        ],
                        [
                            "-119.27",
                            "43.18"
                        ],
                        [
                            "-124.56",
                            "42.98"
                        ],
                        [
                            "-126.89",
                            "42.11"
                        ],
                        [
                            "-126.65",
                            "44.72"
                        ],
                        [
                            "-122.41",
                            "46.09"
                        ],
                        [
                            "-118.55",
                            "46.57"
                        ]
                    ]
                ]
            },
            "properties": {
                "forecastId": null,
                "geometryId": null,
                "tag": "2W",
                "forecastHour": 3,
                "hazard": "TURB-HI",
                "frequency": null,
                "severity": "MOD",
                "status": "NRML",
                "base": "300",
                "top": "390",
                "fzlBase": null,
                "fzlTop": null,
                "level": null,
                "product": "TANGO",
                "rawAirSigmet": null,
                "validTimeTo": "2026-08-19T06:00:00.000",
                "validTimeFrom": [
                    "2026-08-19T02:45"
                ]
            }
        },
        {
            "type": "Feature",
            "geometry": {
                "type": "LineString",
                "coordinates": [
                    [
                        "-99.40",
                        "58.33"
                    ],
                    [
                        "-99.08",
                        "56.94"
                    ],
                    [
                        "-98.29",
                        "55.79"
                    ],
                    [
                        "-96.76",
                        "53.44"
                    ],
                    [
                        "-96.06",
                        "52.47"
                    ],
                    [
                        "-95.00",
                        "51.49"
                    ],
                    [
                        "-93.77",
                        "50.65"
                    ],
                    [
                        "-92.46",
                        "49.55"
                    ],
                    [
                        "-89.49",
                        "48.31"
                    ],
                    [
                        "-87.69",
                        "47.93"
                    ],
                    [
                        "-86.46",
                        "47.74"
                    ],
                    [
                        "-85.03",
                        "47.75"
                    ],
                    [
                        "-83.04",
                        "47.90"
                    ],
                    [
                        "-81.15",
                        "48.43"
                    ],
                    [
                        "-80.09",
                        "49.24"
                    ],
                    [
                        "-79.04",
                        "50.51"
                    ],
                    [
                        "-77.06",
                        "52.41"
                    ],
                    [
                        "-76.05",
                        "53.49"
                    ],
                    [
                        "-75.34",
                        "54.82"
                    ],
                    [
                        "-75.59",
                        "55.98"
                    ],
                    [
                        "-76.02",
                        "57.05"
                    ],
                    [
                        "-76.07",
                        "57.66"
                    ]
                ]
            },
            "properties": {
                "forecastId": null,
                "geometryId": null,
                "tag": "1C",
                "forecastHour": 3,
                "hazard": "FZLVL",
                "frequency": null,
                "severity": null,
                "status": "NRML",
                "base": null,
                "top": null,
                "fzlBase": null,
                "fzlTop": null,
                "level": "080",
                "product": "ZULU",
                "rawAirSigmet": null,
                "validTimeTo": "2026-08-19T06:00:00.000",
                "validTimeFrom": [
                    "2026-08-19T02:45"
                ]
            }
        },
        {
            "type": "Feature",
            "geometry": {
                "type": "Polygon",
                "coordinates": [
                    [
                        [
                            "-110.62",
                            "20.73"
                        ],
                        [
                            "-110.48",
                            "20.71"
                        ],
                        [
                            "-110.36",
                            "20.35"
                        ],
                        [
                            "-110.54",
                            "20.03"
                        ],
                        [
                            "-110.92",
                            "19.96"
                        ],
                        [
                            "-111.19",
                            "20.26"
                        ],
                        [
                            "-110.98",
                            "20.46"
                        ],
                        [
                            "-110.70",
                            "20.68"
                        ],
                        [
                            "-110.62",
                            "20.73"
                        ]
                    ]
                ]
            },
            "properties": {
                "forecastId": null,
                "geometryId": null,
                "tag": "1C",
                "forecastHour": 3,
                "hazard": "FZLVL",
                "frequency": null,
                "severity": null,
                "status": "NRML",
                "base": null,
                "top": null,
                "fzlBase": null,
                "fzlTop": null,
                "level": "160",
                "product": "ZULU",
                "rawAirSigmet": null,
                "validTimeTo": "2026-08-19T06:00:00.000",
                "validTimeFrom": [
                    "2026-08-19T02:45"
                ]
            }
        },
        {
            "type": "Feature",
            "geometry": {
                "type": "LineString",
                "coordinates": [
                    [
                        "-133.26",
                        "40.08"
                    ],
                    [
                        "-133.19",
                        "40.13"
                    ],
                    [
                        "-132.88",
                        "40.34"
                    ],
                    [
                        "-132.67",
                        "40.61"
                    ],
                    [
                        "-132.56",
                        "40.78"
                    ],
                    [
                        "-132.41",
                        "41.03"
                    ],
                    [
                        "-132.29",
                        "41.36"
                    ],
                    [
                        "-132.27",
                        "41.42"
                    ],
                    [
                        "-132.27",
                        "41.79"
                    ],
                    [
                        "-132.46",
                        "42.11"
                    ],
                    [
                        "-132.63",
                        "42.25"
                    ],
                    [
                        "-132.86",
                        "42.39"
                    ],
                    [
                        "-133.24",
                        "42.55"
                    ],
                    [
                        "-133.48",
                        "42.62"
                    ],
                    [
                        "-133.79",
                        "42.70"
                    ],
                    [
                        "-134.31",
                        "42.80"
                    ],
                    [
                        "-134.33",
                        "42.80"
                    ]
                ]
            },
            "properties": {
                "forecastId": null,
                "geometryId": null,
                "tag": "1C",
                "forecastHour": 3,
                "hazard": "FZLVL",
                "frequency": null,
                "severity": null,
                "status": "NRML",
                "base": null,
                "top": null,
                "fzlBase": null,
                "fzlTop": null,
                "level": "120",
                "product": "ZULU",
                "rawAirSigmet": null,
                "validTimeTo": "2026-08-19T06:00:00.000",
                "validTimeFrom": [
                    "2026-08-19T02:45"
                ]
            }
        },
        {
            "type": "Feature",
            "geometry": {
                "type": "LineString",
                "coordinates": [
                    [
                        "-126.15",
                        "56.42"
                    ],
                    [
                        "-125.44",
                        "55.57"
                    ],
                    [
                        "-124.63",
                        "55.22"
                    ],
                    [
                        "-123.85",
                        "54.62"
                    ],
                    [
                        "-123.12",
                        "54.13"
                    ],
                    [
                        "-122.18",
                        "53.73"
                    ],
                    [
                        "-120.78",
                        "53.68"
                    ],
                    [
                        "-119.22",
                        "53.92"
                    ],
                    [
                        "-118.29",
                        "54.46"
                    ],
                    [
                        "-117.94",
                        "55.10"
                    ],
                    [
                        "-117.36",
                        "55.52"
                    ],
                    [
                        "-116.51",
                        "55.91"
                    ],
                    [
                        "-115.78",
                        "56.60"
                    ],
                    [
                        "-115.68",
                        "57.22"
                    ],
                    [
                        "-115.84",
                        "57.51"
                    ]
                ]
            },
            "properties": {
                "forecastId": null,
                "geometryId": null,
                "tag": "1C",
                "forecastHour": 3,
                "hazard": "FZLVL",
                "frequency": null,
                "severity": null,
                "status": "NRML",
                "base": null,
                "top": null,
                "fzlBase": null,
                "fzlTop": null,
                "level": "120",
                "product": "ZULU",
                "rawAirSigmet": null,
                "validTimeTo": "2026-08-19T06:00:00.000",
                "validTimeFrom": [
                    "2026-08-19T02:45"
                ]
            }
        },
        {
            "type": "Feature",
            "geometry": {
                "type": "LineString",
                "coordinates": [
                    [
                        "-94.87",
                        "19.71"
                    ],
                    [
                        "-97.18",
                        "21.52"
                    ],
                    [
                        "-98.27",
                        "22.71"
                    ],
                    [
                        "-99.06",
                        "23.10"
                    ],
                    [
                        "-99.59",
                        "22.56"
                    ],
                    [
                        "-99.83",
                        "21.80"
                    ],
                    [
                        "-100.53",
                        "22.08"
                    ],
                    [
                        "-101.23",
                        "23.59"
                    ],
                    [
                        "-101.89",
                        "25.19"
                    ],
                    [
                        "-102.36",
                        "25.94"
                    ],
                    [
                        "-103.16",
                        "26.30"
                    ],
                    [
                        "-104.47",
                        "26.25"
                    ],
                    [
                        "-104.86",
                        "26.79"
                    ],
                    [
                        "-105.12",
                        "27.85"
                    ],
                    [
                        "-105.49",
                        "28.48"
                    ],
                    [
                        "-107.18",
                        "29.37"
                    ],
                    [
                        "-108.51",
                        "30.29"
                    ],
                    [
                        "-109.82",
                        "30.28"
                    ],
                    [
                        "-110.77",
                        "30.54"
                    ],
                    [
                        "-111.79",
                        "30.11"
                    ],
                    [
                        "-112.22",
                        "29.62"
                    ],
                    [
                        "-113.20",
                        "28.11"
                    ],
                    [
                        "-114.14",
                        "27.87"
                    ],
                    [
                        "-115.30",
                        "27.86"
                    ],
                    [
                        "-115.98",
                        "27.02"
                    ],
                    [
                        "-116.17",
                        "26.21"
                    ],
                    [
                        "-116.65",
                        "24.71"
                    ],
                    [
                        "-116.28",
                        "22.45"
                    ],
                    [
                        "-116.09",
                        "21.39"
                    ],
                    [
                        "-115.69",
                        "20.49"
                    ],
                    [
                        "-113.19",
                        "18.56"
                    ]
                ]
            },
            "properties": {
                "forecastId": null,
                "geometryId": null,
                "tag": "1C",
                "forecastHour": 3,
                "hazard": "FZLVL",
                "frequency": null,
                "severity": null,
                "status": "NRML",
                "base": null,
                "top": null,
                "fzlBase": null,
                "fzlTop": null,
                "level": "160",
                "product": "ZULU",
                "rawAirSigmet": null,
                "validTimeTo": "2026-08-19T06:00:00.000",
                "validTimeFrom": [
                    "2026-08-19T02:45"
                ]
            }
        },
        {
            "type": "Feature",
            "geometry": {
                "type": "Polygon",
                "coordinates": [
                    [
                        [
                            "-112.55",
                            "26.12"
                        ],
                        [
                            "-112.14",
                            "26.13"
                        ],
                        [
                            "-111.98",
                            "26.06"
                        ],
                        [
                            "-111.69",
                            "25.88"
                        ],
                        [
                            "-111.58",
                            "25.74"
                        ],
                        [
                            "-111.46",
                            "25.38"
                        ],
                        [
                            "-111.57",
                            "25.00"
                        ],
                        [
                            "-111.58",
                            "25.00"
                        ],
                        [
                            "-111.96",
                            "24.87"
                        ],
                        [
                            "-112.37",
                            "24.88"
                        ],
                        [
                            "-112.46",
                            "24.90"
                        ],
                        [
                            "-112.79",
                            "25.01"
                        ],
                        [
                            "-113.08",
                            "25.19"
                        ],
                        [
                            "-113.16",
                            "25.55"
                        ],
                        [
                            "-112.92",
                            "25.89"
                        ],
                        [
                            "-112.83",
                            "25.96"
                        ],
                        [
                            "-112.55",
                            "26.12"
                        ]
                    ]
                ]
            },
            "properties": {
                "forecastId": null,
                "geometryId": null,
                "tag": "1C",
                "forecastHour": 3,
                "hazard": "FZLVL",
                "frequency": null,
                "severity": null,
                "status": "NRML",
                "base": null,
                "top": null,
                "fzlBase": null,
                "fzlTop": null,
                "level": "160",
                "product": "ZULU",
                "rawAirSigmet": null,
                "validTimeTo": "2026-08-19T06:00:00.000",
                "validTimeFrom": [
                    "2026-08-19T02:45"
                ]
            }
        },
        {
            "type": "Feature",
            "geometry": {
                "type": "Polygon",
                "coordinates": [
                    [
                        [
                            "-108.78",
                            "29.06"
                        ],
                        [
                            "-108.57",
                            "28.97"
                        ],
                        [
                            "-108.34",
                            "28.83"
                        ],
                        [
                            "-108.23",
                            "28.64"
                        ],
                        [
                            "-108.26",
                            "28.27"
                        ],
                        [
                            "-108.27",
                            "28.24"
                        ],
                        [
                            "-108.67",
                            "28.06"
                        ],
                        [
                            "-108.99",
                            "28.20"
                        ],
                        [
                            "-109.12",
                            "28.56"
                        ],
                        [
                            "-108.93",
                            "28.94"
                        ],
                        [
                            "-108.78",
                            "29.06"
                        ]
                    ]
                ]
            },
            "properties": {
                "forecastId": null,
                "geometryId": null,
                "tag": "1C",
                "forecastHour": 3,
                "hazard": "FZLVL",
                "frequency": null,
                "severity": null,
                "status": "NRML",
                "base": null,
                "top": null,
                "fzlBase": null,
                "fzlTop": null,
                "level": "160",
                "product": "ZULU",
                "rawAirSigmet": null,
                "validTimeTo": "2026-08-19T06:00:00.000",
                "validTimeFrom": [
                    "2026-08-19T02:45"
                ]
            }
        },
        {
            "type": "Feature",
            "geometry": {
                "type": "LineString",
                "coordinates": [
                    [
                        "-79.74",
                        "18.90"
                    ],
                    [
                        "-79.51",
                        "20.98"
                    ],
                    [
                        "-79.55",
                        "21.98"
                    ],
                    [
                        "-79.13",
                        "22.87"
                    ],
                    [
                        "-78.18",
                        "23.93"
                    ],
                    [
                        "-77.87",
                        "24.52"
                    ],
                    [
                        "-77.96",
                        "25.33"
                    ],
                    [
                        "-78.73",
                        "26.42"
                    ],
                    [
                        "-80.24",
                        "26.82"
                    ],
                    [
                        "-82.55",
                        "26.95"
                    ],
                    [
                        "-83.08",
                        "27.28"
                    ],
                    [
                        "-83.30",
                        "28.18"
                    ],
                    [
                        "-83.50",
                        "28.74"
                    ],
                    [
                        "-83.28",
                        "29.50"
                    ],
                    [
                        "-82.35",
                        "30.19"
                    ],
                    [
                        "-79.90",
                        "31.97"
                    ],
                    [
                        "-79.46",
                        "32.44"
                    ],
                    [
                        "-79.67",
                        "32.89"
                    ],
                    [
                        "-81.01",
                        "33.68"
                    ],
                    [
                        "-82.33",
                        "34.51"
                    ],
                    [
                        "-83.88",
                        "34.57"
                    ],
                    [
                        "-84.46",
                        "33.98"
                    ],
                    [
                        "-84.36",
                        "33.08"
                    ],
                    [
                        "-83.40",
                        "32.41"
                    ],
                    [
                        "-82.83",
                        "32.08"
                    ],
                    [
                        "-82.78",
                        "31.61"
                    ],
                    [
                        "-83.41",
                        "31.07"
                    ],
                    [
                        "-84.22",
                        "30.25"
                    ],
                    [
                        "-85.13",
                        "30.48"
                    ],
                    [
                        "-84.02",
                        "31.37"
                    ],
                    [
                        "-84.31",
                        "32.33"
                    ],
                    [
                        "-85.43",
                        "32.41"
                    ],
                    [
                        "-87.05",
                        "32.09"
                    ],
                    [
                        "-88.34",
                        "31.37"
                    ],
                    [
                        "-89.08",
                        "30.74"
                    ],
                    [
                        "-87.12",
                        "30.18"
                    ],
                    [
                        "-85.74",
                        "30.02"
                    ],
                    [
                        "-86.73",
                        "29.09"
                    ],
                    [
                        "-87.95",
                        "28.38"
                    ],
                    [
                        "-88.27",
                        "27.60"
                    ],
                    [
                        "-88.02",
                        "26.87"
                    ],
                    [
                        "-87.70",
                        "25.43"
                    ],
                    [
                        "-87.35",
                        "24.94"
                    ],
                    [
                        "-86.41",
                        "24.61"
                    ],
                    [
                        "-84.96",
                        "24.38"
                    ],
                    [
                        "-83.27",
                        "23.74"
                    ],
                    [
                        "-84.43",
                        "23.27"
                    ],
                    [
                        "-87.53",
                        "22.80"
                    ],
                    [
                        "-88.59",
                        "21.56"
                    ],
                    [
                        "-90.31",
                        "21.47"
                    ],
                    [
                        "-90.71",
                        "21.11"
                    ],
                    [
                        "-90.75",
                        "20.34"
                    ],
                    [
                        "-89.71",
                        "19.61"
                    ]
                ]
            },
            "properties": {
                "forecastId": null,
                "geometryId": null,
                "tag": "1C",
                "forecastHour": 3,
                "hazard": "FZLVL",
                "frequency": null,
                "severity": null,
                "status": "NRML",
                "base": null,
                "top": null,
                "fzlBase": null,
                "fzlTop": null,
                "level": "160",
                "product": "ZULU",
                "rawAirSigmet": null,
                "validTimeTo": "2026-08-19T06:00:00.000",
                "validTimeFrom": [
                    "2026-08-19T02:45"
                ]
            }
        },
        {
            "type": "Feature",
            "geometry": {
                "type": "Polygon",
                "coordinates": [
                    [
                        [
                            "-115.76",
                            "53.13"
                        ],
                        [
                            "-115.94",
                            "52.79"
                        ],
                        [
                            "-115.65",
                            "52.49"
                        ],
                        [
                            "-115.59",
                            "52.47"
                        ],
                        [
                            "-115.03",
                            "52.37"
                        ],
                        [
                            "-114.53",
                            "52.47"
                        ],
                        [
                            "-114.40",
                            "52.61"
                        ],
                        [
                            "-114.44",
                            "52.93"
                        ],
                        [
                            "-114.69",
                            "53.16"
                        ],
                        [
                            "-114.83",
                            "53.21"
                        ],
                        [
                            "-115.26",
                            "53.29"
                        ],
                        [
                            "-115.76",
                            "53.13"
                        ],
                        [
                            "-115.76",
                            "53.13"
                        ]
                    ]
                ]
            },
            "properties": {
                "forecastId": null,
                "geometryId": null,
                "tag": "1C",
                "forecastHour": 3,
                "hazard": "FZLVL",
                "frequency": null,
                "severity": null,
                "status": "NRML",
                "base": null,
                "top": null,
                "fzlBase": null,
                "fzlTop": null,
                "level": "120",
                "product": "ZULU",
                "rawAirSigmet": null,
                "validTimeTo": "2026-08-19T06:00:00.000",
                "validTimeFrom": [
                    "2026-08-19T02:45"
                ]
            }
        },
        {
            "type": "Feature",
            "geometry": {
                "type": "LineString",
                "coordinates": [
                    [
                        "-98.94",
                        "19.66"
                    ],
                    [
                        "-99.14",
                        "20.02"
                    ],
                    [
                        "-99.27",
                        "20.14"
                    ],
                    [
                        "-99.66",
                        "20.23"
                    ],
                    [
                        "-100.04",
                        "20.11"
                    ],
                    [
                        "-100.28",
                        "19.98"
                    ],
                    [
                        "-100.42",
                        "19.85"
                    ],
                    [
                        "-100.80",
                        "19.62"
                    ],
                    [
                        "-101.18",
                        "19.58"
                    ],
                    [
                        "-101.20",
                        "19.58"
                    ]
                ]
            },
            "properties": {
                "forecastId": null,
                "geometryId": null,
                "tag": "1C",
                "forecastHour": 3,
                "hazard": "FZLVL",
                "frequency": null,
                "severity": null,
                "status": "NRML",
                "base": null,
                "top": null,
                "fzlBase": null,
                "fzlTop": null,
                "level": "160",
                "product": "ZULU",
                "rawAirSigmet": null,
                "validTimeTo": "2026-08-19T06:00:00.000",
                "validTimeFrom": [
                    "2026-08-19T02:45"
                ]
            }
        }
    ],
    "metadata": {
        "creationTime": "2026-08-19T05:37"
    }
}