{
    "type": "FeatureCollection",
    "features": [
        {
            "type": "Feature",
            "geometry": {
                "type": "LineString",
                "coordinates": [
                    [
                        "-64.96",
                        "34.75"
                    ],
                    [
                        "-66.33",
                        "32.83"
                    ],
                    [
                        "-67.45",
                        "32.31"
                    ],
                    [
                        "-69.12",
                        "32.29"
                    ],
                    [
                        "-70.75",
                        "32.34"
                    ],
                    [
                        "-72.23",
                        "32.00"
                    ],
                    [
                        "-75.30",
                        "31.76"
                    ],
                    [
                        "-75.93",
                        "32.14"
                    ],
                    [
                        "-75.54",
                        "32.74"
                    ],
                    [
                        "-74.58",
                        "33.36"
                    ],
                    [
                        "-73.46",
                        "34.28"
                    ],
                    [
                        "-73.44",
                        "34.72"
                    ],
                    [
                        "-74.27",
                        "35.05"
                    ],
                    [
                        "-75.78",
                        "35.66"
                    ],
                    [
                        "-77.23",
                        "36.00"
                    ],
                    [
                        "-77.67",
                        "36.33"
                    ],
                    [
                        "-77.68",
                        "37.25"
                    ],
                    [
                        "-76.64",
                        "37.95"
                    ],
                    [
                        "-75.11",
                        "38.35"
                    ],
                    [
                        "-73.63",
                        "38.34"
                    ],
                    [
                        "-71.48",
                        "38.19"
                    ],
                    [
                        "-70.08",
                        "37.81"
                    ],
                    [
                        "-67.71",
                        "36.30"
                    ],
                    [
                        "-65.71",
                        "35.74"
                    ],
                    [
                        "-64.86",
                        "35.11"
                    ]
                ]
            },
            "properties": {
                "forecastId": null,
                "geometryId": null,
                "tag": "1C",
                "forecastHour": 6,
                "hazard": "FZLVL",
                "frequency": null,
                "severity": null,
                "status": "NRML",
                "base": null,
                "top": null,
                "fzlBase": null,
                "fzlTop": null,
                "level": "160",
                "product": "ZULU",
                "rawAirSigmet": null,
                "validTimeTo": "2026-09-19T15:00:00.000",
                "validTimeFrom": [
                    "2026-09-19T11:00"
                ]
            }
        },
        {
            "type": "Feature",
            "geometry": {
                "type": "LineString",
                "coordinates": [
                    [
                        "-108.88",
                        "57.99"
                    ],
                    [
                        "-108.12",
                        "56.47"
                    ],
                    [
                        "-106.56",
                        "55.04"
                    ],
                    [
                        "-105.14",
                        "54.11"
                    ],
                    [
                        "-102.88",
                        "53.31"
                    ],
                    [
                        "-98.65",
                        "51.81"
                    ],
                    [
                        "-97.64",
                        "51.91"
                    ],
                    [
                        "-96.55",
                        "52.32"
                    ],
                    [
                        "-96.79",
                        "52.98"
                    ],
                    [
                        "-96.86",
                        "53.44"
                    ],
                    [
                        "-96.07",
                        "53.49"
                    ],
                    [
                        "-92.80",
                        "53.64"
                    ],
                    [
                        "-90.84",
                        "53.52"
                    ],
                    [
                        "-89.14",
                        "53.56"
                    ],
                    [
                        "-86.44",
                        "53.18"
                    ],
                    [
                        "-83.95",
                        "52.40"
                    ],
                    [
                        "-82.40",
                        "52.39"
                    ],
                    [
                        "-80.83",
                        "52.08"
                    ],
                    [
                        "-79.97",
                        "51.59"
                    ],
                    [
                        "-79.42",
                        "50.96"
                    ],
                    [
                        "-79.09",
                        "50.22"
                    ],
                    [
                        "-78.99",
                        "49.23"
                    ],
                    [
                        "-77.96",
                        "47.85"
                    ],
                    [
                        "-77.08",
                        "47.42"
                    ],
                    [
                        "-76.02",
                        "47.40"
                    ],
                    [
                        "-73.77",
                        "46.54"
                    ],
                    [
                        "-71.60",
                        "45.83"
                    ],
                    [
                        "-69.23",
                        "44.92"
                    ],
                    [
                        "-63.67",
                        "43.80"
                    ],
                    [
                        "-62.29",
                        "43.53"
                    ]
                ]
            },
            "properties": {
                "forecastId": null,
                "geometryId": null,
                "tag": "1C",
                "forecastHour": 6,
                "hazard": "FZLVL",
                "frequency": null,
                "severity": null,
                "status": "NRML",
                "base": null,
                "top": null,
                "fzlBase": null,
                "fzlTop": null,
                "level": "080",
                "product": "ZULU",
                "rawAirSigmet": null,
                "validTimeTo": "2026-09-19T15:00:00.000",
                "validTimeFrom": [
                    "2026-09-19T11:00"
                ]
            }
        },
        {
            "type": "Feature",
            "geometry": {
                "type": "Polygon",
                "coordinates": [
                    [
                        [
                            "-80.12",
                            "39.51"
                        ],
                        [
                            "-79.83",
                            "39.35"
                        ],
                        [
                            "-78.86",
                            "37.70"
                        ],
                        [
                            "-78.40",
                            "36.60"
                        ],
                        [
                            "-78.29",
                            "35.91"
                        ],
                        [
                            "-77.61",
                            "34.66"
                        ],
                        [
                            "-77.51",
                            "33.79"
                        ],
                        [
                            "-79.08",
                            "33.64"
                        ],
                        [
                            "-80.00",
                            "33.90"
                        ],
                        [
                            "-80.45",
                            "34.42"
                        ],
                        [
                            "-81.53",
                            "35.65"
                        ],
                        [
                            "-81.62",
                            "35.99"
                        ],
                        [
                            "-81.69",
                            "36.18"
                        ],
                        [
                            "-83.49",
                            "36.23"
                        ],
                        [
                            "-84.63",
                            "37.32"
                        ],
                        [
                            "-84.80",
                            "38.02"
                        ],
                        [
                            "-84.73",
                            "38.65"
                        ],
                        [
                            "-83.10",
                            "38.98"
                        ],
                        [
                            "-81.85",
                            "38.89"
                        ],
                        [
                            "-81.41",
                            "38.55"
                        ],
                        [
                            "-81.53",
                            "37.85"
                        ],
                        [
                            "-80.64",
                            "38.03"
                        ],
                        [
                            "-80.27",
                            "38.41"
                        ],
                        [
                            "-80.60",
                            "39.27"
                        ],
                        [
                            "-80.12",
                            "39.51"
                        ]
                    ]
                ]
            },
            "properties": {
                "forecastId": null,
                "geometryId": null,
                "tag": "2E",
                "forecastHour": 6,
                "hazard": "IFR",
                "frequency": null,
                "severity": null,
                "status": "AMD",
                "base": null,
                "top": null,
                "fzlBase": null,
                "fzlTop": null,
                "level": null,
                "product": "SIERRA",
                "rawAirSigmet": "CIG BLW 010 VIS BLW 3SM BR",
                "validTimeTo": "2026-09-19T15:00:00.000",
                "validTimeFrom": [
                    "2026-09-19T14:13"
                ]
            }
        },
        {
            "type": "Feature",
            "geometry": {
                "type": "Polygon",
                "coordinates": [
                    [
                        [
                            "-123.04",
                            "48.98"
                        ],
                        [
                            "-122.54",
                            "48.89"
                        ],
                        [
                            "-121.83",
                            "48.25"
                        ],
                        [
                            "-121.68",
                            "47.80"
                        ],
                        [
                            "-121.86",
                            "47.12"
                        ],
                        [
                            "-122.18",
                            "46.71"
                        ],
                        [
                            "-122.20",
                            "46.24"
                        ],
                        [
                            "-122.29",
                            "45.72"
                        ],
                        [
                            "-122.27",
                            "45.30"
                        ],
                        [
                            "-122.46",
                            "44.78"
                        ],
                        [
                            "-122.73",
                            "44.38"
                        ],
                        [
                            "-122.91",
                            "43.81"
                        ],
                        [
                            "-123.04",
                            "43.15"
                        ],
                        [
                            "-123.69",
                            "42.69"
                        ],
                        [
                            "-124.11",
                            "42.20"
                        ],
                        [
                            "-123.68",
                            "41.17"
                        ],
                        [
                            "-123.47",
                            "39.95"
                        ],
                        [
                            "-123.75",
                            "39.72"
                        ],
                        [
                            "-123.16",
                            "38.70"
                        ],
                        [
                            "-122.15",
                            "38.51"
                        ],
                        [
                            "-121.65",
                            "37.74"
                        ],
                        [
                            "-121.24",
                            "36.74"
                        ],
                        [
                            "-120.63",
                            "35.93"
                        ],
                        [
                            "-120.55",
                            "35.76"
                        ],
                        [
                            "-120.55",
                            "35.39"
                        ],
                        [
                            "-120.54",
                            "35.07"
                        ],
                        [
                            "-120.20",
                            "34.86"
                        ],
                        [
                            "-119.87",
                            "34.61"
                        ],
                        [
                            "-120.43",
                            "34.24"
                        ],
                        [
                            "-119.97",
                            "33.80"
                        ],
                        [
                            "-119.43",
                            "33.47"
                        ],
                        [
                            "-118.93",
                            "33.75"
                        ],
                        [
                            "-118.77",
                            "34.38"
                        ],
                        [
                            "-118.25",
                            "34.38"
                        ],
                        [
                            "-117.79",
                            "33.92"
                        ],
                        [
                            "-117.36",
                            "33.63"
                        ],
                        [
                            "-117.09",
                            "33.33"
                        ],
                        [
                            "-116.86",
                            "33.07"
                        ],
                        [
                            "-116.81",
                            "32.83"
                        ],
                        [
                            "-117.32",
                            "32.49"
                        ],
                        [
                            "-117.84",
                            "31.99"
                        ],
                        [
                            "-119.17",
                            "31.44"
                        ],
                        [
                            "-120.65",
                            "30.79"
                        ],
                        [
                            "-123.69",
                            "34.86"
                        ],
                        [
                            "-127.05",
                            "39.70"
                        ],
                        [
                            "-126.67",
                            "45.21"
                        ],
                        [
                            "-128.05",
                            "48.38"
                        ],
                        [
                            "-124.82",
                            "48.67"
                        ],
                        [
                            "-123.65",
                            "48.14"
                        ],
                        [
                            "-123.04",
                            "48.98"
                        ]
                    ]
                ]
            },
            "properties": {
                "forecastId": null,
                "geometryId": null,
                "tag": "6E",
                "forecastHour": 6,
                "hazard": "IFR",
                "frequency": null,
                "severity": null,
                "status": "AMD",
                "base": null,
                "top": null,
                "fzlBase": null,
                "fzlTop": null,
                "level": null,
                "product": "SIERRA",
                "rawAirSigmet": "CIG BLW 010 VIS BLW 3SM BR",
                "validTimeTo": "2026-09-19T15:00:00.000",
                "validTimeFrom": [
                    "2026-09-19T14:13"
                ]
            }
        },
        {
            "type": "Feature",
            "geometry": {
                "type": "LineString",
                "coordinates": [
                    [
                        "-107.25",
                        "19.19"
                    ],
                    [
                        "-107.69",
                        "21.19"
                    ],
                    [
                        "-108.08",
                        "22.21"
                    ],
                    [
                        "-109.12",
                        "22.46"
                    ],
                    [
                        "-110.60",
                        "22.43"
                    ],
                    [
                        "-111.99",
                        "22.07"
                    ],
                    [
                        "-112.59",
                        "21.31"
                    ],
                    [
                        "-112.57",
                        "20.59"
                    ],
                    [
                        "-112.90",
                        "20.18"
                    ],
                    [
                        "-113.75",
                        "19.88"
                    ],
                    [
                        "-113.65",
                        "20.60"
                    ],
                    [
                        "-113.21",
                        "21.45"
                    ],
                    [
                        "-113.47",
                        "22.81"
                    ],
                    [
                        "-113.93",
                        "23.79"
                    ],
                    [
                        "-114.19",
                        "24.59"
                    ],
                    [
                        "-114.10",
                        "25.29"
                    ],
                    [
                        "-113.74",
                        "27.32"
                    ],
                    [
                        "-113.51",
                        "28.28"
                    ],
                    [
                        "-113.06",
                        "28.98"
                    ],
                    [
                        "-112.26",
                        "29.53"
                    ],
                    [
                        "-111.14",
                        "29.93"
                    ],
                    [
                        "-110.69",
                        "29.72"
                    ],
                    [
                        "-111.11",
                        "29.21"
                    ],
                    [
                        "-112.08",
                        "28.63"
                    ],
                    [
                        "-112.64",
                        "27.74"
                    ],
                    [
                        "-112.67",
                        "26.98"
                    ],
                    [
                        "-112.02",
                        "26.19"
                    ],
                    [
                        "-111.62",
                        "25.25"
                    ],
                    [
                        "-111.12",
                        "24.46"
                    ],
                    [
                        "-109.99",
                        "24.27"
                    ],
                    [
                        "-108.65",
                        "24.19"
                    ],
                    [
                        "-107.60",
                        "23.65"
                    ],
                    [
                        "-106.72",
                        "22.96"
                    ],
                    [
                        "-105.91",
                        "22.59"
                    ],
                    [
                        "-105.18",
                        "22.83"
                    ],
                    [
                        "-105.06",
                        "23.96"
                    ],
                    [
                        "-105.01",
                        "24.81"
                    ],
                    [
                        "-105.81",
                        "25.44"
                    ],
                    [
                        "-106.63",
                        "25.99"
                    ],
                    [
                        "-107.30",
                        "26.88"
                    ],
                    [
                        "-105.89",
                        "28.09"
                    ],
                    [
                        "-104.67",
                        "29.32"
                    ],
                    [
                        "-103.93",
                        "30.06"
                    ],
                    [
                        "-103.48",
                        "30.84"
                    ],
                    [
                        "-103.31",
                        "32.05"
                    ],
                    [
                        "-104.04",
                        "32.95"
                    ],
                    [
                        "-104.46",
                        "33.90"
                    ],
                    [
                        "-103.78",
                        "34.92"
                    ],
                    [
                        "-102.52",
                        "36.25"
                    ],
                    [
                        "-101.63",
                        "36.79"
                    ],
                    [
                        "-100.45",
                        "36.62"
                    ],
                    [
                        "-95.91",
                        "38.50"
                    ],
                    [
                        "-93.83",
                        "39.08"
                    ],
                    [
                        "-92.79",
                        "38.55"
                    ],
                    [
                        "-91.99",
                        "37.92"
                    ],
                    [
                        "-90.91",
                        "37.49"
                    ],
                    [
                        "-90.40",
                        "36.71"
                    ],
                    [
                        "-89.93",
                        "34.20"
                    ],
                    [
                        "-89.61",
                        "33.28"
                    ],
                    [
                        "-89.55",
                        "32.17"
                    ],
                    [
                        "-90.52",
                        "30.35"
                    ],
                    [
                        "-90.72",
                        "29.64"
                    ],
                    [
                        "-90.59",
                        "28.99"
                    ],
                    [
                        "-90.27",
                        "28.01"
                    ],
                    [
                        "-89.30",
                        "26.13"
                    ],
                    [
                        "-88.88",
                        "25.15"
                    ],
                    [
                        "-88.33",
                        "24.46"
                    ],
                    [
                        "-88.20",
                        "23.88"
                    ],
                    [
                        "-88.97",
                        "23.14"
                    ],
                    [
                        "-90.04",
                        "22.81"
                    ],
                    [
                        "-91.69",
                        "22.84"
                    ],
                    [
                        "-92.78",
                        "22.37"
                    ],
                    [
                        "-93.12",
                        "21.52"
                    ],
                    [
                        "-91.03",
                        "19.66"
                    ]
                ]
            },
            "properties": {
                "forecastId": null,
                "geometryId": null,
                "tag": "1C",
                "forecastHour": 6,
                "hazard": "FZLVL",
                "frequency": null,
                "severity": null,
                "status": "NRML",
                "base": null,
                "top": null,
                "fzlBase": null,
                "fzlTop": null,
                "level": "160",
                "product": "ZULU",
                "rawAirSigmet": null,
                "validTimeTo": "2026-09-19T15:00:00.000",
                "validTimeFrom": [
                    "2026-09-19T11:00"
                ]
            }
        },
        {
            "type": "Feature",
            "geometry": {
                "type": "LineString",
                "coordinates": [
                    [
                        "-78.76",
                        "57.85"
                    ],
                    [
                        "-78.36",
                        "56.30"
                    ],
                    [
                        "-77.88",
                        "54.39"
                    ],
                    [
                        "-77.85",
                        "53.63"
                    ],
                    [
                        "-77.49",
                        "52.76"
                    ],
                    [
                        "-77.05",
                        "50.77"
                    ],
                    [
                        "-76.89",
                        "50.00"
                    ],
                    [
                        "-76.23",
                        "49.10"
                    ],
                    [
                        "-74.41",
                        "48.16"
                    ],
                    [
                        "-73.32",
                        "47.71"
                    ],
                    [
                        "-71.58",
                        "47.35"
                    ],
                    [
                        "-69.28",
                        "46.55"
                    ],
                    [
                        "-67.81",
                        "46.37"
                    ],
                    [
                        "-66.64",
                        "46.55"
                    ],
                    [
                        "-65.14",
                        "46.47"
                    ],
                    [
                        "-63.93",
                        "46.02"
                    ],
                    [
                        "-62.79",
                        "46.08"
                    ],
                    [
                        "-61.72",
                        "46.57"
                    ],
                    [
                        "-61.15",
                        "46.73"
                    ]
                ]
            },
            "properties": {
                "forecastId": null,
                "geometryId": null,
                "tag": "1C",
                "forecastHour": 6,
                "hazard": "FZLVL",
                "frequency": null,
                "severity": null,
                "status": "NRML",
                "base": null,
                "top": null,
                "fzlBase": null,
                "fzlTop": null,
                "level": "040",
                "product": "ZULU",
                "rawAirSigmet": null,
                "validTimeTo": "2026-09-19T15:00:00.000",
                "validTimeFrom": [
                    "2026-09-19T11:00"
                ]
            }
        },
        {
            "type": "Feature",
            "geometry": {
                "type": "Polygon",
                "coordinates": [
                    [
                        [
                            "-76.24",
                            "44.17"
                        ],
                        [
                            "-73.37",
                            "43.30"
                        ],
                        [
                            "-73.14",
                            "42.39"
                        ],
                        [
                            "-79.40",
                            "43.63"
                        ],
                        [
                            "-76.68",
                            "43.77"
                        ],
                        [
                            "-76.24",
                            "44.17"
                        ]
                    ]
                ]
            },
            "properties": {
                "forecastId": null,
                "geometryId": null,
                "tag": "2W",
                "forecastHour": 6,
                "hazard": "TURB-HI",
                "frequency": null,
                "severity": "MOD",
                "status": "NEW",
                "base": "340",
                "top": "430",
                "fzlBase": null,
                "fzlTop": null,
                "level": null,
                "product": "TANGO",
                "rawAirSigmet": null,
                "validTimeTo": "2026-09-19T15:00:00.000",
                "validTimeFrom": [
                    "2026-09-19T11:33"
                ]
            }
        },
        {
            "type": "Feature",
            "geometry": {
                "type": "Polygon",
                "coordinates": [
                    [
                        [
                            "-123.29",
                            "38.73"
                        ],
                        [
                            "-122.00",
                            "38.20"
                        ],
                        [
                            "-121.51",
                            "37.28"
                        ],
                        [
                            "-120.81",
                            "35.88"
                        ],
                        [
                            "-121.72",
                            "36.24"
                        ],
                        [
                            "-123.29",
                            "38.73"
                        ]
                    ]
                ]
            },
            "properties": {
                "forecastId": null,
                "geometryId": null,
                "tag": "3E",
                "forecastHour": 6,
                "hazard": "MT_OBSC",
                "frequency": null,
                "severity": null,
                "status": "NRML",
                "base": null,
                "top": null,
                "fzlBase": null,
                "fzlTop": null,
                "level": null,
                "product": "SIERRA",
                "rawAirSigmet": "MTNS OBSC BY CLDS BR",
                "validTimeTo": "2026-09-19T15:00:00.000",
                "validTimeFrom": [
                    "2026-09-19T14:13"
                ]
            }
        },
        {
            "type": "Feature",
            "geometry": {
                "type": "Polygon",
                "coordinates": [
                    [
                        [
                            "-73.93",
                            "41.36"
                        ],
                        [
                            "-68.57",
                            "40.86"
                        ],
                        [
                            "-67.00",
                            "40.31"
                        ],
                        [
                            "-66.97",
                            "39.62"
                        ],
                        [
                            "-66.99",
                            "39.01"
                        ],
                        [
                            "-68.93",
                            "38.56"
                        ],
                        [
                            "-74.07",
                            "39.21"
                        ],
                        [
                            "-75.00",
                            "40.11"
                        ],
                        [
                            "-73.93",
                            "41.36"
                        ]
                    ]
                ]
            },
            "properties": {
                "forecastId": null,
                "geometryId": null,
                "tag": "4C",
                "forecastHour": 6,
                "hazard": "ICE",
                "frequency": null,
                "severity": "MOD",
                "status": "NRML",
                "base": "150",
                "top": "210",
                "fzlBase": null,
                "fzlTop": null,
                "level": null,
                "product": "ZULU",
                "rawAirSigmet": "ICE",
                "validTimeTo": "2026-09-19T15:00:00.000",
                "validTimeFrom": [
                    "2026-09-19T11:00"
                ]
            }
        },
        {
            "type": "Feature",
            "geometry": {
                "type": "Polygon",
                "coordinates": [
                    [
                        [
                            "-122.79",
                            "48.35"
                        ],
                        [
                            "-121.98",
                            "48.32"
                        ],
                        [
                            "-121.56",
                            "47.03"
                        ],
                        [
                            "-121.95",
                            "46.04"
                        ],
                        [
                            "-122.13",
                            "44.46"
                        ],
                        [
                            "-122.95",
                            "42.85"
                        ],
                        [
                            "-123.21",
                            "42.69"
                        ],
                        [
                            "-124.48",
                            "42.17"
                        ],
                        [
                            "-124.10",
                            "44.69"
                        ],
                        [
                            "-124.27",
                            "47.08"
                        ],
                        [
                            "-124.76",
                            "48.30"
                        ],
                        [
                            "-124.06",
                            "48.25"
                        ],
                        [
                            "-123.21",
                            "47.33"
                        ],
                        [
                            "-122.79",
                            "48.35"
                        ]
                    ]
                ]
            },
            "properties": {
                "forecastId": null,
                "geometryId": null,
                "tag": "1E",
                "forecastHour": 6,
                "hazard": "MT_OBSC",
                "frequency": null,
                "severity": null,
                "status": "NRML",
                "base": null,
                "top": null,
                "fzlBase": null,
                "fzlTop": null,
                "level": null,
                "product": "SIERRA",
                "rawAirSigmet": "MTNS OBSC BY CLDS BR",
                "validTimeTo": "2026-09-19T15:00:00.000",
                "validTimeFrom": [
                    "2026-09-19T14:13"
                ]
            }
        },
        {
            "type": "Feature",
            "geometry": {
                "type": "LineString",
                "coordinates": [
                    [
                        "-133.08",
                        "55.08"
                    ],
                    [
                        "-132.95",
                        "55.01"
                    ],
                    [
                        "-132.33",
                        "54.90"
                    ],
                    [
                        "-132.30",
                        "54.89"
                    ],
                    [
                        "-131.70",
                        "54.77"
                    ],
                    [
                        "-131.55",
                        "54.68"
                    ],
                    [
                        "-131.03",
                        "54.44"
                    ],
                    [
                        "-130.99",
                        "54.43"
                    ],
                    [
                        "-130.37",
                        "54.30"
                    ],
                    [
                        "-129.83",
                        "54.33"
                    ],
                    [
                        "-129.35",
                        "54.50"
                    ],
                    [
                        "-128.94",
                        "54.76"
                    ],
                    [
                        "-128.91",
                        "54.78"
                    ],
                    [
                        "-128.57",
                        "55.14"
                    ],
                    [
                        "-128.53",
                        "55.18"
                    ],
                    [
                        "-128.12",
                        "55.52"
                    ],
                    [
                        "-128.11",
                        "55.52"
                    ],
                    [
                        "-127.70",
                        "55.86"
                    ],
                    [
                        "-127.66",
                        "55.90"
                    ],
                    [
                        "-127.54",
                        "56.24"
                    ]
                ]
            },
            "properties": {
                "forecastId": null,
                "geometryId": null,
                "tag": "1C",
                "forecastHour": 6,
                "hazard": "FZLVL",
                "frequency": null,
                "severity": null,
                "status": "NRML",
                "base": null,
                "top": null,
                "fzlBase": null,
                "fzlTop": null,
                "level": "080",
                "product": "ZULU",
                "rawAirSigmet": null,
                "validTimeTo": "2026-09-19T15:00:00.000",
                "validTimeFrom": [
                    "2026-09-19T11:00"
                ]
            }
        },
        {
            "type": "Feature",
            "geometry": {
                "type": "LineString",
                "coordinates": [
                    [
                        "-127.86",
                        "23.03"
                    ],
                    [
                        "-127.70",
                        "23.03"
                    ],
                    [
                        "-127.46",
                        "23.04"
                    ],
                    [
                        "-127.04",
                        "23.02"
                    ],
                    [
                        "-126.64",
                        "23.03"
                    ],
                    [
                        "-126.24",
                        "23.06"
                    ],
                    [
                        "-125.85",
                        "23.14"
                    ],
                    [
                        "-125.48",
                        "23.28"
                    ],
                    [
                        "-125.13",
                        "23.53"
                    ],
                    [
                        "-125.08",
                        "23.60"
                    ],
                    [
                        "-125.11",
                        "23.97"
                    ],
                    [
                        "-125.27",
                        "24.11"
                    ],
                    [
                        "-125.44",
                        "24.28"
                    ],
                    [
                        "-125.79",
                        "24.53"
                    ],
                    [
                        "-125.83",
                        "24.57"
                    ],
                    [
                        "-126.25",
                        "24.86"
                    ],
                    [
                        "-126.29",
                        "24.88"
                    ],
                    [
                        "-126.77",
                        "25.12"
                    ],
                    [
                        "-126.77",
                        "25.12"
                    ],
                    [
                        "-127.22",
                        "25.24"
                    ],
                    [
                        "-127.59",
                        "25.32"
                    ],
                    [
                        "-127.66",
                        "25.33"
                    ],
                    [
                        "-128.09",
                        "25.38"
                    ],
                    [
                        "-128.50",
                        "25.36"
                    ]
                ]
            },
            "properties": {
                "forecastId": null,
                "geometryId": null,
                "tag": "1C",
                "forecastHour": 6,
                "hazard": "FZLVL",
                "frequency": null,
                "severity": null,
                "status": "NRML",
                "base": null,
                "top": null,
                "fzlBase": null,
                "fzlTop": null,
                "level": "160",
                "product": "ZULU",
                "rawAirSigmet": null,
                "validTimeTo": "2026-09-19T15:00:00.000",
                "validTimeFrom": [
                    "2026-09-19T11:00"
                ]
            }
        },
        {
            "type": "Feature",
            "geometry": {
                "type": "LineString",
                "coordinates": [
                    [
                        "-130.01",
                        "30.54"
                    ],
                    [
                        "-129.32",
                        "31.14"
                    ],
                    [
                        "-128.74",
                        "32.38"
                    ],
                    [
                        "-127.75",
                        "33.28"
                    ],
                    [
                        "-125.89",
                        "33.42"
                    ],
                    [
                        "-123.92",
                        "33.89"
                    ],
                    [
                        "-120.47",
                        "34.36"
                    ],
                    [
                        "-119.18",
                        "35.13"
                    ],
                    [
                        "-118.20",
                        "35.24"
                    ],
                    [
                        "-117.80",
                        "34.87"
                    ],
                    [
                        "-117.13",
                        "33.14"
                    ],
                    [
                        "-116.16",
                        "32.16"
                    ],
                    [
                        "-115.42",
                        "31.06"
                    ],
                    [
                        "-115.49",
                        "29.68"
                    ],
                    [
                        "-116.09",
                        "28.42"
                    ],
                    [
                        "-116.84",
                        "27.28"
                    ],
                    [
                        "-117.10",
                        "26.12"
                    ],
                    [
                        "-116.66",
                        "25.55"
                    ],
                    [
                        "-116.70",
                        "24.71"
                    ],
                    [
                        "-116.62",
                        "23.60"
                    ],
                    [
                        "-116.77",
                        "22.14"
                    ],
                    [
                        "-117.50",
                        "21.18"
                    ],
                    [
                        "-118.54",
                        "20.35"
                    ],
                    [
                        "-119.15",
                        "19.03"
                    ],
                    [
                        "-118.65",
                        "17.75"
                    ]
                ]
            },
            "properties": {
                "forecastId": null,
                "geometryId": null,
                "tag": "1C",
                "forecastHour": 6,
                "hazard": "FZLVL",
                "frequency": null,
                "severity": null,
                "status": "NRML",
                "base": null,
                "top": null,
                "fzlBase": null,
                "fzlTop": null,
                "level": "160",
                "product": "ZULU",
                "rawAirSigmet": null,
                "validTimeTo": "2026-09-19T15:00:00.000",
                "validTimeFrom": [
                    "2026-09-19T11:00"
                ]
            }
        },
        {
            "type": "Feature",
            "geometry": {
                "type": "Polygon",
                "coordinates": [
                    [
                        [
                            "-80.19",
                            "40.81"
                        ],
                        [
                            "-79.14",
                            "39.28"
                        ],
                        [
                            "-79.20",
                            "37.40"
                        ],
                        [
                            "-80.89",
                            "35.21"
                        ],
                        [
                            "-82.39",
                            "34.62"
                        ],
                        [
                            "-83.39",
                            "35.87"
                        ],
                        [
                            "-84.36",
                            "37.24"
                        ],
                        [
                            "-81.91",
                            "38.70"
                        ],
                        [
                            "-80.19",
                            "40.81"
                        ]
                    ]
                ]
            },
            "properties": {
                "forecastId": null,
                "geometryId": null,
                "tag": "2E",
                "forecastHour": 6,
                "hazard": "MT_OBSC",
                "frequency": null,
                "severity": null,
                "status": "NRML",
                "base": null,
                "top": null,
                "fzlBase": null,
                "fzlTop": null,
                "level": null,
                "product": "SIERRA",
                "rawAirSigmet": "MTNS OBSC BY CLDS BR",
                "validTimeTo": "2026-09-19T15:00:00.000",
                "validTimeFrom": [
                    "2026-09-19T14:13"
                ]
            }
        },
        {
            "type": "Feature",
            "geometry": {
                "type": "Polygon",
                "coordinates": [
                    [
                        [
                            "-95.02",
                            "49.32"
                        ],
                        [
                            "-93.38",
                            "48.50"
                        ],
                        [
                            "-90.02",
                            "48.00"
                        ],
                        [
                            "-90.18",
                            "46.68"
                        ],
                        [
                            "-88.61",
                            "46.89"
                        ],
                        [
                            "-87.24",
                            "46.20"
                        ],
                        [
                            "-86.84",
                            "44.57"
                        ],
                        [
                            "-85.17",
                            "43.13"
                        ],
                        [
                            "-84.12",
                            "42.55"
                        ],
                        [
                            "-83.84",
                            "41.99"
                        ],
                        [
                            "-84.51",
                            "41.18"
                        ],
                        [
                            "-85.15",
                            "40.62"
                        ],
                        [
                            "-85.32",
                            "40.05"
                        ],
                        [
                            "-85.65",
                            "39.31"
                        ],
                        [
                            "-86.11",
                            "39.07"
                        ],
                        [
                            "-86.44",
                            "40.47"
                        ],
                        [
                            "-88.08",
                            "39.81"
                        ],
                        [
                            "-90.05",
                            "40.51"
                        ],
                        [
                            "-93.87",
                            "41.39"
                        ],
                        [
                            "-94.95",
                            "41.37"
                        ],
                        [
                            "-96.63",
                            "40.63"
                        ],
                        [
                            "-99.06",
                            "40.06"
                        ],
                        [
                            "-101.01",
                            "39.24"
                        ],
                        [
                            "-101.71",
                            "39.33"
                        ],
                        [
                            "-102.43",
                            "39.79"
                        ],
                        [
                            "-103.72",
                            "40.08"
                        ],
                        [
                            "-103.64",
                            "40.74"
                        ],
                        [
                            "-103.21",
                            "41.39"
                        ],
                        [
                            "-103.66",
                            "41.48"
                        ],
                        [
                            "-104.36",
                            "41.90"
                        ],
                        [
                            "-104.49",
                            "42.39"
                        ],
                        [
                            "-103.39",
                            "42.82"
                        ],
                        [
                            "-105.34",
                            "43.57"
                        ],
                        [
                            "-106.24",
                            "43.74"
                        ],
                        [
                            "-107.62",
                            "43.41"
                        ],
                        [
                            "-109.65",
                            "43.83"
                        ],
                        [
                            "-109.66",
                            "42.73"
                        ],
                        [
                            "-109.95",
                            "41.09"
                        ],
                        [
                            "-110.57",
                            "41.60"
                        ],
                        [
                            "-110.68",
                            "42.83"
                        ],
                        [
                            "-110.87",
                            "43.94"
                        ],
                        [
                            "-111.89",
                            "44.07"
                        ],
                        [
                            "-114.29",
                            "43.70"
                        ],
                        [
                            "-115.30",
                            "43.85"
                        ],
                        [
                            "-115.44",
                            "45.06"
                        ],
                        [
                            "-114.36",
                            "46.06"
                        ],
                        [
                            "-113.00",
                            "46.63"
                        ],
                        [
                            "-109.98",
                            "46.94"
                        ],
                        [
                            "-107.60",
                            "47.38"
                        ],
                        [
                            "-104.67",
                            "48.37"
                        ],
                        [
                            "-102.45",
                            "48.98"
                        ],
                        [
                            "-97.52",
                            "48.96"
                        ],
                        [
                            "-95.02",
                            "49.32"
                        ]
                    ]
                ]
            },
            "properties": {
                "forecastId": null,
                "geometryId": null,
                "tag": "1E",
                "forecastHour": 6,
                "hazard": "IFR",
                "frequency": null,
                "severity": null,
                "status": "AMD",
                "base": null,
                "top": null,
                "fzlBase": null,
                "fzlTop": null,
                "level": null,
                "product": "SIERRA",
                "rawAirSigmet": "CIG BLW 010 VIS BLW 3SM PCPN BR FG",
                "validTimeTo": "2026-09-19T15:00:00.000",
                "validTimeFrom": [
                    "2026-09-19T14:13"
                ]
            }
        },
        {
            "type": "Feature",
            "geometry": {
                "type": "Polygon",
                "coordinates": [
                    [
                        [
                            "-111.72",
                            "47.53"
                        ],
                        [
                            "-110.04",
                            "46.58"
                        ],
                        [
                            "-108.58",
                            "47.02"
                        ],
                        [
                            "-106.72",
                            "44.34"
                        ],
                        [
                            "-108.70",
                            "43.72"
                        ],
                        [
                            "-108.88",
                            "42.98"
                        ],
                        [
                            "-107.55",
                            "41.31"
                        ],
                        [
                            "-106.51",
                            "41.94"
                        ],
                        [
                            "-105.24",
                            "42.02"
                        ],
                        [
                            "-105.53",
                            "39.59"
                        ],
                        [
                            "-106.73",
                            "36.37"
                        ],
                        [
                            "-107.49",
                            "36.52"
                        ],
                        [
                            "-108.63",
                            "37.36"
                        ],
                        [
                            "-108.66",
                            "38.64"
                        ],
                        [
                            "-108.39",
                            "39.56"
                        ],
                        [
                            "-109.76",
                            "39.49"
                        ],
                        [
                            "-111.03",
                            "39.62"
                        ],
                        [
                            "-111.60",
                            "38.84"
                        ],
                        [
                            "-112.40",
                            "38.52"
                        ],
                        [
                            "-112.81",
                            "39.13"
                        ],
                        [
                            "-112.30",
                            "39.93"
                        ],
                        [
                            "-111.65",
                            "40.99"
                        ],
                        [
                            "-111.34",
                            "41.77"
                        ],
                        [
                            "-112.17",
                            "42.33"
                        ],
                        [
                            "-113.06",
                            "42.21"
                        ],
                        [
                            "-114.74",
                            "41.80"
                        ],
                        [
                            "-115.68",
                            "41.79"
                        ],
                        [
                            "-116.67",
                            "41.89"
                        ],
                        [
                            "-116.82",
                            "42.92"
                        ],
                        [
                            "-115.92",
                            "45.08"
                        ],
                        [
                            "-115.23",
                            "45.99"
                        ],
                        [
                            "-113.09",
                            "47.31"
                        ],
                        [
                            "-111.72",
                            "47.53"
                        ]
                    ]
                ]
            },
            "properties": {
                "forecastId": null,
                "geometryId": null,
                "tag": "7E",
                "forecastHour": 6,
                "hazard": "MT_OBSC",
                "frequency": null,
                "severity": null,
                "status": "NRML",
                "base": null,
                "top": null,
                "fzlBase": null,
                "fzlTop": null,
                "level": null,
                "product": "SIERRA",
                "rawAirSigmet": "MTNS OBSC BY CLDS PCPN BR FG",
                "validTimeTo": "2026-09-19T15:00:00.000",
                "validTimeFrom": [
                    "2026-09-19T14:13"
                ]
            }
        },
        {
            "type": "Feature",
            "geometry": {
                "type": "LineString",
                "coordinates": [
                    [
                        "-135.16",
                        "44.79"
                    ],
                    [
                        "-132.60",
                        "46.55"
                    ],
                    [
                        "-130.35",
                        "47.97"
                    ],
                    [
                        "-126.02",
                        "49.99"
                    ],
                    [
                        "-124.11",
                        "51.00"
                    ],
                    [
                        "-123.33",
                        "51.41"
                    ],
                    [
                        "-121.73",
                        "51.64"
                    ],
                    [
                        "-118.64",
                        "51.53"
                    ],
                    [
                        "-116.41",
                        "51.01"
                    ],
                    [
                        "-115.20",
                        "50.65"
                    ],
                    [
                        "-114.47",
                        "49.98"
                    ],
                    [
                        "-114.52",
                        "48.64"
                    ],
                    [
                        "-115.17",
                        "47.99"
                    ],
                    [
                        "-116.09",
                        "47.45"
                    ],
                    [
                        "-118.08",
                        "46.44"
                    ],
                    [
                        "-118.88",
                        "45.80"
                    ],
                    [
                        "-119.12",
                        "45.02"
                    ],
                    [
                        "-118.97",
                        "43.33"
                    ],
                    [
                        "-118.92",
                        "42.13"
                    ],
                    [
                        "-118.89",
                        "41.45"
                    ],
                    [
                        "-118.50",
                        "40.89"
                    ],
                    [
                        "-116.75",
                        "40.03"
                    ],
                    [
                        "-114.29",
                        "39.72"
                    ],
                    [
                        "-113.05",
                        "39.89"
                    ],
                    [
                        "-112.13",
                        "40.36"
                    ],
                    [
                        "-111.08",
                        "40.94"
                    ],
                    [
                        "-110.48",
                        "41.62"
                    ],
                    [
                        "-109.35",
                        "43.18"
                    ],
                    [
                        "-109.19",
                        "45.04"
                    ],
                    [
                        "-108.24",
                        "46.12"
                    ],
                    [
                        "-107.73",
                        "46.91"
                    ],
                    [
                        "-108.44",
                        "47.62"
                    ],
                    [
                        "-107.77",
                        "48.11"
                    ],
                    [
                        "-106.70",
                        "48.48"
                    ],
                    [
                        "-104.63",
                        "49.33"
                    ],
                    [
                        "-102.13",
                        "49.72"
                    ],
                    [
                        "-100.65",
                        "49.49"
                    ],
                    [
                        "-99.81",
                        "48.95"
                    ],
                    [
                        "-98.36",
                        "48.63"
                    ],
                    [
                        "-97.13",
                        "48.52"
                    ],
                    [
                        "-95.43",
                        "48.37"
                    ],
                    [
                        "-93.94",
                        "48.39"
                    ],
                    [
                        "-92.57",
                        "48.42"
                    ],
                    [
                        "-91.06",
                        "48.20"
                    ],
                    [
                        "-88.06",
                        "48.04"
                    ],
                    [
                        "-85.26",
                        "47.36"
                    ],
                    [
                        "-82.61",
                        "46.92"
                    ],
                    [
                        "-80.82",
                        "46.04"
                    ],
                    [
                        "-79.07",
                        "44.91"
                    ],
                    [
                        "-77.56",
                        "43.74"
                    ],
                    [
                        "-75.99",
                        "42.72"
                    ],
                    [
                        "-73.75",
                        "42.25"
                    ],
                    [
                        "-70.57",
                        "41.80"
                    ],
                    [
                        "-67.82",
                        "41.68"
                    ],
                    [
                        "-65.25",
                        "41.68"
                    ],
                    [
                        "-62.96",
                        "41.50"
                    ]
                ]
            },
            "properties": {
                "forecastId": null,
                "geometryId": null,
                "tag": "1C",
                "forecastHour": 6,
                "hazard": "FZLVL",
                "frequency": null,
                "severity": null,
                "status": "NRML",
                "base": null,
                "top": null,
                "fzlBase": null,
                "fzlTop": null,
                "level": "120",
                "product": "ZULU",
                "rawAirSigmet": null,
                "validTimeTo": "2026-09-19T15:00:00.000",
                "validTimeFrom": [
                    "2026-09-19T11:00"
                ]
            }
        },
        {
            "type": "Feature",
            "geometry": {
                "type": "LineString",
                "coordinates": [
                    [
                        "-110.37",
                        "18.89"
                    ],
                    [
                        "-110.32",
                        "19.26"
                    ],
                    [
                        "-110.12",
                        "19.65"
                    ],
                    [
                        "-110.10",
                        "19.67"
                    ],
                    [
                        "-109.73",
                        "19.81"
                    ],
                    [
                        "-109.33",
                        "19.73"
                    ],
                    [
                        "-109.33",
                        "19.73"
                    ],
                    [
                        "-108.92",
                        "19.49"
                    ],
                    [
                        "-108.80",
                        "19.41"
                    ],
                    [
                        "-108.53",
                        "19.07"
                    ]
                ]
            },
            "properties": {
                "forecastId": null,
                "geometryId": null,
                "tag": "1C",
                "forecastHour": 6,
                "hazard": "FZLVL",
                "frequency": null,
                "severity": null,
                "status": "NRML",
                "base": null,
                "top": null,
                "fzlBase": null,
                "fzlTop": null,
                "level": "160",
                "product": "ZULU",
                "rawAirSigmet": null,
                "validTimeTo": "2026-09-19T15:00:00.000",
                "validTimeFrom": [
                    "2026-09-19T11:00"
                ]
            }
        },
        {
            "type": "Feature",
            "geometry": {
                "type": "Polygon",
                "coordinates": [
                    [
                        [
                            "-109.48",
                            "47.83"
                        ],
                        [
                            "-108.99",
                            "45.07"
                        ],
                        [
                            "-115.91",
                            "42.44"
                        ],
                        [
                            "-115.60",
                            "44.86"
                        ],
                        [
                            "-109.48",
                            "47.83"
                        ]
                    ]
                ]
            },
            "properties": {
                "forecastId": null,
                "geometryId": null,
                "tag": "1W",
                "forecastHour": 6,
                "hazard": "TURB-HI",
                "frequency": null,
                "severity": "MOD",
                "status": "NRML",
                "base": "250",
                "top": "390",
                "fzlBase": null,
                "fzlTop": null,
                "level": null,
                "product": "TANGO",
                "rawAirSigmet": null,
                "validTimeTo": "2026-09-19T15:00:00.000",
                "validTimeFrom": [
                    "2026-09-19T11:33"
                ]
            }
        },
        {
            "type": "Feature",
            "geometry": {
                "type": "LineString",
                "coordinates": [
                    [
                        "-66.22",
                        "56.71"
                    ],
                    [
                        "-66.27",
                        "56.41"
                    ],
                    [
                        "-66.34",
                        "56.10"
                    ],
                    [
                        "-66.43",
                        "55.80"
                    ],
                    [
                        "-66.35",
                        "55.58"
                    ],
                    [
                        "-65.75",
                        "55.68"
                    ],
                    [
                        "-65.70",
                        "55.71"
                    ],
                    [
                        "-65.29",
                        "55.97"
                    ],
                    [
                        "-65.04",
                        "56.07"
                    ],
                    [
                        "-64.82",
                        "56.23"
                    ]
                ]
            },
            "properties": {
                "forecastId": null,
                "geometryId": null,
                "tag": "1C",
                "forecastHour": 6,
                "hazard": "FZLVL",
                "frequency": null,
                "severity": null,
                "status": "NRML",
                "base": null,
                "top": null,
                "fzlBase": null,
                "fzlTop": null,
                "level": "SFC",
                "product": "ZULU",
                "rawAirSigmet": null,
                "validTimeTo": "2026-09-19T15:00:00.000",
                "validTimeFrom": [
                    "2026-09-19T11:00"
                ]
            }
        },
        {
            "type": "Feature",
            "geometry": {
                "type": "LineString",
                "coordinates": [
                    [
                        "-98.76",
                        "58.34"
                    ],
                    [
                        "-97.83",
                        "57.75"
                    ],
                    [
                        "-97.24",
                        "57.46"
                    ],
                    [
                        "-96.35",
                        "56.86"
                    ],
                    [
                        "-96.17",
                        "56.43"
                    ],
                    [
                        "-96.61",
                        "55.94"
                    ],
                    [
                        "-96.74",
                        "55.32"
                    ],
                    [
                        "-95.54",
                        "55.05"
                    ],
                    [
                        "-93.91",
                        "55.26"
                    ],
                    [
                        "-92.82",
                        "55.49"
                    ],
                    [
                        "-91.72",
                        "55.66"
                    ],
                    [
                        "-90.12",
                        "55.89"
                    ],
                    [
                        "-88.94",
                        "56.14"
                    ],
                    [
                        "-88.22",
                        "56.46"
                    ],
                    [
                        "-88.88",
                        "56.82"
                    ],
                    [
                        "-89.78",
                        "57.41"
                    ],
                    [
                        "-89.64",
                        "57.77"
                    ],
                    [
                        "-88.79",
                        "57.93"
                    ],
                    [
                        "-88.13",
                        "58.27"
                    ]
                ]
            },
            "properties": {
                "forecastId": null,
                "geometryId": null,
                "tag": "1C",
                "forecastHour": 6,
                "hazard": "FZLVL",
                "frequency": null,
                "severity": null,
                "status": "NRML",
                "base": null,
                "top": null,
                "fzlBase": null,
                "fzlTop": null,
                "level": "040",
                "product": "ZULU",
                "rawAirSigmet": null,
                "validTimeTo": "2026-09-19T15:00:00.000",
                "validTimeFrom": [
                    "2026-09-19T11:00"
                ]
            }
        },
        {
            "type": "Feature",
            "geometry": {
                "type": "Polygon",
                "coordinates": [
                    [
                        [
                            "-96.10",
                            "44.56"
                        ],
                        [
                            "-92.50",
                            "43.55"
                        ],
                        [
                            "-93.09",
                            "41.89"
                        ],
                        [
                            "-95.53",
                            "42.02"
                        ],
                        [
                            "-98.16",
                            "43.03"
                        ],
                        [
                            "-99.54",
                            "43.64"
                        ],
                        [
                            "-99.26",
                            "44.43"
                        ],
                        [
                            "-96.10",
                            "44.56"
                        ]
                    ]
                ]
            },
            "properties": {
                "forecastId": null,
                "geometryId": null,
                "tag": "2C",
                "forecastHour": 6,
                "hazard": "ICE",
                "frequency": null,
                "severity": "MOD",
                "status": "NRML",
                "base": "160",
                "top": "230",
                "fzlBase": null,
                "fzlTop": null,
                "level": null,
                "product": "ZULU",
                "rawAirSigmet": "ICE",
                "validTimeTo": "2026-09-19T15:00:00.000",
                "validTimeFrom": [
                    "2026-09-19T11:00"
                ]
            }
        },
        {
            "type": "Feature",
            "geometry": {
                "type": "Polygon",
                "coordinates": [
                    [
                        [
                            "-83.21",
                            "43.88"
                        ],
                        [
                            "-82.77",
                            "43.60"
                        ],
                        [
                            "-82.49",
                            "42.95"
                        ],
                        [
                            "-82.52",
                            "42.64"
                        ],
                        [
                            "-82.84",
                            "42.39"
                        ],
                        [
                            "-83.16",
                            "42.31"
                        ],
                        [
                            "-83.06",
                            "41.82"
                        ],
                        [
                            "-82.62",
                            "41.69"
                        ],
                        [
                            "-82.26",
                            "41.73"
                        ],
                        [
                            "-81.73",
                            "41.97"
                        ],
                        [
                            "-81.29",
                            "41.59"
                        ],
                        [
                            "-80.90",
                            "41.07"
                        ],
                        [
                            "-79.18",
                            "40.67"
                        ],
                        [
                            "-77.01",
                            "40.28"
                        ],
                        [
                            "-76.99",
                            "39.23"
                        ],
                        [
                            "-81.62",
                            "39.47"
                        ],
                        [
                            "-82.04",
                            "40.24"
                        ],
                        [
                            "-83.35",
                            "41.45"
                        ],
                        [
                            "-83.75",
                            "42.51"
                        ],
                        [
                            "-84.72",
                            "42.71"
                        ],
                        [
                            "-85.72",
                            "42.57"
                        ],
                        [
                            "-86.01",
                            "43.02"
                        ],
                        [
                            "-84.69",
                            "43.72"
                        ],
                        [
                            "-83.21",
                            "43.88"
                        ]
                    ]
                ]
            },
            "properties": {
                "forecastId": null,
                "geometryId": null,
                "tag": "1C",
                "forecastHour": 6,
                "hazard": "ICE",
                "frequency": null,
                "severity": "MOD",
                "status": "NRML",
                "base": "170",
                "top": "220",
                "fzlBase": null,
                "fzlTop": null,
                "level": null,
                "product": "ZULU",
                "rawAirSigmet": "ICE",
                "validTimeTo": "2026-09-19T15:00:00.000",
                "validTimeFrom": [
                    "2026-09-19T11:00"
                ]
            }
        },
        {
            "type": "Feature",
            "geometry": {
                "type": "Polygon",
                "coordinates": [
                    [
                        [
                            "-70.16",
                            "46.24"
                        ],
                        [
                            "-68.78",
                            "45.87"
                        ],
                        [
                            "-68.62",
                            "45.28"
                        ],
                        [
                            "-70.04",
                            "45.19"
                        ],
                        [
                            "-70.73",
                            "45.50"
                        ],
                        [
                            "-70.26",
                            "45.91"
                        ],
                        [
                            "-70.16",
                            "46.24"
                        ]
                    ]
                ]
            },
            "properties": {
                "forecastId": null,
                "geometryId": null,
                "tag": "2C",
                "forecastHour": 6,
                "hazard": "M_FZLVL",
                "frequency": null,
                "severity": null,
                "status": "NRML",
                "base": "040",
                "top": "090",
                "fzlBase": null,
                "fzlTop": null,
                "level": null,
                "product": "ZULU",
                "rawAirSigmet": null,
                "validTimeTo": "2026-09-19T15:00:00.000",
                "validTimeFrom": [
                    "2026-09-19T11:00"
                ]
            }
        }
    ],
    "metadata": {
        "creationTime": "2026-09-19T14:17"
    }
}