{
    "type": "FeatureCollection",
    "features": [
        {
            "type": "Feature",
            "geometry": {
                "type": "Polygon",
                "coordinates": [
                    [
                        [
                            "-74.14",
                            "45.06"
                        ],
                        [
                            "-71.40",
                            "42.64"
                        ],
                        [
                            "-72.19",
                            "40.45"
                        ],
                        [
                            "-76.40",
                            "40.81"
                        ],
                        [
                            "-76.75",
                            "43.60"
                        ],
                        [
                            "-75.24",
                            "44.97"
                        ],
                        [
                            "-74.14",
                            "45.06"
                        ]
                    ]
                ]
            },
            "properties": {
                "forecastId": null,
                "geometryId": null,
                "tag": "3W",
                "forecastHour": 3,
                "hazard": "TURB-HI",
                "frequency": null,
                "severity": "MOD",
                "status": "NRML",
                "base": "270",
                "top": "370",
                "fzlBase": null,
                "fzlTop": null,
                "level": null,
                "product": "TANGO",
                "rawAirSigmet": null,
                "validTimeTo": "2026-07-29T06:00:00.000",
                "validTimeFrom": [
                    "2026-07-29T02:45"
                ]
            }
        },
        {
            "type": "Feature",
            "geometry": {
                "type": "Polygon",
                "coordinates": [
                    [
                        [
                            "-113.16",
                            "49.08"
                        ],
                        [
                            "-111.33",
                            "47.40"
                        ],
                        [
                            "-109.75",
                            "48.56"
                        ],
                        [
                            "-108.37",
                            "46.66"
                        ],
                        [
                            "-110.33",
                            "46.05"
                        ],
                        [
                            "-112.44",
                            "45.14"
                        ],
                        [
                            "-113.77",
                            "44.22"
                        ],
                        [
                            "-113.93",
                            "42.97"
                        ],
                        [
                            "-115.10",
                            "41.84"
                        ],
                        [
                            "-116.72",
                            "41.46"
                        ],
                        [
                            "-117.80",
                            "41.54"
                        ],
                        [
                            "-119.36",
                            "42.10"
                        ],
                        [
                            "-120.71",
                            "43.03"
                        ],
                        [
                            "-120.71",
                            "44.48"
                        ],
                        [
                            "-120.22",
                            "45.24"
                        ],
                        [
                            "-119.34",
                            "46.04"
                        ],
                        [
                            "-117.06",
                            "47.49"
                        ],
                        [
                            "-113.16",
                            "49.08"
                        ]
                    ]
                ]
            },
            "properties": {
                "forecastId": null,
                "geometryId": null,
                "tag": "1E",
                "forecastHour": 3,
                "hazard": "MT_OBSC",
                "frequency": null,
                "severity": null,
                "status": "NRML",
                "base": null,
                "top": null,
                "fzlBase": null,
                "fzlTop": null,
                "level": null,
                "product": "SIERRA",
                "rawAirSigmet": "FU HZ",
                "validTimeTo": "2026-07-29T06:00:00.000",
                "validTimeFrom": [
                    "2026-07-29T06:02"
                ]
            }
        },
        {
            "type": "Feature",
            "geometry": {
                "type": "Polygon",
                "coordinates": [
                    [
                        [
                            "-74.46",
                            "43.67"
                        ],
                        [
                            "-73.61",
                            "43.51"
                        ],
                        [
                            "-73.04",
                            "43.06"
                        ],
                        [
                            "-72.61",
                            "42.30"
                        ],
                        [
                            "-72.55",
                            "41.50"
                        ],
                        [
                            "-72.82",
                            "40.98"
                        ],
                        [
                            "-73.29",
                            "40.87"
                        ],
                        [
                            "-73.80",
                            "40.90"
                        ],
                        [
                            "-74.59",
                            "41.32"
                        ],
                        [
                            "-74.89",
                            "41.91"
                        ],
                        [
                            "-75.34",
                            "42.58"
                        ],
                        [
                            "-75.26",
                            "43.33"
                        ],
                        [
                            "-74.46",
                            "43.67"
                        ]
                    ]
                ]
            },
            "properties": {
                "forecastId": null,
                "geometryId": null,
                "tag": "2C",
                "forecastHour": 3,
                "hazard": "ICE",
                "frequency": null,
                "severity": "MOD",
                "status": "NRML",
                "base": "130",
                "top": "250",
                "fzlBase": null,
                "fzlTop": null,
                "level": null,
                "product": "ZULU",
                "rawAirSigmet": "ICE",
                "validTimeTo": "2026-07-29T06:00:00.000",
                "validTimeFrom": [
                    "2026-07-29T04:27"
                ]
            }
        },
        {
            "type": "Feature",
            "geometry": {
                "type": "Polygon",
                "coordinates": [
                    [
                        [
                            "-111.49",
                            "49.06"
                        ],
                        [
                            "-111.34",
                            "48.10"
                        ],
                        [
                            "-114.83",
                            "45.82"
                        ],
                        [
                            "-116.86",
                            "43.66"
                        ],
                        [
                            "-118.32",
                            "40.99"
                        ],
                        [
                            "-119.89",
                            "39.72"
                        ],
                        [
                            "-121.01",
                            "39.56"
                        ],
                        [
                            "-122.01",
                            "39.97"
                        ],
                        [
                            "-121.97",
                            "41.16"
                        ],
                        [
                            "-120.24",
                            "43.32"
                        ],
                        [
                            "-117.26",
                            "46.45"
                        ],
                        [
                            "-114.88",
                            "48.41"
                        ],
                        [
                            "-113.78",
                            "49.04"
                        ],
                        [
                            "-111.49",
                            "49.06"
                        ]
                    ]
                ]
            },
            "properties": {
                "forecastId": null,
                "geometryId": null,
                "tag": "2W",
                "forecastHour": 3,
                "hazard": "TURB-HI",
                "frequency": null,
                "severity": "MOD",
                "status": "NRML",
                "base": "330",
                "top": "430",
                "fzlBase": null,
                "fzlTop": null,
                "level": null,
                "product": "TANGO",
                "rawAirSigmet": null,
                "validTimeTo": "2026-07-29T06:00:00.000",
                "validTimeFrom": [
                    "2026-07-29T02:45"
                ]
            }
        },
        {
            "type": "Feature",
            "geometry": {
                "type": "Polygon",
                "coordinates": [
                    [
                        [
                            "-124.45",
                            "40.20"
                        ],
                        [
                            "-124.18",
                            "39.97"
                        ],
                        [
                            "-124.08",
                            "39.64"
                        ],
                        [
                            "-124.22",
                            "39.49"
                        ],
                        [
                            "-124.61",
                            "39.60"
                        ],
                        [
                            "-124.81",
                            "40.05"
                        ],
                        [
                            "-124.45",
                            "40.20"
                        ]
                    ]
                ]
            },
            "properties": {
                "forecastId": null,
                "geometryId": null,
                "tag": "1W",
                "forecastHour": 3,
                "hazard": "SFC_WND",
                "frequency": null,
                "severity": null,
                "status": "NRML",
                "base": null,
                "top": null,
                "fzlBase": null,
                "fzlTop": null,
                "level": null,
                "product": "TANGO",
                "rawAirSigmet": "USTAINED SFC WINDS GREATER THAN 30 KTS",
                "validTimeTo": "2026-07-29T06:00:00.000",
                "validTimeFrom": [
                    "2026-07-29T02:45"
                ]
            }
        },
        {
            "type": "Feature",
            "geometry": {
                "type": "LineString",
                "coordinates": [
                    [
                        "-90.65",
                        "60.66"
                    ],
                    [
                        "-89.58",
                        "60.29"
                    ],
                    [
                        "-89.20",
                        "60.17"
                    ],
                    [
                        "-87.76",
                        "59.73"
                    ],
                    [
                        "-86.49",
                        "59.08"
                    ],
                    [
                        "-86.25",
                        "58.92"
                    ],
                    [
                        "-85.37",
                        "58.29"
                    ],
                    [
                        "-84.57",
                        "57.74"
                    ],
                    [
                        "-84.27",
                        "57.53"
                    ],
                    [
                        "-83.20",
                        "56.80"
                    ],
                    [
                        "-82.76",
                        "56.50"
                    ],
                    [
                        "-82.17",
                        "56.08"
                    ],
                    [
                        "-81.08",
                        "55.49"
                    ],
                    [
                        "-79.81",
                        "55.15"
                    ],
                    [
                        "-78.35",
                        "55.04"
                    ],
                    [
                        "-77.17",
                        "55.03"
                    ],
                    [
                        "-76.82",
                        "55.01"
                    ],
                    [
                        "-75.28",
                        "54.96"
                    ],
                    [
                        "-73.84",
                        "54.86"
                    ],
                    [
                        "-73.78",
                        "54.86"
                    ],
                    [
                        "-72.10",
                        "54.90"
                    ],
                    [
                        "-71.55",
                        "54.96"
                    ],
                    [
                        "-70.18",
                        "55.40"
                    ],
                    [
                        "-69.14",
                        "55.96"
                    ],
                    [
                        "-68.93",
                        "56.11"
                    ],
                    [
                        "-68.23",
                        "56.58"
                    ],
                    [
                        "-67.33",
                        "57.22"
                    ]
                ]
            },
            "properties": {
                "forecastId": null,
                "geometryId": null,
                "tag": "1C",
                "forecastHour": 3,
                "hazard": "FZLVL",
                "frequency": null,
                "severity": null,
                "status": "NRML",
                "base": null,
                "top": null,
                "fzlBase": null,
                "fzlTop": null,
                "level": "080",
                "product": "ZULU",
                "rawAirSigmet": null,
                "validTimeTo": "2026-07-29T06:00:00.000",
                "validTimeFrom": [
                    "2026-07-29T04:27"
                ]
            }
        },
        {
            "type": "Feature",
            "geometry": {
                "type": "Polygon",
                "coordinates": [
                    [
                        [
                            "-122.22",
                            "35.78"
                        ],
                        [
                            "-121.68",
                            "35.57"
                        ],
                        [
                            "-121.72",
                            "35.15"
                        ],
                        [
                            "-122.28",
                            "35.16"
                        ],
                        [
                            "-122.62",
                            "35.53"
                        ],
                        [
                            "-122.22",
                            "35.78"
                        ]
                    ]
                ]
            },
            "properties": {
                "forecastId": null,
                "geometryId": null,
                "tag": "4W",
                "forecastHour": 3,
                "hazard": "SFC_WND",
                "frequency": null,
                "severity": null,
                "status": "NRML",
                "base": null,
                "top": null,
                "fzlBase": null,
                "fzlTop": null,
                "level": null,
                "product": "TANGO",
                "rawAirSigmet": "USTAINED SFC WINDS GREATER THAN 30 KTS",
                "validTimeTo": "2026-07-29T06:00:00.000",
                "validTimeFrom": [
                    "2026-07-29T02:45"
                ]
            }
        },
        {
            "type": "Feature",
            "geometry": {
                "type": "LineString",
                "coordinates": [
                    [
                        "-109.72",
                        "15.93"
                    ],
                    [
                        "-109.53",
                        "17.08"
                    ],
                    [
                        "-109.31",
                        "18.23"
                    ],
                    [
                        "-110.23",
                        "19.10"
                    ],
                    [
                        "-111.20",
                        "19.82"
                    ],
                    [
                        "-111.94",
                        "20.93"
                    ],
                    [
                        "-112.86",
                        "22.02"
                    ],
                    [
                        "-113.90",
                        "22.68"
                    ],
                    [
                        "-115.25",
                        "22.74"
                    ],
                    [
                        "-115.53",
                        "21.84"
                    ],
                    [
                        "-115.04",
                        "21.09"
                    ],
                    [
                        "-114.16",
                        "20.40"
                    ],
                    [
                        "-113.33",
                        "19.56"
                    ],
                    [
                        "-113.15",
                        "17.98"
                    ],
                    [
                        "-113.32",
                        "16.67"
                    ],
                    [
                        "-113.96",
                        "15.57"
                    ],
                    [
                        "-114.37",
                        "14.57"
                    ]
                ]
            },
            "properties": {
                "forecastId": null,
                "geometryId": null,
                "tag": "1C",
                "forecastHour": 3,
                "hazard": "FZLVL",
                "frequency": null,
                "severity": null,
                "status": "NRML",
                "base": null,
                "top": null,
                "fzlBase": null,
                "fzlTop": null,
                "level": "160",
                "product": "ZULU",
                "rawAirSigmet": null,
                "validTimeTo": "2026-07-29T06:00:00.000",
                "validTimeFrom": [
                    "2026-07-29T04:27"
                ]
            }
        },
        {
            "type": "Feature",
            "geometry": {
                "type": "Polygon",
                "coordinates": [
                    [
                        [
                            "-123.79",
                            "38.50"
                        ],
                        [
                            "-123.28",
                            "38.46"
                        ],
                        [
                            "-122.88",
                            "37.93"
                        ],
                        [
                            "-123.25",
                            "37.61"
                        ],
                        [
                            "-123.65",
                            "37.70"
                        ],
                        [
                            "-123.84",
                            "37.86"
                        ],
                        [
                            "-124.06",
                            "38.21"
                        ],
                        [
                            "-123.79",
                            "38.50"
                        ]
                    ]
                ]
            },
            "properties": {
                "forecastId": null,
                "geometryId": null,
                "tag": "3W",
                "forecastHour": 3,
                "hazard": "SFC_WND",
                "frequency": null,
                "severity": null,
                "status": "NRML",
                "base": null,
                "top": null,
                "fzlBase": null,
                "fzlTop": null,
                "level": null,
                "product": "TANGO",
                "rawAirSigmet": "USTAINED SFC WINDS GREATER THAN 30 KTS",
                "validTimeTo": "2026-07-29T06:00:00.000",
                "validTimeFrom": [
                    "2026-07-29T02:45"
                ]
            }
        },
        {
            "type": "Feature",
            "geometry": {
                "type": "LineString",
                "coordinates": [
                    [
                        "-133.99",
                        "23.67"
                    ],
                    [
                        "-133.94",
                        "24.72"
                    ],
                    [
                        "-134.14",
                        "25.56"
                    ],
                    [
                        "-135.42",
                        "27.14"
                    ],
                    [
                        "-136.95",
                        "28.69"
                    ],
                    [
                        "-137.59",
                        "30.29"
                    ],
                    [
                        "-137.64",
                        "31.64"
                    ],
                    [
                        "-137.13",
                        "32.62"
                    ],
                    [
                        "-135.40",
                        "33.92"
                    ],
                    [
                        "-133.35",
                        "34.55"
                    ],
                    [
                        "-131.31",
                        "34.72"
                    ],
                    [
                        "-128.15",
                        "35.13"
                    ],
                    [
                        "-126.28",
                        "35.85"
                    ],
                    [
                        "-123.04",
                        "38.65"
                    ],
                    [
                        "-122.06",
                        "39.26"
                    ],
                    [
                        "-120.26",
                        "39.91"
                    ],
                    [
                        "-118.53",
                        "41.44"
                    ],
                    [
                        "-116.82",
                        "42.59"
                    ],
                    [
                        "-114.75",
                        "43.63"
                    ],
                    [
                        "-111.59",
                        "44.83"
                    ],
                    [
                        "-109.67",
                        "45.35"
                    ],
                    [
                        "-108.54",
                        "45.51"
                    ],
                    [
                        "-106.75",
                        "45.66"
                    ],
                    [
                        "-105.42",
                        "45.59"
                    ],
                    [
                        "-103.19",
                        "44.80"
                    ],
                    [
                        "-101.29",
                        "44.31"
                    ],
                    [
                        "-99.02",
                        "44.32"
                    ],
                    [
                        "-98.12",
                        "44.22"
                    ],
                    [
                        "-97.29",
                        "43.73"
                    ],
                    [
                        "-96.66",
                        "42.85"
                    ],
                    [
                        "-95.76",
                        "41.32"
                    ],
                    [
                        "-95.11",
                        "40.42"
                    ],
                    [
                        "-94.23",
                        "39.65"
                    ],
                    [
                        "-91.98",
                        "38.51"
                    ],
                    [
                        "-91.04",
                        "37.70"
                    ],
                    [
                        "-90.37",
                        "36.86"
                    ],
                    [
                        "-89.77",
                        "36.37"
                    ],
                    [
                        "-88.32",
                        "36.08"
                    ],
                    [
                        "-86.71",
                        "36.64"
                    ],
                    [
                        "-85.84",
                        "38.09"
                    ],
                    [
                        "-85.40",
                        "38.57"
                    ],
                    [
                        "-84.79",
                        "38.68"
                    ],
                    [
                        "-83.08",
                        "38.41"
                    ],
                    [
                        "-81.50",
                        "37.63"
                    ],
                    [
                        "-79.85",
                        "36.41"
                    ],
                    [
                        "-78.85",
                        "35.64"
                    ],
                    [
                        "-78.50",
                        "34.88"
                    ],
                    [
                        "-78.60",
                        "32.93"
                    ],
                    [
                        "-78.31",
                        "31.98"
                    ],
                    [
                        "-77.80",
                        "31.27"
                    ],
                    [
                        "-76.74",
                        "30.62"
                    ],
                    [
                        "-75.72",
                        "30.32"
                    ],
                    [
                        "-73.61",
                        "30.05"
                    ],
                    [
                        "-72.59",
                        "29.93"
                    ],
                    [
                        "-71.99",
                        "29.56"
                    ],
                    [
                        "-71.95",
                        "28.93"
                    ],
                    [
                        "-71.79",
                        "28.14"
                    ],
                    [
                        "-70.98",
                        "27.25"
                    ],
                    [
                        "-68.77",
                        "26.28"
                    ],
                    [
                        "-67.72",
                        "24.93"
                    ],
                    [
                        "-66.90",
                        "23.97"
                    ],
                    [
                        "-65.76",
                        "23.15"
                    ],
                    [
                        "-65.50",
                        "21.54"
                    ],
                    [
                        "-64.85",
                        "20.71"
                    ],
                    [
                        "-64.01",
                        "20.66"
                    ],
                    [
                        "-62.48",
                        "20.89"
                    ]
                ]
            },
            "properties": {
                "forecastId": null,
                "geometryId": null,
                "tag": "1C",
                "forecastHour": 3,
                "hazard": "FZLVL",
                "frequency": null,
                "severity": null,
                "status": "NRML",
                "base": null,
                "top": null,
                "fzlBase": null,
                "fzlTop": null,
                "level": "160",
                "product": "ZULU",
                "rawAirSigmet": null,
                "validTimeTo": "2026-07-29T06:00:00.000",
                "validTimeFrom": [
                    "2026-07-29T04:27"
                ]
            }
        },
        {
            "type": "Feature",
            "geometry": {
                "type": "Polygon",
                "coordinates": [
                    [
                        [
                            "-122.26",
                            "37.99"
                        ],
                        [
                            "-122.04",
                            "37.51"
                        ],
                        [
                            "-121.48",
                            "36.58"
                        ],
                        [
                            "-121.62",
                            "36.21"
                        ],
                        [
                            "-120.96",
                            "35.40"
                        ],
                        [
                            "-120.62",
                            "35.01"
                        ],
                        [
                            "-120.50",
                            "34.16"
                        ],
                        [
                            "-118.61",
                            "33.39"
                        ],
                        [
                            "-118.24",
                            "33.81"
                        ],
                        [
                            "-117.74",
                            "33.60"
                        ],
                        [
                            "-117.46",
                            "33.36"
                        ],
                        [
                            "-116.80",
                            "32.43"
                        ],
                        [
                            "-117.36",
                            "32.26"
                        ],
                        [
                            "-120.63",
                            "30.77"
                        ],
                        [
                            "-123.01",
                            "34.41"
                        ],
                        [
                            "-123.24",
                            "36.08"
                        ],
                        [
                            "-122.91",
                            "37.72"
                        ],
                        [
                            "-122.26",
                            "37.99"
                        ]
                    ]
                ]
            },
            "properties": {
                "forecastId": null,
                "geometryId": null,
                "tag": "1E",
                "forecastHour": 3,
                "hazard": "IFR",
                "frequency": null,
                "severity": null,
                "status": "AMD",
                "base": null,
                "top": null,
                "fzlBase": null,
                "fzlTop": null,
                "level": null,
                "product": "SIERRA",
                "rawAirSigmet": "CIG BLW 010 VIS BLW 3SM BR",
                "validTimeTo": "2026-07-29T06:00:00.000",
                "validTimeFrom": [
                    "2026-07-29T06:02"
                ]
            }
        },
        {
            "type": "Feature",
            "geometry": {
                "type": "Polygon",
                "coordinates": [
                    [
                        [
                            "-116.58",
                            "38.54"
                        ],
                        [
                            "-113.79",
                            "37.68"
                        ],
                        [
                            "-113.41",
                            "35.66"
                        ],
                        [
                            "-114.20",
                            "35.04"
                        ],
                        [
                            "-115.41",
                            "35.02"
                        ],
                        [
                            "-116.87",
                            "35.17"
                        ],
                        [
                            "-117.50",
                            "36.21"
                        ],
                        [
                            "-117.70",
                            "37.73"
                        ],
                        [
                            "-116.58",
                            "38.54"
                        ]
                    ]
                ]
            },
            "properties": {
                "forecastId": null,
                "geometryId": null,
                "tag": "2W",
                "forecastHour": 3,
                "hazard": "TURB-LO",
                "frequency": null,
                "severity": "MOD",
                "status": "NRML",
                "base": "080",
                "top": "150",
                "fzlBase": null,
                "fzlTop": null,
                "level": null,
                "product": "TANGO",
                "rawAirSigmet": null,
                "validTimeTo": "2026-07-29T06:00:00.000",
                "validTimeFrom": [
                    "2026-07-29T02:45"
                ]
            }
        },
        {
            "type": "Feature",
            "geometry": {
                "type": "Polygon",
                "coordinates": [
                    [
                        [
                            "-85.00",
                            "18.08"
                        ],
                        [
                            "-84.46",
                            "17.81"
                        ],
                        [
                            "-84.45",
                            "17.77"
                        ],
                        [
                            "-84.50",
                            "17.73"
                        ],
                        [
                            "-85.15",
                            "17.41"
                        ],
                        [
                            "-85.26",
                            "17.39"
                        ],
                        [
                            "-85.49",
                            "17.52"
                        ],
                        [
                            "-85.32",
                            "18.07"
                        ],
                        [
                            "-85.00",
                            "18.08"
                        ]
                    ]
                ]
            },
            "properties": {
                "forecastId": null,
                "geometryId": null,
                "tag": "1C",
                "forecastHour": 3,
                "hazard": "FZLVL",
                "frequency": null,
                "severity": null,
                "status": "NRML",
                "base": null,
                "top": null,
                "fzlBase": null,
                "fzlTop": null,
                "level": "160",
                "product": "ZULU",
                "rawAirSigmet": null,
                "validTimeTo": "2026-07-29T06:00:00.000",
                "validTimeFrom": [
                    "2026-07-29T04:27"
                ]
            }
        },
        {
            "type": "Feature",
            "geometry": {
                "type": "Polygon",
                "coordinates": [
                    [
                        [
                            "-105.01",
                            "41.67"
                        ],
                        [
                            "-104.89",
                            "41.49"
                        ],
                        [
                            "-103.66",
                            "37.28"
                        ],
                        [
                            "-103.79",
                            "36.21"
                        ],
                        [
                            "-105.56",
                            "35.38"
                        ],
                        [
                            "-106.90",
                            "35.99"
                        ],
                        [
                            "-107.90",
                            "36.70"
                        ],
                        [
                            "-108.17",
                            "37.31"
                        ],
                        [
                            "-107.38",
                            "38.63"
                        ],
                        [
                            "-106.41",
                            "39.66"
                        ],
                        [
                            "-106.07",
                            "40.89"
                        ],
                        [
                            "-105.82",
                            "41.62"
                        ],
                        [
                            "-105.01",
                            "41.67"
                        ]
                    ]
                ]
            },
            "properties": {
                "forecastId": null,
                "geometryId": null,
                "tag": "4E",
                "forecastHour": 3,
                "hazard": "MT_OBSC",
                "frequency": null,
                "severity": null,
                "status": "NRML",
                "base": null,
                "top": null,
                "fzlBase": null,
                "fzlTop": null,
                "level": null,
                "product": "SIERRA",
                "rawAirSigmet": "MTNS OBSC BY CLDS PCPN",
                "validTimeTo": "2026-07-29T06:00:00.000",
                "validTimeFrom": [
                    "2026-07-29T06:02"
                ]
            }
        },
        {
            "type": "Feature",
            "geometry": {
                "type": "Polygon",
                "coordinates": [
                    [
                        [
                            "-77.26",
                            "42.78"
                        ],
                        [
                            "-76.53",
                            "42.55"
                        ],
                        [
                            "-76.28",
                            "42.00"
                        ],
                        [
                            "-76.64",
                            "39.59"
                        ],
                        [
                            "-77.77",
                            "38.34"
                        ],
                        [
                            "-78.69",
                            "37.50"
                        ],
                        [
                            "-80.80",
                            "35.89"
                        ],
                        [
                            "-82.16",
                            "35.11"
                        ],
                        [
                            "-83.99",
                            "34.25"
                        ],
                        [
                            "-84.23",
                            "34.15"
                        ],
                        [
                            "-85.12",
                            "34.40"
                        ],
                        [
                            "-85.18",
                            "34.87"
                        ],
                        [
                            "-84.43",
                            "35.49"
                        ],
                        [
                            "-83.51",
                            "35.90"
                        ],
                        [
                            "-82.12",
                            "37.03"
                        ],
                        [
                            "-80.78",
                            "38.12"
                        ],
                        [
                            "-79.37",
                            "39.83"
                        ],
                        [
                            "-78.90",
                            "40.67"
                        ],
                        [
                            "-78.47",
                            "41.29"
                        ],
                        [
                            "-77.83",
                            "42.42"
                        ],
                        [
                            "-77.26",
                            "42.78"
                        ]
                    ]
                ]
            },
            "properties": {
                "forecastId": null,
                "geometryId": null,
                "tag": "1W",
                "forecastHour": 3,
                "hazard": "TURB-LO",
                "frequency": null,
                "severity": "MOD",
                "status": "NRML",
                "base": "030",
                "top": "090",
                "fzlBase": null,
                "fzlTop": null,
                "level": null,
                "product": "TANGO",
                "rawAirSigmet": null,
                "validTimeTo": "2026-07-29T06:00:00.000",
                "validTimeFrom": [
                    "2026-07-29T02:45"
                ]
            }
        },
        {
            "type": "Feature",
            "geometry": {
                "type": "Polygon",
                "coordinates": [
                    [
                        [
                            "-58.43",
                            "32.21"
                        ],
                        [
                            "-57.90",
                            "31.72"
                        ],
                        [
                            "-57.95",
                            "31.00"
                        ],
                        [
                            "-58.86",
                            "30.94"
                        ],
                        [
                            "-58.98",
                            "30.97"
                        ],
                        [
                            "-59.54",
                            "31.30"
                        ],
                        [
                            "-59.61",
                            "31.52"
                        ],
                        [
                            "-59.21",
                            "32.13"
                        ],
                        [
                            "-58.43",
                            "32.21"
                        ]
                    ]
                ]
            },
            "properties": {
                "forecastId": null,
                "geometryId": null,
                "tag": "1C",
                "forecastHour": 3,
                "hazard": "FZLVL",
                "frequency": null,
                "severity": null,
                "status": "NRML",
                "base": null,
                "top": null,
                "fzlBase": null,
                "fzlTop": null,
                "level": "160",
                "product": "ZULU",
                "rawAirSigmet": null,
                "validTimeTo": "2026-07-29T06:00:00.000",
                "validTimeFrom": [
                    "2026-07-29T04:27"
                ]
            }
        },
        {
            "type": "Feature",
            "geometry": {
                "type": "LineString",
                "coordinates": [
                    [
                        "-48.91",
                        "35.08"
                    ],
                    [
                        "-49.18",
                        "35.77"
                    ],
                    [
                        "-49.58",
                        "36.39"
                    ],
                    [
                        "-50.06",
                        "36.97"
                    ],
                    [
                        "-50.21",
                        "37.20"
                    ],
                    [
                        "-50.47",
                        "37.60"
                    ],
                    [
                        "-50.30",
                        "38.51"
                    ],
                    [
                        "-50.26",
                        "38.58"
                    ],
                    [
                        "-49.76",
                        "39.16"
                    ],
                    [
                        "-49.15",
                        "39.73"
                    ],
                    [
                        "-48.43",
                        "40.20"
                    ],
                    [
                        "-47.61",
                        "40.57"
                    ],
                    [
                        "-46.74",
                        "40.88"
                    ],
                    [
                        "-45.89",
                        "41.21"
                    ],
                    [
                        "-45.11",
                        "41.65"
                    ],
                    [
                        "-44.38",
                        "42.17"
                    ],
                    [
                        "-44.05",
                        "42.41"
                    ],
                    [
                        "-43.63",
                        "42.69"
                    ]
                ]
            },
            "properties": {
                "forecastId": null,
                "geometryId": null,
                "tag": "1C",
                "forecastHour": 3,
                "hazard": "FZLVL",
                "frequency": null,
                "severity": null,
                "status": "NRML",
                "base": null,
                "top": null,
                "fzlBase": null,
                "fzlTop": null,
                "level": "160",
                "product": "ZULU",
                "rawAirSigmet": null,
                "validTimeTo": "2026-07-29T06:00:00.000",
                "validTimeFrom": [
                    "2026-07-29T04:27"
                ]
            }
        },
        {
            "type": "Feature",
            "geometry": {
                "type": "Polygon",
                "coordinates": [
                    [
                        [
                            "-123.67",
                            "44.11"
                        ],
                        [
                            "-124.08",
                            "42.95"
                        ],
                        [
                            "-123.88",
                            "42.10"
                        ],
                        [
                            "-123.65",
                            "41.34"
                        ],
                        [
                            "-123.76",
                            "40.66"
                        ],
                        [
                            "-124.07",
                            "39.86"
                        ],
                        [
                            "-124.09",
                            "38.46"
                        ],
                        [
                            "-123.81",
                            "36.72"
                        ],
                        [
                            "-124.14",
                            "36.01"
                        ],
                        [
                            "-125.68",
                            "37.47"
                        ],
                        [
                            "-126.02",
                            "38.49"
                        ],
                        [
                            "-126.34",
                            "39.87"
                        ],
                        [
                            "-126.66",
                            "41.35"
                        ],
                        [
                            "-126.41",
                            "42.69"
                        ],
                        [
                            "-125.86",
                            "43.21"
                        ],
                        [
                            "-123.67",
                            "44.11"
                        ]
                    ]
                ]
            },
            "properties": {
                "forecastId": null,
                "geometryId": null,
                "tag": "1E",
                "forecastHour": 3,
                "hazard": "IFR",
                "frequency": null,
                "severity": null,
                "status": "NEW",
                "base": null,
                "top": null,
                "fzlBase": null,
                "fzlTop": null,
                "level": null,
                "product": "SIERRA",
                "rawAirSigmet": "CIG BLW 010 VIS BLW 3SM BR",
                "validTimeTo": "2026-07-29T06:00:00.000",
                "validTimeFrom": [
                    "2026-07-29T06:02"
                ]
            }
        },
        {
            "type": "Feature",
            "geometry": {
                "type": "Polygon",
                "coordinates": [
                    [
                        [
                            "-77.66",
                            "42.64"
                        ],
                        [
                            "-77.73",
                            "41.27"
                        ],
                        [
                            "-78.75",
                            "39.39"
                        ],
                        [
                            "-79.74",
                            "37.81"
                        ],
                        [
                            "-82.58",
                            "36.02"
                        ],
                        [
                            "-83.73",
                            "36.58"
                        ],
                        [
                            "-81.42",
                            "38.75"
                        ],
                        [
                            "-80.29",
                            "39.83"
                        ],
                        [
                            "-79.81",
                            "40.94"
                        ],
                        [
                            "-79.44",
                            "42.22"
                        ],
                        [
                            "-78.78",
                            "42.55"
                        ],
                        [
                            "-77.66",
                            "42.64"
                        ]
                    ]
                ]
            },
            "properties": {
                "forecastId": null,
                "geometryId": null,
                "tag": "3E",
                "forecastHour": 3,
                "hazard": "IFR",
                "frequency": null,
                "severity": null,
                "status": "AMD",
                "base": null,
                "top": null,
                "fzlBase": null,
                "fzlTop": null,
                "level": null,
                "product": "SIERRA",
                "rawAirSigmet": "CIG BLW 010 VIS BLW 3SM PCPN BR",
                "validTimeTo": "2026-07-29T06:00:00.000",
                "validTimeFrom": [
                    "2026-07-29T06:02"
                ]
            }
        },
        {
            "type": "Feature",
            "geometry": {
                "type": "Polygon",
                "coordinates": [
                    [
                        [
                            "-74.77",
                            "45.06"
                        ],
                        [
                            "-72.98",
                            "44.86"
                        ],
                        [
                            "-72.26",
                            "43.37"
                        ],
                        [
                            "-72.27",
                            "41.32"
                        ],
                        [
                            "-73.82",
                            "38.94"
                        ],
                        [
                            "-74.89",
                            "35.73"
                        ],
                        [
                            "-76.56",
                            "34.55"
                        ],
                        [
                            "-77.78",
                            "34.73"
                        ],
                        [
                            "-77.21",
                            "36.71"
                        ],
                        [
                            "-75.60",
                            "38.61"
                        ],
                        [
                            "-75.46",
                            "40.59"
                        ],
                        [
                            "-76.89",
                            "42.19"
                        ],
                        [
                            "-76.70",
                            "43.87"
                        ],
                        [
                            "-74.77",
                            "45.06"
                        ]
                    ]
                ]
            },
            "properties": {
                "forecastId": null,
                "geometryId": null,
                "tag": "4E",
                "forecastHour": 3,
                "hazard": "IFR",
                "frequency": null,
                "severity": null,
                "status": "AMD",
                "base": null,
                "top": null,
                "fzlBase": null,
                "fzlTop": null,
                "level": null,
                "product": "SIERRA",
                "rawAirSigmet": "CIG BLW 010 VIS BLW 3SM PCPN BR",
                "validTimeTo": "2026-07-29T06:00:00.000",
                "validTimeFrom": [
                    "2026-07-29T06:02"
                ]
            }
        },
        {
            "type": "Feature",
            "geometry": {
                "type": "Polygon",
                "coordinates": [
                    [
                        [
                            "-70.06",
                            "46.38"
                        ],
                        [
                            "-69.23",
                            "45.59"
                        ],
                        [
                            "-67.80",
                            "45.85"
                        ],
                        [
                            "-67.05",
                            "44.99"
                        ],
                        [
                            "-67.00",
                            "43.06"
                        ],
                        [
                            "-67.54",
                            "42.34"
                        ],
                        [
                            "-68.17",
                            "42.36"
                        ],
                        [
                            "-69.23",
                            "43.39"
                        ],
                        [
                            "-70.49",
                            "43.72"
                        ],
                        [
                            "-71.48",
                            "45.29"
                        ],
                        [
                            "-70.06",
                            "46.38"
                        ]
                    ]
                ]
            },
            "properties": {
                "forecastId": null,
                "geometryId": null,
                "tag": "6E",
                "forecastHour": 3,
                "hazard": "IFR",
                "frequency": null,
                "severity": null,
                "status": "AMD",
                "base": null,
                "top": null,
                "fzlBase": null,
                "fzlTop": null,
                "level": null,
                "product": "SIERRA",
                "rawAirSigmet": "CIG BLW 010 VIS BLW 3SM BR",
                "validTimeTo": "2026-07-29T06:00:00.000",
                "validTimeFrom": [
                    "2026-07-29T06:02"
                ]
            }
        },
        {
            "type": "Feature",
            "geometry": {
                "type": "Polygon",
                "coordinates": [
                    [
                        [
                            "-120.53",
                            "48.93"
                        ],
                        [
                            "-120.57",
                            "47.76"
                        ],
                        [
                            "-120.94",
                            "47.11"
                        ],
                        [
                            "-121.06",
                            "46.42"
                        ],
                        [
                            "-122.30",
                            "43.42"
                        ],
                        [
                            "-122.97",
                            "41.49"
                        ],
                        [
                            "-123.64",
                            "40.20"
                        ],
                        [
                            "-124.20",
                            "40.58"
                        ],
                        [
                            "-124.20",
                            "42.21"
                        ],
                        [
                            "-124.29",
                            "42.78"
                        ],
                        [
                            "-124.03",
                            "44.49"
                        ],
                        [
                            "-124.07",
                            "47.08"
                        ],
                        [
                            "-124.57",
                            "48.50"
                        ],
                        [
                            "-123.49",
                            "48.15"
                        ],
                        [
                            "-122.86",
                            "48.89"
                        ],
                        [
                            "-120.53",
                            "48.93"
                        ]
                    ]
                ]
            },
            "properties": {
                "forecastId": null,
                "geometryId": null,
                "tag": "3E",
                "forecastHour": 3,
                "hazard": "MT_OBSC",
                "frequency": null,
                "severity": null,
                "status": "NRML",
                "base": null,
                "top": null,
                "fzlBase": null,
                "fzlTop": null,
                "level": null,
                "product": "SIERRA",
                "rawAirSigmet": "MTNS OBSC BY CLDS",
                "validTimeTo": "2026-07-29T06:00:00.000",
                "validTimeFrom": [
                    "2026-07-29T06:02"
                ]
            }
        },
        {
            "type": "Feature",
            "geometry": {
                "type": "Polygon",
                "coordinates": [
                    [
                        [
                            "-116.97",
                            "45.81"
                        ],
                        [
                            "-116.54",
                            "44.52"
                        ],
                        [
                            "-116.18",
                            "43.79"
                        ],
                        [
                            "-116.88",
                            "43.23"
                        ],
                        [
                            "-119.17",
                            "43.16"
                        ],
                        [
                            "-119.43",
                            "43.83"
                        ],
                        [
                            "-119.20",
                            "44.40"
                        ],
                        [
                            "-118.48",
                            "44.71"
                        ],
                        [
                            "-117.99",
                            "45.57"
                        ],
                        [
                            "-116.97",
                            "45.81"
                        ]
                    ]
                ]
            },
            "properties": {
                "forecastId": null,
                "geometryId": null,
                "tag": "2E",
                "forecastHour": 3,
                "hazard": "IFR",
                "frequency": null,
                "severity": null,
                "status": "AMD",
                "base": null,
                "top": null,
                "fzlBase": null,
                "fzlTop": null,
                "level": null,
                "product": "SIERRA",
                "rawAirSigmet": "CIG BLW 010 VIS BLW 3SM HZ FU",
                "validTimeTo": "2026-07-29T06:00:00.000",
                "validTimeFrom": [
                    "2026-07-29T06:02"
                ]
            }
        },
        {
            "type": "Feature",
            "geometry": {
                "type": "LineString",
                "coordinates": [
                    [
                        "-146.64",
                        "47.07"
                    ],
                    [
                        "-145.99",
                        "46.13"
                    ],
                    [
                        "-145.10",
                        "44.48"
                    ],
                    [
                        "-144.03",
                        "43.92"
                    ],
                    [
                        "-143.07",
                        "43.80"
                    ],
                    [
                        "-140.74",
                        "43.97"
                    ],
                    [
                        "-139.41",
                        "44.23"
                    ],
                    [
                        "-137.13",
                        "44.86"
                    ],
                    [
                        "-135.51",
                        "45.19"
                    ],
                    [
                        "-132.78",
                        "45.43"
                    ],
                    [
                        "-130.89",
                        "45.78"
                    ],
                    [
                        "-128.59",
                        "46.42"
                    ],
                    [
                        "-123.02",
                        "48.14"
                    ],
                    [
                        "-119.36",
                        "49.58"
                    ],
                    [
                        "-117.72",
                        "50.14"
                    ],
                    [
                        "-115.67",
                        "51.39"
                    ],
                    [
                        "-112.91",
                        "53.36"
                    ],
                    [
                        "-111.28",
                        "54.65"
                    ],
                    [
                        "-109.38",
                        "55.55"
                    ],
                    [
                        "-105.36",
                        "57.15"
                    ],
                    [
                        "-104.39",
                        "57.41"
                    ],
                    [
                        "-102.68",
                        "57.55"
                    ],
                    [
                        "-99.81",
                        "57.09"
                    ],
                    [
                        "-90.90",
                        "53.57"
                    ],
                    [
                        "-89.26",
                        "52.64"
                    ],
                    [
                        "-88.20",
                        "51.43"
                    ],
                    [
                        "-87.35",
                        "49.95"
                    ],
                    [
                        "-86.95",
                        "49.49"
                    ],
                    [
                        "-86.21",
                        "48.99"
                    ],
                    [
                        "-85.39",
                        "48.86"
                    ],
                    [
                        "-83.63",
                        "49.34"
                    ],
                    [
                        "-81.78",
                        "50.00"
                    ],
                    [
                        "-79.67",
                        "50.53"
                    ],
                    [
                        "-77.52",
                        "50.84"
                    ],
                    [
                        "-75.32",
                        "50.88"
                    ],
                    [
                        "-72.99",
                        "50.34"
                    ],
                    [
                        "-70.28",
                        "49.48"
                    ],
                    [
                        "-67.76",
                        "49.48"
                    ],
                    [
                        "-66.15",
                        "49.89"
                    ],
                    [
                        "-64.37",
                        "50.62"
                    ],
                    [
                        "-63.37",
                        "50.95"
                    ],
                    [
                        "-62.00",
                        "51.13"
                    ],
                    [
                        "-59.22",
                        "50.72"
                    ],
                    [
                        "-56.71",
                        "50.32"
                    ],
                    [
                        "-55.37",
                        "50.40"
                    ],
                    [
                        "-53.00",
                        "51.08"
                    ]
                ]
            },
            "properties": {
                "forecastId": null,
                "geometryId": null,
                "tag": "1C",
                "forecastHour": 3,
                "hazard": "FZLVL",
                "frequency": null,
                "severity": null,
                "status": "NRML",
                "base": null,
                "top": null,
                "fzlBase": null,
                "fzlTop": null,
                "level": "120",
                "product": "ZULU",
                "rawAirSigmet": null,
                "validTimeTo": "2026-07-29T06:00:00.000",
                "validTimeFrom": [
                    "2026-07-29T04:27"
                ]
            }
        },
        {
            "type": "Feature",
            "geometry": {
                "type": "LineString",
                "coordinates": [
                    [
                        "-79.07",
                        "14.31"
                    ],
                    [
                        "-77.25",
                        "14.67"
                    ],
                    [
                        "-76.05",
                        "15.61"
                    ],
                    [
                        "-75.14",
                        "17.08"
                    ],
                    [
                        "-74.31",
                        "17.76"
                    ],
                    [
                        "-72.93",
                        "18.04"
                    ],
                    [
                        "-71.60",
                        "18.19"
                    ],
                    [
                        "-70.31",
                        "18.71"
                    ],
                    [
                        "-69.86",
                        "19.35"
                    ],
                    [
                        "-69.98",
                        "20.45"
                    ],
                    [
                        "-76.01",
                        "23.66"
                    ],
                    [
                        "-79.36",
                        "23.81"
                    ],
                    [
                        "-80.64",
                        "23.27"
                    ],
                    [
                        "-81.70",
                        "22.43"
                    ],
                    [
                        "-84.59",
                        "21.77"
                    ],
                    [
                        "-87.08",
                        "21.10"
                    ],
                    [
                        "-88.45",
                        "20.82"
                    ],
                    [
                        "-90.25",
                        "20.94"
                    ],
                    [
                        "-91.96",
                        "21.27"
                    ],
                    [
                        "-93.59",
                        "21.96"
                    ],
                    [
                        "-94.65",
                        "21.80"
                    ],
                    [
                        "-95.09",
                        "21.42"
                    ],
                    [
                        "-95.15",
                        "20.10"
                    ],
                    [
                        "-94.92",
                        "19.36"
                    ],
                    [
                        "-95.14",
                        "18.63"
                    ],
                    [
                        "-96.78",
                        "18.42"
                    ],
                    [
                        "-97.73",
                        "18.54"
                    ],
                    [
                        "-99.36",
                        "19.22"
                    ],
                    [
                        "-100.37",
                        "19.37"
                    ],
                    [
                        "-101.30",
                        "18.85"
                    ],
                    [
                        "-102.17",
                        "18.50"
                    ],
                    [
                        "-103.20",
                        "18.66"
                    ],
                    [
                        "-104.08",
                        "18.93"
                    ],
                    [
                        "-104.27",
                        "19.28"
                    ],
                    [
                        "-105.32",
                        "21.57"
                    ],
                    [
                        "-106.49",
                        "21.63"
                    ],
                    [
                        "-107.21",
                        "21.26"
                    ],
                    [
                        "-108.23",
                        "20.31"
                    ],
                    [
                        "-108.54",
                        "19.27"
                    ],
                    [
                        "-108.32",
                        "18.12"
                    ],
                    [
                        "-107.79",
                        "17.68"
                    ],
                    [
                        "-106.85",
                        "17.56"
                    ],
                    [
                        "-105.57",
                        "18.00"
                    ],
                    [
                        "-104.76",
                        "18.19"
                    ],
                    [
                        "-104.56",
                        "17.65"
                    ],
                    [
                        "-104.85",
                        "16.68"
                    ]
                ]
            },
            "properties": {
                "forecastId": null,
                "geometryId": null,
                "tag": "1C",
                "forecastHour": 3,
                "hazard": "FZLVL",
                "frequency": null,
                "severity": null,
                "status": "NRML",
                "base": null,
                "top": null,
                "fzlBase": null,
                "fzlTop": null,
                "level": "160",
                "product": "ZULU",
                "rawAirSigmet": null,
                "validTimeTo": "2026-07-29T06:00:00.000",
                "validTimeFrom": [
                    "2026-07-29T04:27"
                ]
            }
        },
        {
            "type": "Feature",
            "geometry": {
                "type": "Polygon",
                "coordinates": [
                    [
                        [
                            "-116.18",
                            "49.00"
                        ],
                        [
                            "-111.72",
                            "48.95"
                        ],
                        [
                            "-110.72",
                            "47.59"
                        ],
                        [
                            "-112.91",
                            "46.80"
                        ],
                        [
                            "-115.32",
                            "47.17"
                        ],
                        [
                            "-116.47",
                            "48.27"
                        ],
                        [
                            "-116.18",
                            "49.00"
                        ]
                    ]
                ]
            },
            "properties": {
                "forecastId": null,
                "geometryId": null,
                "tag": "4W",
                "forecastHour": 3,
                "hazard": "TURB-LO",
                "frequency": null,
                "severity": "MOD",
                "status": "NRML",
                "base": "SFC",
                "top": "160",
                "fzlBase": null,
                "fzlTop": null,
                "level": null,
                "product": "TANGO",
                "rawAirSigmet": null,
                "validTimeTo": "2026-07-29T06:00:00.000",
                "validTimeFrom": [
                    "2026-07-29T02:45"
                ]
            }
        },
        {
            "type": "Feature",
            "geometry": {
                "type": "LineString",
                "coordinates": [
                    [
                        "-141.07",
                        "51.00"
                    ],
                    [
                        "-139.95",
                        "50.55"
                    ],
                    [
                        "-139.02",
                        "50.02"
                    ],
                    [
                        "-138.52",
                        "49.77"
                    ],
                    [
                        "-138.03",
                        "49.52"
                    ],
                    [
                        "-136.74",
                        "49.14"
                    ],
                    [
                        "-136.47",
                        "49.10"
                    ],
                    [
                        "-135.06",
                        "49.06"
                    ],
                    [
                        "-134.40",
                        "49.15"
                    ],
                    [
                        "-133.88",
                        "49.25"
                    ],
                    [
                        "-132.79",
                        "49.55"
                    ],
                    [
                        "-131.66",
                        "49.82"
                    ],
                    [
                        "-130.43",
                        "49.96"
                    ],
                    [
                        "-129.29",
                        "49.97"
                    ],
                    [
                        "-129.12",
                        "49.98"
                    ],
                    [
                        "-127.87",
                        "50.07"
                    ],
                    [
                        "-126.68",
                        "50.24"
                    ],
                    [
                        "-125.58",
                        "50.57"
                    ],
                    [
                        "-124.70",
                        "51.15"
                    ],
                    [
                        "-124.64",
                        "51.22"
                    ],
                    [
                        "-124.28",
                        "52.06"
                    ],
                    [
                        "-124.18",
                        "52.77"
                    ],
                    [
                        "-124.15",
                        "52.92"
                    ],
                    [
                        "-124.19",
                        "53.75"
                    ],
                    [
                        "-124.50",
                        "54.52"
                    ],
                    [
                        "-125.11",
                        "55.24"
                    ],
                    [
                        "-125.92",
                        "55.92"
                    ],
                    [
                        "-126.44",
                        "56.31"
                    ],
                    [
                        "-126.83",
                        "56.59"
                    ]
                ]
            },
            "properties": {
                "forecastId": null,
                "geometryId": null,
                "tag": "1C",
                "forecastHour": 3,
                "hazard": "FZLVL",
                "frequency": null,
                "severity": null,
                "status": "NRML",
                "base": null,
                "top": null,
                "fzlBase": null,
                "fzlTop": null,
                "level": "080",
                "product": "ZULU",
                "rawAirSigmet": null,
                "validTimeTo": "2026-07-29T06:00:00.000",
                "validTimeFrom": [
                    "2026-07-29T04:27"
                ]
            }
        },
        {
            "type": "Feature",
            "geometry": {
                "type": "Polygon",
                "coordinates": [
                    [
                        [
                            "-70.53",
                            "46.41"
                        ],
                        [
                            "-68.68",
                            "46.10"
                        ],
                        [
                            "-68.51",
                            "45.37"
                        ],
                        [
                            "-71.58",
                            "43.20"
                        ],
                        [
                            "-73.26",
                            "42.26"
                        ],
                        [
                            "-75.59",
                            "40.91"
                        ],
                        [
                            "-76.94",
                            "40.34"
                        ],
                        [
                            "-80.14",
                            "37.36"
                        ],
                        [
                            "-82.97",
                            "34.48"
                        ],
                        [
                            "-84.45",
                            "34.16"
                        ],
                        [
                            "-84.81",
                            "35.19"
                        ],
                        [
                            "-84.76",
                            "35.71"
                        ],
                        [
                            "-84.04",
                            "36.82"
                        ],
                        [
                            "-82.99",
                            "37.55"
                        ],
                        [
                            "-81.72",
                            "38.53"
                        ],
                        [
                            "-80.86",
                            "40.05"
                        ],
                        [
                            "-80.02",
                            "40.93"
                        ],
                        [
                            "-79.14",
                            "42.12"
                        ],
                        [
                            "-76.14",
                            "43.16"
                        ],
                        [
                            "-74.76",
                            "44.99"
                        ],
                        [
                            "-71.63",
                            "45.48"
                        ],
                        [
                            "-70.53",
                            "46.41"
                        ]
                    ]
                ]
            },
            "properties": {
                "forecastId": null,
                "geometryId": null,
                "tag": "2E",
                "forecastHour": 3,
                "hazard": "MT_OBSC",
                "frequency": null,
                "severity": null,
                "status": "NRML",
                "base": null,
                "top": null,
                "fzlBase": null,
                "fzlTop": null,
                "level": null,
                "product": "SIERRA",
                "rawAirSigmet": "MTNS OBSC BY CLDS PCPN BR",
                "validTimeTo": "2026-07-29T06:00:00.000",
                "validTimeFrom": [
                    "2026-07-29T06:02"
                ]
            }
        },
        {
            "type": "Feature",
            "geometry": {
                "type": "Polygon",
                "coordinates": [
                    [
                        [
                            "-91.07",
                            "35.97"
                        ],
                        [
                            "-89.29",
                            "35.91"
                        ],
                        [
                            "-87.04",
                            "35.35"
                        ],
                        [
                            "-85.86",
                            "34.69"
                        ],
                        [
                            "-86.34",
                            "33.89"
                        ],
                        [
                            "-87.44",
                            "33.86"
                        ],
                        [
                            "-88.77",
                            "34.21"
                        ],
                        [
                            "-90.72",
                            "34.34"
                        ],
                        [
                            "-91.77",
                            "34.66"
                        ],
                        [
                            "-92.11",
                            "35.38"
                        ],
                        [
                            "-91.07",
                            "35.97"
                        ]
                    ]
                ]
            },
            "properties": {
                "forecastId": null,
                "geometryId": null,
                "tag": "3C",
                "forecastHour": 3,
                "hazard": "ICE",
                "frequency": null,
                "severity": "MOD",
                "status": "NEW",
                "base": "160",
                "top": "260",
                "fzlBase": null,
                "fzlTop": null,
                "level": null,
                "product": "ZULU",
                "rawAirSigmet": "ICE",
                "validTimeTo": "2026-07-29T06:00:00.000",
                "validTimeFrom": [
                    "2026-07-29T04:27"
                ]
            }
        }
    ],
    "metadata": {
        "creationTime": "2026-07-29T06:39"
    }
}