{
    "type": "FeatureCollection",
    "features": [
        {
            "type": "Feature",
            "geometry": {
                "type": "LineString",
                "coordinates": [
                    [
                        "-101.96",
                        "19.54"
                    ],
                    [
                        "-102.63",
                        "20.24"
                    ],
                    [
                        "-103.05",
                        "20.95"
                    ],
                    [
                        "-103.26",
                        "22.03"
                    ],
                    [
                        "-103.30",
                        "22.44"
                    ],
                    [
                        "-102.97",
                        "23.46"
                    ],
                    [
                        "-102.41",
                        "23.54"
                    ],
                    [
                        "-102.02",
                        "22.83"
                    ],
                    [
                        "-101.32",
                        "22.31"
                    ],
                    [
                        "-100.13",
                        "22.31"
                    ],
                    [
                        "-100.00",
                        "21.45"
                    ],
                    [
                        "-100.54",
                        "21.06"
                    ],
                    [
                        "-101.08",
                        "20.31"
                    ],
                    [
                        "-101.56",
                        "19.56"
                    ]
                ]
            },
            "properties": {
                "forecastId": null,
                "geometryId": null,
                "tag": "1C",
                "forecastHour": 3,
                "hazard": "FZLVL",
                "frequency": null,
                "severity": null,
                "status": "NRML",
                "base": null,
                "top": null,
                "fzlBase": null,
                "fzlTop": null,
                "level": "160",
                "product": "ZULU",
                "rawAirSigmet": null,
                "validTimeTo": "2026-08-05T18:00:00.000",
                "validTimeFrom": [
                    "2026-08-05T15:31"
                ]
            }
        },
        {
            "type": "Feature",
            "geometry": {
                "type": "Polygon",
                "coordinates": [
                    [
                        [
                            "-120.61",
                            "40.55"
                        ],
                        [
                            "-119.51",
                            "39.80"
                        ],
                        [
                            "-119.31",
                            "38.96"
                        ],
                        [
                            "-119.71",
                            "38.86"
                        ],
                        [
                            "-120.30",
                            "38.73"
                        ],
                        [
                            "-120.05",
                            "37.60"
                        ],
                        [
                            "-120.25",
                            "37.44"
                        ],
                        [
                            "-120.50",
                            "37.90"
                        ],
                        [
                            "-121.10",
                            "38.70"
                        ],
                        [
                            "-121.79",
                            "39.35"
                        ],
                        [
                            "-121.43",
                            "39.97"
                        ],
                        [
                            "-120.61",
                            "40.55"
                        ]
                    ]
                ]
            },
            "properties": {
                "forecastId": null,
                "geometryId": null,
                "tag": "2E",
                "forecastHour": 3,
                "hazard": "MT_OBSC",
                "frequency": null,
                "severity": null,
                "status": "NRML",
                "base": null,
                "top": null,
                "fzlBase": null,
                "fzlTop": null,
                "level": null,
                "product": "SIERRA",
                "rawAirSigmet": "FU HZ",
                "validTimeTo": "2026-08-05T18:00:00.000",
                "validTimeFrom": [
                    "2026-08-05T16:30"
                ]
            }
        },
        {
            "type": "Feature",
            "geometry": {
                "type": "Polygon",
                "coordinates": [
                    [
                        [
                            "-71.45",
                            "40.20"
                        ],
                        [
                            "-71.79",
                            "39.24"
                        ],
                        [
                            "-73.57",
                            "38.17"
                        ],
                        [
                            "-74.56",
                            "38.22"
                        ],
                        [
                            "-76.85",
                            "38.76"
                        ],
                        [
                            "-76.93",
                            "39.35"
                        ],
                        [
                            "-76.11",
                            "39.27"
                        ],
                        [
                            "-74.87",
                            "39.34"
                        ],
                        [
                            "-74.06",
                            "40.15"
                        ],
                        [
                            "-71.45",
                            "40.20"
                        ]
                    ]
                ]
            },
            "properties": {
                "forecastId": null,
                "geometryId": null,
                "tag": "1E",
                "forecastHour": 3,
                "hazard": "IFR",
                "frequency": null,
                "severity": null,
                "status": "NRML",
                "base": null,
                "top": null,
                "fzlBase": null,
                "fzlTop": null,
                "level": null,
                "product": "SIERRA",
                "rawAirSigmet": "CIG BLW 010 VIS BLW 3SM PCPN BR",
                "validTimeTo": "2026-08-05T18:00:00.000",
                "validTimeFrom": [
                    "2026-08-05T16:30"
                ]
            }
        },
        {
            "type": "Feature",
            "geometry": {
                "type": "Polygon",
                "coordinates": [
                    [
                        [
                            "-97.23",
                            "49.04"
                        ],
                        [
                            "-96.29",
                            "49.02"
                        ],
                        [
                            "-96.67",
                            "48.28"
                        ],
                        [
                            "-97.87",
                            "47.78"
                        ],
                        [
                            "-99.68",
                            "47.82"
                        ],
                        [
                            "-100.60",
                            "48.05"
                        ],
                        [
                            "-101.21",
                            "48.42"
                        ],
                        [
                            "-101.02",
                            "48.98"
                        ],
                        [
                            "-97.23",
                            "49.04"
                        ]
                    ]
                ]
            },
            "properties": {
                "forecastId": null,
                "geometryId": null,
                "tag": "3C",
                "forecastHour": 3,
                "hazard": "ICE",
                "frequency": null,
                "severity": "MOD",
                "status": "NRML",
                "base": "090",
                "top": "190",
                "fzlBase": null,
                "fzlTop": null,
                "level": null,
                "product": "ZULU",
                "rawAirSigmet": "ICE",
                "validTimeTo": "2026-08-05T18:00:00.000",
                "validTimeFrom": [
                    "2026-08-05T15:31"
                ]
            }
        },
        {
            "type": "Feature",
            "geometry": {
                "type": "LineString",
                "coordinates": [
                    [
                        "-132.41",
                        "37.78"
                    ],
                    [
                        "-131.36",
                        "39.18"
                    ],
                    [
                        "-130.69",
                        "40.69"
                    ],
                    [
                        "-129.91",
                        "41.90"
                    ],
                    [
                        "-128.97",
                        "42.90"
                    ],
                    [
                        "-126.96",
                        "45.07"
                    ],
                    [
                        "-124.97",
                        "45.95"
                    ],
                    [
                        "-122.70",
                        "46.47"
                    ],
                    [
                        "-121.62",
                        "46.25"
                    ],
                    [
                        "-120.74",
                        "45.78"
                    ],
                    [
                        "-119.14",
                        "45.02"
                    ],
                    [
                        "-116.89",
                        "44.81"
                    ],
                    [
                        "-115.53",
                        "44.10"
                    ],
                    [
                        "-112.35",
                        "42.41"
                    ],
                    [
                        "-109.45",
                        "41.16"
                    ],
                    [
                        "-107.36",
                        "40.53"
                    ],
                    [
                        "-106.43",
                        "40.29"
                    ],
                    [
                        "-105.09",
                        "40.38"
                    ],
                    [
                        "-101.04",
                        "40.54"
                    ],
                    [
                        "-99.72",
                        "40.60"
                    ],
                    [
                        "-98.66",
                        "40.33"
                    ],
                    [
                        "-98.29",
                        "39.68"
                    ],
                    [
                        "-98.41",
                        "38.69"
                    ],
                    [
                        "-98.49",
                        "37.59"
                    ],
                    [
                        "-98.23",
                        "36.70"
                    ],
                    [
                        "-96.77",
                        "35.83"
                    ],
                    [
                        "-96.06",
                        "34.22"
                    ],
                    [
                        "-94.12",
                        "33.57"
                    ],
                    [
                        "-92.43",
                        "32.90"
                    ],
                    [
                        "-91.84",
                        "32.79"
                    ],
                    [
                        "-91.50",
                        "33.15"
                    ],
                    [
                        "-91.84",
                        "33.78"
                    ],
                    [
                        "-91.62",
                        "34.62"
                    ],
                    [
                        "-90.96",
                        "35.00"
                    ],
                    [
                        "-89.54",
                        "35.26"
                    ],
                    [
                        "-87.74",
                        "35.39"
                    ],
                    [
                        "-87.10",
                        "34.87"
                    ],
                    [
                        "-86.71",
                        "34.17"
                    ],
                    [
                        "-86.31",
                        "33.55"
                    ],
                    [
                        "-85.40",
                        "32.96"
                    ],
                    [
                        "-83.71",
                        "32.40"
                    ],
                    [
                        "-82.98",
                        "32.02"
                    ],
                    [
                        "-82.95",
                        "30.98"
                    ],
                    [
                        "-83.84",
                        "29.91"
                    ],
                    [
                        "-85.05",
                        "28.99"
                    ],
                    [
                        "-86.56",
                        "28.03"
                    ],
                    [
                        "-87.97",
                        "27.29"
                    ],
                    [
                        "-89.67",
                        "26.99"
                    ],
                    [
                        "-92.26",
                        "27.06"
                    ],
                    [
                        "-93.33",
                        "27.37"
                    ],
                    [
                        "-93.99",
                        "27.79"
                    ],
                    [
                        "-95.35",
                        "28.71"
                    ],
                    [
                        "-96.67",
                        "29.22"
                    ],
                    [
                        "-98.41",
                        "29.11"
                    ],
                    [
                        "-99.18",
                        "28.72"
                    ],
                    [
                        "-99.84",
                        "27.86"
                    ],
                    [
                        "-100.06",
                        "27.18"
                    ],
                    [
                        "-100.66",
                        "26.64"
                    ],
                    [
                        "-102.30",
                        "26.11"
                    ],
                    [
                        "-102.88",
                        "25.69"
                    ],
                    [
                        "-103.36",
                        "24.83"
                    ],
                    [
                        "-103.42",
                        "23.91"
                    ],
                    [
                        "-103.88",
                        "23.37"
                    ],
                    [
                        "-105.85",
                        "21.15"
                    ],
                    [
                        "-106.21",
                        "20.57"
                    ],
                    [
                        "-107.09",
                        "20.62"
                    ],
                    [
                        "-107.95",
                        "20.73"
                    ],
                    [
                        "-109.05",
                        "20.49"
                    ],
                    [
                        "-112.18",
                        "20.64"
                    ],
                    [
                        "-113.02",
                        "20.92"
                    ],
                    [
                        "-113.68",
                        "21.55"
                    ],
                    [
                        "-114.47",
                        "21.89"
                    ],
                    [
                        "-115.59",
                        "21.70"
                    ],
                    [
                        "-117.29",
                        "21.19"
                    ],
                    [
                        "-118.18",
                        "20.99"
                    ],
                    [
                        "-118.79",
                        "21.40"
                    ],
                    [
                        "-118.79",
                        "22.18"
                    ],
                    [
                        "-117.86",
                        "22.35"
                    ],
                    [
                        "-117.05",
                        "22.33"
                    ],
                    [
                        "-116.44",
                        "22.72"
                    ],
                    [
                        "-116.10",
                        "24.39"
                    ],
                    [
                        "-116.47",
                        "25.20"
                    ],
                    [
                        "-117.01",
                        "25.40"
                    ],
                    [
                        "-117.85",
                        "25.80"
                    ],
                    [
                        "-118.41",
                        "26.58"
                    ],
                    [
                        "-118.65",
                        "27.45"
                    ],
                    [
                        "-118.05",
                        "27.43"
                    ],
                    [
                        "-115.52",
                        "29.02"
                    ],
                    [
                        "-113.79",
                        "29.57"
                    ],
                    [
                        "-113.37",
                        "30.33"
                    ],
                    [
                        "-113.83",
                        "31.25"
                    ],
                    [
                        "-114.58",
                        "31.66"
                    ],
                    [
                        "-115.48",
                        "31.71"
                    ],
                    [
                        "-116.52",
                        "31.46"
                    ],
                    [
                        "-117.30",
                        "31.78"
                    ],
                    [
                        "-118.46",
                        "31.47"
                    ],
                    [
                        "-119.02",
                        "31.71"
                    ],
                    [
                        "-120.00",
                        "33.16"
                    ],
                    [
                        "-120.60",
                        "33.70"
                    ],
                    [
                        "-121.63",
                        "33.88"
                    ],
                    [
                        "-122.50",
                        "33.47"
                    ],
                    [
                        "-123.00",
                        "32.96"
                    ],
                    [
                        "-125.12",
                        "30.67"
                    ],
                    [
                        "-127.01",
                        "28.45"
                    ],
                    [
                        "-127.82",
                        "27.34"
                    ],
                    [
                        "-128.79",
                        "26.38"
                    ]
                ]
            },
            "properties": {
                "forecastId": null,
                "geometryId": null,
                "tag": "1C",
                "forecastHour": 3,
                "hazard": "FZLVL",
                "frequency": null,
                "severity": null,
                "status": "NRML",
                "base": null,
                "top": null,
                "fzlBase": null,
                "fzlTop": null,
                "level": "160",
                "product": "ZULU",
                "rawAirSigmet": null,
                "validTimeTo": "2026-08-05T18:00:00.000",
                "validTimeFrom": [
                    "2026-08-05T15:31"
                ]
            }
        },
        {
            "type": "Feature",
            "geometry": {
                "type": "LineString",
                "coordinates": [
                    [
                        "-137.92",
                        "50.65"
                    ],
                    [
                        "-137.44",
                        "50.78"
                    ],
                    [
                        "-136.98",
                        "50.94"
                    ],
                    [
                        "-136.53",
                        "51.11"
                    ],
                    [
                        "-136.42",
                        "51.16"
                    ],
                    [
                        "-136.08",
                        "51.31"
                    ],
                    [
                        "-135.66",
                        "51.54"
                    ],
                    [
                        "-135.43",
                        "51.69"
                    ],
                    [
                        "-135.26",
                        "51.84"
                    ],
                    [
                        "-134.99",
                        "52.11"
                    ],
                    [
                        "-134.92",
                        "52.27"
                    ],
                    [
                        "-134.88",
                        "52.46"
                    ],
                    [
                        "-135.01",
                        "52.77"
                    ],
                    [
                        "-135.31",
                        "53.05"
                    ],
                    [
                        "-135.32",
                        "53.06"
                    ],
                    [
                        "-135.77",
                        "53.30"
                    ],
                    [
                        "-136.10",
                        "53.49"
                    ],
                    [
                        "-136.24",
                        "53.55"
                    ]
                ]
            },
            "properties": {
                "forecastId": null,
                "geometryId": null,
                "tag": "1C",
                "forecastHour": 3,
                "hazard": "FZLVL",
                "frequency": null,
                "severity": null,
                "status": "NRML",
                "base": null,
                "top": null,
                "fzlBase": null,
                "fzlTop": null,
                "level": "120",
                "product": "ZULU",
                "rawAirSigmet": null,
                "validTimeTo": "2026-08-05T18:00:00.000",
                "validTimeFrom": [
                    "2026-08-05T15:31"
                ]
            }
        },
        {
            "type": "Feature",
            "geometry": {
                "type": "Polygon",
                "coordinates": [
                    [
                        [
                            "-77.33",
                            "40.25"
                        ],
                        [
                            "-80.66",
                            "35.60"
                        ],
                        [
                            "-81.10",
                            "36.46"
                        ],
                        [
                            "-80.47",
                            "38.79"
                        ],
                        [
                            "-79.61",
                            "39.55"
                        ],
                        [
                            "-78.46",
                            "40.14"
                        ],
                        [
                            "-77.33",
                            "40.25"
                        ]
                    ]
                ]
            },
            "properties": {
                "forecastId": null,
                "geometryId": null,
                "tag": "3E",
                "forecastHour": 3,
                "hazard": "MT_OBSC",
                "frequency": null,
                "severity": null,
                "status": "NRML",
                "base": null,
                "top": null,
                "fzlBase": null,
                "fzlTop": null,
                "level": null,
                "product": "SIERRA",
                "rawAirSigmet": "MTNS OBSC BY CLDS PCPN BR",
                "validTimeTo": "2026-08-05T18:00:00.000",
                "validTimeFrom": [
                    "2026-08-05T16:30"
                ]
            }
        },
        {
            "type": "Feature",
            "geometry": {
                "type": "LineString",
                "coordinates": [
                    [
                        "-63.26",
                        "40.55"
                    ],
                    [
                        "-66.61",
                        "39.47"
                    ],
                    [
                        "-68.23",
                        "38.09"
                    ],
                    [
                        "-68.98",
                        "37.34"
                    ],
                    [
                        "-69.46",
                        "35.93"
                    ],
                    [
                        "-71.36",
                        "35.01"
                    ],
                    [
                        "-73.19",
                        "33.78"
                    ],
                    [
                        "-74.15",
                        "33.30"
                    ],
                    [
                        "-75.48",
                        "33.41"
                    ],
                    [
                        "-74.70",
                        "35.56"
                    ],
                    [
                        "-74.31",
                        "36.46"
                    ],
                    [
                        "-75.33",
                        "36.76"
                    ],
                    [
                        "-76.25",
                        "36.41"
                    ],
                    [
                        "-77.12",
                        "36.37"
                    ],
                    [
                        "-77.93",
                        "36.65"
                    ],
                    [
                        "-78.68",
                        "37.34"
                    ],
                    [
                        "-78.35",
                        "38.61"
                    ],
                    [
                        "-77.94",
                        "39.50"
                    ],
                    [
                        "-77.22",
                        "40.51"
                    ],
                    [
                        "-76.11",
                        "40.84"
                    ],
                    [
                        "-74.35",
                        "40.84"
                    ],
                    [
                        "-73.37",
                        "41.14"
                    ],
                    [
                        "-73.04",
                        "41.78"
                    ],
                    [
                        "-73.26",
                        "42.33"
                    ],
                    [
                        "-73.89",
                        "43.14"
                    ],
                    [
                        "-74.79",
                        "43.42"
                    ],
                    [
                        "-75.85",
                        "43.58"
                    ],
                    [
                        "-76.38",
                        "43.93"
                    ],
                    [
                        "-76.24",
                        "44.62"
                    ],
                    [
                        "-74.55",
                        "45.88"
                    ],
                    [
                        "-73.47",
                        "46.38"
                    ],
                    [
                        "-72.26",
                        "46.62"
                    ],
                    [
                        "-67.81",
                        "44.64"
                    ],
                    [
                        "-65.55",
                        "43.51"
                    ],
                    [
                        "-62.64",
                        "42.49"
                    ]
                ]
            },
            "properties": {
                "forecastId": null,
                "geometryId": null,
                "tag": "1C",
                "forecastHour": 3,
                "hazard": "FZLVL",
                "frequency": null,
                "severity": null,
                "status": "NRML",
                "base": null,
                "top": null,
                "fzlBase": null,
                "fzlTop": null,
                "level": "160",
                "product": "ZULU",
                "rawAirSigmet": null,
                "validTimeTo": "2026-08-05T18:00:00.000",
                "validTimeFrom": [
                    "2026-08-05T15:31"
                ]
            }
        },
        {
            "type": "Feature",
            "geometry": {
                "type": "Polygon",
                "coordinates": [
                    [
                        [
                            "-116.29",
                            "48.99"
                        ],
                        [
                            "-116.13",
                            "47.85"
                        ],
                        [
                            "-115.86",
                            "47.04"
                        ],
                        [
                            "-114.45",
                            "47.36"
                        ],
                        [
                            "-112.45",
                            "47.00"
                        ],
                        [
                            "-111.34",
                            "46.45"
                        ],
                        [
                            "-108.07",
                            "45.33"
                        ],
                        [
                            "-106.95",
                            "44.66"
                        ],
                        [
                            "-106.03",
                            "43.11"
                        ],
                        [
                            "-106.92",
                            "42.01"
                        ],
                        [
                            "-108.00",
                            "40.91"
                        ],
                        [
                            "-108.65",
                            "40.75"
                        ],
                        [
                            "-110.00",
                            "40.77"
                        ],
                        [
                            "-111.24",
                            "40.70"
                        ],
                        [
                            "-112.50",
                            "40.32"
                        ],
                        [
                            "-113.98",
                            "39.93"
                        ],
                        [
                            "-115.55",
                            "40.52"
                        ],
                        [
                            "-117.48",
                            "40.70"
                        ],
                        [
                            "-118.59",
                            "41.35"
                        ],
                        [
                            "-118.92",
                            "42.30"
                        ],
                        [
                            "-120.69",
                            "42.51"
                        ],
                        [
                            "-121.46",
                            "41.98"
                        ],
                        [
                            "-122.27",
                            "41.52"
                        ],
                        [
                            "-123.51",
                            "41.75"
                        ],
                        [
                            "-124.21",
                            "41.48"
                        ],
                        [
                            "-124.36",
                            "42.91"
                        ],
                        [
                            "-124.04",
                            "44.57"
                        ],
                        [
                            "-124.20",
                            "47.28"
                        ],
                        [
                            "-123.91",
                            "47.67"
                        ],
                        [
                            "-123.38",
                            "47.81"
                        ],
                        [
                            "-123.06",
                            "48.92"
                        ],
                        [
                            "-116.29",
                            "48.99"
                        ]
                    ]
                ]
            },
            "properties": {
                "forecastId": null,
                "geometryId": null,
                "tag": "1E",
                "forecastHour": 3,
                "hazard": "MT_OBSC",
                "frequency": null,
                "severity": null,
                "status": "NRML",
                "base": null,
                "top": null,
                "fzlBase": null,
                "fzlTop": null,
                "level": null,
                "product": "SIERRA",
                "rawAirSigmet": "FU HZ",
                "validTimeTo": "2026-08-05T18:00:00.000",
                "validTimeFrom": [
                    "2026-08-05T16:30"
                ]
            }
        },
        {
            "type": "Feature",
            "geometry": {
                "type": "Polygon",
                "coordinates": [
                    [
                        [
                            "-119.29",
                            "28.92"
                        ],
                        [
                            "-119.20",
                            "28.77"
                        ],
                        [
                            "-119.15",
                            "28.41"
                        ],
                        [
                            "-119.15",
                            "28.23"
                        ],
                        [
                            "-119.24",
                            "28.39"
                        ],
                        [
                            "-119.47",
                            "28.73"
                        ],
                        [
                            "-119.29",
                            "28.92"
                        ]
                    ]
                ]
            },
            "properties": {
                "forecastId": null,
                "geometryId": null,
                "tag": "1C",
                "forecastHour": 3,
                "hazard": "FZLVL",
                "frequency": null,
                "severity": null,
                "status": "NRML",
                "base": null,
                "top": null,
                "fzlBase": null,
                "fzlTop": null,
                "level": "160",
                "product": "ZULU",
                "rawAirSigmet": null,
                "validTimeTo": "2026-08-05T18:00:00.000",
                "validTimeFrom": [
                    "2026-08-05T15:31"
                ]
            }
        },
        {
            "type": "Feature",
            "geometry": {
                "type": "LineString",
                "coordinates": [
                    [
                        "-111.13",
                        "57.86"
                    ],
                    [
                        "-111.03",
                        "57.56"
                    ],
                    [
                        "-110.88",
                        "57.27"
                    ],
                    [
                        "-110.67",
                        "56.97"
                    ],
                    [
                        "-110.62",
                        "56.90"
                    ],
                    [
                        "-110.44",
                        "56.68"
                    ],
                    [
                        "-110.13",
                        "56.40"
                    ],
                    [
                        "-109.93",
                        "56.28"
                    ],
                    [
                        "-109.56",
                        "56.12"
                    ],
                    [
                        "-109.33",
                        "56.04"
                    ],
                    [
                        "-108.75",
                        "55.87"
                    ],
                    [
                        "-108.72",
                        "55.86"
                    ],
                    [
                        "-108.17",
                        "55.72"
                    ],
                    [
                        "-107.60",
                        "55.63"
                    ],
                    [
                        "-107.07",
                        "55.70"
                    ],
                    [
                        "-106.72",
                        "55.97"
                    ],
                    [
                        "-106.58",
                        "56.09"
                    ],
                    [
                        "-106.43",
                        "56.29"
                    ],
                    [
                        "-106.19",
                        "56.61"
                    ],
                    [
                        "-106.12",
                        "56.71"
                    ],
                    [
                        "-105.94",
                        "56.92"
                    ],
                    [
                        "-105.74",
                        "57.24"
                    ],
                    [
                        "-105.67",
                        "57.48"
                    ],
                    [
                        "-105.64",
                        "57.54"
                    ],
                    [
                        "-105.64",
                        "57.85"
                    ],
                    [
                        "-105.71",
                        "58.14"
                    ]
                ]
            },
            "properties": {
                "forecastId": null,
                "geometryId": null,
                "tag": "1C",
                "forecastHour": 3,
                "hazard": "FZLVL",
                "frequency": null,
                "severity": null,
                "status": "NRML",
                "base": null,
                "top": null,
                "fzlBase": null,
                "fzlTop": null,
                "level": "080",
                "product": "ZULU",
                "rawAirSigmet": null,
                "validTimeTo": "2026-08-05T18:00:00.000",
                "validTimeFrom": [
                    "2026-08-05T15:31"
                ]
            }
        },
        {
            "type": "Feature",
            "geometry": {
                "type": "Polygon",
                "coordinates": [
                    [
                        [
                            "-88.53",
                            "48.22"
                        ],
                        [
                            "-84.88",
                            "46.83"
                        ],
                        [
                            "-82.50",
                            "45.18"
                        ],
                        [
                            "-85.05",
                            "43.71"
                        ],
                        [
                            "-87.25",
                            "43.08"
                        ],
                        [
                            "-88.78",
                            "41.64"
                        ],
                        [
                            "-90.78",
                            "41.49"
                        ],
                        [
                            "-93.14",
                            "41.98"
                        ],
                        [
                            "-93.36",
                            "44.28"
                        ],
                        [
                            "-92.44",
                            "46.34"
                        ],
                        [
                            "-90.35",
                            "47.87"
                        ],
                        [
                            "-88.53",
                            "48.22"
                        ]
                    ]
                ]
            },
            "properties": {
                "forecastId": null,
                "geometryId": null,
                "tag": "1W",
                "forecastHour": 3,
                "hazard": "TURB-HI",
                "frequency": null,
                "severity": "MOD",
                "status": "NRML",
                "base": "180",
                "top": "410",
                "fzlBase": null,
                "fzlTop": null,
                "level": null,
                "product": "TANGO",
                "rawAirSigmet": null,
                "validTimeTo": "2026-08-05T18:00:00.000",
                "validTimeFrom": [
                    "2026-08-05T14:45"
                ]
            }
        },
        {
            "type": "Feature",
            "geometry": {
                "type": "LineString",
                "coordinates": [
                    [
                        "-69.74",
                        "17.47"
                    ],
                    [
                        "-69.76",
                        "17.58"
                    ],
                    [
                        "-69.80",
                        "17.85"
                    ],
                    [
                        "-69.99",
                        "18.25"
                    ],
                    [
                        "-70.01",
                        "18.30"
                    ],
                    [
                        "-70.07",
                        "18.63"
                    ],
                    [
                        "-69.91",
                        "18.98"
                    ],
                    [
                        "-69.87",
                        "19.01"
                    ],
                    [
                        "-69.49",
                        "18.93"
                    ],
                    [
                        "-69.43",
                        "18.89"
                    ],
                    [
                        "-69.15",
                        "18.69"
                    ],
                    [
                        "-68.79",
                        "18.55"
                    ]
                ]
            },
            "properties": {
                "forecastId": null,
                "geometryId": null,
                "tag": "1C",
                "forecastHour": 3,
                "hazard": "FZLVL",
                "frequency": null,
                "severity": null,
                "status": "NRML",
                "base": null,
                "top": null,
                "fzlBase": null,
                "fzlTop": null,
                "level": "160",
                "product": "ZULU",
                "rawAirSigmet": null,
                "validTimeTo": "2026-08-05T18:00:00.000",
                "validTimeFrom": [
                    "2026-08-05T15:31"
                ]
            }
        },
        {
            "type": "Feature",
            "geometry": {
                "type": "LineString",
                "coordinates": [
                    [
                        "-83.87",
                        "58.12"
                    ],
                    [
                        "-84.45",
                        "57.55"
                    ],
                    [
                        "-85.51",
                        "57.06"
                    ],
                    [
                        "-87.28",
                        "56.17"
                    ],
                    [
                        "-88.16",
                        "55.85"
                    ],
                    [
                        "-88.19",
                        "54.92"
                    ],
                    [
                        "-87.93",
                        "54.29"
                    ],
                    [
                        "-87.16",
                        "53.63"
                    ],
                    [
                        "-86.91",
                        "52.99"
                    ],
                    [
                        "-87.31",
                        "52.35"
                    ],
                    [
                        "-86.65",
                        "51.94"
                    ],
                    [
                        "-85.09",
                        "51.75"
                    ],
                    [
                        "-83.55",
                        "51.63"
                    ],
                    [
                        "-82.45",
                        "51.91"
                    ],
                    [
                        "-80.58",
                        "52.66"
                    ],
                    [
                        "-79.61",
                        "53.11"
                    ],
                    [
                        "-78.50",
                        "53.25"
                    ],
                    [
                        "-77.24",
                        "53.38"
                    ],
                    [
                        "-76.52",
                        "53.97"
                    ],
                    [
                        "-75.28",
                        "55.13"
                    ],
                    [
                        "-74.00",
                        "56.58"
                    ],
                    [
                        "-73.40",
                        "57.45"
                    ]
                ]
            },
            "properties": {
                "forecastId": null,
                "geometryId": null,
                "tag": "1C",
                "forecastHour": 3,
                "hazard": "FZLVL",
                "frequency": null,
                "severity": null,
                "status": "NRML",
                "base": null,
                "top": null,
                "fzlBase": null,
                "fzlTop": null,
                "level": "080",
                "product": "ZULU",
                "rawAirSigmet": null,
                "validTimeTo": "2026-08-05T18:00:00.000",
                "validTimeFrom": [
                    "2026-08-05T15:31"
                ]
            }
        },
        {
            "type": "Feature",
            "geometry": {
                "type": "LineString",
                "coordinates": [
                    [
                        "-124.52",
                        "56.63"
                    ],
                    [
                        "-121.54",
                        "55.56"
                    ],
                    [
                        "-119.15",
                        "54.40"
                    ],
                    [
                        "-116.69",
                        "53.09"
                    ],
                    [
                        "-114.16",
                        "51.98"
                    ],
                    [
                        "-113.09",
                        "51.14"
                    ],
                    [
                        "-112.00",
                        "50.52"
                    ],
                    [
                        "-109.71",
                        "49.23"
                    ],
                    [
                        "-108.70",
                        "48.24"
                    ],
                    [
                        "-107.57",
                        "47.74"
                    ],
                    [
                        "-105.31",
                        "46.34"
                    ],
                    [
                        "-102.46",
                        "45.50"
                    ],
                    [
                        "-99.81",
                        "44.50"
                    ],
                    [
                        "-96.12",
                        "44.21"
                    ],
                    [
                        "-94.12",
                        "44.51"
                    ],
                    [
                        "-93.07",
                        "44.89"
                    ],
                    [
                        "-89.81",
                        "45.63"
                    ],
                    [
                        "-88.35",
                        "46.10"
                    ],
                    [
                        "-87.34",
                        "46.75"
                    ],
                    [
                        "-84.69",
                        "47.78"
                    ],
                    [
                        "-83.46",
                        "48.31"
                    ],
                    [
                        "-82.38",
                        "49.18"
                    ],
                    [
                        "-80.12",
                        "50.56"
                    ],
                    [
                        "-78.97",
                        "51.25"
                    ],
                    [
                        "-77.29",
                        "51.43"
                    ],
                    [
                        "-76.08",
                        "51.98"
                    ],
                    [
                        "-75.26",
                        "52.82"
                    ],
                    [
                        "-74.18",
                        "53.52"
                    ],
                    [
                        "-72.29",
                        "53.58"
                    ],
                    [
                        "-70.60",
                        "55.05"
                    ],
                    [
                        "-70.22",
                        "56.12"
                    ],
                    [
                        "-70.09",
                        "57.14"
                    ]
                ]
            },
            "properties": {
                "forecastId": null,
                "geometryId": null,
                "tag": "1C",
                "forecastHour": 3,
                "hazard": "FZLVL",
                "frequency": null,
                "severity": null,
                "status": "NRML",
                "base": null,
                "top": null,
                "fzlBase": null,
                "fzlTop": null,
                "level": "120",
                "product": "ZULU",
                "rawAirSigmet": null,
                "validTimeTo": "2026-08-05T18:00:00.000",
                "validTimeFrom": [
                    "2026-08-05T15:31"
                ]
            }
        },
        {
            "type": "Feature",
            "geometry": {
                "type": "Polygon",
                "coordinates": [
                    [
                        [
                            "-124.81",
                            "47.62"
                        ],
                        [
                            "-123.65",
                            "47.21"
                        ],
                        [
                            "-123.77",
                            "46.67"
                        ],
                        [
                            "-123.79",
                            "45.37"
                        ],
                        [
                            "-124.04",
                            "44.10"
                        ],
                        [
                            "-124.05",
                            "42.38"
                        ],
                        [
                            "-123.87",
                            "41.52"
                        ],
                        [
                            "-123.82",
                            "41.17"
                        ],
                        [
                            "-123.87",
                            "39.93"
                        ],
                        [
                            "-123.26",
                            "39.31"
                        ],
                        [
                            "-122.02",
                            "37.71"
                        ],
                        [
                            "-121.36",
                            "36.63"
                        ],
                        [
                            "-121.16",
                            "36.07"
                        ],
                        [
                            "-120.70",
                            "35.22"
                        ],
                        [
                            "-119.95",
                            "34.37"
                        ],
                        [
                            "-119.11",
                            "33.80"
                        ],
                        [
                            "-117.66",
                            "32.96"
                        ],
                        [
                            "-117.27",
                            "32.49"
                        ],
                        [
                            "-118.40",
                            "31.73"
                        ],
                        [
                            "-120.76",
                            "30.83"
                        ],
                        [
                            "-124.18",
                            "36.04"
                        ],
                        [
                            "-127.03",
                            "39.85"
                        ],
                        [
                            "-126.18",
                            "40.05"
                        ],
                        [
                            "-126.46",
                            "41.36"
                        ],
                        [
                            "-126.57",
                            "42.55"
                        ],
                        [
                            "-125.99",
                            "45.32"
                        ],
                        [
                            "-125.83",
                            "46.42"
                        ],
                        [
                            "-125.14",
                            "47.08"
                        ],
                        [
                            "-124.81",
                            "47.62"
                        ]
                    ]
                ]
            },
            "properties": {
                "forecastId": null,
                "geometryId": null,
                "tag": "3E",
                "forecastHour": 3,
                "hazard": "IFR",
                "frequency": null,
                "severity": null,
                "status": "NRML",
                "base": null,
                "top": null,
                "fzlBase": null,
                "fzlTop": null,
                "level": null,
                "product": "SIERRA",
                "rawAirSigmet": "CIG BLW 010 VIS BLW 3SM BR FG",
                "validTimeTo": "2026-08-05T18:00:00.000",
                "validTimeFrom": [
                    "2026-08-05T16:30"
                ]
            }
        },
        {
            "type": "Feature",
            "geometry": {
                "type": "LineString",
                "coordinates": [
                    [
                        "-126.63",
                        "18.29"
                    ],
                    [
                        "-126.32",
                        "18.10"
                    ],
                    [
                        "-126.16",
                        "17.96"
                    ],
                    [
                        "-126.02",
                        "17.79"
                    ],
                    [
                        "-125.73",
                        "17.49"
                    ],
                    [
                        "-125.63",
                        "17.41"
                    ],
                    [
                        "-125.40",
                        "17.19"
                    ],
                    [
                        "-125.15",
                        "17.02"
                    ],
                    [
                        "-124.99",
                        "16.90"
                    ],
                    [
                        "-124.67",
                        "16.63"
                    ],
                    [
                        "-124.65",
                        "16.61"
                    ]
                ]
            },
            "properties": {
                "forecastId": null,
                "geometryId": null,
                "tag": "1C",
                "forecastHour": 3,
                "hazard": "FZLVL",
                "frequency": null,
                "severity": null,
                "status": "NRML",
                "base": null,
                "top": null,
                "fzlBase": null,
                "fzlTop": null,
                "level": "160",
                "product": "ZULU",
                "rawAirSigmet": null,
                "validTimeTo": "2026-08-05T18:00:00.000",
                "validTimeFrom": [
                    "2026-08-05T15:31"
                ]
            }
        },
        {
            "type": "Feature",
            "geometry": {
                "type": "Polygon",
                "coordinates": [
                    [
                        [
                            "-123.70",
                            "39.47"
                        ],
                        [
                            "-123.26",
                            "39.18"
                        ],
                        [
                            "-122.68",
                            "38.80"
                        ],
                        [
                            "-121.70",
                            "37.50"
                        ],
                        [
                            "-121.30",
                            "36.59"
                        ],
                        [
                            "-120.36",
                            "35.16"
                        ],
                        [
                            "-119.91",
                            "34.51"
                        ],
                        [
                            "-119.56",
                            "34.35"
                        ],
                        [
                            "-120.62",
                            "34.57"
                        ],
                        [
                            "-123.33",
                            "38.69"
                        ],
                        [
                            "-123.55",
                            "38.90"
                        ],
                        [
                            "-123.70",
                            "39.47"
                        ]
                    ]
                ]
            },
            "properties": {
                "forecastId": null,
                "geometryId": null,
                "tag": "5E",
                "forecastHour": 3,
                "hazard": "MT_OBSC",
                "frequency": null,
                "severity": null,
                "status": "NRML",
                "base": null,
                "top": null,
                "fzlBase": null,
                "fzlTop": null,
                "level": null,
                "product": "SIERRA",
                "rawAirSigmet": "MTNS OBSC BY CLDS BR",
                "validTimeTo": "2026-08-05T18:00:00.000",
                "validTimeFrom": [
                    "2026-08-05T16:30"
                ]
            }
        },
        {
            "type": "Feature",
            "geometry": {
                "type": "Polygon",
                "coordinates": [
                    [
                        [
                            "-80.97",
                            "42.03"
                        ],
                        [
                            "-80.97",
                            "40.15"
                        ],
                        [
                            "-82.42",
                            "37.68"
                        ],
                        [
                            "-83.43",
                            "34.23"
                        ],
                        [
                            "-84.42",
                            "32.90"
                        ],
                        [
                            "-85.90",
                            "33.69"
                        ],
                        [
                            "-85.90",
                            "35.89"
                        ],
                        [
                            "-84.98",
                            "38.82"
                        ],
                        [
                            "-83.75",
                            "40.46"
                        ],
                        [
                            "-82.27",
                            "41.77"
                        ],
                        [
                            "-80.97",
                            "42.03"
                        ]
                    ]
                ]
            },
            "properties": {
                "forecastId": null,
                "geometryId": null,
                "tag": "2W",
                "forecastHour": 3,
                "hazard": "TURB-HI",
                "frequency": null,
                "severity": "MOD",
                "status": "NRML",
                "base": "290",
                "top": "410",
                "fzlBase": null,
                "fzlTop": null,
                "level": null,
                "product": "TANGO",
                "rawAirSigmet": null,
                "validTimeTo": "2026-08-05T18:00:00.000",
                "validTimeFrom": [
                    "2026-08-05T14:45"
                ]
            }
        },
        {
            "type": "Feature",
            "geometry": {
                "type": "Polygon",
                "coordinates": [
                    [
                        [
                            "-121.58",
                            "49.08"
                        ],
                        [
                            "-120.71",
                            "48.98"
                        ],
                        [
                            "-117.81",
                            "49.07"
                        ],
                        [
                            "-117.70",
                            "48.15"
                        ],
                        [
                            "-118.07",
                            "47.81"
                        ],
                        [
                            "-118.90",
                            "47.59"
                        ],
                        [
                            "-120.28",
                            "46.89"
                        ],
                        [
                            "-121.17",
                            "47.32"
                        ],
                        [
                            "-121.58",
                            "49.08"
                        ]
                    ]
                ]
            },
            "properties": {
                "forecastId": null,
                "geometryId": null,
                "tag": "7E",
                "forecastHour": 3,
                "hazard": "IFR",
                "frequency": null,
                "severity": null,
                "status": "NRML",
                "base": null,
                "top": null,
                "fzlBase": null,
                "fzlTop": null,
                "level": null,
                "product": "SIERRA",
                "rawAirSigmet": "VIS BLW 3SM HZ FU",
                "validTimeTo": "2026-08-05T18:00:00.000",
                "validTimeFrom": [
                    "2026-08-05T16:30"
                ]
            }
        }
    ],
    "metadata": {
        "creationTime": "2026-08-05T16:46"
    }
}