{
    "type": "FeatureCollection",
    "features": [
        {
            "type": "Feature",
            "geometry": {
                "type": "Polygon",
                "coordinates": [
                    [
                        [
                            "-69.38",
                            "47.63"
                        ],
                        [
                            "-67.80",
                            "47.17"
                        ],
                        [
                            "-67.78",
                            "45.90"
                        ],
                        [
                            "-67.04",
                            "44.64"
                        ],
                        [
                            "-67.05",
                            "43.65"
                        ],
                        [
                            "-70.63",
                            "42.93"
                        ],
                        [
                            "-74.19",
                            "44.89"
                        ],
                        [
                            "-71.33",
                            "45.43"
                        ],
                        [
                            "-69.38",
                            "47.63"
                        ]
                    ]
                ]
            },
            "properties": {
                "forecastId": null,
                "geometryId": null,
                "tag": "3C",
                "forecastHour": 0,
                "hazard": "ICE",
                "frequency": null,
                "severity": "MOD",
                "status": "NRML",
                "base": "130",
                "top": "250",
                "fzlBase": null,
                "fzlTop": null,
                "level": null,
                "product": "ZULU",
                "rawAirSigmet": "ICE",
                "validTimeTo": "2026-08-16T21:00:00.000",
                "validTimeFrom": [
                    "2026-08-16T20:45"
                ]
            }
        },
        {
            "type": "Feature",
            "geometry": {
                "type": "Polygon",
                "coordinates": [
                    [
                        [
                            "-122.64",
                            "48.98"
                        ],
                        [
                            "-120.78",
                            "48.93"
                        ],
                        [
                            "-121.10",
                            "48.00"
                        ],
                        [
                            "-121.31",
                            "47.31"
                        ],
                        [
                            "-121.76",
                            "46.86"
                        ],
                        [
                            "-122.34",
                            "46.51"
                        ],
                        [
                            "-122.99",
                            "45.79"
                        ],
                        [
                            "-124.08",
                            "45.52"
                        ],
                        [
                            "-124.07",
                            "46.94"
                        ],
                        [
                            "-124.61",
                            "48.32"
                        ],
                        [
                            "-123.57",
                            "48.55"
                        ],
                        [
                            "-122.64",
                            "48.98"
                        ]
                    ]
                ]
            },
            "properties": {
                "forecastId": null,
                "geometryId": null,
                "tag": "3E",
                "forecastHour": 0,
                "hazard": "MT_OBSC",
                "frequency": null,
                "severity": null,
                "status": "NRML",
                "base": null,
                "top": null,
                "fzlBase": null,
                "fzlTop": null,
                "level": null,
                "product": "SIERRA",
                "rawAirSigmet": "MTNS OBSC BY CLDS",
                "validTimeTo": "2026-08-16T21:00:00.000",
                "validTimeFrom": [
                    "2026-08-16T20:45"
                ]
            }
        },
        {
            "type": "Feature",
            "geometry": {
                "type": "Polygon",
                "coordinates": [
                    [
                        [
                            "-124.07",
                            "42.44"
                        ],
                        [
                            "-123.80",
                            "40.99"
                        ],
                        [
                            "-124.28",
                            "40.32"
                        ],
                        [
                            "-123.44",
                            "38.75"
                        ],
                        [
                            "-122.31",
                            "37.80"
                        ],
                        [
                            "-122.24",
                            "37.11"
                        ],
                        [
                            "-121.57",
                            "36.86"
                        ],
                        [
                            "-121.78",
                            "36.39"
                        ],
                        [
                            "-120.36",
                            "34.85"
                        ],
                        [
                            "-121.14",
                            "33.66"
                        ],
                        [
                            "-122.41",
                            "33.34"
                        ],
                        [
                            "-123.12",
                            "34.52"
                        ],
                        [
                            "-126.16",
                            "38.74"
                        ],
                        [
                            "-126.55",
                            "39.85"
                        ],
                        [
                            "-126.08",
                            "41.63"
                        ],
                        [
                            "-124.07",
                            "42.44"
                        ]
                    ]
                ]
            },
            "properties": {
                "forecastId": null,
                "geometryId": null,
                "tag": "2E",
                "forecastHour": 0,
                "hazard": "IFR",
                "frequency": null,
                "severity": null,
                "status": "NRML",
                "base": null,
                "top": null,
                "fzlBase": null,
                "fzlTop": null,
                "level": null,
                "product": "SIERRA",
                "rawAirSigmet": "CIG BLW 010 VIS BLW 3SM BR",
                "validTimeTo": "2026-08-16T21:00:00.000",
                "validTimeFrom": [
                    "2026-08-16T20:45"
                ]
            }
        },
        {
            "type": "Feature",
            "geometry": {
                "type": "LineString",
                "coordinates": [
                    [
                        "-115.43",
                        "59.19"
                    ],
                    [
                        "-114.67",
                        "58.57"
                    ],
                    [
                        "-113.03",
                        "57.75"
                    ],
                    [
                        "-110.49",
                        "57.17"
                    ],
                    [
                        "-108.70",
                        "57.04"
                    ],
                    [
                        "-104.25",
                        "57.25"
                    ],
                    [
                        "-101.52",
                        "57.47"
                    ],
                    [
                        "-99.44",
                        "57.91"
                    ],
                    [
                        "-97.76",
                        "58.59"
                    ],
                    [
                        "-96.11",
                        "59.59"
                    ],
                    [
                        "-94.32",
                        "60.41"
                    ],
                    [
                        "-92.22",
                        "60.98"
                    ],
                    [
                        "-88.58",
                        "61.00"
                    ],
                    [
                        "-85.90",
                        "60.42"
                    ],
                    [
                        "-82.72",
                        "59.58"
                    ],
                    [
                        "-79.99",
                        "59.08"
                    ],
                    [
                        "-77.97",
                        "58.87"
                    ],
                    [
                        "-75.38",
                        "58.41"
                    ],
                    [
                        "-72.26",
                        "57.72"
                    ],
                    [
                        "-69.90",
                        "56.99"
                    ],
                    [
                        "-67.36",
                        "55.94"
                    ],
                    [
                        "-65.40",
                        "55.31"
                    ],
                    [
                        "-63.38",
                        "54.92"
                    ],
                    [
                        "-61.07",
                        "55.18"
                    ]
                ]
            },
            "properties": {
                "forecastId": null,
                "geometryId": null,
                "tag": "1C",
                "forecastHour": 0,
                "hazard": "FZLVL",
                "frequency": null,
                "severity": null,
                "status": "NRML",
                "base": null,
                "top": null,
                "fzlBase": null,
                "fzlTop": null,
                "level": "080",
                "product": "ZULU",
                "rawAirSigmet": null,
                "validTimeTo": "2026-08-16T21:00:00.000",
                "validTimeFrom": [
                    "2026-08-16T20:45"
                ]
            }
        },
        {
            "type": "Feature",
            "geometry": {
                "type": "LineString",
                "coordinates": [
                    [
                        "-62.54",
                        "21.24"
                    ],
                    [
                        "-63.01",
                        "21.34"
                    ],
                    [
                        "-63.28",
                        "21.37"
                    ],
                    [
                        "-64.05",
                        "21.40"
                    ],
                    [
                        "-64.11",
                        "21.39"
                    ],
                    [
                        "-64.83",
                        "21.23"
                    ],
                    [
                        "-65.24",
                        "21.08"
                    ],
                    [
                        "-65.49",
                        "20.97"
                    ],
                    [
                        "-66.14",
                        "20.71"
                    ],
                    [
                        "-66.45",
                        "20.63"
                    ],
                    [
                        "-66.88",
                        "20.50"
                    ],
                    [
                        "-67.35",
                        "20.10"
                    ],
                    [
                        "-67.31",
                        "19.60"
                    ],
                    [
                        "-66.85",
                        "19.21"
                    ],
                    [
                        "-66.10",
                        "19.16"
                    ],
                    [
                        "-66.09",
                        "19.16"
                    ],
                    [
                        "-65.28",
                        "19.20"
                    ],
                    [
                        "-65.17",
                        "19.20"
                    ],
                    [
                        "-64.52",
                        "19.14"
                    ],
                    [
                        "-64.08",
                        "19.08"
                    ],
                    [
                        "-63.80",
                        "19.04"
                    ]
                ]
            },
            "properties": {
                "forecastId": null,
                "geometryId": null,
                "tag": "1C",
                "forecastHour": 0,
                "hazard": "FZLVL",
                "frequency": null,
                "severity": null,
                "status": "NRML",
                "base": null,
                "top": null,
                "fzlBase": null,
                "fzlTop": null,
                "level": "160",
                "product": "ZULU",
                "rawAirSigmet": null,
                "validTimeTo": "2026-08-16T21:00:00.000",
                "validTimeFrom": [
                    "2026-08-16T20:45"
                ]
            }
        },
        {
            "type": "Feature",
            "geometry": {
                "type": "LineString",
                "coordinates": [
                    [
                        "-130.03",
                        "55.82"
                    ],
                    [
                        "-129.86",
                        "54.87"
                    ],
                    [
                        "-130.07",
                        "53.93"
                    ],
                    [
                        "-130.97",
                        "52.56"
                    ],
                    [
                        "-132.67",
                        "50.93"
                    ],
                    [
                        "-133.95",
                        "49.32"
                    ],
                    [
                        "-134.38",
                        "48.27"
                    ],
                    [
                        "-134.48",
                        "47.25"
                    ],
                    [
                        "-134.59",
                        "45.68"
                    ],
                    [
                        "-135.82",
                        "42.50"
                    ],
                    [
                        "-131.19",
                        "43.90"
                    ],
                    [
                        "-129.69",
                        "44.42"
                    ],
                    [
                        "-128.55",
                        "45.21"
                    ],
                    [
                        "-127.45",
                        "47.16"
                    ],
                    [
                        "-126.26",
                        "48.34"
                    ],
                    [
                        "-125.17",
                        "48.81"
                    ],
                    [
                        "-123.61",
                        "49.08"
                    ],
                    [
                        "-120.99",
                        "49.38"
                    ],
                    [
                        "-117.81",
                        "50.24"
                    ],
                    [
                        "-116.06",
                        "50.55"
                    ],
                    [
                        "-114.05",
                        "50.57"
                    ],
                    [
                        "-111.80",
                        "50.30"
                    ],
                    [
                        "-105.35",
                        "49.37"
                    ],
                    [
                        "-103.83",
                        "49.19"
                    ],
                    [
                        "-102.04",
                        "49.30"
                    ],
                    [
                        "-100.42",
                        "50.00"
                    ],
                    [
                        "-98.96",
                        "50.57"
                    ],
                    [
                        "-98.06",
                        "50.72"
                    ],
                    [
                        "-93.37",
                        "50.42"
                    ],
                    [
                        "-89.50",
                        "50.10"
                    ],
                    [
                        "-87.31",
                        "50.14"
                    ],
                    [
                        "-80.43",
                        "50.60"
                    ],
                    [
                        "-77.47",
                        "50.55"
                    ],
                    [
                        "-76.00",
                        "50.15"
                    ],
                    [
                        "-74.72",
                        "49.45"
                    ],
                    [
                        "-73.27",
                        "47.72"
                    ],
                    [
                        "-72.71",
                        "47.10"
                    ],
                    [
                        "-71.34",
                        "46.50"
                    ],
                    [
                        "-68.84",
                        "46.32"
                    ],
                    [
                        "-66.85",
                        "46.27"
                    ],
                    [
                        "-64.01",
                        "45.87"
                    ],
                    [
                        "-61.12",
                        "45.12"
                    ],
                    [
                        "-58.80",
                        "44.43"
                    ],
                    [
                        "-57.65",
                        "43.88"
                    ],
                    [
                        "-56.63",
                        "43.17"
                    ],
                    [
                        "-55.66",
                        "42.18"
                    ],
                    [
                        "-54.57",
                        "41.46"
                    ],
                    [
                        "-53.22",
                        "41.35"
                    ],
                    [
                        "-52.13",
                        "41.64"
                    ],
                    [
                        "-50.29",
                        "42.53"
                    ],
                    [
                        "-48.92",
                        "43.49"
                    ],
                    [
                        "-47.93",
                        "44.25"
                    ],
                    [
                        "-45.89",
                        "45.53"
                    ]
                ]
            },
            "properties": {
                "forecastId": null,
                "geometryId": null,
                "tag": "1C",
                "forecastHour": 0,
                "hazard": "FZLVL",
                "frequency": null,
                "severity": null,
                "status": "NRML",
                "base": null,
                "top": null,
                "fzlBase": null,
                "fzlTop": null,
                "level": "120",
                "product": "ZULU",
                "rawAirSigmet": null,
                "validTimeTo": "2026-08-16T21:00:00.000",
                "validTimeFrom": [
                    "2026-08-16T20:45"
                ]
            }
        },
        {
            "type": "Feature",
            "geometry": {
                "type": "Polygon",
                "coordinates": [
                    [
                        [
                            "-130.12",
                            "20.36"
                        ],
                        [
                            "-130.28",
                            "19.64"
                        ],
                        [
                            "-129.76",
                            "19.23"
                        ],
                        [
                            "-129.44",
                            "19.23"
                        ],
                        [
                            "-128.90",
                            "19.52"
                        ],
                        [
                            "-128.81",
                            "19.63"
                        ],
                        [
                            "-128.56",
                            "20.25"
                        ],
                        [
                            "-128.49",
                            "20.40"
                        ],
                        [
                            "-128.74",
                            "20.95"
                        ],
                        [
                            "-128.92",
                            "21.00"
                        ],
                        [
                            "-129.58",
                            "20.92"
                        ],
                        [
                            "-130.07",
                            "20.50"
                        ],
                        [
                            "-130.12",
                            "20.36"
                        ]
                    ]
                ]
            },
            "properties": {
                "forecastId": null,
                "geometryId": null,
                "tag": "1C",
                "forecastHour": 0,
                "hazard": "FZLVL",
                "frequency": null,
                "severity": null,
                "status": "NRML",
                "base": null,
                "top": null,
                "fzlBase": null,
                "fzlTop": null,
                "level": "160",
                "product": "ZULU",
                "rawAirSigmet": null,
                "validTimeTo": "2026-08-16T21:00:00.000",
                "validTimeFrom": [
                    "2026-08-16T20:45"
                ]
            }
        },
        {
            "type": "Feature",
            "geometry": {
                "type": "Polygon",
                "coordinates": [
                    [
                        [
                            "-93.46",
                            "25.61"
                        ],
                        [
                            "-94.24",
                            "25.27"
                        ],
                        [
                            "-95.09",
                            "24.52"
                        ],
                        [
                            "-95.83",
                            "23.68"
                        ],
                        [
                            "-96.16",
                            "23.11"
                        ],
                        [
                            "-96.18",
                            "22.18"
                        ],
                        [
                            "-95.61",
                            "21.68"
                        ],
                        [
                            "-94.35",
                            "21.45"
                        ],
                        [
                            "-93.69",
                            "21.48"
                        ],
                        [
                            "-92.32",
                            "21.70"
                        ],
                        [
                            "-91.63",
                            "21.81"
                        ],
                        [
                            "-90.88",
                            "22.12"
                        ],
                        [
                            "-90.27",
                            "23.23"
                        ],
                        [
                            "-90.37",
                            "23.98"
                        ],
                        [
                            "-90.83",
                            "24.82"
                        ],
                        [
                            "-91.34",
                            "25.53"
                        ],
                        [
                            "-92.05",
                            "25.82"
                        ],
                        [
                            "-92.71",
                            "25.78"
                        ],
                        [
                            "-93.46",
                            "25.61"
                        ]
                    ]
                ]
            },
            "properties": {
                "forecastId": null,
                "geometryId": null,
                "tag": "1C",
                "forecastHour": 0,
                "hazard": "FZLVL",
                "frequency": null,
                "severity": null,
                "status": "NRML",
                "base": null,
                "top": null,
                "fzlBase": null,
                "fzlTop": null,
                "level": "160",
                "product": "ZULU",
                "rawAirSigmet": null,
                "validTimeTo": "2026-08-16T21:00:00.000",
                "validTimeFrom": [
                    "2026-08-16T20:45"
                ]
            }
        },
        {
            "type": "Feature",
            "geometry": {
                "type": "Polygon",
                "coordinates": [
                    [
                        [
                            "-137.10",
                            "38.53"
                        ],
                        [
                            "-138.00",
                            "37.10"
                        ],
                        [
                            "-139.03",
                            "36.27"
                        ],
                        [
                            "-139.93",
                            "36.19"
                        ],
                        [
                            "-142.05",
                            "35.68"
                        ],
                        [
                            "-142.88",
                            "34.30"
                        ],
                        [
                            "-142.61",
                            "33.18"
                        ],
                        [
                            "-142.10",
                            "32.35"
                        ],
                        [
                            "-140.46",
                            "31.57"
                        ],
                        [
                            "-138.76",
                            "31.82"
                        ],
                        [
                            "-136.68",
                            "32.81"
                        ],
                        [
                            "-134.85",
                            "33.15"
                        ],
                        [
                            "-133.73",
                            "33.47"
                        ],
                        [
                            "-132.90",
                            "34.05"
                        ],
                        [
                            "-132.13",
                            "35.15"
                        ],
                        [
                            "-131.94",
                            "35.88"
                        ],
                        [
                            "-132.11",
                            "36.72"
                        ],
                        [
                            "-133.37",
                            "37.77"
                        ],
                        [
                            "-135.28",
                            "38.55"
                        ],
                        [
                            "-136.57",
                            "38.76"
                        ],
                        [
                            "-137.07",
                            "38.57"
                        ],
                        [
                            "-137.10",
                            "38.53"
                        ]
                    ]
                ]
            },
            "properties": {
                "forecastId": null,
                "geometryId": null,
                "tag": "1C",
                "forecastHour": 0,
                "hazard": "FZLVL",
                "frequency": null,
                "severity": null,
                "status": "NRML",
                "base": null,
                "top": null,
                "fzlBase": null,
                "fzlTop": null,
                "level": "120",
                "product": "ZULU",
                "rawAirSigmet": null,
                "validTimeTo": "2026-08-16T21:00:00.000",
                "validTimeFrom": [
                    "2026-08-16T20:45"
                ]
            }
        },
        {
            "type": "Feature",
            "geometry": {
                "type": "Polygon",
                "coordinates": [
                    [
                        [
                            "-77.02",
                            "42.67"
                        ],
                        [
                            "-74.30",
                            "42.32"
                        ],
                        [
                            "-74.81",
                            "39.94"
                        ],
                        [
                            "-77.63",
                            "38.40"
                        ],
                        [
                            "-78.70",
                            "42.05"
                        ],
                        [
                            "-77.02",
                            "42.67"
                        ]
                    ]
                ]
            },
            "properties": {
                "forecastId": null,
                "geometryId": null,
                "tag": "1E",
                "forecastHour": 0,
                "hazard": "IFR",
                "frequency": null,
                "severity": null,
                "status": "NRML",
                "base": null,
                "top": null,
                "fzlBase": null,
                "fzlTop": null,
                "level": null,
                "product": "SIERRA",
                "rawAirSigmet": "CIG BLW 010 VIS BLW 3SM PCPN BR",
                "validTimeTo": "2026-08-16T21:00:00.000",
                "validTimeFrom": [
                    "2026-08-16T20:45"
                ]
            }
        },
        {
            "type": "Feature",
            "geometry": {
                "type": "Polygon",
                "coordinates": [
                    [
                        [
                            "-120.80",
                            "49.03"
                        ],
                        [
                            "-118.30",
                            "48.91"
                        ],
                        [
                            "-119.32",
                            "48.01"
                        ],
                        [
                            "-119.29",
                            "47.49"
                        ],
                        [
                            "-118.14",
                            "47.32"
                        ],
                        [
                            "-117.74",
                            "47.05"
                        ],
                        [
                            "-117.55",
                            "46.53"
                        ],
                        [
                            "-118.04",
                            "46.10"
                        ],
                        [
                            "-119.01",
                            "45.93"
                        ],
                        [
                            "-119.71",
                            "46.11"
                        ],
                        [
                            "-120.63",
                            "45.36"
                        ],
                        [
                            "-121.33",
                            "47.41"
                        ],
                        [
                            "-120.93",
                            "48.29"
                        ],
                        [
                            "-120.80",
                            "49.03"
                        ]
                    ]
                ]
            },
            "properties": {
                "forecastId": null,
                "geometryId": null,
                "tag": "2E",
                "forecastHour": 0,
                "hazard": "MT_OBSC",
                "frequency": null,
                "severity": null,
                "status": "NRML",
                "base": null,
                "top": null,
                "fzlBase": null,
                "fzlTop": null,
                "level": null,
                "product": "SIERRA",
                "rawAirSigmet": "FU HZ",
                "validTimeTo": "2026-08-16T21:00:00.000",
                "validTimeFrom": [
                    "2026-08-16T20:45"
                ]
            }
        },
        {
            "type": "Feature",
            "geometry": {
                "type": "Polygon",
                "coordinates": [
                    [
                        [
                            "-74.21",
                            "42.11"
                        ],
                        [
                            "-72.39",
                            "38.74"
                        ],
                        [
                            "-72.65",
                            "37.90"
                        ],
                        [
                            "-76.09",
                            "37.47"
                        ],
                        [
                            "-76.06",
                            "38.52"
                        ],
                        [
                            "-75.81",
                            "41.90"
                        ],
                        [
                            "-74.21",
                            "42.11"
                        ]
                    ]
                ]
            },
            "properties": {
                "forecastId": null,
                "geometryId": null,
                "tag": "1C",
                "forecastHour": 0,
                "hazard": "ICE",
                "frequency": null,
                "severity": "MOD",
                "status": "NRML",
                "base": "160",
                "top": "270",
                "fzlBase": null,
                "fzlTop": null,
                "level": null,
                "product": "ZULU",
                "rawAirSigmet": "ICE",
                "validTimeTo": "2026-08-16T21:00:00.000",
                "validTimeFrom": [
                    "2026-08-16T20:45"
                ]
            }
        },
        {
            "type": "Feature",
            "geometry": {
                "type": "Polygon",
                "coordinates": [
                    [
                        [
                            "-85.02",
                            "46.93"
                        ],
                        [
                            "-84.49",
                            "46.30"
                        ],
                        [
                            "-83.00",
                            "45.56"
                        ],
                        [
                            "-85.23",
                            "44.90"
                        ],
                        [
                            "-86.46",
                            "46.23"
                        ],
                        [
                            "-85.02",
                            "46.93"
                        ]
                    ]
                ]
            },
            "properties": {
                "forecastId": null,
                "geometryId": null,
                "tag": "6E",
                "forecastHour": 0,
                "hazard": "IFR",
                "frequency": null,
                "severity": null,
                "status": "NRML",
                "base": null,
                "top": null,
                "fzlBase": null,
                "fzlTop": null,
                "level": null,
                "product": "SIERRA",
                "rawAirSigmet": "CIG BLW 010 VIS BLW 3SM BR",
                "validTimeTo": "2026-08-16T21:00:00.000",
                "validTimeFrom": [
                    "2026-08-16T20:45"
                ]
            }
        },
        {
            "type": "Feature",
            "geometry": {
                "type": "LineString",
                "coordinates": [
                    [
                        "-132.00",
                        "21.49"
                    ],
                    [
                        "-131.03",
                        "21.88"
                    ],
                    [
                        "-129.51",
                        "22.11"
                    ],
                    [
                        "-127.88",
                        "21.78"
                    ],
                    [
                        "-127.23",
                        "21.50"
                    ],
                    [
                        "-126.49",
                        "21.59"
                    ],
                    [
                        "-125.67",
                        "22.07"
                    ],
                    [
                        "-125.35",
                        "22.61"
                    ],
                    [
                        "-124.91",
                        "23.91"
                    ],
                    [
                        "-124.21",
                        "24.93"
                    ],
                    [
                        "-123.28",
                        "26.70"
                    ],
                    [
                        "-123.16",
                        "27.57"
                    ],
                    [
                        "-123.72",
                        "28.36"
                    ],
                    [
                        "-124.74",
                        "29.09"
                    ],
                    [
                        "-125.24",
                        "29.91"
                    ],
                    [
                        "-125.14",
                        "30.68"
                    ],
                    [
                        "-124.65",
                        "31.89"
                    ],
                    [
                        "-123.78",
                        "33.60"
                    ],
                    [
                        "-123.18",
                        "34.53"
                    ],
                    [
                        "-122.19",
                        "35.52"
                    ],
                    [
                        "-121.56",
                        "35.96"
                    ],
                    [
                        "-120.66",
                        "36.21"
                    ],
                    [
                        "-119.86",
                        "35.96"
                    ],
                    [
                        "-119.30",
                        "35.08"
                    ],
                    [
                        "-118.72",
                        "34.05"
                    ],
                    [
                        "-117.94",
                        "33.44"
                    ],
                    [
                        "-116.97",
                        "33.14"
                    ],
                    [
                        "-114.93",
                        "33.92"
                    ],
                    [
                        "-112.20",
                        "34.37"
                    ],
                    [
                        "-110.44",
                        "34.88"
                    ],
                    [
                        "-108.89",
                        "35.39"
                    ],
                    [
                        "-108.19",
                        "36.50"
                    ],
                    [
                        "-107.44",
                        "37.65"
                    ],
                    [
                        "-106.55",
                        "37.96"
                    ],
                    [
                        "-105.45",
                        "37.91"
                    ],
                    [
                        "-104.24",
                        "37.78"
                    ],
                    [
                        "-102.93",
                        "37.96"
                    ],
                    [
                        "-101.39",
                        "38.39"
                    ],
                    [
                        "-97.90",
                        "40.22"
                    ],
                    [
                        "-96.69",
                        "40.47"
                    ],
                    [
                        "-95.75",
                        "40.37"
                    ],
                    [
                        "-93.67",
                        "39.75"
                    ],
                    [
                        "-92.23",
                        "39.99"
                    ],
                    [
                        "-91.63",
                        "40.25"
                    ],
                    [
                        "-89.95",
                        "41.11"
                    ],
                    [
                        "-89.59",
                        "41.55"
                    ],
                    [
                        "-89.33",
                        "42.53"
                    ],
                    [
                        "-89.69",
                        "44.21"
                    ],
                    [
                        "-88.60",
                        "44.74"
                    ],
                    [
                        "-87.23",
                        "44.82"
                    ],
                    [
                        "-85.74",
                        "44.71"
                    ],
                    [
                        "-84.31",
                        "44.28"
                    ],
                    [
                        "-83.40",
                        "43.59"
                    ],
                    [
                        "-83.04",
                        "43.01"
                    ],
                    [
                        "-82.85",
                        "41.96"
                    ],
                    [
                        "-82.61",
                        "41.17"
                    ],
                    [
                        "-81.46",
                        "40.76"
                    ],
                    [
                        "-80.68",
                        "40.88"
                    ],
                    [
                        "-79.98",
                        "41.48"
                    ],
                    [
                        "-79.68",
                        "42.39"
                    ],
                    [
                        "-79.44",
                        "42.89"
                    ],
                    [
                        "-78.66",
                        "43.13"
                    ],
                    [
                        "-77.97",
                        "43.23"
                    ],
                    [
                        "-76.79",
                        "42.93"
                    ],
                    [
                        "-75.96",
                        "42.27"
                    ],
                    [
                        "-75.85",
                        "41.59"
                    ],
                    [
                        "-76.31",
                        "39.72"
                    ],
                    [
                        "-75.40",
                        "39.21"
                    ],
                    [
                        "-74.30",
                        "39.02"
                    ],
                    [
                        "-73.06",
                        "39.11"
                    ],
                    [
                        "-71.20",
                        "39.71"
                    ],
                    [
                        "-69.53",
                        "39.93"
                    ],
                    [
                        "-67.91",
                        "39.33"
                    ],
                    [
                        "-66.35",
                        "38.12"
                    ],
                    [
                        "-62.62",
                        "35.46"
                    ],
                    [
                        "-59.90",
                        "33.30"
                    ],
                    [
                        "-58.34",
                        "31.85"
                    ],
                    [
                        "-58.16",
                        "31.27"
                    ],
                    [
                        "-58.37",
                        "30.44"
                    ],
                    [
                        "-59.34",
                        "29.68"
                    ],
                    [
                        "-61.03",
                        "29.29"
                    ],
                    [
                        "-64.01",
                        "29.12"
                    ],
                    [
                        "-66.45",
                        "29.12"
                    ],
                    [
                        "-67.91",
                        "29.06"
                    ],
                    [
                        "-69.23",
                        "28.56"
                    ],
                    [
                        "-70.65",
                        "27.28"
                    ],
                    [
                        "-72.17",
                        "26.82"
                    ],
                    [
                        "-74.83",
                        "26.81"
                    ],
                    [
                        "-75.56",
                        "25.78"
                    ],
                    [
                        "-74.65",
                        "25.12"
                    ],
                    [
                        "-72.07",
                        "25.41"
                    ],
                    [
                        "-70.26",
                        "25.05"
                    ],
                    [
                        "-68.81",
                        "24.53"
                    ],
                    [
                        "-67.31",
                        "23.90"
                    ],
                    [
                        "-65.67",
                        "23.44"
                    ],
                    [
                        "-63.69",
                        "23.15"
                    ],
                    [
                        "-61.14",
                        "23.02"
                    ]
                ]
            },
            "properties": {
                "forecastId": null,
                "geometryId": null,
                "tag": "1C",
                "forecastHour": 0,
                "hazard": "FZLVL",
                "frequency": null,
                "severity": null,
                "status": "NRML",
                "base": null,
                "top": null,
                "fzlBase": null,
                "fzlTop": null,
                "level": "160",
                "product": "ZULU",
                "rawAirSigmet": null,
                "validTimeTo": "2026-08-16T21:00:00.000",
                "validTimeFrom": [
                    "2026-08-16T20:45"
                ]
            }
        },
        {
            "type": "Feature",
            "geometry": {
                "type": "Polygon",
                "coordinates": [
                    [
                        [
                            "-84.38",
                            "45.53"
                        ],
                        [
                            "-82.34",
                            "44.80"
                        ],
                        [
                            "-82.00",
                            "42.86"
                        ],
                        [
                            "-85.72",
                            "41.36"
                        ],
                        [
                            "-86.31",
                            "41.17"
                        ],
                        [
                            "-92.99",
                            "41.61"
                        ],
                        [
                            "-93.48",
                            "42.97"
                        ],
                        [
                            "-92.17",
                            "44.18"
                        ],
                        [
                            "-88.69",
                            "45.00"
                        ],
                        [
                            "-84.38",
                            "45.53"
                        ]
                    ]
                ]
            },
            "properties": {
                "forecastId": null,
                "geometryId": null,
                "tag": "1W",
                "forecastHour": 0,
                "hazard": "TURB-HI",
                "frequency": null,
                "severity": "MOD",
                "status": "NRML",
                "base": "300",
                "top": "430",
                "fzlBase": null,
                "fzlTop": null,
                "level": null,
                "product": "TANGO",
                "rawAirSigmet": null,
                "validTimeTo": "2026-08-16T21:00:00.000",
                "validTimeFrom": [
                    "2026-08-16T20:45"
                ]
            }
        },
        {
            "type": "Feature",
            "geometry": {
                "type": "Polygon",
                "coordinates": [
                    [
                        [
                            "-103.39",
                            "48.67"
                        ],
                        [
                            "-102.03",
                            "48.62"
                        ],
                        [
                            "-101.08",
                            "47.87"
                        ],
                        [
                            "-101.62",
                            "47.03"
                        ],
                        [
                            "-102.73",
                            "46.37"
                        ],
                        [
                            "-103.59",
                            "46.39"
                        ],
                        [
                            "-104.80",
                            "46.73"
                        ],
                        [
                            "-105.24",
                            "47.45"
                        ],
                        [
                            "-104.87",
                            "48.14"
                        ],
                        [
                            "-104.23",
                            "48.55"
                        ],
                        [
                            "-103.39",
                            "48.67"
                        ]
                    ]
                ]
            },
            "properties": {
                "forecastId": null,
                "geometryId": null,
                "tag": "2C",
                "forecastHour": 0,
                "hazard": "ICE",
                "frequency": null,
                "severity": "MOD",
                "status": "NRML",
                "base": "130",
                "top": "240",
                "fzlBase": null,
                "fzlTop": null,
                "level": null,
                "product": "ZULU",
                "rawAirSigmet": "ICE",
                "validTimeTo": "2026-08-16T21:00:00.000",
                "validTimeFrom": [
                    "2026-08-16T20:45"
                ]
            }
        },
        {
            "type": "Feature",
            "geometry": {
                "type": "Polygon",
                "coordinates": [
                    [
                        [
                            "-73.92",
                            "44.17"
                        ],
                        [
                            "-72.60",
                            "42.61"
                        ],
                        [
                            "-76.99",
                            "40.29"
                        ],
                        [
                            "-78.09",
                            "39.03"
                        ],
                        [
                            "-80.13",
                            "36.68"
                        ],
                        [
                            "-81.33",
                            "36.72"
                        ],
                        [
                            "-80.79",
                            "38.09"
                        ],
                        [
                            "-81.88",
                            "39.01"
                        ],
                        [
                            "-79.08",
                            "42.15"
                        ],
                        [
                            "-76.18",
                            "43.26"
                        ],
                        [
                            "-75.53",
                            "43.96"
                        ],
                        [
                            "-73.92",
                            "44.17"
                        ]
                    ]
                ]
            },
            "properties": {
                "forecastId": null,
                "geometryId": null,
                "tag": "1E",
                "forecastHour": 0,
                "hazard": "MT_OBSC",
                "frequency": null,
                "severity": null,
                "status": "NRML",
                "base": null,
                "top": null,
                "fzlBase": null,
                "fzlTop": null,
                "level": null,
                "product": "SIERRA",
                "rawAirSigmet": "MTNS OBSC BY CLDS PCPN BR",
                "validTimeTo": "2026-08-16T21:00:00.000",
                "validTimeFrom": [
                    "2026-08-16T20:45"
                ]
            }
        },
        {
            "type": "Feature",
            "geometry": {
                "type": "LineString",
                "coordinates": [
                    [
                        "-151.22",
                        "42.91"
                    ],
                    [
                        "-151.15",
                        "42.57"
                    ],
                    [
                        "-151.04",
                        "41.99"
                    ],
                    [
                        "-150.84",
                        "41.33"
                    ],
                    [
                        "-150.78",
                        "41.14"
                    ],
                    [
                        "-150.50",
                        "40.32"
                    ],
                    [
                        "-150.42",
                        "40.01"
                    ],
                    [
                        "-150.27",
                        "39.48"
                    ],
                    [
                        "-150.17",
                        "38.81"
                    ],
                    [
                        "-150.12",
                        "38.59"
                    ],
                    [
                        "-150.03",
                        "37.70"
                    ],
                    [
                        "-150.02",
                        "37.67"
                    ]
                ]
            },
            "properties": {
                "forecastId": null,
                "geometryId": null,
                "tag": "1C",
                "forecastHour": 0,
                "hazard": "FZLVL",
                "frequency": null,
                "severity": null,
                "status": "NRML",
                "base": null,
                "top": null,
                "fzlBase": null,
                "fzlTop": null,
                "level": "160",
                "product": "ZULU",
                "rawAirSigmet": null,
                "validTimeTo": "2026-08-16T21:00:00.000",
                "validTimeFrom": [
                    "2026-08-16T20:45"
                ]
            }
        }
    ],
    "metadata": {
        "creationTime": "2026-08-16T21:27"
    }
}