{
    "type": "FeatureCollection",
    "features": [
        {
            "type": "Feature",
            "geometry": {
                "type": "Polygon",
                "coordinates": [
                    [
                        [
                            "-76.39",
                            "44.05"
                        ],
                        [
                            "-72.69",
                            "41.38"
                        ],
                        [
                            "-70.01",
                            "38.31"
                        ],
                        [
                            "-73.89",
                            "36.51"
                        ],
                        [
                            "-81.16",
                            "39.34"
                        ],
                        [
                            "-80.51",
                            "42.28"
                        ],
                        [
                            "-78.95",
                            "42.88"
                        ],
                        [
                            "-79.15",
                            "43.48"
                        ],
                        [
                            "-78.60",
                            "43.63"
                        ],
                        [
                            "-76.80",
                            "43.66"
                        ],
                        [
                            "-76.39",
                            "44.05"
                        ]
                    ]
                ]
            },
            "properties": {
                "forecastId": null,
                "geometryId": null,
                "tag": "1W",
                "forecastHour": 3,
                "hazard": "TURB-HI",
                "frequency": null,
                "severity": "MOD",
                "status": "NEW",
                "base": "260",
                "top": "360",
                "fzlBase": null,
                "fzlTop": null,
                "level": null,
                "product": "TANGO",
                "rawAirSigmet": null,
                "validTimeTo": "2026-08-14T00:00:00.000",
                "validTimeFrom": [
                    "2026-08-13T23:07"
                ]
            }
        },
        {
            "type": "Feature",
            "geometry": {
                "type": "Polygon",
                "coordinates": [
                    [
                        [
                            "-89.58",
                            "42.37"
                        ],
                        [
                            "-88.51",
                            "42.33"
                        ],
                        [
                            "-87.75",
                            "41.97"
                        ],
                        [
                            "-87.45",
                            "40.62"
                        ],
                        [
                            "-87.85",
                            "40.46"
                        ],
                        [
                            "-89.72",
                            "41.36"
                        ],
                        [
                            "-90.64",
                            "41.44"
                        ],
                        [
                            "-90.60",
                            "41.83"
                        ],
                        [
                            "-89.58",
                            "42.37"
                        ]
                    ]
                ]
            },
            "properties": {
                "forecastId": null,
                "geometryId": null,
                "tag": "1E",
                "forecastHour": 3,
                "hazard": "IFR",
                "frequency": null,
                "severity": null,
                "status": "AMD",
                "base": null,
                "top": null,
                "fzlBase": null,
                "fzlTop": null,
                "level": null,
                "product": "SIERRA",
                "rawAirSigmet": "CIG BLW 010 VIS BLW 3SM PCPN BR",
                "validTimeTo": "2026-08-14T00:00:00.000",
                "validTimeFrom": [
                    "2026-08-13T23:10"
                ]
            }
        },
        {
            "type": "Feature",
            "geometry": {
                "type": "Polygon",
                "coordinates": [
                    [
                        [
                            "-103.54",
                            "19.53"
                        ],
                        [
                            "-104.08",
                            "19.09"
                        ],
                        [
                            "-104.18",
                            "18.96"
                        ],
                        [
                            "-104.17",
                            "18.38"
                        ],
                        [
                            "-104.09",
                            "18.31"
                        ],
                        [
                            "-103.49",
                            "18.00"
                        ],
                        [
                            "-102.89",
                            "17.97"
                        ],
                        [
                            "-102.29",
                            "18.09"
                        ],
                        [
                            "-101.71",
                            "18.30"
                        ],
                        [
                            "-101.67",
                            "18.32"
                        ],
                        [
                            "-101.03",
                            "18.80"
                        ],
                        [
                            "-100.98",
                            "18.83"
                        ],
                        [
                            "-100.71",
                            "19.40"
                        ],
                        [
                            "-100.96",
                            "19.68"
                        ],
                        [
                            "-101.57",
                            "19.88"
                        ],
                        [
                            "-102.20",
                            "19.82"
                        ],
                        [
                            "-102.82",
                            "19.71"
                        ],
                        [
                            "-103.45",
                            "19.57"
                        ],
                        [
                            "-103.54",
                            "19.53"
                        ]
                    ]
                ]
            },
            "properties": {
                "forecastId": null,
                "geometryId": null,
                "tag": "1C",
                "forecastHour": 3,
                "hazard": "FZLVL",
                "frequency": null,
                "severity": null,
                "status": "NRML",
                "base": null,
                "top": null,
                "fzlBase": null,
                "fzlTop": null,
                "level": "160",
                "product": "ZULU",
                "rawAirSigmet": null,
                "validTimeTo": "2026-08-14T00:00:00.000",
                "validTimeFrom": [
                    "2026-08-13T20:45"
                ]
            }
        },
        {
            "type": "Feature",
            "geometry": {
                "type": "Polygon",
                "coordinates": [
                    [
                        [
                            "-114.21",
                            "48.98"
                        ],
                        [
                            "-112.50",
                            "48.96"
                        ],
                        [
                            "-112.00",
                            "46.89"
                        ],
                        [
                            "-112.92",
                            "47.30"
                        ],
                        [
                            "-114.21",
                            "48.98"
                        ]
                    ]
                ]
            },
            "properties": {
                "forecastId": null,
                "geometryId": null,
                "tag": "4E",
                "forecastHour": 3,
                "hazard": "IFR",
                "frequency": null,
                "severity": null,
                "status": "AMD",
                "base": null,
                "top": null,
                "fzlBase": null,
                "fzlTop": null,
                "level": null,
                "product": "SIERRA",
                "rawAirSigmet": "CIG BLW 010 VIS BLW 3SM PCPN BR",
                "validTimeTo": "2026-08-14T00:00:00.000",
                "validTimeFrom": [
                    "2026-08-13T23:10"
                ]
            }
        },
        {
            "type": "Feature",
            "geometry": {
                "type": "LineString",
                "coordinates": [
                    [
                        "-139.55",
                        "51.67"
                    ],
                    [
                        "-136.68",
                        "49.62"
                    ],
                    [
                        "-134.84",
                        "48.76"
                    ],
                    [
                        "-133.01",
                        "48.19"
                    ],
                    [
                        "-131.28",
                        "47.73"
                    ],
                    [
                        "-129.59",
                        "47.48"
                    ],
                    [
                        "-127.51",
                        "47.36"
                    ],
                    [
                        "-126.04",
                        "47.05"
                    ],
                    [
                        "-124.31",
                        "46.57"
                    ],
                    [
                        "-122.77",
                        "46.37"
                    ],
                    [
                        "-121.37",
                        "46.50"
                    ],
                    [
                        "-120.19",
                        "46.83"
                    ],
                    [
                        "-118.55",
                        "47.52"
                    ],
                    [
                        "-116.59",
                        "48.06"
                    ],
                    [
                        "-114.28",
                        "48.52"
                    ],
                    [
                        "-111.99",
                        "49.08"
                    ],
                    [
                        "-110.32",
                        "49.38"
                    ],
                    [
                        "-107.48",
                        "49.61"
                    ],
                    [
                        "-105.00",
                        "49.56"
                    ],
                    [
                        "-100.90",
                        "48.98"
                    ],
                    [
                        "-96.48",
                        "48.97"
                    ],
                    [
                        "-92.80",
                        "48.45"
                    ],
                    [
                        "-90.14",
                        "47.95"
                    ],
                    [
                        "-87.91",
                        "47.42"
                    ],
                    [
                        "-83.32",
                        "46.10"
                    ],
                    [
                        "-79.50",
                        "44.57"
                    ],
                    [
                        "-76.32",
                        "43.40"
                    ],
                    [
                        "-74.50",
                        "42.99"
                    ],
                    [
                        "-72.82",
                        "42.74"
                    ],
                    [
                        "-69.46",
                        "42.51"
                    ],
                    [
                        "-66.34",
                        "42.13"
                    ],
                    [
                        "-64.53",
                        "41.83"
                    ],
                    [
                        "-62.99",
                        "41.84"
                    ],
                    [
                        "-60.05",
                        "42.29"
                    ],
                    [
                        "-58.44",
                        "42.55"
                    ],
                    [
                        "-56.50",
                        "43.27"
                    ],
                    [
                        "-53.04",
                        "45.53"
                    ],
                    [
                        "-49.21",
                        "47.70"
                    ]
                ]
            },
            "properties": {
                "forecastId": null,
                "geometryId": null,
                "tag": "1C",
                "forecastHour": 3,
                "hazard": "FZLVL",
                "frequency": null,
                "severity": null,
                "status": "NRML",
                "base": null,
                "top": null,
                "fzlBase": null,
                "fzlTop": null,
                "level": "120",
                "product": "ZULU",
                "rawAirSigmet": null,
                "validTimeTo": "2026-08-14T00:00:00.000",
                "validTimeFrom": [
                    "2026-08-13T20:45"
                ]
            }
        },
        {
            "type": "Feature",
            "geometry": {
                "type": "Polygon",
                "coordinates": [
                    [
                        [
                            "-105.77",
                            "42.63"
                        ],
                        [
                            "-105.02",
                            "42.24"
                        ],
                        [
                            "-104.70",
                            "41.64"
                        ],
                        [
                            "-105.51",
                            "41.49"
                        ],
                        [
                            "-105.86",
                            "42.28"
                        ],
                        [
                            "-105.77",
                            "42.63"
                        ]
                    ]
                ]
            },
            "properties": {
                "forecastId": null,
                "geometryId": null,
                "tag": "1E",
                "forecastHour": 3,
                "hazard": "IFR",
                "frequency": null,
                "severity": null,
                "status": "AMD",
                "base": null,
                "top": null,
                "fzlBase": null,
                "fzlTop": null,
                "level": null,
                "product": "SIERRA",
                "rawAirSigmet": "CIG BLW 010 VIS BLW 3SM PCPN BR",
                "validTimeTo": "2026-08-14T00:00:00.000",
                "validTimeFrom": [
                    "2026-08-13T23:10"
                ]
            }
        },
        {
            "type": "Feature",
            "geometry": {
                "type": "Polygon",
                "coordinates": [
                    [
                        [
                            "-114.76",
                            "49.01"
                        ],
                        [
                            "-112.93",
                            "48.89"
                        ],
                        [
                            "-111.29",
                            "47.41"
                        ],
                        [
                            "-109.73",
                            "48.51"
                        ],
                        [
                            "-108.39",
                            "46.59"
                        ],
                        [
                            "-108.53",
                            "45.64"
                        ],
                        [
                            "-109.51",
                            "45.14"
                        ],
                        [
                            "-109.18",
                            "43.92"
                        ],
                        [
                            "-109.66",
                            "42.89"
                        ],
                        [
                            "-110.52",
                            "42.62"
                        ],
                        [
                            "-111.66",
                            "43.30"
                        ],
                        [
                            "-111.37",
                            "44.35"
                        ],
                        [
                            "-112.25",
                            "45.02"
                        ],
                        [
                            "-111.40",
                            "45.70"
                        ],
                        [
                            "-112.41",
                            "46.85"
                        ],
                        [
                            "-113.72",
                            "47.42"
                        ],
                        [
                            "-113.88",
                            "48.22"
                        ],
                        [
                            "-114.76",
                            "49.01"
                        ]
                    ]
                ]
            },
            "properties": {
                "forecastId": null,
                "geometryId": null,
                "tag": "6E",
                "forecastHour": 3,
                "hazard": "MT_OBSC",
                "frequency": null,
                "severity": null,
                "status": "NRML",
                "base": null,
                "top": null,
                "fzlBase": null,
                "fzlTop": null,
                "level": null,
                "product": "SIERRA",
                "rawAirSigmet": "MTNS OBSC BY CLDS PCPN BR",
                "validTimeTo": "2026-08-14T00:00:00.000",
                "validTimeFrom": [
                    "2026-08-13T23:10"
                ]
            }
        },
        {
            "type": "Feature",
            "geometry": {
                "type": "Polygon",
                "coordinates": [
                    [
                        [
                            "-95.06",
                            "26.45"
                        ],
                        [
                            "-96.25",
                            "25.62"
                        ],
                        [
                            "-96.74",
                            "24.74"
                        ],
                        [
                            "-97.10",
                            "24.41"
                        ],
                        [
                            "-97.86",
                            "24.39"
                        ],
                        [
                            "-99.56",
                            "24.42"
                        ],
                        [
                            "-100.63",
                            "23.80"
                        ],
                        [
                            "-100.54",
                            "23.20"
                        ],
                        [
                            "-99.63",
                            "22.29"
                        ],
                        [
                            "-97.64",
                            "21.14"
                        ],
                        [
                            "-95.04",
                            "21.23"
                        ],
                        [
                            "-94.06",
                            "20.83"
                        ],
                        [
                            "-93.32",
                            "20.18"
                        ],
                        [
                            "-92.34",
                            "19.37"
                        ],
                        [
                            "-91.54",
                            "19.82"
                        ],
                        [
                            "-90.39",
                            "21.50"
                        ],
                        [
                            "-90.00",
                            "22.72"
                        ],
                        [
                            "-90.03",
                            "23.80"
                        ],
                        [
                            "-90.25",
                            "24.88"
                        ],
                        [
                            "-90.72",
                            "25.89"
                        ],
                        [
                            "-92.14",
                            "26.63"
                        ],
                        [
                            "-93.93",
                            "26.72"
                        ],
                        [
                            "-95.06",
                            "26.45"
                        ]
                    ]
                ]
            },
            "properties": {
                "forecastId": null,
                "geometryId": null,
                "tag": "1C",
                "forecastHour": 3,
                "hazard": "FZLVL",
                "frequency": null,
                "severity": null,
                "status": "NRML",
                "base": null,
                "top": null,
                "fzlBase": null,
                "fzlTop": null,
                "level": "160",
                "product": "ZULU",
                "rawAirSigmet": null,
                "validTimeTo": "2026-08-14T00:00:00.000",
                "validTimeFrom": [
                    "2026-08-13T20:45"
                ]
            }
        },
        {
            "type": "Feature",
            "geometry": {
                "type": "Polygon",
                "coordinates": [
                    [
                        [
                            "-71.48",
                            "45.00"
                        ],
                        [
                            "-69.62",
                            "43.92"
                        ],
                        [
                            "-67.00",
                            "40.89"
                        ],
                        [
                            "-67.06",
                            "38.93"
                        ],
                        [
                            "-70.01",
                            "38.31"
                        ],
                        [
                            "-72.84",
                            "41.52"
                        ],
                        [
                            "-76.42",
                            "44.05"
                        ],
                        [
                            "-74.88",
                            "44.98"
                        ],
                        [
                            "-71.48",
                            "45.00"
                        ]
                    ]
                ]
            },
            "properties": {
                "forecastId": null,
                "geometryId": null,
                "tag": "2W",
                "forecastHour": 3,
                "hazard": "TURB-HI",
                "frequency": null,
                "severity": "MOD",
                "status": "AMD",
                "base": "300",
                "top": "420",
                "fzlBase": null,
                "fzlTop": null,
                "level": null,
                "product": "TANGO",
                "rawAirSigmet": null,
                "validTimeTo": "2026-08-14T00:00:00.000",
                "validTimeFrom": [
                    "2026-08-13T23:07"
                ]
            }
        },
        {
            "type": "Feature",
            "geometry": {
                "type": "LineString",
                "coordinates": [
                    [
                        "-75.85",
                        "59.33"
                    ],
                    [
                        "-74.09",
                        "57.75"
                    ],
                    [
                        "-73.32",
                        "56.55"
                    ],
                    [
                        "-73.64",
                        "55.25"
                    ],
                    [
                        "-74.74",
                        "54.24"
                    ],
                    [
                        "-77.02",
                        "53.19"
                    ],
                    [
                        "-79.45",
                        "52.17"
                    ],
                    [
                        "-80.09",
                        "51.36"
                    ],
                    [
                        "-79.22",
                        "50.43"
                    ],
                    [
                        "-77.33",
                        "49.41"
                    ],
                    [
                        "-75.79",
                        "48.85"
                    ],
                    [
                        "-74.25",
                        "48.64"
                    ],
                    [
                        "-72.04",
                        "49.21"
                    ],
                    [
                        "-71.28",
                        "49.68"
                    ],
                    [
                        "-70.49",
                        "50.70"
                    ],
                    [
                        "-69.30",
                        "52.13"
                    ],
                    [
                        "-66.66",
                        "53.88"
                    ],
                    [
                        "-64.31",
                        "54.81"
                    ],
                    [
                        "-61.08",
                        "55.17"
                    ]
                ]
            },
            "properties": {
                "forecastId": null,
                "geometryId": null,
                "tag": "1C",
                "forecastHour": 3,
                "hazard": "FZLVL",
                "frequency": null,
                "severity": null,
                "status": "NRML",
                "base": null,
                "top": null,
                "fzlBase": null,
                "fzlTop": null,
                "level": "080",
                "product": "ZULU",
                "rawAirSigmet": null,
                "validTimeTo": "2026-08-14T00:00:00.000",
                "validTimeFrom": [
                    "2026-08-13T20:45"
                ]
            }
        },
        {
            "type": "Feature",
            "geometry": {
                "type": "Polygon",
                "coordinates": [
                    [
                        [
                            "-108.74",
                            "48.28"
                        ],
                        [
                            "-108.06",
                            "46.65"
                        ],
                        [
                            "-108.68",
                            "45.81"
                        ],
                        [
                            "-109.79",
                            "45.91"
                        ],
                        [
                            "-110.07",
                            "46.69"
                        ],
                        [
                            "-109.45",
                            "46.91"
                        ],
                        [
                            "-110.13",
                            "48.24"
                        ],
                        [
                            "-108.74",
                            "48.28"
                        ]
                    ]
                ]
            },
            "properties": {
                "forecastId": null,
                "geometryId": null,
                "tag": "4E",
                "forecastHour": 3,
                "hazard": "IFR",
                "frequency": null,
                "severity": null,
                "status": "AMD",
                "base": null,
                "top": null,
                "fzlBase": null,
                "fzlTop": null,
                "level": null,
                "product": "SIERRA",
                "rawAirSigmet": "CIG BLW 010 VIS BLW 3SM PCPN BR",
                "validTimeTo": "2026-08-14T00:00:00.000",
                "validTimeFrom": [
                    "2026-08-13T23:10"
                ]
            }
        },
        {
            "type": "Feature",
            "geometry": {
                "type": "LineString",
                "coordinates": [
                    [
                        "-141.71",
                        "31.89"
                    ],
                    [
                        "-138.72",
                        "31.12"
                    ],
                    [
                        "-137.39",
                        "30.46"
                    ],
                    [
                        "-136.07",
                        "29.45"
                    ],
                    [
                        "-134.63",
                        "28.68"
                    ],
                    [
                        "-132.75",
                        "28.26"
                    ],
                    [
                        "-132.06",
                        "27.04"
                    ],
                    [
                        "-131.74",
                        "26.07"
                    ],
                    [
                        "-130.42",
                        "24.04"
                    ],
                    [
                        "-130.28",
                        "22.48"
                    ],
                    [
                        "-129.91",
                        "21.10"
                    ],
                    [
                        "-129.18",
                        "20.09"
                    ],
                    [
                        "-128.06",
                        "19.59"
                    ],
                    [
                        "-126.82",
                        "19.76"
                    ],
                    [
                        "-125.31",
                        "20.33"
                    ],
                    [
                        "-122.87",
                        "20.93"
                    ],
                    [
                        "-120.65",
                        "22.74"
                    ],
                    [
                        "-117.42",
                        "24.10"
                    ],
                    [
                        "-116.41",
                        "25.02"
                    ],
                    [
                        "-115.78",
                        "25.85"
                    ],
                    [
                        "-114.50",
                        "27.99"
                    ],
                    [
                        "-113.77",
                        "29.35"
                    ],
                    [
                        "-112.96",
                        "30.27"
                    ],
                    [
                        "-111.88",
                        "31.73"
                    ],
                    [
                        "-111.23",
                        "33.24"
                    ],
                    [
                        "-110.39",
                        "35.67"
                    ],
                    [
                        "-109.87",
                        "37.21"
                    ],
                    [
                        "-109.15",
                        "38.54"
                    ],
                    [
                        "-107.21",
                        "41.11"
                    ],
                    [
                        "-105.63",
                        "41.92"
                    ],
                    [
                        "-104.53",
                        "42.06"
                    ],
                    [
                        "-102.99",
                        "41.93"
                    ],
                    [
                        "-101.36",
                        "42.20"
                    ],
                    [
                        "-100.55",
                        "42.56"
                    ],
                    [
                        "-98.66",
                        "43.14"
                    ],
                    [
                        "-96.06",
                        "43.23"
                    ],
                    [
                        "-93.52",
                        "43.01"
                    ],
                    [
                        "-91.36",
                        "42.90"
                    ],
                    [
                        "-90.08",
                        "42.78"
                    ],
                    [
                        "-89.10",
                        "42.45"
                    ],
                    [
                        "-86.41",
                        "40.28"
                    ],
                    [
                        "-84.48",
                        "39.76"
                    ],
                    [
                        "-82.10",
                        "39.57"
                    ],
                    [
                        "-78.25",
                        "38.66"
                    ],
                    [
                        "-74.00",
                        "38.22"
                    ],
                    [
                        "-71.94",
                        "37.65"
                    ],
                    [
                        "-70.68",
                        "37.21"
                    ],
                    [
                        "-69.70",
                        "36.63"
                    ],
                    [
                        "-68.82",
                        "35.18"
                    ],
                    [
                        "-68.32",
                        "34.32"
                    ],
                    [
                        "-68.31",
                        "33.83"
                    ],
                    [
                        "-68.71",
                        "33.14"
                    ],
                    [
                        "-69.44",
                        "32.52"
                    ],
                    [
                        "-70.74",
                        "31.73"
                    ],
                    [
                        "-73.87",
                        "30.76"
                    ],
                    [
                        "-75.28",
                        "30.28"
                    ],
                    [
                        "-76.60",
                        "29.29"
                    ],
                    [
                        "-78.00",
                        "28.48"
                    ],
                    [
                        "-79.47",
                        "27.89"
                    ],
                    [
                        "-81.12",
                        "28.61"
                    ],
                    [
                        "-81.75",
                        "28.19"
                    ],
                    [
                        "-81.79",
                        "27.40"
                    ],
                    [
                        "-79.94",
                        "26.62"
                    ],
                    [
                        "-78.73",
                        "25.62"
                    ],
                    [
                        "-77.40",
                        "25.39"
                    ],
                    [
                        "-75.88",
                        "25.37"
                    ],
                    [
                        "-75.00",
                        "25.08"
                    ],
                    [
                        "-74.56",
                        "24.64"
                    ],
                    [
                        "-73.87",
                        "23.48"
                    ],
                    [
                        "-73.28",
                        "22.46"
                    ],
                    [
                        "-72.95",
                        "21.34"
                    ],
                    [
                        "-73.29",
                        "19.85"
                    ],
                    [
                        "-72.43",
                        "19.17"
                    ],
                    [
                        "-71.88",
                        "19.69"
                    ],
                    [
                        "-71.61",
                        "20.46"
                    ],
                    [
                        "-71.18",
                        "21.20"
                    ],
                    [
                        "-70.43",
                        "21.77"
                    ],
                    [
                        "-69.90",
                        "21.97"
                    ],
                    [
                        "-68.86",
                        "21.79"
                    ],
                    [
                        "-68.39",
                        "20.53"
                    ],
                    [
                        "-68.11",
                        "19.37"
                    ],
                    [
                        "-67.60",
                        "18.44"
                    ],
                    [
                        "-67.09",
                        "17.81"
                    ],
                    [
                        "-66.10",
                        "17.56"
                    ],
                    [
                        "-64.90",
                        "17.48"
                    ]
                ]
            },
            "properties": {
                "forecastId": null,
                "geometryId": null,
                "tag": "1C",
                "forecastHour": 3,
                "hazard": "FZLVL",
                "frequency": null,
                "severity": null,
                "status": "NRML",
                "base": null,
                "top": null,
                "fzlBase": null,
                "fzlTop": null,
                "level": "160",
                "product": "ZULU",
                "rawAirSigmet": null,
                "validTimeTo": "2026-08-14T00:00:00.000",
                "validTimeFrom": [
                    "2026-08-13T20:45"
                ]
            }
        },
        {
            "type": "Feature",
            "geometry": {
                "type": "Polygon",
                "coordinates": [
                    [
                        [
                            "-119.87",
                            "49.00"
                        ],
                        [
                            "-119.19",
                            "48.25"
                        ],
                        [
                            "-118.97",
                            "47.28"
                        ],
                        [
                            "-117.96",
                            "47.10"
                        ],
                        [
                            "-116.07",
                            "47.57"
                        ],
                        [
                            "-113.76",
                            "47.41"
                        ],
                        [
                            "-112.29",
                            "46.77"
                        ],
                        [
                            "-111.50",
                            "45.71"
                        ],
                        [
                            "-112.19",
                            "44.97"
                        ],
                        [
                            "-114.05",
                            "45.56"
                        ],
                        [
                            "-116.54",
                            "45.25"
                        ],
                        [
                            "-118.65",
                            "44.36"
                        ],
                        [
                            "-120.70",
                            "44.01"
                        ],
                        [
                            "-122.06",
                            "44.28"
                        ],
                        [
                            "-123.02",
                            "45.34"
                        ],
                        [
                            "-122.78",
                            "46.51"
                        ],
                        [
                            "-121.59",
                            "47.69"
                        ],
                        [
                            "-121.33",
                            "48.93"
                        ],
                        [
                            "-119.87",
                            "49.00"
                        ]
                    ]
                ]
            },
            "properties": {
                "forecastId": null,
                "geometryId": null,
                "tag": "3E",
                "forecastHour": 3,
                "hazard": "MT_OBSC",
                "frequency": null,
                "severity": null,
                "status": "NRML",
                "base": null,
                "top": null,
                "fzlBase": null,
                "fzlTop": null,
                "level": null,
                "product": "SIERRA",
                "rawAirSigmet": "MTNS OBSC BY CLDS FU HZ",
                "validTimeTo": "2026-08-14T00:00:00.000",
                "validTimeFrom": [
                    "2026-08-13T23:10"
                ]
            }
        },
        {
            "type": "Feature",
            "geometry": {
                "type": "Polygon",
                "coordinates": [
                    [
                        [
                            "-125.03",
                            "48.63"
                        ],
                        [
                            "-124.53",
                            "48.48"
                        ],
                        [
                            "-124.58",
                            "47.96"
                        ],
                        [
                            "-124.21",
                            "47.06"
                        ],
                        [
                            "-124.20",
                            "44.19"
                        ],
                        [
                            "-124.40",
                            "43.35"
                        ],
                        [
                            "-124.58",
                            "42.75"
                        ],
                        [
                            "-124.06",
                            "41.87"
                        ],
                        [
                            "-123.85",
                            "41.37"
                        ],
                        [
                            "-123.95",
                            "40.45"
                        ],
                        [
                            "-124.36",
                            "40.14"
                        ],
                        [
                            "-123.75",
                            "39.27"
                        ],
                        [
                            "-123.47",
                            "38.72"
                        ],
                        [
                            "-122.60",
                            "37.79"
                        ],
                        [
                            "-123.11",
                            "36.55"
                        ],
                        [
                            "-123.86",
                            "35.72"
                        ],
                        [
                            "-124.96",
                            "37.52"
                        ],
                        [
                            "-126.81",
                            "41.53"
                        ],
                        [
                            "-126.55",
                            "45.13"
                        ],
                        [
                            "-127.96",
                            "48.28"
                        ],
                        [
                            "-125.03",
                            "48.63"
                        ]
                    ]
                ]
            },
            "properties": {
                "forecastId": null,
                "geometryId": null,
                "tag": "2E",
                "forecastHour": 3,
                "hazard": "IFR",
                "frequency": null,
                "severity": null,
                "status": "AMD",
                "base": null,
                "top": null,
                "fzlBase": null,
                "fzlTop": null,
                "level": null,
                "product": "SIERRA",
                "rawAirSigmet": "CIG BLW 010 VIS BLW 3SM BR",
                "validTimeTo": "2026-08-14T00:00:00.000",
                "validTimeFrom": [
                    "2026-08-13T23:10"
                ]
            }
        },
        {
            "type": "Feature",
            "geometry": {
                "type": "LineString",
                "coordinates": [
                    [
                        "-151.63",
                        "41.90"
                    ],
                    [
                        "-151.07",
                        "41.96"
                    ],
                    [
                        "-150.41",
                        "42.04"
                    ],
                    [
                        "-149.37",
                        "42.30"
                    ],
                    [
                        "-149.01",
                        "42.46"
                    ],
                    [
                        "-148.42",
                        "42.63"
                    ],
                    [
                        "-147.53",
                        "43.01"
                    ],
                    [
                        "-146.68",
                        "43.42"
                    ],
                    [
                        "-145.82",
                        "43.83"
                    ],
                    [
                        "-144.93",
                        "44.23"
                    ],
                    [
                        "-144.16",
                        "44.73"
                    ],
                    [
                        "-143.59",
                        "45.42"
                    ],
                    [
                        "-143.37",
                        "46.00"
                    ],
                    [
                        "-143.34",
                        "46.40"
                    ],
                    [
                        "-143.43",
                        "46.93"
                    ],
                    [
                        "-143.67",
                        "47.77"
                    ],
                    [
                        "-143.68",
                        "47.91"
                    ],
                    [
                        "-143.79",
                        "48.68"
                    ],
                    [
                        "-143.72",
                        "49.17"
                    ]
                ]
            },
            "properties": {
                "forecastId": null,
                "geometryId": null,
                "tag": "1C",
                "forecastHour": 3,
                "hazard": "FZLVL",
                "frequency": null,
                "severity": null,
                "status": "NRML",
                "base": null,
                "top": null,
                "fzlBase": null,
                "fzlTop": null,
                "level": "120",
                "product": "ZULU",
                "rawAirSigmet": null,
                "validTimeTo": "2026-08-14T00:00:00.000",
                "validTimeFrom": [
                    "2026-08-13T20:45"
                ]
            }
        }
    ],
    "metadata": {
        "creationTime": "2026-08-13T23:50"
    }
}