{
    "type": "FeatureCollection",
    "features": [
        {
            "type": "Feature",
            "geometry": {
                "type": "Polygon",
                "coordinates": [
                    [
                        [
                            "-92.38",
                            "48.39"
                        ],
                        [
                            "-89.28",
                            "47.98"
                        ],
                        [
                            "-92.05",
                            "46.85"
                        ],
                        [
                            "-93.99",
                            "47.45"
                        ],
                        [
                            "-93.40",
                            "48.22"
                        ],
                        [
                            "-92.38",
                            "48.39"
                        ]
                    ]
                ]
            },
            "properties": {
                "forecastId": null,
                "geometryId": null,
                "tag": "3W",
                "forecastHour": 0,
                "hazard": "LLWS",
                "frequency": null,
                "severity": null,
                "status": "NRML",
                "base": null,
                "top": null,
                "fzlBase": null,
                "fzlTop": null,
                "level": null,
                "product": "TANGO",
                "rawAirSigmet": "AIR SPEED LOSS OR GAIN OF 20KTS OR MORE BELOW 2000 FT AGL",
                "validTimeTo": "2026-09-09T09:00:00.000",
                "validTimeFrom": [
                    "2026-09-09T08:45"
                ]
            }
        },
        {
            "type": "Feature",
            "geometry": {
                "type": "Polygon",
                "coordinates": [
                    [
                        [
                            "-79.10",
                            "42.10"
                        ],
                        [
                            "-74.72",
                            "41.40"
                        ],
                        [
                            "-77.06",
                            "40.28"
                        ],
                        [
                            "-77.24",
                            "40.00"
                        ],
                        [
                            "-77.93",
                            "40.24"
                        ],
                        [
                            "-78.90",
                            "40.99"
                        ],
                        [
                            "-79.90",
                            "41.16"
                        ],
                        [
                            "-79.10",
                            "42.10"
                        ]
                    ]
                ]
            },
            "properties": {
                "forecastId": null,
                "geometryId": null,
                "tag": "3E",
                "forecastHour": 0,
                "hazard": "MT_OBSC",
                "frequency": null,
                "severity": null,
                "status": "NRML",
                "base": null,
                "top": null,
                "fzlBase": null,
                "fzlTop": null,
                "level": null,
                "product": "SIERRA",
                "rawAirSigmet": "MTNS OBSC BY CLDS BR",
                "validTimeTo": "2026-09-09T09:00:00.000",
                "validTimeFrom": [
                    "2026-09-09T08:45"
                ]
            }
        },
        {
            "type": "Feature",
            "geometry": {
                "type": "Polygon",
                "coordinates": [
                    [
                        [
                            "-100.13",
                            "48.97"
                        ],
                        [
                            "-97.25",
                            "48.96"
                        ],
                        [
                            "-94.92",
                            "48.84"
                        ],
                        [
                            "-94.27",
                            "48.44"
                        ],
                        [
                            "-94.13",
                            "47.74"
                        ],
                        [
                            "-94.45",
                            "47.21"
                        ],
                        [
                            "-95.26",
                            "46.88"
                        ],
                        [
                            "-96.27",
                            "46.80"
                        ],
                        [
                            "-97.15",
                            "46.84"
                        ],
                        [
                            "-98.26",
                            "46.98"
                        ],
                        [
                            "-99.24",
                            "47.19"
                        ],
                        [
                            "-100.49",
                            "47.65"
                        ],
                        [
                            "-100.92",
                            "48.17"
                        ],
                        [
                            "-100.83",
                            "48.72"
                        ],
                        [
                            "-100.13",
                            "48.97"
                        ]
                    ]
                ]
            },
            "properties": {
                "forecastId": null,
                "geometryId": null,
                "tag": "1C",
                "forecastHour": 0,
                "hazard": "ICE",
                "frequency": null,
                "severity": "MOD",
                "status": "NRML",
                "base": "FZL",
                "top": "190",
                "fzlBase": "100",
                "fzlTop": "130",
                "level": null,
                "product": "ZULU",
                "rawAirSigmet": "ICE",
                "validTimeTo": "2026-09-09T09:00:00.000",
                "validTimeFrom": [
                    "2026-09-09T08:45"
                ]
            }
        },
        {
            "type": "Feature",
            "geometry": {
                "type": "Polygon",
                "coordinates": [
                    [
                        [
                            "-115.58",
                            "49.02"
                        ],
                        [
                            "-116.32",
                            "47.50"
                        ],
                        [
                            "-118.72",
                            "45.54"
                        ],
                        [
                            "-120.69",
                            "44.49"
                        ],
                        [
                            "-124.37",
                            "42.87"
                        ],
                        [
                            "-126.74",
                            "42.22"
                        ],
                        [
                            "-126.69",
                            "44.54"
                        ],
                        [
                            "-124.77",
                            "45.13"
                        ],
                        [
                            "-122.44",
                            "46.11"
                        ],
                        [
                            "-120.85",
                            "47.41"
                        ],
                        [
                            "-120.16",
                            "48.99"
                        ],
                        [
                            "-115.58",
                            "49.02"
                        ]
                    ]
                ]
            },
            "properties": {
                "forecastId": null,
                "geometryId": null,
                "tag": "4W",
                "forecastHour": 0,
                "hazard": "TURB-HI",
                "frequency": null,
                "severity": "MOD",
                "status": "NRML",
                "base": "300",
                "top": "420",
                "fzlBase": null,
                "fzlTop": null,
                "level": null,
                "product": "TANGO",
                "rawAirSigmet": null,
                "validTimeTo": "2026-09-09T09:00:00.000",
                "validTimeFrom": [
                    "2026-09-09T08:45"
                ]
            }
        },
        {
            "type": "Feature",
            "geometry": {
                "type": "Polygon",
                "coordinates": [
                    [
                        [
                            "-126.66",
                            "38.77"
                        ],
                        [
                            "-126.04",
                            "38.46"
                        ],
                        [
                            "-125.18",
                            "38.37"
                        ],
                        [
                            "-124.01",
                            "37.82"
                        ],
                        [
                            "-123.26",
                            "37.17"
                        ],
                        [
                            "-122.60",
                            "36.01"
                        ],
                        [
                            "-122.56",
                            "35.24"
                        ],
                        [
                            "-123.62",
                            "34.99"
                        ],
                        [
                            "-124.32",
                            "35.94"
                        ],
                        [
                            "-125.84",
                            "35.53"
                        ],
                        [
                            "-126.97",
                            "36.51"
                        ],
                        [
                            "-126.66",
                            "38.77"
                        ]
                    ]
                ]
            },
            "properties": {
                "forecastId": null,
                "geometryId": null,
                "tag": "4E",
                "forecastHour": 0,
                "hazard": "IFR",
                "frequency": null,
                "severity": null,
                "status": "NRML",
                "base": null,
                "top": null,
                "fzlBase": null,
                "fzlTop": null,
                "level": null,
                "product": "SIERRA",
                "rawAirSigmet": "CIG BLW 010 VIS BLW 3SM BR FG",
                "validTimeTo": "2026-09-09T09:00:00.000",
                "validTimeFrom": [
                    "2026-09-09T08:45"
                ]
            }
        },
        {
            "type": "Feature",
            "geometry": {
                "type": "Polygon",
                "coordinates": [
                    [
                        [
                            "-124.94",
                            "48.47"
                        ],
                        [
                            "-123.65",
                            "45.29"
                        ],
                        [
                            "-124.65",
                            "45.20"
                        ],
                        [
                            "-126.79",
                            "42.05"
                        ],
                        [
                            "-126.62",
                            "45.03"
                        ],
                        [
                            "-127.83",
                            "48.22"
                        ],
                        [
                            "-124.94",
                            "48.47"
                        ]
                    ]
                ]
            },
            "properties": {
                "forecastId": null,
                "geometryId": null,
                "tag": "3E",
                "forecastHour": 0,
                "hazard": "IFR",
                "frequency": null,
                "severity": null,
                "status": "NRML",
                "base": null,
                "top": null,
                "fzlBase": null,
                "fzlTop": null,
                "level": null,
                "product": "SIERRA",
                "rawAirSigmet": "CIG BLW 010 VIS BLW 3SM BR",
                "validTimeTo": "2026-09-09T09:00:00.000",
                "validTimeFrom": [
                    "2026-09-09T08:45"
                ]
            }
        },
        {
            "type": "Feature",
            "geometry": {
                "type": "LineString",
                "coordinates": [
                    [
                        "-148.55",
                        "44.88"
                    ],
                    [
                        "-148.48",
                        "44.87"
                    ],
                    [
                        "-147.31",
                        "44.63"
                    ],
                    [
                        "-146.50",
                        "44.39"
                    ],
                    [
                        "-146.23",
                        "44.32"
                    ],
                    [
                        "-145.18",
                        "43.99"
                    ],
                    [
                        "-144.32",
                        "43.54"
                    ],
                    [
                        "-143.90",
                        "42.84"
                    ],
                    [
                        "-144.07",
                        "42.31"
                    ],
                    [
                        "-144.25",
                        "41.69"
                    ],
                    [
                        "-144.41",
                        "41.46"
                    ],
                    [
                        "-144.80",
                        "40.68"
                    ],
                    [
                        "-144.94",
                        "40.32"
                    ],
                    [
                        "-145.17",
                        "39.90"
                    ],
                    [
                        "-145.54",
                        "39.12"
                    ],
                    [
                        "-145.61",
                        "38.94"
                    ],
                    [
                        "-145.91",
                        "38.37"
                    ],
                    [
                        "-146.24",
                        "37.59"
                    ],
                    [
                        "-146.24",
                        "37.57"
                    ],
                    [
                        "-146.54",
                        "36.80"
                    ],
                    [
                        "-146.65",
                        "36.35"
                    ],
                    [
                        "-146.75",
                        "35.94"
                    ]
                ]
            },
            "properties": {
                "forecastId": null,
                "geometryId": null,
                "tag": "1C",
                "forecastHour": 0,
                "hazard": "FZLVL",
                "frequency": null,
                "severity": null,
                "status": "NRML",
                "base": null,
                "top": null,
                "fzlBase": null,
                "fzlTop": null,
                "level": "160",
                "product": "ZULU",
                "rawAirSigmet": null,
                "validTimeTo": "2026-09-09T09:00:00.000",
                "validTimeFrom": [
                    "2026-09-09T08:45"
                ]
            }
        },
        {
            "type": "Feature",
            "geometry": {
                "type": "Polygon",
                "coordinates": [
                    [
                        [
                            "-89.33",
                            "45.84"
                        ],
                        [
                            "-88.11",
                            "45.00"
                        ],
                        [
                            "-87.80",
                            "43.76"
                        ],
                        [
                            "-89.94",
                            "42.61"
                        ],
                        [
                            "-91.96",
                            "40.89"
                        ],
                        [
                            "-95.58",
                            "40.64"
                        ],
                        [
                            "-98.41",
                            "40.70"
                        ],
                        [
                            "-95.89",
                            "43.40"
                        ],
                        [
                            "-91.89",
                            "45.60"
                        ],
                        [
                            "-89.33",
                            "45.84"
                        ]
                    ]
                ]
            },
            "properties": {
                "forecastId": null,
                "geometryId": null,
                "tag": "1E",
                "forecastHour": 0,
                "hazard": "IFR",
                "frequency": null,
                "severity": null,
                "status": "NRML",
                "base": null,
                "top": null,
                "fzlBase": null,
                "fzlTop": null,
                "level": null,
                "product": "SIERRA",
                "rawAirSigmet": "CIG BLW 010 VIS BLW 3SM PCPN BR FG",
                "validTimeTo": "2026-09-09T09:00:00.000",
                "validTimeFrom": [
                    "2026-09-09T08:45"
                ]
            }
        },
        {
            "type": "Feature",
            "geometry": {
                "type": "LineString",
                "coordinates": [
                    [
                        "-132.03",
                        "55.47"
                    ],
                    [
                        "-128.93",
                        "55.37"
                    ],
                    [
                        "-125.62",
                        "55.16"
                    ],
                    [
                        "-124.43",
                        "54.78"
                    ],
                    [
                        "-123.82",
                        "54.32"
                    ],
                    [
                        "-123.52",
                        "53.73"
                    ],
                    [
                        "-123.05",
                        "52.62"
                    ],
                    [
                        "-122.27",
                        "51.65"
                    ],
                    [
                        "-118.83",
                        "48.88"
                    ],
                    [
                        "-117.02",
                        "47.74"
                    ],
                    [
                        "-114.85",
                        "47.26"
                    ],
                    [
                        "-112.28",
                        "46.86"
                    ],
                    [
                        "-110.79",
                        "45.78"
                    ],
                    [
                        "-109.94",
                        "45.16"
                    ],
                    [
                        "-108.49",
                        "44.82"
                    ],
                    [
                        "-105.53",
                        "45.01"
                    ],
                    [
                        "-103.87",
                        "45.25"
                    ],
                    [
                        "-102.40",
                        "45.33"
                    ],
                    [
                        "-100.65",
                        "45.27"
                    ],
                    [
                        "-99.47",
                        "45.43"
                    ],
                    [
                        "-97.74",
                        "46.35"
                    ],
                    [
                        "-96.46",
                        "47.84"
                    ],
                    [
                        "-95.43",
                        "49.57"
                    ],
                    [
                        "-94.64",
                        "50.32"
                    ],
                    [
                        "-93.14",
                        "50.82"
                    ],
                    [
                        "-90.52",
                        "51.34"
                    ],
                    [
                        "-88.74",
                        "51.84"
                    ],
                    [
                        "-82.88",
                        "53.20"
                    ],
                    [
                        "-81.14",
                        "54.65"
                    ],
                    [
                        "-80.01",
                        "55.15"
                    ],
                    [
                        "-78.54",
                        "54.83"
                    ],
                    [
                        "-77.69",
                        "54.23"
                    ],
                    [
                        "-76.90",
                        "53.35"
                    ],
                    [
                        "-76.04",
                        "51.74"
                    ],
                    [
                        "-75.73",
                        "49.97"
                    ],
                    [
                        "-75.33",
                        "48.60"
                    ],
                    [
                        "-74.17",
                        "47.01"
                    ],
                    [
                        "-73.48",
                        "46.44"
                    ],
                    [
                        "-72.53",
                        "46.17"
                    ],
                    [
                        "-71.47",
                        "46.00"
                    ],
                    [
                        "-70.08",
                        "45.28"
                    ],
                    [
                        "-68.94",
                        "44.29"
                    ],
                    [
                        "-66.86",
                        "42.69"
                    ],
                    [
                        "-64.35",
                        "41.11"
                    ],
                    [
                        "-62.35",
                        "39.68"
                    ],
                    [
                        "-61.30",
                        "38.66"
                    ],
                    [
                        "-59.67",
                        "38.00"
                    ],
                    [
                        "-57.79",
                        "38.20"
                    ],
                    [
                        "-53.57",
                        "39.53"
                    ],
                    [
                        "-48.97",
                        "41.19"
                    ],
                    [
                        "-47.16",
                        "41.83"
                    ],
                    [
                        "-45.90",
                        "42.65"
                    ],
                    [
                        "-45.13",
                        "43.70"
                    ],
                    [
                        "-44.72",
                        "44.68"
                    ]
                ]
            },
            "properties": {
                "forecastId": null,
                "geometryId": null,
                "tag": "1C",
                "forecastHour": 0,
                "hazard": "FZLVL",
                "frequency": null,
                "severity": null,
                "status": "NRML",
                "base": null,
                "top": null,
                "fzlBase": null,
                "fzlTop": null,
                "level": "120",
                "product": "ZULU",
                "rawAirSigmet": null,
                "validTimeTo": "2026-09-09T09:00:00.000",
                "validTimeFrom": [
                    "2026-09-09T08:45"
                ]
            }
        },
        {
            "type": "Feature",
            "geometry": {
                "type": "LineString",
                "coordinates": [
                    [
                        "-137.66",
                        "27.98"
                    ],
                    [
                        "-130.65",
                        "30.36"
                    ],
                    [
                        "-129.28",
                        "30.41"
                    ],
                    [
                        "-128.47",
                        "30.23"
                    ],
                    [
                        "-127.53",
                        "29.77"
                    ],
                    [
                        "-126.71",
                        "29.04"
                    ],
                    [
                        "-125.67",
                        "28.27"
                    ],
                    [
                        "-124.66",
                        "28.12"
                    ],
                    [
                        "-122.59",
                        "29.04"
                    ],
                    [
                        "-121.00",
                        "30.31"
                    ],
                    [
                        "-119.47",
                        "31.77"
                    ],
                    [
                        "-118.99",
                        "32.61"
                    ],
                    [
                        "-118.89",
                        "33.32"
                    ],
                    [
                        "-119.13",
                        "34.09"
                    ],
                    [
                        "-120.77",
                        "35.81"
                    ],
                    [
                        "-120.63",
                        "36.80"
                    ],
                    [
                        "-119.24",
                        "37.26"
                    ],
                    [
                        "-116.39",
                        "37.06"
                    ],
                    [
                        "-113.54",
                        "38.36"
                    ],
                    [
                        "-111.90",
                        "38.58"
                    ],
                    [
                        "-109.98",
                        "38.43"
                    ],
                    [
                        "-107.44",
                        "38.99"
                    ],
                    [
                        "-104.79",
                        "39.80"
                    ],
                    [
                        "-102.87",
                        "40.12"
                    ],
                    [
                        "-100.73",
                        "40.28"
                    ],
                    [
                        "-97.82",
                        "40.77"
                    ],
                    [
                        "-95.93",
                        "41.48"
                    ],
                    [
                        "-94.70",
                        "41.95"
                    ],
                    [
                        "-92.97",
                        "42.13"
                    ],
                    [
                        "-85.21",
                        "40.38"
                    ],
                    [
                        "-82.81",
                        "40.75"
                    ],
                    [
                        "-81.20",
                        "40.84"
                    ],
                    [
                        "-79.46",
                        "40.36"
                    ],
                    [
                        "-77.88",
                        "39.35"
                    ],
                    [
                        "-77.03",
                        "38.57"
                    ],
                    [
                        "-75.63",
                        "36.54"
                    ],
                    [
                        "-75.11",
                        "36.02"
                    ],
                    [
                        "-73.72",
                        "35.40"
                    ],
                    [
                        "-71.10",
                        "34.90"
                    ],
                    [
                        "-70.04",
                        "34.50"
                    ],
                    [
                        "-68.61",
                        "33.73"
                    ],
                    [
                        "-68.10",
                        "33.26"
                    ],
                    [
                        "-68.10",
                        "32.11"
                    ],
                    [
                        "-68.44",
                        "31.23"
                    ],
                    [
                        "-69.37",
                        "30.43"
                    ],
                    [
                        "-71.34",
                        "29.87"
                    ],
                    [
                        "-72.31",
                        "29.38"
                    ],
                    [
                        "-73.53",
                        "28.45"
                    ],
                    [
                        "-74.15",
                        "28.09"
                    ],
                    [
                        "-74.64",
                        "27.09"
                    ],
                    [
                        "-73.53",
                        "26.59"
                    ],
                    [
                        "-72.59",
                        "26.53"
                    ],
                    [
                        "-70.52",
                        "26.09"
                    ],
                    [
                        "-68.06",
                        "25.59"
                    ],
                    [
                        "-66.02",
                        "25.30"
                    ],
                    [
                        "-64.36",
                        "25.21"
                    ],
                    [
                        "-63.60",
                        "24.94"
                    ],
                    [
                        "-63.45",
                        "24.34"
                    ],
                    [
                        "-63.60",
                        "23.65"
                    ],
                    [
                        "-64.15",
                        "22.36"
                    ],
                    [
                        "-64.31",
                        "21.57"
                    ],
                    [
                        "-64.22",
                        "20.78"
                    ],
                    [
                        "-63.80",
                        "19.93"
                    ]
                ]
            },
            "properties": {
                "forecastId": null,
                "geometryId": null,
                "tag": "1C",
                "forecastHour": 0,
                "hazard": "FZLVL",
                "frequency": null,
                "severity": null,
                "status": "NRML",
                "base": null,
                "top": null,
                "fzlBase": null,
                "fzlTop": null,
                "level": "160",
                "product": "ZULU",
                "rawAirSigmet": null,
                "validTimeTo": "2026-09-09T09:00:00.000",
                "validTimeFrom": [
                    "2026-09-09T08:45"
                ]
            }
        },
        {
            "type": "Feature",
            "geometry": {
                "type": "Polygon",
                "coordinates": [
                    [
                        [
                            "-84.58",
                            "46.58"
                        ],
                        [
                            "-82.39",
                            "45.18"
                        ],
                        [
                            "-83.51",
                            "43.88"
                        ],
                        [
                            "-85.96",
                            "42.48"
                        ],
                        [
                            "-89.56",
                            "41.98"
                        ],
                        [
                            "-89.46",
                            "43.05"
                        ],
                        [
                            "-86.04",
                            "44.74"
                        ],
                        [
                            "-84.58",
                            "46.58"
                        ]
                    ]
                ]
            },
            "properties": {
                "forecastId": null,
                "geometryId": null,
                "tag": "1W",
                "forecastHour": 0,
                "hazard": "LLWS",
                "frequency": null,
                "severity": null,
                "status": "NRML",
                "base": null,
                "top": null,
                "fzlBase": null,
                "fzlTop": null,
                "level": null,
                "product": "TANGO",
                "rawAirSigmet": "AIR SPEED LOSS OR GAIN OF 20KTS OR MORE BELOW 2000 FT AGL",
                "validTimeTo": "2026-09-09T09:00:00.000",
                "validTimeFrom": [
                    "2026-09-09T08:45"
                ]
            }
        },
        {
            "type": "Feature",
            "geometry": {
                "type": "Polygon",
                "coordinates": [
                    [
                        [
                            "-78.11",
                            "39.01"
                        ],
                        [
                            "-78.75",
                            "38.31"
                        ],
                        [
                            "-79.52",
                            "37.94"
                        ],
                        [
                            "-81.34",
                            "36.47"
                        ],
                        [
                            "-81.34",
                            "35.70"
                        ],
                        [
                            "-83.67",
                            "34.71"
                        ],
                        [
                            "-83.73",
                            "35.31"
                        ],
                        [
                            "-81.80",
                            "36.10"
                        ],
                        [
                            "-81.47",
                            "38.16"
                        ],
                        [
                            "-80.70",
                            "38.95"
                        ],
                        [
                            "-78.11",
                            "39.01"
                        ]
                    ]
                ]
            },
            "properties": {
                "forecastId": null,
                "geometryId": null,
                "tag": "8E",
                "forecastHour": 0,
                "hazard": "IFR",
                "frequency": null,
                "severity": null,
                "status": "NRML",
                "base": null,
                "top": null,
                "fzlBase": null,
                "fzlTop": null,
                "level": null,
                "product": "SIERRA",
                "rawAirSigmet": "CIG BLW 010 VIS BLW 3SM PCPN BR",
                "validTimeTo": "2026-09-09T09:00:00.000",
                "validTimeFrom": [
                    "2026-09-09T08:45"
                ]
            }
        },
        {
            "type": "Feature",
            "geometry": {
                "type": "LineString",
                "coordinates": [
                    [
                        "-104.16",
                        "60.66"
                    ],
                    [
                        "-103.16",
                        "59.04"
                    ],
                    [
                        "-102.57",
                        "58.13"
                    ],
                    [
                        "-101.26",
                        "57.39"
                    ],
                    [
                        "-98.25",
                        "57.92"
                    ],
                    [
                        "-95.88",
                        "58.17"
                    ],
                    [
                        "-93.82",
                        "58.29"
                    ],
                    [
                        "-90.48",
                        "58.51"
                    ],
                    [
                        "-86.56",
                        "58.97"
                    ],
                    [
                        "-83.53",
                        "59.09"
                    ],
                    [
                        "-79.91",
                        "58.82"
                    ],
                    [
                        "-72.50",
                        "57.52"
                    ],
                    [
                        "-70.81",
                        "56.86"
                    ],
                    [
                        "-69.98",
                        "56.33"
                    ],
                    [
                        "-68.82",
                        "54.84"
                    ],
                    [
                        "-67.54",
                        "51.32"
                    ],
                    [
                        "-66.84",
                        "49.97"
                    ],
                    [
                        "-65.88",
                        "48.98"
                    ],
                    [
                        "-64.71",
                        "48.02"
                    ],
                    [
                        "-63.53",
                        "46.90"
                    ],
                    [
                        "-62.32",
                        "45.31"
                    ],
                    [
                        "-61.33",
                        "44.53"
                    ],
                    [
                        "-60.39",
                        "44.04"
                    ],
                    [
                        "-59.40",
                        "43.88"
                    ],
                    [
                        "-58.33",
                        "43.95"
                    ],
                    [
                        "-54.62",
                        "46.30"
                    ],
                    [
                        "-53.01",
                        "47.05"
                    ],
                    [
                        "-50.97",
                        "48.19"
                    ],
                    [
                        "-50.29",
                        "48.73"
                    ]
                ]
            },
            "properties": {
                "forecastId": null,
                "geometryId": null,
                "tag": "1C",
                "forecastHour": 0,
                "hazard": "FZLVL",
                "frequency": null,
                "severity": null,
                "status": "NRML",
                "base": null,
                "top": null,
                "fzlBase": null,
                "fzlTop": null,
                "level": "080",
                "product": "ZULU",
                "rawAirSigmet": null,
                "validTimeTo": "2026-09-09T09:00:00.000",
                "validTimeFrom": [
                    "2026-09-09T08:45"
                ]
            }
        },
        {
            "type": "Feature",
            "geometry": {
                "type": "Polygon",
                "coordinates": [
                    [
                        [
                            "-92.31",
                            "40.95"
                        ],
                        [
                            "-89.90",
                            "40.71"
                        ],
                        [
                            "-90.32",
                            "40.05"
                        ],
                        [
                            "-94.66",
                            "39.03"
                        ],
                        [
                            "-97.03",
                            "38.21"
                        ],
                        [
                            "-97.64",
                            "39.18"
                        ],
                        [
                            "-96.41",
                            "39.57"
                        ],
                        [
                            "-92.31",
                            "40.95"
                        ]
                    ]
                ]
            },
            "properties": {
                "forecastId": null,
                "geometryId": null,
                "tag": "2W",
                "forecastHour": 0,
                "hazard": "LLWS",
                "frequency": null,
                "severity": null,
                "status": "NRML",
                "base": null,
                "top": null,
                "fzlBase": null,
                "fzlTop": null,
                "level": null,
                "product": "TANGO",
                "rawAirSigmet": "AIR SPEED LOSS OR GAIN OF 20KTS OR MORE BELOW 2000 FT AGL",
                "validTimeTo": "2026-09-09T09:00:00.000",
                "validTimeFrom": [
                    "2026-09-09T08:45"
                ]
            }
        },
        {
            "type": "Feature",
            "geometry": {
                "type": "Polygon",
                "coordinates": [
                    [
                        [
                            "-84.70",
                            "32.70"
                        ],
                        [
                            "-81.29",
                            "30.16"
                        ],
                        [
                            "-82.09",
                            "28.89"
                        ],
                        [
                            "-81.25",
                            "27.21"
                        ],
                        [
                            "-82.00",
                            "26.71"
                        ],
                        [
                            "-82.95",
                            "27.64"
                        ],
                        [
                            "-82.48",
                            "29.35"
                        ],
                        [
                            "-83.51",
                            "30.66"
                        ],
                        [
                            "-85.23",
                            "32.30"
                        ],
                        [
                            "-84.70",
                            "32.70"
                        ]
                    ]
                ]
            },
            "properties": {
                "forecastId": null,
                "geometryId": null,
                "tag": "2E",
                "forecastHour": 0,
                "hazard": "IFR",
                "frequency": null,
                "severity": null,
                "status": "NRML",
                "base": null,
                "top": null,
                "fzlBase": null,
                "fzlTop": null,
                "level": null,
                "product": "SIERRA",
                "rawAirSigmet": "CIG BLW 010 VIS BLW 3SM BR FG",
                "validTimeTo": "2026-09-09T09:00:00.000",
                "validTimeFrom": [
                    "2026-09-09T08:45"
                ]
            }
        },
        {
            "type": "Feature",
            "geometry": {
                "type": "Polygon",
                "coordinates": [
                    [
                        [
                            "-71.25",
                            "45.33"
                        ],
                        [
                            "-70.92",
                            "42.11"
                        ],
                        [
                            "-72.34",
                            "41.58"
                        ],
                        [
                            "-75.61",
                            "43.89"
                        ],
                        [
                            "-74.40",
                            "44.14"
                        ],
                        [
                            "-73.77",
                            "44.81"
                        ],
                        [
                            "-71.25",
                            "45.33"
                        ]
                    ]
                ]
            },
            "properties": {
                "forecastId": null,
                "geometryId": null,
                "tag": "6E",
                "forecastHour": 0,
                "hazard": "IFR",
                "frequency": null,
                "severity": null,
                "status": "NRML",
                "base": null,
                "top": null,
                "fzlBase": null,
                "fzlTop": null,
                "level": null,
                "product": "SIERRA",
                "rawAirSigmet": "CIG BLW 010 VIS BLW 3SM PCPN BR FG",
                "validTimeTo": "2026-09-09T09:00:00.000",
                "validTimeFrom": [
                    "2026-09-09T08:45"
                ]
            }
        },
        {
            "type": "Feature",
            "geometry": {
                "type": "Polygon",
                "coordinates": [
                    [
                        [
                            "-110.58",
                            "24.11"
                        ],
                        [
                            "-110.45",
                            "23.24"
                        ],
                        [
                            "-109.92",
                            "22.50"
                        ],
                        [
                            "-109.03",
                            "21.79"
                        ],
                        [
                            "-107.87",
                            "21.14"
                        ],
                        [
                            "-106.58",
                            "20.65"
                        ],
                        [
                            "-105.31",
                            "19.71"
                        ],
                        [
                            "-104.40",
                            "19.55"
                        ],
                        [
                            "-104.06",
                            "20.37"
                        ],
                        [
                            "-104.88",
                            "21.32"
                        ],
                        [
                            "-105.48",
                            "22.52"
                        ],
                        [
                            "-106.38",
                            "23.72"
                        ],
                        [
                            "-107.38",
                            "24.58"
                        ],
                        [
                            "-108.51",
                            "25.50"
                        ],
                        [
                            "-109.13",
                            "25.76"
                        ],
                        [
                            "-110.19",
                            "25.39"
                        ],
                        [
                            "-110.58",
                            "24.11"
                        ]
                    ]
                ]
            },
            "properties": {
                "forecastId": null,
                "geometryId": null,
                "tag": "1C",
                "forecastHour": 0,
                "hazard": "FZLVL",
                "frequency": null,
                "severity": null,
                "status": "NRML",
                "base": null,
                "top": null,
                "fzlBase": null,
                "fzlTop": null,
                "level": "160",
                "product": "ZULU",
                "rawAirSigmet": null,
                "validTimeTo": "2026-09-09T09:00:00.000",
                "validTimeFrom": [
                    "2026-09-09T08:45"
                ]
            }
        },
        {
            "type": "Feature",
            "geometry": {
                "type": "LineString",
                "coordinates": [
                    [
                        "-82.42",
                        "15.19"
                    ],
                    [
                        "-81.90",
                        "15.58"
                    ],
                    [
                        "-79.28",
                        "17.52"
                    ],
                    [
                        "-78.63",
                        "18.36"
                    ],
                    [
                        "-79.07",
                        "19.21"
                    ],
                    [
                        "-80.57",
                        "20.62"
                    ],
                    [
                        "-81.60",
                        "21.73"
                    ],
                    [
                        "-83.72",
                        "22.94"
                    ],
                    [
                        "-84.82",
                        "23.35"
                    ],
                    [
                        "-86.21",
                        "23.45"
                    ],
                    [
                        "-88.44",
                        "23.46"
                    ],
                    [
                        "-90.20",
                        "23.82"
                    ],
                    [
                        "-90.97",
                        "24.37"
                    ],
                    [
                        "-91.40",
                        "25.32"
                    ],
                    [
                        "-91.57",
                        "27.20"
                    ],
                    [
                        "-92.17",
                        "28.04"
                    ],
                    [
                        "-93.65",
                        "27.97"
                    ],
                    [
                        "-95.21",
                        "27.25"
                    ],
                    [
                        "-96.10",
                        "26.74"
                    ],
                    [
                        "-96.93",
                        "25.71"
                    ],
                    [
                        "-97.14",
                        "24.51"
                    ],
                    [
                        "-97.33",
                        "23.24"
                    ],
                    [
                        "-97.25",
                        "22.03"
                    ],
                    [
                        "-95.94",
                        "20.73"
                    ],
                    [
                        "-95.76",
                        "20.00"
                    ],
                    [
                        "-95.84",
                        "18.85"
                    ],
                    [
                        "-95.59",
                        "18.22"
                    ],
                    [
                        "-94.56",
                        "17.79"
                    ],
                    [
                        "-93.04",
                        "18.62"
                    ],
                    [
                        "-91.88",
                        "18.57"
                    ],
                    [
                        "-90.91",
                        "17.94"
                    ],
                    [
                        "-90.37",
                        "17.16"
                    ],
                    [
                        "-90.37",
                        "16.59"
                    ]
                ]
            },
            "properties": {
                "forecastId": null,
                "geometryId": null,
                "tag": "1C",
                "forecastHour": 0,
                "hazard": "FZLVL",
                "frequency": null,
                "severity": null,
                "status": "NRML",
                "base": null,
                "top": null,
                "fzlBase": null,
                "fzlTop": null,
                "level": "160",
                "product": "ZULU",
                "rawAirSigmet": null,
                "validTimeTo": "2026-09-09T09:00:00.000",
                "validTimeFrom": [
                    "2026-09-09T08:45"
                ]
            }
        },
        {
            "type": "Feature",
            "geometry": {
                "type": "Polygon",
                "coordinates": [
                    [
                        [
                            "-77.39",
                            "36.16"
                        ],
                        [
                            "-77.46",
                            "35.04"
                        ],
                        [
                            "-79.31",
                            "34.69"
                        ],
                        [
                            "-79.57",
                            "35.57"
                        ],
                        [
                            "-77.39",
                            "36.16"
                        ]
                    ]
                ]
            },
            "properties": {
                "forecastId": null,
                "geometryId": null,
                "tag": "7E",
                "forecastHour": 0,
                "hazard": "IFR",
                "frequency": null,
                "severity": null,
                "status": "NRML",
                "base": null,
                "top": null,
                "fzlBase": null,
                "fzlTop": null,
                "level": null,
                "product": "SIERRA",
                "rawAirSigmet": "CIG BLW 010 VIS BLW 3SM PCPN BR",
                "validTimeTo": "2026-09-09T09:00:00.000",
                "validTimeFrom": [
                    "2026-09-09T08:45"
                ]
            }
        },
        {
            "type": "Feature",
            "geometry": {
                "type": "Polygon",
                "coordinates": [
                    [
                        [
                            "-95.12",
                            "49.21"
                        ],
                        [
                            "-94.38",
                            "48.64"
                        ],
                        [
                            "-96.38",
                            "47.28"
                        ],
                        [
                            "-98.48",
                            "45.10"
                        ],
                        [
                            "-102.11",
                            "43.71"
                        ],
                        [
                            "-107.64",
                            "43.00"
                        ],
                        [
                            "-111.16",
                            "42.87"
                        ],
                        [
                            "-112.48",
                            "43.73"
                        ],
                        [
                            "-112.09",
                            "44.70"
                        ],
                        [
                            "-110.81",
                            "45.03"
                        ],
                        [
                            "-106.57",
                            "45.21"
                        ],
                        [
                            "-103.70",
                            "45.43"
                        ],
                        [
                            "-102.64",
                            "45.61"
                        ],
                        [
                            "-101.16",
                            "46.19"
                        ],
                        [
                            "-98.09",
                            "49.05"
                        ],
                        [
                            "-95.12",
                            "49.21"
                        ]
                    ]
                ]
            },
            "properties": {
                "forecastId": null,
                "geometryId": null,
                "tag": "1W",
                "forecastHour": 0,
                "hazard": "TURB-HI",
                "frequency": null,
                "severity": "MOD",
                "status": "NRML",
                "base": "180",
                "top": "340",
                "fzlBase": null,
                "fzlTop": null,
                "level": null,
                "product": "TANGO",
                "rawAirSigmet": null,
                "validTimeTo": "2026-09-09T09:00:00.000",
                "validTimeFrom": [
                    "2026-09-09T08:45"
                ]
            }
        },
        {
            "type": "Feature",
            "geometry": {
                "type": "Polygon",
                "coordinates": [
                    [
                        [
                            "-116.99",
                            "49.33"
                        ],
                        [
                            "-113.17",
                            "48.91"
                        ],
                        [
                            "-112.72",
                            "47.86"
                        ],
                        [
                            "-113.21",
                            "47.25"
                        ],
                        [
                            "-114.85",
                            "46.97"
                        ],
                        [
                            "-117.08",
                            "48.33"
                        ],
                        [
                            "-116.99",
                            "49.33"
                        ]
                    ]
                ]
            },
            "properties": {
                "forecastId": null,
                "geometryId": null,
                "tag": "1E",
                "forecastHour": 0,
                "hazard": "MT_OBSC",
                "frequency": null,
                "severity": null,
                "status": "NRML",
                "base": null,
                "top": null,
                "fzlBase": null,
                "fzlTop": null,
                "level": null,
                "product": "SIERRA",
                "rawAirSigmet": "MTNS OBSC BY CLDS BR",
                "validTimeTo": "2026-09-09T09:00:00.000",
                "validTimeFrom": [
                    "2026-09-09T08:45"
                ]
            }
        },
        {
            "type": "Feature",
            "geometry": {
                "type": "Polygon",
                "coordinates": [
                    [
                        [
                            "-70.08",
                            "46.10"
                        ],
                        [
                            "-69.51",
                            "45.72"
                        ],
                        [
                            "-69.74",
                            "45.28"
                        ],
                        [
                            "-70.35",
                            "44.77"
                        ],
                        [
                            "-71.51",
                            "44.27"
                        ],
                        [
                            "-72.77",
                            "43.94"
                        ],
                        [
                            "-74.26",
                            "43.71"
                        ],
                        [
                            "-75.54",
                            "43.22"
                        ],
                        [
                            "-76.30",
                            "42.62"
                        ],
                        [
                            "-77.25",
                            "41.87"
                        ],
                        [
                            "-77.97",
                            "41.25"
                        ],
                        [
                            "-78.80",
                            "40.80"
                        ],
                        [
                            "-79.47",
                            "40.80"
                        ],
                        [
                            "-80.36",
                            "40.98"
                        ],
                        [
                            "-80.97",
                            "41.46"
                        ],
                        [
                            "-80.99",
                            "41.71"
                        ],
                        [
                            "-80.92",
                            "42.11"
                        ],
                        [
                            "-80.79",
                            "42.34"
                        ],
                        [
                            "-79.21",
                            "42.81"
                        ],
                        [
                            "-78.55",
                            "43.69"
                        ],
                        [
                            "-76.93",
                            "43.77"
                        ],
                        [
                            "-74.71",
                            "44.88"
                        ],
                        [
                            "-71.49",
                            "44.95"
                        ],
                        [
                            "-70.21",
                            "45.80"
                        ],
                        [
                            "-70.08",
                            "46.10"
                        ]
                    ]
                ]
            },
            "properties": {
                "forecastId": null,
                "geometryId": null,
                "tag": "2C",
                "forecastHour": 0,
                "hazard": "ICE",
                "frequency": null,
                "severity": "MOD",
                "status": "NRML",
                "base": "FZL",
                "top": "230",
                "fzlBase": "120",
                "fzlTop": "150",
                "level": null,
                "product": "ZULU",
                "rawAirSigmet": "ICE",
                "validTimeTo": "2026-09-09T09:00:00.000",
                "validTimeFrom": [
                    "2026-09-09T08:45"
                ]
            }
        },
        {
            "type": "Feature",
            "geometry": {
                "type": "Polygon",
                "coordinates": [
                    [
                        [
                            "-71.31",
                            "45.40"
                        ],
                        [
                            "-70.78",
                            "44.31"
                        ],
                        [
                            "-73.32",
                            "42.30"
                        ],
                        [
                            "-75.92",
                            "43.65"
                        ],
                        [
                            "-74.67",
                            "45.00"
                        ],
                        [
                            "-71.31",
                            "45.40"
                        ]
                    ]
                ]
            },
            "properties": {
                "forecastId": null,
                "geometryId": null,
                "tag": "4E",
                "forecastHour": 0,
                "hazard": "MT_OBSC",
                "frequency": null,
                "severity": null,
                "status": "NRML",
                "base": null,
                "top": null,
                "fzlBase": null,
                "fzlTop": null,
                "level": null,
                "product": "SIERRA",
                "rawAirSigmet": "MTNS OBSC BY CLDS BR",
                "validTimeTo": "2026-09-09T09:00:00.000",
                "validTimeFrom": [
                    "2026-09-09T08:45"
                ]
            }
        }
    ],
    "metadata": {
        "creationTime": "2026-09-09T09:33"
    }
}