{
    "type": "FeatureCollection",
    "features": [
        {
            "type": "Feature",
            "geometry": {
                "type": "Polygon",
                "coordinates": [
                    [
                        [
                            "-67.27",
                            "45.40"
                        ],
                        [
                            "-66.88",
                            "44.63"
                        ],
                        [
                            "-66.96",
                            "38.78"
                        ],
                        [
                            "-69.70",
                            "38.50"
                        ],
                        [
                            "-71.08",
                            "37.73"
                        ],
                        [
                            "-72.58",
                            "37.22"
                        ],
                        [
                            "-73.38",
                            "36.64"
                        ],
                        [
                            "-71.91",
                            "38.92"
                        ],
                        [
                            "-71.05",
                            "40.86"
                        ],
                        [
                            "-68.48",
                            "43.30"
                        ],
                        [
                            "-67.27",
                            "45.40"
                        ]
                    ]
                ]
            },
            "properties": {
                "forecastId": null,
                "geometryId": null,
                "tag": "2W",
                "forecastHour": 6,
                "hazard": "TURB-HI",
                "frequency": null,
                "severity": "MOD",
                "status": "NRML",
                "base": "270",
                "top": "430",
                "fzlBase": null,
                "fzlTop": null,
                "level": null,
                "product": "TANGO",
                "rawAirSigmet": null,
                "validTimeTo": "2026-07-26T21:00:00.000",
                "validTimeFrom": [
                    "2026-07-26T16:57"
                ]
            }
        },
        {
            "type": "Feature",
            "geometry": {
                "type": "LineString",
                "coordinates": [
                    [
                        "-65.36",
                        "33.27"
                    ],
                    [
                        "-65.85",
                        "33.10"
                    ],
                    [
                        "-66.40",
                        "32.65"
                    ],
                    [
                        "-66.93",
                        "32.20"
                    ],
                    [
                        "-67.28",
                        "31.89"
                    ],
                    [
                        "-67.62",
                        "31.58"
                    ],
                    [
                        "-68.24",
                        "31.68"
                    ],
                    [
                        "-68.01",
                        "32.39"
                    ],
                    [
                        "-67.77",
                        "33.08"
                    ],
                    [
                        "-67.47",
                        "33.68"
                    ],
                    [
                        "-67.10",
                        "34.07"
                    ],
                    [
                        "-66.74",
                        "34.38"
                    ],
                    [
                        "-66.32",
                        "34.71"
                    ],
                    [
                        "-65.77",
                        "35.08"
                    ],
                    [
                        "-65.23",
                        "35.41"
                    ],
                    [
                        "-64.74",
                        "35.57"
                    ]
                ]
            },
            "properties": {
                "forecastId": null,
                "geometryId": null,
                "tag": "1C",
                "forecastHour": 6,
                "hazard": "FZLVL",
                "frequency": null,
                "severity": null,
                "status": "NRML",
                "base": null,
                "top": null,
                "fzlBase": null,
                "fzlTop": null,
                "level": "160",
                "product": "ZULU",
                "rawAirSigmet": null,
                "validTimeTo": "2026-07-26T21:00:00.000",
                "validTimeFrom": [
                    "2026-07-26T14:45"
                ]
            }
        },
        {
            "type": "Feature",
            "geometry": {
                "type": "Polygon",
                "coordinates": [
                    [
                        [
                            "-67.09",
                            "43.14"
                        ],
                        [
                            "-67.17",
                            "42.14"
                        ],
                        [
                            "-67.09",
                            "41.42"
                        ],
                        [
                            "-67.05",
                            "39.68"
                        ],
                        [
                            "-68.53",
                            "39.35"
                        ],
                        [
                            "-69.98",
                            "38.83"
                        ],
                        [
                            "-70.31",
                            "39.41"
                        ],
                        [
                            "-70.29",
                            "40.02"
                        ],
                        [
                            "-70.06",
                            "40.82"
                        ],
                        [
                            "-69.75",
                            "41.57"
                        ],
                        [
                            "-69.32",
                            "42.21"
                        ],
                        [
                            "-68.59",
                            "42.80"
                        ],
                        [
                            "-67.09",
                            "43.14"
                        ]
                    ]
                ]
            },
            "properties": {
                "forecastId": null,
                "geometryId": null,
                "tag": "7E",
                "forecastHour": 6,
                "hazard": "IFR",
                "frequency": null,
                "severity": null,
                "status": "NRML",
                "base": null,
                "top": null,
                "fzlBase": null,
                "fzlTop": null,
                "level": null,
                "product": "SIERRA",
                "rawAirSigmet": "CIG BLW 010 VIS BLW 3SM BR FG",
                "validTimeTo": "2026-07-26T21:00:00.000",
                "validTimeFrom": [
                    "2026-07-26T17:05"
                ]
            }
        },
        {
            "type": "Feature",
            "geometry": {
                "type": "Polygon",
                "coordinates": [
                    [
                        [
                            "-69.44",
                            "30.87"
                        ],
                        [
                            "-68.99",
                            "30.95"
                        ],
                        [
                            "-68.86",
                            "30.68"
                        ],
                        [
                            "-69.01",
                            "30.33"
                        ],
                        [
                            "-69.17",
                            "30.15"
                        ],
                        [
                            "-69.29",
                            "30.01"
                        ],
                        [
                            "-69.68",
                            "29.77"
                        ],
                        [
                            "-69.83",
                            "29.73"
                        ],
                        [
                            "-70.13",
                            "29.69"
                        ],
                        [
                            "-70.41",
                            "29.82"
                        ],
                        [
                            "-70.34",
                            "30.18"
                        ],
                        [
                            "-70.06",
                            "30.51"
                        ],
                        [
                            "-69.92",
                            "30.63"
                        ],
                        [
                            "-69.59",
                            "30.80"
                        ],
                        [
                            "-69.44",
                            "30.87"
                        ]
                    ]
                ]
            },
            "properties": {
                "forecastId": null,
                "geometryId": null,
                "tag": "1C",
                "forecastHour": 6,
                "hazard": "FZLVL",
                "frequency": null,
                "severity": null,
                "status": "NRML",
                "base": null,
                "top": null,
                "fzlBase": null,
                "fzlTop": null,
                "level": "160",
                "product": "ZULU",
                "rawAirSigmet": null,
                "validTimeTo": "2026-07-26T21:00:00.000",
                "validTimeFrom": [
                    "2026-07-26T14:45"
                ]
            }
        },
        {
            "type": "Feature",
            "geometry": {
                "type": "LineString",
                "coordinates": [
                    [
                        "-101.37",
                        "58.29"
                    ],
                    [
                        "-100.55",
                        "57.39"
                    ],
                    [
                        "-99.04",
                        "56.67"
                    ],
                    [
                        "-98.38",
                        "56.44"
                    ],
                    [
                        "-97.29",
                        "56.49"
                    ],
                    [
                        "-96.10",
                        "56.28"
                    ],
                    [
                        "-95.63",
                        "55.94"
                    ],
                    [
                        "-93.30",
                        "54.41"
                    ],
                    [
                        "-90.96",
                        "53.09"
                    ],
                    [
                        "-85.20",
                        "50.76"
                    ],
                    [
                        "-82.47",
                        "49.27"
                    ],
                    [
                        "-81.26",
                        "49.20"
                    ],
                    [
                        "-80.61",
                        "49.42"
                    ],
                    [
                        "-79.60",
                        "50.32"
                    ],
                    [
                        "-78.41",
                        "50.92"
                    ],
                    [
                        "-77.39",
                        "50.81"
                    ],
                    [
                        "-76.65",
                        "50.46"
                    ],
                    [
                        "-75.27",
                        "49.98"
                    ],
                    [
                        "-74.73",
                        "48.98"
                    ],
                    [
                        "-76.17",
                        "47.02"
                    ],
                    [
                        "-76.89",
                        "46.05"
                    ],
                    [
                        "-76.65",
                        "45.00"
                    ],
                    [
                        "-75.80",
                        "43.91"
                    ],
                    [
                        "-75.42",
                        "42.90"
                    ],
                    [
                        "-76.29",
                        "42.20"
                    ],
                    [
                        "-76.25",
                        "41.70"
                    ],
                    [
                        "-75.74",
                        "41.79"
                    ],
                    [
                        "-74.19",
                        "42.40"
                    ],
                    [
                        "-73.58",
                        "43.88"
                    ],
                    [
                        "-71.71",
                        "45.50"
                    ],
                    [
                        "-67.60",
                        "48.79"
                    ],
                    [
                        "-65.69",
                        "51.07"
                    ],
                    [
                        "-64.48",
                        "51.70"
                    ],
                    [
                        "-63.13",
                        "52.13"
                    ],
                    [
                        "-61.61",
                        "53.39"
                    ],
                    [
                        "-60.50",
                        "54.68"
                    ]
                ]
            },
            "properties": {
                "forecastId": null,
                "geometryId": null,
                "tag": "1C",
                "forecastHour": 6,
                "hazard": "FZLVL",
                "frequency": null,
                "severity": null,
                "status": "NRML",
                "base": null,
                "top": null,
                "fzlBase": null,
                "fzlTop": null,
                "level": "120",
                "product": "ZULU",
                "rawAirSigmet": null,
                "validTimeTo": "2026-07-26T21:00:00.000",
                "validTimeFrom": [
                    "2026-07-26T14:45"
                ]
            }
        },
        {
            "type": "Feature",
            "geometry": {
                "type": "LineString",
                "coordinates": [
                    [
                        "-94.12",
                        "58.36"
                    ],
                    [
                        "-93.33",
                        "57.14"
                    ],
                    [
                        "-91.71",
                        "55.92"
                    ],
                    [
                        "-90.11",
                        "55.12"
                    ],
                    [
                        "-89.16",
                        "54.60"
                    ],
                    [
                        "-88.65",
                        "53.99"
                    ],
                    [
                        "-87.97",
                        "53.43"
                    ],
                    [
                        "-87.03",
                        "53.23"
                    ],
                    [
                        "-83.99",
                        "52.86"
                    ],
                    [
                        "-81.77",
                        "52.85"
                    ],
                    [
                        "-79.55",
                        "53.33"
                    ],
                    [
                        "-77.78",
                        "54.09"
                    ],
                    [
                        "-75.92",
                        "55.08"
                    ],
                    [
                        "-74.56",
                        "56.32"
                    ],
                    [
                        "-73.94",
                        "57.49"
                    ]
                ]
            },
            "properties": {
                "forecastId": null,
                "geometryId": null,
                "tag": "1C",
                "forecastHour": 6,
                "hazard": "FZLVL",
                "frequency": null,
                "severity": null,
                "status": "NRML",
                "base": null,
                "top": null,
                "fzlBase": null,
                "fzlTop": null,
                "level": "080",
                "product": "ZULU",
                "rawAirSigmet": null,
                "validTimeTo": "2026-07-26T21:00:00.000",
                "validTimeFrom": [
                    "2026-07-26T14:45"
                ]
            }
        },
        {
            "type": "Feature",
            "geometry": {
                "type": "Polygon",
                "coordinates": [
                    [
                        [
                            "-107.78",
                            "41.99"
                        ],
                        [
                            "-104.67",
                            "41.72"
                        ],
                        [
                            "-104.17",
                            "38.09"
                        ],
                        [
                            "-105.66",
                            "35.66"
                        ],
                        [
                            "-109.56",
                            "37.14"
                        ],
                        [
                            "-107.78",
                            "41.99"
                        ]
                    ]
                ]
            },
            "properties": {
                "forecastId": null,
                "geometryId": null,
                "tag": "1W",
                "forecastHour": 6,
                "hazard": "TURB-LO",
                "frequency": null,
                "severity": "MOD",
                "status": "NRML",
                "base": "SFC",
                "top": "220",
                "fzlBase": null,
                "fzlTop": null,
                "level": null,
                "product": "TANGO",
                "rawAirSigmet": null,
                "validTimeTo": "2026-07-26T21:00:00.000",
                "validTimeFrom": [
                    "2026-07-26T16:57"
                ]
            }
        },
        {
            "type": "Feature",
            "geometry": {
                "type": "LineString",
                "coordinates": [
                    [
                        "-107.02",
                        "19.21"
                    ],
                    [
                        "-107.24",
                        "20.65"
                    ],
                    [
                        "-107.68",
                        "21.67"
                    ],
                    [
                        "-109.16",
                        "21.71"
                    ],
                    [
                        "-112.29",
                        "21.43"
                    ],
                    [
                        "-115.03",
                        "21.28"
                    ],
                    [
                        "-116.83",
                        "22.48"
                    ],
                    [
                        "-117.66",
                        "23.33"
                    ],
                    [
                        "-118.69",
                        "23.66"
                    ],
                    [
                        "-119.80",
                        "24.13"
                    ],
                    [
                        "-120.55",
                        "24.83"
                    ],
                    [
                        "-120.99",
                        "25.14"
                    ],
                    [
                        "-121.68",
                        "25.08"
                    ],
                    [
                        "-122.32",
                        "24.14"
                    ],
                    [
                        "-122.51",
                        "23.11"
                    ],
                    [
                        "-122.46",
                        "21.88"
                    ],
                    [
                        "-122.06",
                        "20.86"
                    ],
                    [
                        "-120.95",
                        "20.30"
                    ],
                    [
                        "-118.85",
                        "19.56"
                    ],
                    [
                        "-118.53",
                        "18.29"
                    ],
                    [
                        "-117.49",
                        "17.94"
                    ]
                ]
            },
            "properties": {
                "forecastId": null,
                "geometryId": null,
                "tag": "1C",
                "forecastHour": 6,
                "hazard": "FZLVL",
                "frequency": null,
                "severity": null,
                "status": "NRML",
                "base": null,
                "top": null,
                "fzlBase": null,
                "fzlTop": null,
                "level": "160",
                "product": "ZULU",
                "rawAirSigmet": null,
                "validTimeTo": "2026-07-26T21:00:00.000",
                "validTimeFrom": [
                    "2026-07-26T14:45"
                ]
            }
        },
        {
            "type": "Feature",
            "geometry": {
                "type": "Polygon",
                "coordinates": [
                    [
                        [
                            "-88.41",
                            "48.34"
                        ],
                        [
                            "-87.05",
                            "47.78"
                        ],
                        [
                            "-89.54",
                            "46.79"
                        ],
                        [
                            "-91.02",
                            "47.41"
                        ],
                        [
                            "-91.35",
                            "48.01"
                        ],
                        [
                            "-89.53",
                            "47.81"
                        ],
                        [
                            "-88.41",
                            "48.34"
                        ]
                    ]
                ]
            },
            "properties": {
                "forecastId": null,
                "geometryId": null,
                "tag": "1W",
                "forecastHour": 6,
                "hazard": "LLWS",
                "frequency": null,
                "severity": null,
                "status": "NRML",
                "base": null,
                "top": null,
                "fzlBase": null,
                "fzlTop": null,
                "level": null,
                "product": "TANGO",
                "rawAirSigmet": "AIR SPEED LOSS OR GAIN OF 20KTS OR MORE BELOW 2000 FT AGL",
                "validTimeTo": "2026-07-26T21:00:00.000",
                "validTimeFrom": [
                    "2026-07-26T16:57"
                ]
            }
        },
        {
            "type": "Feature",
            "geometry": {
                "type": "Polygon",
                "coordinates": [
                    [
                        [
                            "-114.04",
                            "49.03"
                        ],
                        [
                            "-113.14",
                            "48.98"
                        ],
                        [
                            "-111.43",
                            "47.39"
                        ],
                        [
                            "-109.77",
                            "48.48"
                        ],
                        [
                            "-107.05",
                            "44.89"
                        ],
                        [
                            "-109.81",
                            "45.28"
                        ],
                        [
                            "-110.78",
                            "46.65"
                        ],
                        [
                            "-111.74",
                            "46.57"
                        ],
                        [
                            "-113.76",
                            "46.04"
                        ],
                        [
                            "-115.47",
                            "44.95"
                        ],
                        [
                            "-115.81",
                            "44.26"
                        ],
                        [
                            "-115.43",
                            "43.50"
                        ],
                        [
                            "-113.33",
                            "42.80"
                        ],
                        [
                            "-113.53",
                            "42.20"
                        ],
                        [
                            "-115.63",
                            "41.85"
                        ],
                        [
                            "-117.27",
                            "42.58"
                        ],
                        [
                            "-118.67",
                            "42.64"
                        ],
                        [
                            "-120.48",
                            "43.14"
                        ],
                        [
                            "-121.40",
                            "44.20"
                        ],
                        [
                            "-121.71",
                            "44.98"
                        ],
                        [
                            "-121.32",
                            "45.77"
                        ],
                        [
                            "-119.73",
                            "46.52"
                        ],
                        [
                            "-117.37",
                            "47.11"
                        ],
                        [
                            "-115.44",
                            "48.17"
                        ],
                        [
                            "-114.04",
                            "49.03"
                        ]
                    ]
                ]
            },
            "properties": {
                "forecastId": null,
                "geometryId": null,
                "tag": "3E",
                "forecastHour": 6,
                "hazard": "MT_OBSC",
                "frequency": null,
                "severity": null,
                "status": "NRML",
                "base": null,
                "top": null,
                "fzlBase": null,
                "fzlTop": null,
                "level": null,
                "product": "SIERRA",
                "rawAirSigmet": "FU HZ",
                "validTimeTo": "2026-07-26T21:00:00.000",
                "validTimeFrom": [
                    "2026-07-26T17:05"
                ]
            }
        },
        {
            "type": "Feature",
            "geometry": {
                "type": "Polygon",
                "coordinates": [
                    [
                        [
                            "-88.90",
                            "42.02"
                        ],
                        [
                            "-88.42",
                            "42.19"
                        ],
                        [
                            "-87.94",
                            "42.23"
                        ],
                        [
                            "-87.48",
                            "42.12"
                        ],
                        [
                            "-87.14",
                            "41.92"
                        ],
                        [
                            "-87.03",
                            "41.84"
                        ],
                        [
                            "-86.78",
                            "41.56"
                        ],
                        [
                            "-86.61",
                            "41.26"
                        ],
                        [
                            "-86.58",
                            "41.20"
                        ],
                        [
                            "-86.64",
                            "40.95"
                        ],
                        [
                            "-86.67",
                            "40.85"
                        ],
                        [
                            "-87.11",
                            "40.52"
                        ],
                        [
                            "-87.14",
                            "40.50"
                        ],
                        [
                            "-87.61",
                            "40.31"
                        ],
                        [
                            "-88.08",
                            "40.24"
                        ],
                        [
                            "-88.54",
                            "40.29"
                        ],
                        [
                            "-88.99",
                            "40.45"
                        ],
                        [
                            "-89.26",
                            "40.60"
                        ],
                        [
                            "-89.44",
                            "40.76"
                        ],
                        [
                            "-89.59",
                            "40.96"
                        ],
                        [
                            "-89.57",
                            "41.31"
                        ],
                        [
                            "-89.39",
                            "41.56"
                        ],
                        [
                            "-89.34",
                            "41.65"
                        ],
                        [
                            "-88.95",
                            "41.99"
                        ],
                        [
                            "-88.90",
                            "42.02"
                        ]
                    ]
                ]
            },
            "properties": {
                "forecastId": null,
                "geometryId": null,
                "tag": "1C",
                "forecastHour": 6,
                "hazard": "FZLVL",
                "frequency": null,
                "severity": null,
                "status": "NRML",
                "base": null,
                "top": null,
                "fzlBase": null,
                "fzlTop": null,
                "level": "160",
                "product": "ZULU",
                "rawAirSigmet": null,
                "validTimeTo": "2026-07-26T21:00:00.000",
                "validTimeFrom": [
                    "2026-07-26T14:45"
                ]
            }
        },
        {
            "type": "Feature",
            "geometry": {
                "type": "Polygon",
                "coordinates": [
                    [
                        [
                            "-118.06",
                            "33.20"
                        ],
                        [
                            "-117.68",
                            "32.92"
                        ],
                        [
                            "-117.37",
                            "32.42"
                        ],
                        [
                            "-119.65",
                            "30.70"
                        ],
                        [
                            "-120.31",
                            "32.07"
                        ],
                        [
                            "-120.39",
                            "32.69"
                        ],
                        [
                            "-119.61",
                            "32.89"
                        ],
                        [
                            "-118.61",
                            "33.17"
                        ],
                        [
                            "-118.06",
                            "33.20"
                        ]
                    ]
                ]
            },
            "properties": {
                "forecastId": null,
                "geometryId": null,
                "tag": "4E",
                "forecastHour": 6,
                "hazard": "IFR",
                "frequency": null,
                "severity": null,
                "status": "NRML",
                "base": null,
                "top": null,
                "fzlBase": null,
                "fzlTop": null,
                "level": null,
                "product": "SIERRA",
                "rawAirSigmet": "CIG BLW 010 VIS BLW 3SM BR",
                "validTimeTo": "2026-07-26T21:00:00.000",
                "validTimeFrom": [
                    "2026-07-26T17:05"
                ]
            }
        },
        {
            "type": "Feature",
            "geometry": {
                "type": "Polygon",
                "coordinates": [
                    [
                        [
                            "-103.41",
                            "55.49"
                        ],
                        [
                            "-103.30",
                            "55.18"
                        ],
                        [
                            "-103.16",
                            "55.12"
                        ],
                        [
                            "-102.61",
                            "55.07"
                        ],
                        [
                            "-102.08",
                            "55.19"
                        ],
                        [
                            "-102.02",
                            "55.22"
                        ],
                        [
                            "-102.09",
                            "55.32"
                        ],
                        [
                            "-102.39",
                            "55.52"
                        ],
                        [
                            "-102.66",
                            "55.58"
                        ],
                        [
                            "-103.21",
                            "55.57"
                        ],
                        [
                            "-103.41",
                            "55.49"
                        ]
                    ]
                ]
            },
            "properties": {
                "forecastId": null,
                "geometryId": null,
                "tag": "1C",
                "forecastHour": 6,
                "hazard": "FZLVL",
                "frequency": null,
                "severity": null,
                "status": "NRML",
                "base": null,
                "top": null,
                "fzlBase": null,
                "fzlTop": null,
                "level": "120",
                "product": "ZULU",
                "rawAirSigmet": null,
                "validTimeTo": "2026-07-26T21:00:00.000",
                "validTimeFrom": [
                    "2026-07-26T14:45"
                ]
            }
        },
        {
            "type": "Feature",
            "geometry": {
                "type": "Polygon",
                "coordinates": [
                    [
                        [
                            "-125.91",
                            "48.58"
                        ],
                        [
                            "-124.74",
                            "48.50"
                        ],
                        [
                            "-123.69",
                            "47.65"
                        ],
                        [
                            "-125.01",
                            "47.19"
                        ],
                        [
                            "-126.04",
                            "46.39"
                        ],
                        [
                            "-126.41",
                            "46.10"
                        ],
                        [
                            "-126.78",
                            "45.79"
                        ],
                        [
                            "-126.88",
                            "46.67"
                        ],
                        [
                            "-125.91",
                            "48.58"
                        ]
                    ]
                ]
            },
            "properties": {
                "forecastId": null,
                "geometryId": null,
                "tag": "5E",
                "forecastHour": 6,
                "hazard": "IFR",
                "frequency": null,
                "severity": null,
                "status": "NRML",
                "base": null,
                "top": null,
                "fzlBase": null,
                "fzlTop": null,
                "level": null,
                "product": "SIERRA",
                "rawAirSigmet": "CIG BLW 010 VIS BLW 3SM PCPN BR",
                "validTimeTo": "2026-07-26T21:00:00.000",
                "validTimeFrom": [
                    "2026-07-26T17:05"
                ]
            }
        },
        {
            "type": "Feature",
            "geometry": {
                "type": "Polygon",
                "coordinates": [
                    [
                        [
                            "-86.80",
                            "29.35"
                        ],
                        [
                            "-86.94",
                            "28.99"
                        ],
                        [
                            "-86.75",
                            "28.62"
                        ],
                        [
                            "-86.69",
                            "28.57"
                        ],
                        [
                            "-86.28",
                            "28.47"
                        ],
                        [
                            "-85.86",
                            "28.51"
                        ],
                        [
                            "-85.71",
                            "28.56"
                        ],
                        [
                            "-85.43",
                            "28.70"
                        ],
                        [
                            "-85.25",
                            "28.89"
                        ],
                        [
                            "-85.38",
                            "29.27"
                        ],
                        [
                            "-85.38",
                            "29.27"
                        ],
                        [
                            "-85.78",
                            "29.55"
                        ],
                        [
                            "-86.19",
                            "29.65"
                        ],
                        [
                            "-86.62",
                            "29.49"
                        ],
                        [
                            "-86.80",
                            "29.35"
                        ]
                    ]
                ]
            },
            "properties": {
                "forecastId": null,
                "geometryId": null,
                "tag": "1C",
                "forecastHour": 6,
                "hazard": "FZLVL",
                "frequency": null,
                "severity": null,
                "status": "NRML",
                "base": null,
                "top": null,
                "fzlBase": null,
                "fzlTop": null,
                "level": "160",
                "product": "ZULU",
                "rawAirSigmet": null,
                "validTimeTo": "2026-07-26T21:00:00.000",
                "validTimeFrom": [
                    "2026-07-26T14:45"
                ]
            }
        },
        {
            "type": "Feature",
            "geometry": {
                "type": "LineString",
                "coordinates": [
                    [
                        "-118.59",
                        "17.76"
                    ],
                    [
                        "-118.54",
                        "18.14"
                    ],
                    [
                        "-118.82",
                        "18.28"
                    ],
                    [
                        "-119.19",
                        "18.17"
                    ],
                    [
                        "-119.56",
                        "18.08"
                    ],
                    [
                        "-119.92",
                        "17.95"
                    ],
                    [
                        "-120.02",
                        "17.88"
                    ],
                    [
                        "-120.25",
                        "17.64"
                    ],
                    [
                        "-120.32",
                        "17.46"
                    ]
                ]
            },
            "properties": {
                "forecastId": null,
                "geometryId": null,
                "tag": "1C",
                "forecastHour": 6,
                "hazard": "FZLVL",
                "frequency": null,
                "severity": null,
                "status": "NRML",
                "base": null,
                "top": null,
                "fzlBase": null,
                "fzlTop": null,
                "level": "160",
                "product": "ZULU",
                "rawAirSigmet": null,
                "validTimeTo": "2026-07-26T21:00:00.000",
                "validTimeFrom": [
                    "2026-07-26T14:45"
                ]
            }
        },
        {
            "type": "Feature",
            "geometry": {
                "type": "LineString",
                "coordinates": [
                    [
                        "-129.00",
                        "27.14"
                    ],
                    [
                        "-128.63",
                        "27.29"
                    ],
                    [
                        "-128.41",
                        "27.39"
                    ],
                    [
                        "-128.25",
                        "27.46"
                    ],
                    [
                        "-128.14",
                        "27.45"
                    ],
                    [
                        "-127.98",
                        "27.11"
                    ],
                    [
                        "-127.95",
                        "26.74"
                    ],
                    [
                        "-127.89",
                        "26.38"
                    ],
                    [
                        "-127.84",
                        "26.01"
                    ],
                    [
                        "-127.83",
                        "25.97"
                    ],
                    [
                        "-127.82",
                        "25.64"
                    ],
                    [
                        "-127.84",
                        "25.26"
                    ],
                    [
                        "-127.90",
                        "24.87"
                    ],
                    [
                        "-127.92",
                        "24.76"
                    ],
                    [
                        "-128.03",
                        "24.46"
                    ],
                    [
                        "-128.16",
                        "24.13"
                    ]
                ]
            },
            "properties": {
                "forecastId": null,
                "geometryId": null,
                "tag": "1C",
                "forecastHour": 6,
                "hazard": "FZLVL",
                "frequency": null,
                "severity": null,
                "status": "NRML",
                "base": null,
                "top": null,
                "fzlBase": null,
                "fzlTop": null,
                "level": "160",
                "product": "ZULU",
                "rawAirSigmet": null,
                "validTimeTo": "2026-07-26T21:00:00.000",
                "validTimeFrom": [
                    "2026-07-26T14:45"
                ]
            }
        },
        {
            "type": "Feature",
            "geometry": {
                "type": "Polygon",
                "coordinates": [
                    [
                        [
                            "-121.79",
                            "49.01"
                        ],
                        [
                            "-122.72",
                            "47.80"
                        ],
                        [
                            "-124.20",
                            "46.30"
                        ],
                        [
                            "-126.54",
                            "43.10"
                        ],
                        [
                            "-126.60",
                            "45.12"
                        ],
                        [
                            "-126.83",
                            "45.83"
                        ],
                        [
                            "-125.72",
                            "47.10"
                        ],
                        [
                            "-126.03",
                            "48.50"
                        ],
                        [
                            "-124.88",
                            "48.65"
                        ],
                        [
                            "-123.43",
                            "48.21"
                        ],
                        [
                            "-123.18",
                            "48.47"
                        ],
                        [
                            "-123.22",
                            "48.96"
                        ],
                        [
                            "-121.79",
                            "49.01"
                        ]
                    ]
                ]
            },
            "properties": {
                "forecastId": null,
                "geometryId": null,
                "tag": "1C",
                "forecastHour": 6,
                "hazard": "ICE",
                "frequency": null,
                "severity": "MOD",
                "status": "NRML",
                "base": "110",
                "top": "230",
                "fzlBase": null,
                "fzlTop": null,
                "level": null,
                "product": "ZULU",
                "rawAirSigmet": "ICE",
                "validTimeTo": "2026-07-26T21:00:00.000",
                "validTimeFrom": [
                    "2026-07-26T14:45"
                ]
            }
        },
        {
            "type": "Feature",
            "geometry": {
                "type": "LineString",
                "coordinates": [
                    [
                        "-135.64",
                        "45.90"
                    ],
                    [
                        "-135.15",
                        "45.93"
                    ],
                    [
                        "-133.69",
                        "45.80"
                    ],
                    [
                        "-132.11",
                        "45.97"
                    ],
                    [
                        "-131.20",
                        "46.64"
                    ],
                    [
                        "-130.11",
                        "47.36"
                    ],
                    [
                        "-128.92",
                        "48.09"
                    ],
                    [
                        "-128.11",
                        "48.87"
                    ],
                    [
                        "-127.34",
                        "49.59"
                    ],
                    [
                        "-126.54",
                        "50.27"
                    ],
                    [
                        "-126.11",
                        "51.24"
                    ],
                    [
                        "-126.04",
                        "52.25"
                    ],
                    [
                        "-125.99",
                        "53.24"
                    ],
                    [
                        "-125.88",
                        "54.23"
                    ],
                    [
                        "-126.43",
                        "55.12"
                    ],
                    [
                        "-126.85",
                        "56.33"
                    ]
                ]
            },
            "properties": {
                "forecastId": null,
                "geometryId": null,
                "tag": "1C",
                "forecastHour": 6,
                "hazard": "FZLVL",
                "frequency": null,
                "severity": null,
                "status": "NRML",
                "base": null,
                "top": null,
                "fzlBase": null,
                "fzlTop": null,
                "level": "080",
                "product": "ZULU",
                "rawAirSigmet": null,
                "validTimeTo": "2026-07-26T21:00:00.000",
                "validTimeFrom": [
                    "2026-07-26T14:45"
                ]
            }
        },
        {
            "type": "Feature",
            "geometry": {
                "type": "Polygon",
                "coordinates": [
                    [
                        [
                            "-123.36",
                            "20.59"
                        ],
                        [
                            "-123.31",
                            "20.22"
                        ],
                        [
                            "-123.19",
                            "19.88"
                        ],
                        [
                            "-123.02",
                            "19.54"
                        ],
                        [
                            "-122.98",
                            "19.49"
                        ],
                        [
                            "-122.56",
                            "19.37"
                        ],
                        [
                            "-122.35",
                            "19.67"
                        ],
                        [
                            "-122.33",
                            "20.05"
                        ],
                        [
                            "-122.43",
                            "20.40"
                        ],
                        [
                            "-122.78",
                            "20.70"
                        ],
                        [
                            "-122.86",
                            "20.71"
                        ],
                        [
                            "-123.27",
                            "20.78"
                        ],
                        [
                            "-123.36",
                            "20.59"
                        ]
                    ]
                ]
            },
            "properties": {
                "forecastId": null,
                "geometryId": null,
                "tag": "1C",
                "forecastHour": 6,
                "hazard": "FZLVL",
                "frequency": null,
                "severity": null,
                "status": "NRML",
                "base": null,
                "top": null,
                "fzlBase": null,
                "fzlTop": null,
                "level": "160",
                "product": "ZULU",
                "rawAirSigmet": null,
                "validTimeTo": "2026-07-26T21:00:00.000",
                "validTimeFrom": [
                    "2026-07-26T14:45"
                ]
            }
        },
        {
            "type": "Feature",
            "geometry": {
                "type": "Polygon",
                "coordinates": [
                    [
                        [
                            "-78.77",
                            "42.80"
                        ],
                        [
                            "-77.85",
                            "38.85"
                        ],
                        [
                            "-78.11",
                            "36.19"
                        ],
                        [
                            "-78.35",
                            "34.62"
                        ],
                        [
                            "-79.27",
                            "32.84"
                        ],
                        [
                            "-79.07",
                            "31.99"
                        ],
                        [
                            "-77.48",
                            "31.83"
                        ],
                        [
                            "-77.66",
                            "30.21"
                        ],
                        [
                            "-80.17",
                            "29.06"
                        ],
                        [
                            "-82.14",
                            "28.94"
                        ],
                        [
                            "-84.85",
                            "29.39"
                        ],
                        [
                            "-86.02",
                            "30.16"
                        ],
                        [
                            "-85.58",
                            "30.95"
                        ],
                        [
                            "-84.63",
                            "31.17"
                        ],
                        [
                            "-82.71",
                            "31.84"
                        ],
                        [
                            "-81.23",
                            "33.57"
                        ],
                        [
                            "-80.49",
                            "36.53"
                        ],
                        [
                            "-80.42",
                            "38.16"
                        ],
                        [
                            "-82.20",
                            "40.28"
                        ],
                        [
                            "-83.02",
                            "41.12"
                        ],
                        [
                            "-80.79",
                            "42.24"
                        ],
                        [
                            "-78.77",
                            "42.80"
                        ]
                    ]
                ]
            },
            "properties": {
                "forecastId": null,
                "geometryId": null,
                "tag": "1W",
                "forecastHour": 6,
                "hazard": "TURB-HI",
                "frequency": null,
                "severity": "MOD",
                "status": "NRML",
                "base": "290",
                "top": "430",
                "fzlBase": null,
                "fzlTop": null,
                "level": null,
                "product": "TANGO",
                "rawAirSigmet": null,
                "validTimeTo": "2026-07-26T21:00:00.000",
                "validTimeFrom": [
                    "2026-07-26T16:57"
                ]
            }
        },
        {
            "type": "Feature",
            "geometry": {
                "type": "Polygon",
                "coordinates": [
                    [
                        [
                            "-117.10",
                            "48.96"
                        ],
                        [
                            "-117.23",
                            "48.46"
                        ],
                        [
                            "-117.89",
                            "48.19"
                        ],
                        [
                            "-119.28",
                            "47.89"
                        ],
                        [
                            "-121.06",
                            "47.82"
                        ],
                        [
                            "-119.89",
                            "48.92"
                        ],
                        [
                            "-117.10",
                            "48.96"
                        ]
                    ]
                ]
            },
            "properties": {
                "forecastId": null,
                "geometryId": null,
                "tag": "4E",
                "forecastHour": 6,
                "hazard": "MT_OBSC",
                "frequency": null,
                "severity": null,
                "status": "NRML",
                "base": null,
                "top": null,
                "fzlBase": null,
                "fzlTop": null,
                "level": null,
                "product": "SIERRA",
                "rawAirSigmet": "FU HZ",
                "validTimeTo": "2026-07-26T21:00:00.000",
                "validTimeFrom": [
                    "2026-07-26T17:05"
                ]
            }
        },
        {
            "type": "Feature",
            "geometry": {
                "type": "Polygon",
                "coordinates": [
                    [
                        [
                            "-71.83",
                            "36.10"
                        ],
                        [
                            "-71.40",
                            "36.00"
                        ],
                        [
                            "-71.22",
                            "35.82"
                        ],
                        [
                            "-71.03",
                            "35.61"
                        ],
                        [
                            "-70.89",
                            "35.41"
                        ],
                        [
                            "-70.71",
                            "35.05"
                        ],
                        [
                            "-70.68",
                            "35.02"
                        ],
                        [
                            "-70.58",
                            "34.64"
                        ],
                        [
                            "-70.65",
                            "34.28"
                        ],
                        [
                            "-70.89",
                            "33.95"
                        ],
                        [
                            "-70.96",
                            "33.88"
                        ],
                        [
                            "-71.33",
                            "33.65"
                        ],
                        [
                            "-71.47",
                            "33.57"
                        ],
                        [
                            "-71.94",
                            "33.44"
                        ],
                        [
                            "-72.38",
                            "33.44"
                        ],
                        [
                            "-72.79",
                            "33.57"
                        ],
                        [
                            "-73.02",
                            "33.89"
                        ],
                        [
                            "-73.00",
                            "34.25"
                        ],
                        [
                            "-72.92",
                            "34.60"
                        ],
                        [
                            "-72.81",
                            "34.95"
                        ],
                        [
                            "-72.67",
                            "35.30"
                        ],
                        [
                            "-72.46",
                            "35.63"
                        ],
                        [
                            "-72.34",
                            "35.77"
                        ],
                        [
                            "-72.09",
                            "35.95"
                        ],
                        [
                            "-71.83",
                            "36.10"
                        ]
                    ]
                ]
            },
            "properties": {
                "forecastId": null,
                "geometryId": null,
                "tag": "1C",
                "forecastHour": 6,
                "hazard": "FZLVL",
                "frequency": null,
                "severity": null,
                "status": "NRML",
                "base": null,
                "top": null,
                "fzlBase": null,
                "fzlTop": null,
                "level": "160",
                "product": "ZULU",
                "rawAirSigmet": null,
                "validTimeTo": "2026-07-26T21:00:00.000",
                "validTimeFrom": [
                    "2026-07-26T14:45"
                ]
            }
        },
        {
            "type": "Feature",
            "geometry": {
                "type": "LineString",
                "coordinates": [
                    [
                        "-127.91",
                        "23.19"
                    ],
                    [
                        "-126.47",
                        "22.14"
                    ],
                    [
                        "-125.51",
                        "22.01"
                    ],
                    [
                        "-124.89",
                        "22.14"
                    ],
                    [
                        "-124.55",
                        "22.59"
                    ],
                    [
                        "-125.72",
                        "27.78"
                    ],
                    [
                        "-125.82",
                        "29.42"
                    ],
                    [
                        "-125.20",
                        "30.58"
                    ],
                    [
                        "-123.81",
                        "33.18"
                    ],
                    [
                        "-123.92",
                        "33.91"
                    ],
                    [
                        "-125.04",
                        "35.07"
                    ],
                    [
                        "-125.36",
                        "35.94"
                    ],
                    [
                        "-124.58",
                        "36.97"
                    ],
                    [
                        "-122.52",
                        "38.89"
                    ],
                    [
                        "-120.21",
                        "40.92"
                    ],
                    [
                        "-116.41",
                        "44.12"
                    ],
                    [
                        "-113.34",
                        "45.38"
                    ],
                    [
                        "-112.29",
                        "45.78"
                    ],
                    [
                        "-111.85",
                        "46.27"
                    ],
                    [
                        "-111.32",
                        "46.68"
                    ],
                    [
                        "-110.10",
                        "46.99"
                    ],
                    [
                        "-107.90",
                        "48.17"
                    ],
                    [
                        "-106.69",
                        "49.24"
                    ],
                    [
                        "-105.42",
                        "49.67"
                    ],
                    [
                        "-103.53",
                        "50.10"
                    ],
                    [
                        "-101.47",
                        "49.95"
                    ],
                    [
                        "-99.88",
                        "49.35"
                    ],
                    [
                        "-98.51",
                        "48.25"
                    ],
                    [
                        "-97.03",
                        "47.86"
                    ],
                    [
                        "-95.72",
                        "47.05"
                    ],
                    [
                        "-94.91",
                        "46.42"
                    ],
                    [
                        "-94.28",
                        "45.36"
                    ],
                    [
                        "-94.46",
                        "44.20"
                    ],
                    [
                        "-93.27",
                        "43.36"
                    ],
                    [
                        "-93.10",
                        "43.11"
                    ],
                    [
                        "-93.73",
                        "42.56"
                    ],
                    [
                        "-94.13",
                        "42.11"
                    ],
                    [
                        "-93.91",
                        "41.39"
                    ],
                    [
                        "-93.41",
                        "40.21"
                    ],
                    [
                        "-92.60",
                        "39.61"
                    ],
                    [
                        "-91.30",
                        "38.78"
                    ],
                    [
                        "-89.95",
                        "38.19"
                    ],
                    [
                        "-88.93",
                        "37.33"
                    ],
                    [
                        "-87.25",
                        "36.86"
                    ],
                    [
                        "-85.44",
                        "36.95"
                    ],
                    [
                        "-83.58",
                        "36.77"
                    ],
                    [
                        "-81.93",
                        "36.66"
                    ],
                    [
                        "-80.64",
                        "35.93"
                    ],
                    [
                        "-80.25",
                        "34.96"
                    ],
                    [
                        "-80.11",
                        "33.68"
                    ],
                    [
                        "-79.04",
                        "32.76"
                    ],
                    [
                        "-78.94",
                        "32.15"
                    ],
                    [
                        "-79.26",
                        "31.44"
                    ],
                    [
                        "-80.65",
                        "30.80"
                    ],
                    [
                        "-81.36",
                        "30.45"
                    ],
                    [
                        "-81.88",
                        "29.74"
                    ],
                    [
                        "-81.68",
                        "28.63"
                    ],
                    [
                        "-80.51",
                        "27.88"
                    ],
                    [
                        "-79.10",
                        "27.23"
                    ],
                    [
                        "-79.40",
                        "26.56"
                    ],
                    [
                        "-80.01",
                        "26.31"
                    ],
                    [
                        "-81.11",
                        "26.39"
                    ],
                    [
                        "-82.15",
                        "26.80"
                    ],
                    [
                        "-83.26",
                        "26.79"
                    ],
                    [
                        "-87.62",
                        "26.99"
                    ],
                    [
                        "-91.12",
                        "26.82"
                    ],
                    [
                        "-92.39",
                        "26.60"
                    ],
                    [
                        "-93.52",
                        "26.02"
                    ],
                    [
                        "-94.57",
                        "25.17"
                    ],
                    [
                        "-95.27",
                        "24.90"
                    ],
                    [
                        "-96.34",
                        "24.84"
                    ],
                    [
                        "-97.56",
                        "24.32"
                    ],
                    [
                        "-98.19",
                        "24.00"
                    ],
                    [
                        "-99.12",
                        "24.03"
                    ],
                    [
                        "-100.24",
                        "24.63"
                    ],
                    [
                        "-101.69",
                        "24.89"
                    ],
                    [
                        "-102.88",
                        "24.13"
                    ],
                    [
                        "-103.56",
                        "23.29"
                    ],
                    [
                        "-103.88",
                        "22.66"
                    ],
                    [
                        "-103.78",
                        "21.71"
                    ],
                    [
                        "-103.55",
                        "20.52"
                    ],
                    [
                        "-103.91",
                        "20.07"
                    ],
                    [
                        "-104.84",
                        "20.01"
                    ],
                    [
                        "-105.81",
                        "19.76"
                    ],
                    [
                        "-105.79",
                        "19.31"
                    ]
                ]
            },
            "properties": {
                "forecastId": null,
                "geometryId": null,
                "tag": "1C",
                "forecastHour": 6,
                "hazard": "FZLVL",
                "frequency": null,
                "severity": null,
                "status": "NRML",
                "base": null,
                "top": null,
                "fzlBase": null,
                "fzlTop": null,
                "level": "160",
                "product": "ZULU",
                "rawAirSigmet": null,
                "validTimeTo": "2026-07-26T21:00:00.000",
                "validTimeFrom": [
                    "2026-07-26T14:45"
                ]
            }
        },
        {
            "type": "Feature",
            "geometry": {
                "type": "LineString",
                "coordinates": [
                    [
                        "-134.34",
                        "42.82"
                    ],
                    [
                        "-132.42",
                        "43.01"
                    ],
                    [
                        "-131.81",
                        "42.27"
                    ],
                    [
                        "-131.36",
                        "41.25"
                    ],
                    [
                        "-129.95",
                        "41.64"
                    ],
                    [
                        "-128.36",
                        "42.56"
                    ],
                    [
                        "-125.31",
                        "44.51"
                    ],
                    [
                        "-122.65",
                        "46.31"
                    ],
                    [
                        "-120.14",
                        "48.36"
                    ],
                    [
                        "-117.67",
                        "50.33"
                    ],
                    [
                        "-115.01",
                        "52.28"
                    ],
                    [
                        "-114.73",
                        "52.97"
                    ],
                    [
                        "-114.19",
                        "53.45"
                    ],
                    [
                        "-112.22",
                        "54.12"
                    ],
                    [
                        "-106.94",
                        "54.89"
                    ],
                    [
                        "-106.45",
                        "55.34"
                    ],
                    [
                        "-106.54",
                        "55.86"
                    ],
                    [
                        "-106.70",
                        "56.90"
                    ],
                    [
                        "-109.04",
                        "57.29"
                    ],
                    [
                        "-111.01",
                        "57.87"
                    ]
                ]
            },
            "properties": {
                "forecastId": null,
                "geometryId": null,
                "tag": "1C",
                "forecastHour": 6,
                "hazard": "FZLVL",
                "frequency": null,
                "severity": null,
                "status": "NRML",
                "base": null,
                "top": null,
                "fzlBase": null,
                "fzlTop": null,
                "level": "120",
                "product": "ZULU",
                "rawAirSigmet": null,
                "validTimeTo": "2026-07-26T21:00:00.000",
                "validTimeFrom": [
                    "2026-07-26T14:45"
                ]
            }
        },
        {
            "type": "Feature",
            "geometry": {
                "type": "LineString",
                "coordinates": [
                    [
                        "-91.03",
                        "58.34"
                    ],
                    [
                        "-91.03",
                        "58.33"
                    ],
                    [
                        "-90.84",
                        "58.03"
                    ],
                    [
                        "-90.49",
                        "57.80"
                    ],
                    [
                        "-90.18",
                        "57.72"
                    ],
                    [
                        "-89.94",
                        "57.66"
                    ],
                    [
                        "-89.66",
                        "57.71"
                    ],
                    [
                        "-89.37",
                        "57.78"
                    ],
                    [
                        "-89.06",
                        "58.00"
                    ],
                    [
                        "-88.93",
                        "58.29"
                    ]
                ]
            },
            "properties": {
                "forecastId": null,
                "geometryId": null,
                "tag": "1C",
                "forecastHour": 6,
                "hazard": "FZLVL",
                "frequency": null,
                "severity": null,
                "status": "NRML",
                "base": null,
                "top": null,
                "fzlBase": null,
                "fzlTop": null,
                "level": "040",
                "product": "ZULU",
                "rawAirSigmet": null,
                "validTimeTo": "2026-07-26T21:00:00.000",
                "validTimeFrom": [
                    "2026-07-26T14:45"
                ]
            }
        },
        {
            "type": "Feature",
            "geometry": {
                "type": "Polygon",
                "coordinates": [
                    [
                        [
                            "-120.85",
                            "48.94"
                        ],
                        [
                            "-121.44",
                            "47.73"
                        ],
                        [
                            "-122.28",
                            "46.72"
                        ],
                        [
                            "-122.70",
                            "45.71"
                        ],
                        [
                            "-123.02",
                            "44.76"
                        ],
                        [
                            "-123.37",
                            "43.67"
                        ],
                        [
                            "-124.38",
                            "42.88"
                        ],
                        [
                            "-124.03",
                            "44.62"
                        ],
                        [
                            "-124.15",
                            "47.00"
                        ],
                        [
                            "-124.65",
                            "48.33"
                        ],
                        [
                            "-122.71",
                            "48.89"
                        ],
                        [
                            "-120.85",
                            "48.94"
                        ]
                    ]
                ]
            },
            "properties": {
                "forecastId": null,
                "geometryId": null,
                "tag": "1E",
                "forecastHour": 6,
                "hazard": "MT_OBSC",
                "frequency": null,
                "severity": null,
                "status": "NRML",
                "base": null,
                "top": null,
                "fzlBase": null,
                "fzlTop": null,
                "level": null,
                "product": "SIERRA",
                "rawAirSigmet": "MTNS OBSC BY CLDS PCPN",
                "validTimeTo": "2026-07-26T21:00:00.000",
                "validTimeFrom": [
                    "2026-07-26T17:05"
                ]
            }
        },
        {
            "type": "Feature",
            "geometry": {
                "type": "LineString",
                "coordinates": [
                    [
                        "-66.27",
                        "29.73"
                    ],
                    [
                        "-66.55",
                        "29.53"
                    ],
                    [
                        "-66.79",
                        "29.35"
                    ],
                    [
                        "-66.90",
                        "29.22"
                    ],
                    [
                        "-67.15",
                        "28.89"
                    ],
                    [
                        "-67.34",
                        "28.56"
                    ],
                    [
                        "-67.47",
                        "28.30"
                    ],
                    [
                        "-67.54",
                        "28.22"
                    ],
                    [
                        "-67.97",
                        "27.94"
                    ],
                    [
                        "-68.30",
                        "28.34"
                    ],
                    [
                        "-68.30",
                        "28.36"
                    ],
                    [
                        "-68.32",
                        "28.73"
                    ],
                    [
                        "-68.31",
                        "29.10"
                    ],
                    [
                        "-68.20",
                        "29.45"
                    ],
                    [
                        "-67.99",
                        "29.71"
                    ],
                    [
                        "-67.91",
                        "29.77"
                    ],
                    [
                        "-67.50",
                        "30.07"
                    ],
                    [
                        "-67.47",
                        "30.09"
                    ],
                    [
                        "-66.98",
                        "30.35"
                    ],
                    [
                        "-66.97",
                        "30.35"
                    ],
                    [
                        "-66.48",
                        "30.62"
                    ],
                    [
                        "-66.47",
                        "30.63"
                    ],
                    [
                        "-65.99",
                        "30.85"
                    ]
                ]
            },
            "properties": {
                "forecastId": null,
                "geometryId": null,
                "tag": "1C",
                "forecastHour": 6,
                "hazard": "FZLVL",
                "frequency": null,
                "severity": null,
                "status": "NRML",
                "base": null,
                "top": null,
                "fzlBase": null,
                "fzlTop": null,
                "level": "160",
                "product": "ZULU",
                "rawAirSigmet": null,
                "validTimeTo": "2026-07-26T21:00:00.000",
                "validTimeFrom": [
                    "2026-07-26T14:45"
                ]
            }
        },
        {
            "type": "Feature",
            "geometry": {
                "type": "Polygon",
                "coordinates": [
                    [
                        [
                            "-75.73",
                            "29.19"
                        ],
                        [
                            "-75.04",
                            "29.01"
                        ],
                        [
                            "-74.57",
                            "28.61"
                        ],
                        [
                            "-74.29",
                            "28.18"
                        ],
                        [
                            "-74.11",
                            "27.78"
                        ],
                        [
                            "-74.37",
                            "27.36"
                        ],
                        [
                            "-74.86",
                            "26.91"
                        ],
                        [
                            "-75.31",
                            "26.66"
                        ],
                        [
                            "-75.75",
                            "26.50"
                        ],
                        [
                            "-76.07",
                            "26.93"
                        ],
                        [
                            "-76.48",
                            "27.11"
                        ],
                        [
                            "-76.87",
                            "27.40"
                        ],
                        [
                            "-76.92",
                            "28.14"
                        ],
                        [
                            "-76.67",
                            "28.85"
                        ],
                        [
                            "-76.16",
                            "29.15"
                        ],
                        [
                            "-75.73",
                            "29.19"
                        ]
                    ]
                ]
            },
            "properties": {
                "forecastId": null,
                "geometryId": null,
                "tag": "1C",
                "forecastHour": 6,
                "hazard": "FZLVL",
                "frequency": null,
                "severity": null,
                "status": "NRML",
                "base": null,
                "top": null,
                "fzlBase": null,
                "fzlTop": null,
                "level": "160",
                "product": "ZULU",
                "rawAirSigmet": null,
                "validTimeTo": "2026-07-26T21:00:00.000",
                "validTimeFrom": [
                    "2026-07-26T14:45"
                ]
            }
        }
    ],
    "metadata": {
        "creationTime": "2026-07-26T20:14"
    }
}