{
    "type": "FeatureCollection",
    "features": [
        {
            "type": "Feature",
            "geometry": {
                "type": "Polygon",
                "coordinates": [
                    [
                        [
                            "-123.31",
                            "18.74"
                        ],
                        [
                            "-123.31",
                            "18.37"
                        ],
                        [
                            "-123.08",
                            "18.14"
                        ],
                        [
                            "-123.02",
                            "18.42"
                        ],
                        [
                            "-123.11",
                            "18.78"
                        ],
                        [
                            "-123.24",
                            "18.87"
                        ],
                        [
                            "-123.31",
                            "18.74"
                        ]
                    ]
                ]
            },
            "properties": {
                "forecastId": null,
                "geometryId": null,
                "tag": "1C",
                "forecastHour": 3,
                "hazard": "FZLVL",
                "frequency": null,
                "severity": null,
                "status": "NRML",
                "base": null,
                "top": null,
                "fzlBase": null,
                "fzlTop": null,
                "level": "160",
                "product": "ZULU",
                "rawAirSigmet": null,
                "validTimeTo": "2026-09-12T00:00:00.000",
                "validTimeFrom": [
                    "2026-09-11T20:45"
                ]
            }
        },
        {
            "type": "Feature",
            "geometry": {
                "type": "Polygon",
                "coordinates": [
                    [
                        [
                            "-83.80",
                            "35.39"
                        ],
                        [
                            "-83.08",
                            "35.30"
                        ],
                        [
                            "-82.17",
                            "35.12"
                        ],
                        [
                            "-82.00",
                            "34.68"
                        ],
                        [
                            "-84.43",
                            "33.63"
                        ],
                        [
                            "-85.18",
                            "35.05"
                        ],
                        [
                            "-83.80",
                            "35.39"
                        ]
                    ]
                ]
            },
            "properties": {
                "forecastId": null,
                "geometryId": null,
                "tag": "4E",
                "forecastHour": 3,
                "hazard": "MT_OBSC",
                "frequency": null,
                "severity": null,
                "status": "NRML",
                "base": null,
                "top": null,
                "fzlBase": null,
                "fzlTop": null,
                "level": null,
                "product": "SIERRA",
                "rawAirSigmet": "MTNS OBSC BY CLDS PCPN BR",
                "validTimeTo": "2026-09-12T00:00:00.000",
                "validTimeFrom": [
                    "2026-09-11T20:45"
                ]
            }
        },
        {
            "type": "Feature",
            "geometry": {
                "type": "Polygon",
                "coordinates": [
                    [
                        [
                            "-92.90",
                            "30.06"
                        ],
                        [
                            "-92.48",
                            "30.05"
                        ],
                        [
                            "-92.06",
                            "29.94"
                        ],
                        [
                            "-91.97",
                            "29.90"
                        ],
                        [
                            "-91.66",
                            "29.53"
                        ],
                        [
                            "-91.87",
                            "29.17"
                        ],
                        [
                            "-92.08",
                            "29.04"
                        ],
                        [
                            "-92.50",
                            "28.83"
                        ],
                        [
                            "-92.56",
                            "28.82"
                        ],
                        [
                            "-92.92",
                            "28.77"
                        ],
                        [
                            "-93.30",
                            "28.83"
                        ],
                        [
                            "-93.34",
                            "28.85"
                        ],
                        [
                            "-93.74",
                            "29.20"
                        ],
                        [
                            "-93.72",
                            "29.56"
                        ],
                        [
                            "-93.32",
                            "29.89"
                        ],
                        [
                            "-93.28",
                            "29.92"
                        ],
                        [
                            "-92.90",
                            "30.06"
                        ]
                    ]
                ]
            },
            "properties": {
                "forecastId": null,
                "geometryId": null,
                "tag": "1C",
                "forecastHour": 3,
                "hazard": "FZLVL",
                "frequency": null,
                "severity": null,
                "status": "NRML",
                "base": null,
                "top": null,
                "fzlBase": null,
                "fzlTop": null,
                "level": "160",
                "product": "ZULU",
                "rawAirSigmet": null,
                "validTimeTo": "2026-09-12T00:00:00.000",
                "validTimeFrom": [
                    "2026-09-11T20:45"
                ]
            }
        },
        {
            "type": "Feature",
            "geometry": {
                "type": "Polygon",
                "coordinates": [
                    [
                        [
                            "-126.14",
                            "48.45"
                        ],
                        [
                            "-125.53",
                            "46.65"
                        ],
                        [
                            "-127.13",
                            "46.36"
                        ],
                        [
                            "-128.04",
                            "48.16"
                        ],
                        [
                            "-126.14",
                            "48.45"
                        ]
                    ]
                ]
            },
            "properties": {
                "forecastId": null,
                "geometryId": null,
                "tag": "1C",
                "forecastHour": 3,
                "hazard": "ICE",
                "frequency": null,
                "severity": "MOD",
                "status": "NRML",
                "base": "070",
                "top": "180",
                "fzlBase": null,
                "fzlTop": null,
                "level": null,
                "product": "ZULU",
                "rawAirSigmet": "ICE",
                "validTimeTo": "2026-09-12T00:00:00.000",
                "validTimeFrom": [
                    "2026-09-11T20:45"
                ]
            }
        },
        {
            "type": "Feature",
            "geometry": {
                "type": "LineString",
                "coordinates": [
                    [
                        "-132.78",
                        "38.80"
                    ],
                    [
                        "-129.16",
                        "38.78"
                    ],
                    [
                        "-125.27",
                        "38.64"
                    ],
                    [
                        "-121.26",
                        "38.22"
                    ],
                    [
                        "-120.11",
                        "38.40"
                    ],
                    [
                        "-118.90",
                        "38.33"
                    ],
                    [
                        "-117.34",
                        "37.67"
                    ],
                    [
                        "-116.55",
                        "37.58"
                    ],
                    [
                        "-115.54",
                        "37.42"
                    ],
                    [
                        "-114.70",
                        "37.15"
                    ],
                    [
                        "-114.00",
                        "37.23"
                    ],
                    [
                        "-113.55",
                        "37.28"
                    ],
                    [
                        "-112.80",
                        "37.51"
                    ],
                    [
                        "-112.15",
                        "37.87"
                    ],
                    [
                        "-111.50",
                        "37.76"
                    ],
                    [
                        "-111.00",
                        "37.41"
                    ],
                    [
                        "-111.15",
                        "36.68"
                    ],
                    [
                        "-111.45",
                        "36.08"
                    ],
                    [
                        "-111.68",
                        "35.44"
                    ],
                    [
                        "-111.22",
                        "34.77"
                    ],
                    [
                        "-110.56",
                        "34.25"
                    ],
                    [
                        "-109.75",
                        "34.26"
                    ],
                    [
                        "-108.98",
                        "34.43"
                    ],
                    [
                        "-108.06",
                        "35.58"
                    ],
                    [
                        "-107.37",
                        "36.39"
                    ],
                    [
                        "-106.99",
                        "37.48"
                    ],
                    [
                        "-106.29",
                        "38.47"
                    ],
                    [
                        "-105.45",
                        "38.87"
                    ],
                    [
                        "-103.92",
                        "38.68"
                    ],
                    [
                        "-102.75",
                        "38.72"
                    ],
                    [
                        "-100.92",
                        "39.17"
                    ],
                    [
                        "-99.86",
                        "39.36"
                    ],
                    [
                        "-99.19",
                        "39.03"
                    ],
                    [
                        "-98.62",
                        "38.25"
                    ],
                    [
                        "-97.98",
                        "38.02"
                    ],
                    [
                        "-97.38",
                        "38.20"
                    ],
                    [
                        "-96.66",
                        "39.03"
                    ],
                    [
                        "-94.87",
                        "40.47"
                    ],
                    [
                        "-93.19",
                        "41.61"
                    ],
                    [
                        "-91.28",
                        "42.53"
                    ],
                    [
                        "-89.55",
                        "42.91"
                    ],
                    [
                        "-88.16",
                        "42.88"
                    ],
                    [
                        "-86.83",
                        "42.44"
                    ],
                    [
                        "-85.42",
                        "42.52"
                    ],
                    [
                        "-84.17",
                        "42.29"
                    ],
                    [
                        "-82.27",
                        "41.91"
                    ],
                    [
                        "-81.44",
                        "41.65"
                    ],
                    [
                        "-81.73",
                        "41.21"
                    ],
                    [
                        "-82.23",
                        "40.72"
                    ],
                    [
                        "-83.41",
                        "40.48"
                    ],
                    [
                        "-85.12",
                        "40.16"
                    ],
                    [
                        "-86.94",
                        "39.88"
                    ],
                    [
                        "-88.69",
                        "39.43"
                    ],
                    [
                        "-90.12",
                        "39.01"
                    ],
                    [
                        "-91.21",
                        "38.60"
                    ],
                    [
                        "-92.27",
                        "37.49"
                    ],
                    [
                        "-93.31",
                        "36.18"
                    ],
                    [
                        "-94.04",
                        "34.80"
                    ],
                    [
                        "-94.57",
                        "33.97"
                    ],
                    [
                        "-94.97",
                        "33.50"
                    ],
                    [
                        "-94.54",
                        "32.72"
                    ],
                    [
                        "-93.06",
                        "32.85"
                    ],
                    [
                        "-91.54",
                        "32.63"
                    ],
                    [
                        "-91.55",
                        "31.90"
                    ],
                    [
                        "-92.12",
                        "30.86"
                    ],
                    [
                        "-92.69",
                        "29.86"
                    ],
                    [
                        "-93.62",
                        "29.17"
                    ],
                    [
                        "-94.52",
                        "28.65"
                    ],
                    [
                        "-94.92",
                        "27.86"
                    ],
                    [
                        "-95.28",
                        "27.07"
                    ],
                    [
                        "-93.54",
                        "25.55"
                    ],
                    [
                        "-90.76",
                        "27.69"
                    ],
                    [
                        "-90.72",
                        "28.74"
                    ],
                    [
                        "-90.35",
                        "29.91"
                    ],
                    [
                        "-90.02",
                        "30.90"
                    ],
                    [
                        "-89.63",
                        "31.33"
                    ],
                    [
                        "-88.39",
                        "31.46"
                    ],
                    [
                        "-87.77",
                        "32.16"
                    ],
                    [
                        "-87.10",
                        "32.30"
                    ],
                    [
                        "-86.49",
                        "32.20"
                    ],
                    [
                        "-85.90",
                        "31.54"
                    ],
                    [
                        "-85.84",
                        "30.38"
                    ],
                    [
                        "-85.89",
                        "29.47"
                    ],
                    [
                        "-85.83",
                        "28.74"
                    ],
                    [
                        "-86.34",
                        "28.12"
                    ],
                    [
                        "-87.12",
                        "27.75"
                    ],
                    [
                        "-87.92",
                        "27.60"
                    ],
                    [
                        "-88.63",
                        "27.32"
                    ],
                    [
                        "-86.87",
                        "25.97"
                    ],
                    [
                        "-86.15",
                        "26.03"
                    ],
                    [
                        "-85.38",
                        "26.65"
                    ],
                    [
                        "-84.80",
                        "27.19"
                    ],
                    [
                        "-84.23",
                        "27.16"
                    ],
                    [
                        "-83.92",
                        "26.71"
                    ],
                    [
                        "-83.12",
                        "26.62"
                    ],
                    [
                        "-82.30",
                        "26.63"
                    ],
                    [
                        "-80.82",
                        "26.75"
                    ],
                    [
                        "-79.76",
                        "26.69"
                    ],
                    [
                        "-78.83",
                        "26.43"
                    ],
                    [
                        "-78.10",
                        "26.73"
                    ],
                    [
                        "-77.45",
                        "26.95"
                    ],
                    [
                        "-76.83",
                        "27.06"
                    ],
                    [
                        "-76.05",
                        "26.74"
                    ],
                    [
                        "-76.03",
                        "26.06"
                    ],
                    [
                        "-76.65",
                        "25.30"
                    ],
                    [
                        "-77.01",
                        "24.42"
                    ],
                    [
                        "-78.08",
                        "23.03"
                    ],
                    [
                        "-78.04",
                        "22.57"
                    ],
                    [
                        "-77.26",
                        "21.76"
                    ],
                    [
                        "-77.92",
                        "20.56"
                    ],
                    [
                        "-78.31",
                        "19.76"
                    ],
                    [
                        "-78.19",
                        "18.72"
                    ]
                ]
            },
            "properties": {
                "forecastId": null,
                "geometryId": null,
                "tag": "1C",
                "forecastHour": 3,
                "hazard": "FZLVL",
                "frequency": null,
                "severity": null,
                "status": "NRML",
                "base": null,
                "top": null,
                "fzlBase": null,
                "fzlTop": null,
                "level": "160",
                "product": "ZULU",
                "rawAirSigmet": null,
                "validTimeTo": "2026-09-12T00:00:00.000",
                "validTimeFrom": [
                    "2026-09-11T20:45"
                ]
            }
        },
        {
            "type": "Feature",
            "geometry": {
                "type": "LineString",
                "coordinates": [
                    [
                        "-134.47",
                        "43.15"
                    ],
                    [
                        "-131.35",
                        "42.73"
                    ],
                    [
                        "-129.53",
                        "42.76"
                    ],
                    [
                        "-127.79",
                        "43.24"
                    ],
                    [
                        "-126.30",
                        "43.83"
                    ],
                    [
                        "-124.24",
                        "44.27"
                    ],
                    [
                        "-122.53",
                        "44.53"
                    ],
                    [
                        "-120.45",
                        "44.33"
                    ],
                    [
                        "-117.22",
                        "44.48"
                    ],
                    [
                        "-115.87",
                        "44.83"
                    ],
                    [
                        "-113.66",
                        "45.36"
                    ],
                    [
                        "-112.13",
                        "45.60"
                    ],
                    [
                        "-111.00",
                        "45.58"
                    ],
                    [
                        "-109.81",
                        "45.39"
                    ],
                    [
                        "-108.14",
                        "45.42"
                    ],
                    [
                        "-105.93",
                        "45.63"
                    ],
                    [
                        "-104.16",
                        "45.80"
                    ],
                    [
                        "-101.91",
                        "46.22"
                    ],
                    [
                        "-100.05",
                        "46.91"
                    ],
                    [
                        "-99.08",
                        "47.76"
                    ],
                    [
                        "-98.06",
                        "48.45"
                    ],
                    [
                        "-95.23",
                        "49.42"
                    ],
                    [
                        "-92.90",
                        "49.54"
                    ],
                    [
                        "-89.21",
                        "49.81"
                    ],
                    [
                        "-86.93",
                        "49.81"
                    ],
                    [
                        "-85.58",
                        "50.41"
                    ],
                    [
                        "-83.83",
                        "50.23"
                    ],
                    [
                        "-82.24",
                        "49.79"
                    ],
                    [
                        "-80.27",
                        "49.87"
                    ],
                    [
                        "-79.37",
                        "49.65"
                    ],
                    [
                        "-78.81",
                        "49.24"
                    ],
                    [
                        "-77.88",
                        "48.52"
                    ],
                    [
                        "-76.47",
                        "47.96"
                    ],
                    [
                        "-73.00",
                        "47.09"
                    ],
                    [
                        "-70.94",
                        "46.40"
                    ],
                    [
                        "-69.01",
                        "46.18"
                    ],
                    [
                        "-67.77",
                        "45.67"
                    ],
                    [
                        "-66.05",
                        "44.90"
                    ],
                    [
                        "-64.69",
                        "44.74"
                    ],
                    [
                        "-64.10",
                        "44.64"
                    ],
                    [
                        "-62.03",
                        "44.29"
                    ]
                ]
            },
            "properties": {
                "forecastId": null,
                "geometryId": null,
                "tag": "1C",
                "forecastHour": 3,
                "hazard": "FZLVL",
                "frequency": null,
                "severity": null,
                "status": "NRML",
                "base": null,
                "top": null,
                "fzlBase": null,
                "fzlTop": null,
                "level": "120",
                "product": "ZULU",
                "rawAirSigmet": null,
                "validTimeTo": "2026-09-12T00:00:00.000",
                "validTimeFrom": [
                    "2026-09-11T20:45"
                ]
            }
        },
        {
            "type": "Feature",
            "geometry": {
                "type": "Polygon",
                "coordinates": [
                    [
                        [
                            "-81.30",
                            "39.41"
                        ],
                        [
                            "-79.87",
                            "39.17"
                        ],
                        [
                            "-78.07",
                            "38.94"
                        ],
                        [
                            "-79.69",
                            "36.85"
                        ],
                        [
                            "-80.63",
                            "37.69"
                        ],
                        [
                            "-81.56",
                            "37.35"
                        ],
                        [
                            "-81.98",
                            "38.05"
                        ],
                        [
                            "-82.02",
                            "38.67"
                        ],
                        [
                            "-81.30",
                            "39.41"
                        ]
                    ]
                ]
            },
            "properties": {
                "forecastId": null,
                "geometryId": null,
                "tag": "3E",
                "forecastHour": 3,
                "hazard": "MT_OBSC",
                "frequency": null,
                "severity": null,
                "status": "NRML",
                "base": null,
                "top": null,
                "fzlBase": null,
                "fzlTop": null,
                "level": null,
                "product": "SIERRA",
                "rawAirSigmet": "MTNS OBSC BY CLDS PCPN BR",
                "validTimeTo": "2026-09-12T00:00:00.000",
                "validTimeFrom": [
                    "2026-09-11T20:45"
                ]
            }
        },
        {
            "type": "Feature",
            "geometry": {
                "type": "LineString",
                "coordinates": [
                    [
                        "-128.83",
                        "56.06"
                    ],
                    [
                        "-128.00",
                        "54.17"
                    ],
                    [
                        "-127.22",
                        "53.31"
                    ],
                    [
                        "-126.43",
                        "52.80"
                    ],
                    [
                        "-125.15",
                        "52.44"
                    ],
                    [
                        "-123.99",
                        "52.41"
                    ],
                    [
                        "-122.32",
                        "52.65"
                    ],
                    [
                        "-120.52",
                        "52.63"
                    ],
                    [
                        "-116.34",
                        "51.26"
                    ],
                    [
                        "-114.74",
                        "50.28"
                    ],
                    [
                        "-113.56",
                        "49.23"
                    ],
                    [
                        "-112.44",
                        "48.65"
                    ],
                    [
                        "-111.26",
                        "48.43"
                    ],
                    [
                        "-109.87",
                        "48.26"
                    ],
                    [
                        "-108.47",
                        "48.33"
                    ],
                    [
                        "-107.07",
                        "48.34"
                    ],
                    [
                        "-105.31",
                        "48.31"
                    ],
                    [
                        "-103.65",
                        "48.45"
                    ],
                    [
                        "-102.14",
                        "48.71"
                    ],
                    [
                        "-101.40",
                        "49.04"
                    ],
                    [
                        "-99.12",
                        "50.60"
                    ],
                    [
                        "-95.53",
                        "52.73"
                    ],
                    [
                        "-94.27",
                        "53.83"
                    ],
                    [
                        "-92.54",
                        "55.00"
                    ],
                    [
                        "-91.68",
                        "55.48"
                    ],
                    [
                        "-91.20",
                        "56.30"
                    ],
                    [
                        "-90.82",
                        "56.98"
                    ],
                    [
                        "-89.83",
                        "57.41"
                    ],
                    [
                        "-87.62",
                        "57.67"
                    ],
                    [
                        "-87.10",
                        "57.65"
                    ],
                    [
                        "-87.57",
                        "58.26"
                    ]
                ]
            },
            "properties": {
                "forecastId": null,
                "geometryId": null,
                "tag": "1C",
                "forecastHour": 3,
                "hazard": "FZLVL",
                "frequency": null,
                "severity": null,
                "status": "NRML",
                "base": null,
                "top": null,
                "fzlBase": null,
                "fzlTop": null,
                "level": "080",
                "product": "ZULU",
                "rawAirSigmet": null,
                "validTimeTo": "2026-09-12T00:00:00.000",
                "validTimeFrom": [
                    "2026-09-11T20:45"
                ]
            }
        },
        {
            "type": "Feature",
            "geometry": {
                "type": "Polygon",
                "coordinates": [
                    [
                        [
                            "-124.43",
                            "42.16"
                        ],
                        [
                            "-123.89",
                            "41.79"
                        ],
                        [
                            "-123.96",
                            "40.95"
                        ],
                        [
                            "-124.02",
                            "40.32"
                        ],
                        [
                            "-124.60",
                            "40.06"
                        ],
                        [
                            "-124.84",
                            "40.74"
                        ],
                        [
                            "-124.65",
                            "41.36"
                        ],
                        [
                            "-124.43",
                            "42.16"
                        ]
                    ]
                ]
            },
            "properties": {
                "forecastId": null,
                "geometryId": null,
                "tag": "6E",
                "forecastHour": 3,
                "hazard": "IFR",
                "frequency": null,
                "severity": null,
                "status": "NRML",
                "base": null,
                "top": null,
                "fzlBase": null,
                "fzlTop": null,
                "level": null,
                "product": "SIERRA",
                "rawAirSigmet": "CIG BLW 010 VIS BLW 3SM BR",
                "validTimeTo": "2026-09-12T00:00:00.000",
                "validTimeFrom": [
                    "2026-09-11T20:45"
                ]
            }
        },
        {
            "type": "Feature",
            "geometry": {
                "type": "Polygon",
                "coordinates": [
                    [
                        [
                            "-104.81",
                            "40.96"
                        ],
                        [
                            "-103.92",
                            "40.25"
                        ],
                        [
                            "-103.56",
                            "39.22"
                        ],
                        [
                            "-103.34",
                            "38.17"
                        ],
                        [
                            "-103.96",
                            "37.60"
                        ],
                        [
                            "-105.19",
                            "37.52"
                        ],
                        [
                            "-105.76",
                            "38.43"
                        ],
                        [
                            "-106.23",
                            "39.36"
                        ],
                        [
                            "-106.37",
                            "40.41"
                        ],
                        [
                            "-105.77",
                            "40.95"
                        ],
                        [
                            "-104.81",
                            "40.96"
                        ]
                    ]
                ]
            },
            "properties": {
                "forecastId": null,
                "geometryId": null,
                "tag": "1W",
                "forecastHour": 3,
                "hazard": "TURB-LO",
                "frequency": null,
                "severity": "MOD",
                "status": "NEW",
                "base": "SFC",
                "top": "170",
                "fzlBase": null,
                "fzlTop": null,
                "level": null,
                "product": "TANGO",
                "rawAirSigmet": null,
                "validTimeTo": "2026-09-12T00:00:00.000",
                "validTimeFrom": [
                    "2026-09-11T23:04"
                ]
            }
        },
        {
            "type": "Feature",
            "geometry": {
                "type": "Polygon",
                "coordinates": [
                    [
                        [
                            "-101.56",
                            "26.69"
                        ],
                        [
                            "-103.66",
                            "26.40"
                        ],
                        [
                            "-106.50",
                            "26.68"
                        ],
                        [
                            "-106.12",
                            "28.41"
                        ],
                        [
                            "-104.86",
                            "29.45"
                        ],
                        [
                            "-104.60",
                            "30.19"
                        ],
                        [
                            "-103.78",
                            "30.72"
                        ],
                        [
                            "-103.09",
                            "31.40"
                        ],
                        [
                            "-102.89",
                            "32.23"
                        ],
                        [
                            "-102.85",
                            "32.94"
                        ],
                        [
                            "-102.24",
                            "33.58"
                        ],
                        [
                            "-101.70",
                            "33.65"
                        ],
                        [
                            "-101.28",
                            "33.53"
                        ],
                        [
                            "-100.05",
                            "33.40"
                        ],
                        [
                            "-99.28",
                            "33.55"
                        ],
                        [
                            "-98.74",
                            "33.70"
                        ],
                        [
                            "-98.53",
                            "33.34"
                        ],
                        [
                            "-98.37",
                            "32.64"
                        ],
                        [
                            "-98.68",
                            "31.96"
                        ],
                        [
                            "-99.37",
                            "31.39"
                        ],
                        [
                            "-100.64",
                            "30.97"
                        ],
                        [
                            "-101.61",
                            "30.61"
                        ],
                        [
                            "-102.68",
                            "30.14"
                        ],
                        [
                            "-102.88",
                            "29.46"
                        ],
                        [
                            "-102.71",
                            "28.74"
                        ],
                        [
                            "-102.26",
                            "28.32"
                        ],
                        [
                            "-102.05",
                            "27.80"
                        ],
                        [
                            "-101.56",
                            "26.69"
                        ]
                    ]
                ]
            },
            "properties": {
                "forecastId": null,
                "geometryId": null,
                "tag": "1C",
                "forecastHour": 3,
                "hazard": "FZLVL",
                "frequency": null,
                "severity": null,
                "status": "NRML",
                "base": null,
                "top": null,
                "fzlBase": null,
                "fzlTop": null,
                "level": "160",
                "product": "ZULU",
                "rawAirSigmet": null,
                "validTimeTo": "2026-09-12T00:00:00.000",
                "validTimeFrom": [
                    "2026-09-11T20:45"
                ]
            }
        },
        {
            "type": "Feature",
            "geometry": {
                "type": "Polygon",
                "coordinates": [
                    [
                        [
                            "-122.81",
                            "48.79"
                        ],
                        [
                            "-123.34",
                            "47.11"
                        ],
                        [
                            "-123.22",
                            "45.96"
                        ],
                        [
                            "-123.97",
                            "45.74"
                        ],
                        [
                            "-124.16",
                            "46.90"
                        ],
                        [
                            "-124.61",
                            "48.31"
                        ],
                        [
                            "-122.81",
                            "48.79"
                        ]
                    ]
                ]
            },
            "properties": {
                "forecastId": null,
                "geometryId": null,
                "tag": "2E",
                "forecastHour": 3,
                "hazard": "MT_OBSC",
                "frequency": null,
                "severity": null,
                "status": "NRML",
                "base": null,
                "top": null,
                "fzlBase": null,
                "fzlTop": null,
                "level": null,
                "product": "SIERRA",
                "rawAirSigmet": "MTNS OBSC BY CLDS BR",
                "validTimeTo": "2026-09-12T00:00:00.000",
                "validTimeFrom": [
                    "2026-09-11T20:45"
                ]
            }
        },
        {
            "type": "Feature",
            "geometry": {
                "type": "LineString",
                "coordinates": [
                    [
                        "-134.89",
                        "44.16"
                    ],
                    [
                        "-133.40",
                        "44.07"
                    ],
                    [
                        "-131.32",
                        "43.78"
                    ],
                    [
                        "-130.22",
                        "43.82"
                    ],
                    [
                        "-128.91",
                        "44.16"
                    ],
                    [
                        "-127.30",
                        "44.95"
                    ],
                    [
                        "-126.49",
                        "45.46"
                    ],
                    [
                        "-125.68",
                        "46.38"
                    ],
                    [
                        "-124.90",
                        "47.31"
                    ],
                    [
                        "-125.02",
                        "49.05"
                    ],
                    [
                        "-125.43",
                        "49.70"
                    ],
                    [
                        "-126.22",
                        "50.22"
                    ],
                    [
                        "-128.14",
                        "50.94"
                    ],
                    [
                        "-130.56",
                        "51.02"
                    ],
                    [
                        "-132.16",
                        "50.87"
                    ],
                    [
                        "-133.58",
                        "50.59"
                    ],
                    [
                        "-134.92",
                        "50.08"
                    ],
                    [
                        "-135.58",
                        "49.61"
                    ],
                    [
                        "-136.85",
                        "48.51"
                    ]
                ]
            },
            "properties": {
                "forecastId": null,
                "geometryId": null,
                "tag": "1C",
                "forecastHour": 3,
                "hazard": "FZLVL",
                "frequency": null,
                "severity": null,
                "status": "NRML",
                "base": null,
                "top": null,
                "fzlBase": null,
                "fzlTop": null,
                "level": "080",
                "product": "ZULU",
                "rawAirSigmet": null,
                "validTimeTo": "2026-09-12T00:00:00.000",
                "validTimeFrom": [
                    "2026-09-11T20:45"
                ]
            }
        },
        {
            "type": "Feature",
            "geometry": {
                "type": "LineString",
                "coordinates": [
                    [
                        "-129.15",
                        "27.65"
                    ],
                    [
                        "-128.84",
                        "28.05"
                    ],
                    [
                        "-128.84",
                        "28.05"
                    ],
                    [
                        "-128.75",
                        "28.44"
                    ],
                    [
                        "-128.75",
                        "28.82"
                    ],
                    [
                        "-128.80",
                        "29.19"
                    ],
                    [
                        "-128.87",
                        "29.55"
                    ],
                    [
                        "-128.93",
                        "29.82"
                    ],
                    [
                        "-128.95",
                        "29.91"
                    ],
                    [
                        "-129.05",
                        "30.26"
                    ],
                    [
                        "-129.15",
                        "30.61"
                    ],
                    [
                        "-129.22",
                        "30.80"
                    ],
                    [
                        "-129.28",
                        "30.96"
                    ],
                    [
                        "-129.44",
                        "31.30"
                    ],
                    [
                        "-129.67",
                        "31.62"
                    ],
                    [
                        "-129.94",
                        "31.94"
                    ],
                    [
                        "-130.05",
                        "32.08"
                    ],
                    [
                        "-130.27",
                        "32.24"
                    ],
                    [
                        "-130.54",
                        "32.55"
                    ],
                    [
                        "-130.74",
                        "32.88"
                    ],
                    [
                        "-130.76",
                        "32.90"
                    ]
                ]
            },
            "properties": {
                "forecastId": null,
                "geometryId": null,
                "tag": "1C",
                "forecastHour": 3,
                "hazard": "FZLVL",
                "frequency": null,
                "severity": null,
                "status": "NRML",
                "base": null,
                "top": null,
                "fzlBase": null,
                "fzlTop": null,
                "level": "160",
                "product": "ZULU",
                "rawAirSigmet": null,
                "validTimeTo": "2026-09-12T00:00:00.000",
                "validTimeFrom": [
                    "2026-09-11T20:45"
                ]
            }
        },
        {
            "type": "Feature",
            "geometry": {
                "type": "Polygon",
                "coordinates": [
                    [
                        [
                            "-97.80",
                            "32.06"
                        ],
                        [
                            "-97.50",
                            "32.48"
                        ],
                        [
                            "-97.04",
                            "32.88"
                        ],
                        [
                            "-96.23",
                            "33.10"
                        ],
                        [
                            "-95.70",
                            "32.92"
                        ],
                        [
                            "-95.55",
                            "32.22"
                        ],
                        [
                            "-96.12",
                            "31.73"
                        ],
                        [
                            "-96.84",
                            "31.40"
                        ],
                        [
                            "-97.30",
                            "31.23"
                        ],
                        [
                            "-97.75",
                            "31.50"
                        ],
                        [
                            "-97.80",
                            "32.06"
                        ]
                    ]
                ]
            },
            "properties": {
                "forecastId": null,
                "geometryId": null,
                "tag": "1C",
                "forecastHour": 3,
                "hazard": "FZLVL",
                "frequency": null,
                "severity": null,
                "status": "NRML",
                "base": null,
                "top": null,
                "fzlBase": null,
                "fzlTop": null,
                "level": "160",
                "product": "ZULU",
                "rawAirSigmet": null,
                "validTimeTo": "2026-09-12T00:00:00.000",
                "validTimeFrom": [
                    "2026-09-11T20:45"
                ]
            }
        },
        {
            "type": "Feature",
            "geometry": {
                "type": "LineString",
                "coordinates": [
                    [
                        "-66.55",
                        "28.57"
                    ],
                    [
                        "-68.11",
                        "29.19"
                    ],
                    [
                        "-69.15",
                        "29.48"
                    ],
                    [
                        "-70.18",
                        "29.45"
                    ],
                    [
                        "-71.87",
                        "29.51"
                    ],
                    [
                        "-73.24",
                        "30.24"
                    ],
                    [
                        "-74.70",
                        "30.81"
                    ],
                    [
                        "-74.49",
                        "31.54"
                    ],
                    [
                        "-73.96",
                        "31.99"
                    ],
                    [
                        "-73.23",
                        "32.25"
                    ],
                    [
                        "-72.22",
                        "32.03"
                    ],
                    [
                        "-71.19",
                        "32.05"
                    ],
                    [
                        "-70.95",
                        "32.86"
                    ],
                    [
                        "-70.53",
                        "34.63"
                    ],
                    [
                        "-70.20",
                        "35.31"
                    ],
                    [
                        "-69.55",
                        "35.58"
                    ],
                    [
                        "-67.84",
                        "35.78"
                    ],
                    [
                        "-66.18",
                        "35.24"
                    ],
                    [
                        "-64.70",
                        "35.71"
                    ]
                ]
            },
            "properties": {
                "forecastId": null,
                "geometryId": null,
                "tag": "1C",
                "forecastHour": 3,
                "hazard": "FZLVL",
                "frequency": null,
                "severity": null,
                "status": "NRML",
                "base": null,
                "top": null,
                "fzlBase": null,
                "fzlTop": null,
                "level": "160",
                "product": "ZULU",
                "rawAirSigmet": null,
                "validTimeTo": "2026-09-12T00:00:00.000",
                "validTimeFrom": [
                    "2026-09-11T20:45"
                ]
            }
        },
        {
            "type": "Feature",
            "geometry": {
                "type": "Polygon",
                "coordinates": [
                    [
                        [
                            "-112.97",
                            "48.92"
                        ],
                        [
                            "-111.39",
                            "47.37"
                        ],
                        [
                            "-109.79",
                            "48.46"
                        ],
                        [
                            "-108.78",
                            "47.28"
                        ],
                        [
                            "-107.41",
                            "45.13"
                        ],
                        [
                            "-109.94",
                            "44.89"
                        ],
                        [
                            "-111.46",
                            "45.72"
                        ],
                        [
                            "-112.95",
                            "46.74"
                        ],
                        [
                            "-114.18",
                            "48.91"
                        ],
                        [
                            "-112.97",
                            "48.92"
                        ]
                    ]
                ]
            },
            "properties": {
                "forecastId": null,
                "geometryId": null,
                "tag": "5E",
                "forecastHour": 3,
                "hazard": "MT_OBSC",
                "frequency": null,
                "severity": null,
                "status": "NRML",
                "base": null,
                "top": null,
                "fzlBase": null,
                "fzlTop": null,
                "level": null,
                "product": "SIERRA",
                "rawAirSigmet": "MTNS OBSC BY CLDS PCPN BR",
                "validTimeTo": "2026-09-12T00:00:00.000",
                "validTimeFrom": [
                    "2026-09-11T20:45"
                ]
            }
        },
        {
            "type": "Feature",
            "geometry": {
                "type": "Polygon",
                "coordinates": [
                    [
                        [
                            "-122.73",
                            "37.90"
                        ],
                        [
                            "-122.04",
                            "37.22"
                        ],
                        [
                            "-121.53",
                            "36.12"
                        ],
                        [
                            "-120.85",
                            "35.45"
                        ],
                        [
                            "-120.48",
                            "34.83"
                        ],
                        [
                            "-120.55",
                            "34.19"
                        ],
                        [
                            "-120.66",
                            "33.19"
                        ],
                        [
                            "-121.96",
                            "32.42"
                        ],
                        [
                            "-124.19",
                            "35.98"
                        ],
                        [
                            "-123.76",
                            "36.45"
                        ],
                        [
                            "-123.60",
                            "37.36"
                        ],
                        [
                            "-122.73",
                            "37.90"
                        ]
                    ]
                ]
            },
            "properties": {
                "forecastId": null,
                "geometryId": null,
                "tag": "1E",
                "forecastHour": 3,
                "hazard": "IFR",
                "frequency": null,
                "severity": null,
                "status": "NRML",
                "base": null,
                "top": null,
                "fzlBase": null,
                "fzlTop": null,
                "level": null,
                "product": "SIERRA",
                "rawAirSigmet": "CIG BLW 010 VIS BLW 3SM BR FG",
                "validTimeTo": "2026-09-12T00:00:00.000",
                "validTimeFrom": [
                    "2026-09-11T20:45"
                ]
            }
        },
        {
            "type": "Feature",
            "geometry": {
                "type": "LineString",
                "coordinates": [
                    [
                        "-77.71",
                        "57.78"
                    ],
                    [
                        "-76.64",
                        "56.65"
                    ],
                    [
                        "-75.24",
                        "55.58"
                    ],
                    [
                        "-74.34",
                        "54.42"
                    ],
                    [
                        "-73.58",
                        "53.83"
                    ],
                    [
                        "-72.55",
                        "53.42"
                    ],
                    [
                        "-71.63",
                        "53.06"
                    ],
                    [
                        "-71.11",
                        "52.49"
                    ],
                    [
                        "-70.56",
                        "51.08"
                    ],
                    [
                        "-69.91",
                        "49.70"
                    ],
                    [
                        "-68.95",
                        "48.24"
                    ],
                    [
                        "-67.28",
                        "47.33"
                    ],
                    [
                        "-66.26",
                        "47.17"
                    ],
                    [
                        "-65.45",
                        "47.53"
                    ],
                    [
                        "-64.36",
                        "46.23"
                    ],
                    [
                        "-63.70",
                        "45.76"
                    ],
                    [
                        "-62.65",
                        "45.37"
                    ],
                    [
                        "-61.70",
                        "45.23"
                    ]
                ]
            },
            "properties": {
                "forecastId": null,
                "geometryId": null,
                "tag": "1C",
                "forecastHour": 3,
                "hazard": "FZLVL",
                "frequency": null,
                "severity": null,
                "status": "NRML",
                "base": null,
                "top": null,
                "fzlBase": null,
                "fzlTop": null,
                "level": "080",
                "product": "ZULU",
                "rawAirSigmet": null,
                "validTimeTo": "2026-09-12T00:00:00.000",
                "validTimeFrom": [
                    "2026-09-11T20:45"
                ]
            }
        },
        {
            "type": "Feature",
            "geometry": {
                "type": "Polygon",
                "coordinates": [
                    [
                        [
                            "-79.26",
                            "35.19"
                        ],
                        [
                            "-80.19",
                            "35.07"
                        ],
                        [
                            "-81.26",
                            "34.85"
                        ],
                        [
                            "-81.70",
                            "35.04"
                        ],
                        [
                            "-81.90",
                            "35.32"
                        ],
                        [
                            "-81.78",
                            "35.68"
                        ],
                        [
                            "-81.33",
                            "35.79"
                        ],
                        [
                            "-80.93",
                            "35.88"
                        ],
                        [
                            "-80.40",
                            "36.11"
                        ],
                        [
                            "-79.34",
                            "36.33"
                        ],
                        [
                            "-78.35",
                            "36.62"
                        ],
                        [
                            "-77.16",
                            "36.53"
                        ],
                        [
                            "-75.91",
                            "36.47"
                        ],
                        [
                            "-74.87",
                            "36.30"
                        ],
                        [
                            "-74.45",
                            "36.06"
                        ],
                        [
                            "-74.27",
                            "35.66"
                        ],
                        [
                            "-74.66",
                            "35.20"
                        ],
                        [
                            "-75.38",
                            "35.12"
                        ],
                        [
                            "-76.31",
                            "35.14"
                        ],
                        [
                            "-77.58",
                            "35.31"
                        ],
                        [
                            "-78.37",
                            "35.38"
                        ],
                        [
                            "-78.59",
                            "35.27"
                        ],
                        [
                            "-78.68",
                            "35.24"
                        ],
                        [
                            "-79.26",
                            "35.19"
                        ]
                    ]
                ]
            },
            "properties": {
                "forecastId": null,
                "geometryId": null,
                "tag": "1C",
                "forecastHour": 3,
                "hazard": "FZLVL",
                "frequency": null,
                "severity": null,
                "status": "NRML",
                "base": null,
                "top": null,
                "fzlBase": null,
                "fzlTop": null,
                "level": "160",
                "product": "ZULU",
                "rawAirSigmet": null,
                "validTimeTo": "2026-09-12T00:00:00.000",
                "validTimeFrom": [
                    "2026-09-11T20:45"
                ]
            }
        },
        {
            "type": "Feature",
            "geometry": {
                "type": "Polygon",
                "coordinates": [
                    [
                        [
                            "-71.34",
                            "44.59"
                        ],
                        [
                            "-70.64",
                            "44.14"
                        ],
                        [
                            "-71.69",
                            "43.72"
                        ],
                        [
                            "-71.97",
                            "44.16"
                        ],
                        [
                            "-71.34",
                            "44.59"
                        ]
                    ]
                ]
            },
            "properties": {
                "forecastId": null,
                "geometryId": null,
                "tag": "6E",
                "forecastHour": 3,
                "hazard": "MT_OBSC",
                "frequency": null,
                "severity": null,
                "status": "NRML",
                "base": null,
                "top": null,
                "fzlBase": null,
                "fzlTop": null,
                "level": null,
                "product": "SIERRA",
                "rawAirSigmet": "MTNS OBSC BY CLDS",
                "validTimeTo": "2026-09-12T00:00:00.000",
                "validTimeFrom": [
                    "2026-09-11T20:45"
                ]
            }
        },
        {
            "type": "Feature",
            "geometry": {
                "type": "Polygon",
                "coordinates": [
                    [
                        [
                            "-69.30",
                            "47.59"
                        ],
                        [
                            "-67.76",
                            "47.18"
                        ],
                        [
                            "-67.87",
                            "46.54"
                        ],
                        [
                            "-68.07",
                            "46.15"
                        ],
                        [
                            "-68.39",
                            "45.60"
                        ],
                        [
                            "-68.95",
                            "44.87"
                        ],
                        [
                            "-69.82",
                            "44.65"
                        ],
                        [
                            "-70.33",
                            "44.46"
                        ],
                        [
                            "-71.09",
                            "44.76"
                        ],
                        [
                            "-71.08",
                            "45.41"
                        ],
                        [
                            "-69.30",
                            "47.59"
                        ]
                    ]
                ]
            },
            "properties": {
                "forecastId": null,
                "geometryId": null,
                "tag": "1W",
                "forecastHour": 3,
                "hazard": "TURB-LO",
                "frequency": null,
                "severity": "MOD",
                "status": "NRML",
                "base": "SFC",
                "top": "080",
                "fzlBase": null,
                "fzlTop": null,
                "level": null,
                "product": "TANGO",
                "rawAirSigmet": null,
                "validTimeTo": "2026-09-12T00:00:00.000",
                "validTimeFrom": [
                    "2026-09-11T23:04"
                ]
            }
        },
        {
            "type": "Feature",
            "geometry": {
                "type": "LineString",
                "coordinates": [
                    [
                        "-74.91",
                        "57.57"
                    ],
                    [
                        "-73.76",
                        "56.92"
                    ],
                    [
                        "-72.76",
                        "56.47"
                    ],
                    [
                        "-71.28",
                        "55.87"
                    ],
                    [
                        "-69.79",
                        "55.29"
                    ],
                    [
                        "-68.86",
                        "54.78"
                    ],
                    [
                        "-67.77",
                        "54.05"
                    ],
                    [
                        "-66.71",
                        "53.27"
                    ],
                    [
                        "-65.78",
                        "52.68"
                    ],
                    [
                        "-64.75",
                        "52.03"
                    ],
                    [
                        "-62.99",
                        "51.51"
                    ],
                    [
                        "-60.90",
                        "51.38"
                    ],
                    [
                        "-59.69",
                        "51.59"
                    ],
                    [
                        "-59.17",
                        "51.65"
                    ]
                ]
            },
            "properties": {
                "forecastId": null,
                "geometryId": null,
                "tag": "1C",
                "forecastHour": 3,
                "hazard": "FZLVL",
                "frequency": null,
                "severity": null,
                "status": "NRML",
                "base": null,
                "top": null,
                "fzlBase": null,
                "fzlTop": null,
                "level": "040",
                "product": "ZULU",
                "rawAirSigmet": null,
                "validTimeTo": "2026-09-12T00:00:00.000",
                "validTimeFrom": [
                    "2026-09-11T20:45"
                ]
            }
        },
        {
            "type": "Feature",
            "geometry": {
                "type": "Polygon",
                "coordinates": [
                    [
                        [
                            "-83.77",
                            "42.80"
                        ],
                        [
                            "-82.70",
                            "42.61"
                        ],
                        [
                            "-83.15",
                            "42.13"
                        ],
                        [
                            "-82.94",
                            "41.78"
                        ],
                        [
                            "-82.08",
                            "41.72"
                        ],
                        [
                            "-80.89",
                            "41.65"
                        ],
                        [
                            "-80.31",
                            "40.90"
                        ],
                        [
                            "-80.96",
                            "40.52"
                        ],
                        [
                            "-84.00",
                            "40.43"
                        ],
                        [
                            "-86.26",
                            "39.95"
                        ],
                        [
                            "-88.37",
                            "39.26"
                        ],
                        [
                            "-89.74",
                            "38.48"
                        ],
                        [
                            "-90.34",
                            "38.11"
                        ],
                        [
                            "-91.21",
                            "38.12"
                        ],
                        [
                            "-92.25",
                            "38.49"
                        ],
                        [
                            "-92.25",
                            "39.25"
                        ],
                        [
                            "-91.46",
                            "40.52"
                        ],
                        [
                            "-90.08",
                            "41.48"
                        ],
                        [
                            "-88.13",
                            "42.39"
                        ],
                        [
                            "-86.25",
                            "42.70"
                        ],
                        [
                            "-83.77",
                            "42.80"
                        ]
                    ]
                ]
            },
            "properties": {
                "forecastId": null,
                "geometryId": null,
                "tag": "2W",
                "forecastHour": 3,
                "hazard": "TURB-HI",
                "frequency": null,
                "severity": "MOD",
                "status": "NRML",
                "base": "320",
                "top": "410",
                "fzlBase": null,
                "fzlTop": null,
                "level": null,
                "product": "TANGO",
                "rawAirSigmet": null,
                "validTimeTo": "2026-09-12T00:00:00.000",
                "validTimeFrom": [
                    "2026-09-11T23:04"
                ]
            }
        },
        {
            "type": "Feature",
            "geometry": {
                "type": "Polygon",
                "coordinates": [
                    [
                        [
                            "-88.73",
                            "39.20"
                        ],
                        [
                            "-86.81",
                            "39.10"
                        ],
                        [
                            "-84.12",
                            "38.68"
                        ],
                        [
                            "-81.68",
                            "38.84"
                        ],
                        [
                            "-80.02",
                            "38.93"
                        ],
                        [
                            "-78.68",
                            "38.60"
                        ],
                        [
                            "-78.37",
                            "38.02"
                        ],
                        [
                            "-79.05",
                            "37.05"
                        ],
                        [
                            "-81.65",
                            "37.58"
                        ],
                        [
                            "-84.09",
                            "37.58"
                        ],
                        [
                            "-86.14",
                            "36.97"
                        ],
                        [
                            "-86.85",
                            "35.46"
                        ],
                        [
                            "-88.76",
                            "35.97"
                        ],
                        [
                            "-89.40",
                            "36.71"
                        ],
                        [
                            "-89.89",
                            "37.56"
                        ],
                        [
                            "-89.69",
                            "38.79"
                        ],
                        [
                            "-88.73",
                            "39.20"
                        ]
                    ]
                ]
            },
            "properties": {
                "forecastId": null,
                "geometryId": null,
                "tag": "2C",
                "forecastHour": 3,
                "hazard": "ICE",
                "frequency": null,
                "severity": "MOD",
                "status": "NRML",
                "base": "150",
                "top": "230",
                "fzlBase": null,
                "fzlTop": null,
                "level": null,
                "product": "ZULU",
                "rawAirSigmet": "ICE",
                "validTimeTo": "2026-09-12T00:00:00.000",
                "validTimeFrom": [
                    "2026-09-11T20:45"
                ]
            }
        },
        {
            "type": "Feature",
            "geometry": {
                "type": "Polygon",
                "coordinates": [
                    [
                        [
                            "-122.21",
                            "39.66"
                        ],
                        [
                            "-122.07",
                            "38.95"
                        ],
                        [
                            "-122.59",
                            "38.86"
                        ],
                        [
                            "-123.15",
                            "39.15"
                        ],
                        [
                            "-123.14",
                            "39.33"
                        ],
                        [
                            "-122.60",
                            "39.46"
                        ],
                        [
                            "-122.21",
                            "39.66"
                        ]
                    ]
                ]
            },
            "properties": {
                "forecastId": null,
                "geometryId": null,
                "tag": "1E",
                "forecastHour": 3,
                "hazard": "MT_OBSC",
                "frequency": null,
                "severity": null,
                "status": "NRML",
                "base": null,
                "top": null,
                "fzlBase": null,
                "fzlTop": null,
                "level": null,
                "product": "SIERRA",
                "rawAirSigmet": "FU HZ",
                "validTimeTo": "2026-09-12T00:00:00.000",
                "validTimeFrom": [
                    "2026-09-11T20:45"
                ]
            }
        },
        {
            "type": "Feature",
            "geometry": {
                "type": "LineString",
                "coordinates": [
                    [
                        "-107.53",
                        "58.06"
                    ],
                    [
                        "-107.38",
                        "57.77"
                    ],
                    [
                        "-106.92",
                        "57.18"
                    ],
                    [
                        "-106.65",
                        "56.89"
                    ],
                    [
                        "-106.07",
                        "56.38"
                    ],
                    [
                        "-105.47",
                        "56.09"
                    ],
                    [
                        "-104.91",
                        "56.36"
                    ],
                    [
                        "-104.76",
                        "56.97"
                    ],
                    [
                        "-104.53",
                        "57.37"
                    ],
                    [
                        "-104.01",
                        "57.72"
                    ],
                    [
                        "-102.89",
                        "57.78"
                    ],
                    [
                        "-101.77",
                        "57.85"
                    ],
                    [
                        "-100.64",
                        "57.89"
                    ],
                    [
                        "-99.51",
                        "57.89"
                    ],
                    [
                        "-98.39",
                        "57.97"
                    ],
                    [
                        "-97.83",
                        "58.06"
                    ],
                    [
                        "-96.70",
                        "58.31"
                    ],
                    [
                        "-96.54",
                        "58.36"
                    ]
                ]
            },
            "properties": {
                "forecastId": null,
                "geometryId": null,
                "tag": "1C",
                "forecastHour": 3,
                "hazard": "FZLVL",
                "frequency": null,
                "severity": null,
                "status": "NRML",
                "base": null,
                "top": null,
                "fzlBase": null,
                "fzlTop": null,
                "level": "040",
                "product": "ZULU",
                "rawAirSigmet": null,
                "validTimeTo": "2026-09-12T00:00:00.000",
                "validTimeFrom": [
                    "2026-09-11T20:45"
                ]
            }
        },
        {
            "type": "Feature",
            "geometry": {
                "type": "Polygon",
                "coordinates": [
                    [
                        [
                            "-81.35",
                            "31.50"
                        ],
                        [
                            "-81.52",
                            "29.83"
                        ],
                        [
                            "-81.45",
                            "29.36"
                        ],
                        [
                            "-81.95",
                            "29.40"
                        ],
                        [
                            "-82.28",
                            "30.29"
                        ],
                        [
                            "-81.98",
                            "31.42"
                        ],
                        [
                            "-81.35",
                            "31.50"
                        ]
                    ]
                ]
            },
            "properties": {
                "forecastId": null,
                "geometryId": null,
                "tag": "7E",
                "forecastHour": 3,
                "hazard": "IFR",
                "frequency": null,
                "severity": null,
                "status": "NRML",
                "base": null,
                "top": null,
                "fzlBase": null,
                "fzlTop": null,
                "level": null,
                "product": "SIERRA",
                "rawAirSigmet": "VIS BLW 3SM PCPN BR",
                "validTimeTo": "2026-09-12T00:00:00.000",
                "validTimeFrom": [
                    "2026-09-11T20:45"
                ]
            }
        }
    ],
    "metadata": {
        "creationTime": "2026-09-12T00:05"
    }
}