{
    "type": "FeatureCollection",
    "features": [
        {
            "type": "Feature",
            "geometry": {
                "type": "Polygon",
                "coordinates": [
                    [
                        [
                            "-67.86",
                            "46.31"
                        ],
                        [
                            "-67.84",
                            "45.94"
                        ],
                        [
                            "-67.56",
                            "45.72"
                        ],
                        [
                            "-66.97",
                            "44.88"
                        ],
                        [
                            "-67.02",
                            "44.58"
                        ],
                        [
                            "-68.28",
                            "44.16"
                        ],
                        [
                            "-69.27",
                            "44.88"
                        ],
                        [
                            "-69.03",
                            "45.54"
                        ],
                        [
                            "-67.86",
                            "46.31"
                        ]
                    ]
                ]
            },
            "properties": {
                "forecastId": null,
                "geometryId": null,
                "tag": "1C",
                "forecastHour": 6,
                "hazard": "ICE",
                "frequency": null,
                "severity": "MOD",
                "status": "NRML",
                "base": "FZL",
                "top": "230",
                "fzlBase": "120",
                "fzlTop": "140",
                "level": null,
                "product": "ZULU",
                "rawAirSigmet": "ICE",
                "validTimeTo": "2026-10-02T21:00:00.000",
                "validTimeFrom": [
                    "2026-10-02T14:45"
                ]
            }
        },
        {
            "type": "Feature",
            "geometry": {
                "type": "Polygon",
                "coordinates": [
                    [
                        [
                            "-93.60",
                            "21.91"
                        ],
                        [
                            "-94.41",
                            "21.00"
                        ],
                        [
                            "-94.62",
                            "20.43"
                        ],
                        [
                            "-94.69",
                            "19.74"
                        ],
                        [
                            "-94.52",
                            "18.64"
                        ],
                        [
                            "-94.27",
                            "18.01"
                        ],
                        [
                            "-93.30",
                            "17.46"
                        ],
                        [
                            "-92.08",
                            "17.44"
                        ],
                        [
                            "-91.42",
                            "17.42"
                        ],
                        [
                            "-90.42",
                            "17.77"
                        ],
                        [
                            "-90.12",
                            "18.88"
                        ],
                        [
                            "-90.20",
                            "19.82"
                        ],
                        [
                            "-90.59",
                            "20.79"
                        ],
                        [
                            "-91.12",
                            "21.26"
                        ],
                        [
                            "-92.30",
                            "21.80"
                        ],
                        [
                            "-92.92",
                            "21.96"
                        ],
                        [
                            "-93.60",
                            "21.91"
                        ]
                    ]
                ]
            },
            "properties": {
                "forecastId": null,
                "geometryId": null,
                "tag": "1C",
                "forecastHour": 6,
                "hazard": "FZLVL",
                "frequency": null,
                "severity": null,
                "status": "NRML",
                "base": null,
                "top": null,
                "fzlBase": null,
                "fzlTop": null,
                "level": "160",
                "product": "ZULU",
                "rawAirSigmet": null,
                "validTimeTo": "2026-10-02T21:00:00.000",
                "validTimeFrom": [
                    "2026-10-02T14:45"
                ]
            }
        },
        {
            "type": "Feature",
            "geometry": {
                "type": "Polygon",
                "coordinates": [
                    [
                        [
                            "-75.51",
                            "44.54"
                        ],
                        [
                            "-73.48",
                            "44.39"
                        ],
                        [
                            "-75.77",
                            "42.02"
                        ],
                        [
                            "-77.26",
                            "42.57"
                        ],
                        [
                            "-75.51",
                            "44.54"
                        ]
                    ]
                ]
            },
            "properties": {
                "forecastId": null,
                "geometryId": null,
                "tag": "7E",
                "forecastHour": 6,
                "hazard": "IFR",
                "frequency": null,
                "severity": null,
                "status": "NEW",
                "base": null,
                "top": null,
                "fzlBase": null,
                "fzlTop": null,
                "level": null,
                "product": "SIERRA",
                "rawAirSigmet": "CIG BLW 010 VIS BLW 3SM PCPN BR",
                "validTimeTo": "2026-10-02T21:00:00.000",
                "validTimeFrom": [
                    "2026-10-02T19:58"
                ]
            }
        },
        {
            "type": "Feature",
            "geometry": {
                "type": "Polygon",
                "coordinates": [
                    [
                        [
                            "-100.81",
                            "36.15"
                        ],
                        [
                            "-98.24",
                            "35.93"
                        ],
                        [
                            "-95.62",
                            "34.98"
                        ],
                        [
                            "-95.36",
                            "33.91"
                        ],
                        [
                            "-97.03",
                            "34.52"
                        ],
                        [
                            "-99.68",
                            "34.15"
                        ],
                        [
                            "-101.17",
                            "33.37"
                        ],
                        [
                            "-102.44",
                            "32.96"
                        ],
                        [
                            "-103.35",
                            "33.18"
                        ],
                        [
                            "-103.78",
                            "33.73"
                        ],
                        [
                            "-103.98",
                            "34.38"
                        ],
                        [
                            "-103.59",
                            "35.15"
                        ],
                        [
                            "-102.43",
                            "36.08"
                        ],
                        [
                            "-100.81",
                            "36.15"
                        ]
                    ]
                ]
            },
            "properties": {
                "forecastId": null,
                "geometryId": null,
                "tag": "4E",
                "forecastHour": 6,
                "hazard": "IFR",
                "frequency": null,
                "severity": null,
                "status": "AMD",
                "base": null,
                "top": null,
                "fzlBase": null,
                "fzlTop": null,
                "level": null,
                "product": "SIERRA",
                "rawAirSigmet": "CIG BLW 010 VIS BLW 3SM PCPN BR",
                "validTimeTo": "2026-10-02T21:00:00.000",
                "validTimeFrom": [
                    "2026-10-02T19:58"
                ]
            }
        },
        {
            "type": "Feature",
            "geometry": {
                "type": "Polygon",
                "coordinates": [
                    [
                        [
                            "-70.91",
                            "44.02"
                        ],
                        [
                            "-70.33",
                            "43.19"
                        ],
                        [
                            "-77.88",
                            "40.06"
                        ],
                        [
                            "-79.56",
                            "39.98"
                        ],
                        [
                            "-82.50",
                            "38.31"
                        ],
                        [
                            "-86.72",
                            "36.26"
                        ],
                        [
                            "-88.91",
                            "35.25"
                        ],
                        [
                            "-89.85",
                            "35.33"
                        ],
                        [
                            "-91.39",
                            "34.98"
                        ],
                        [
                            "-92.29",
                            "36.12"
                        ],
                        [
                            "-91.55",
                            "37.20"
                        ],
                        [
                            "-89.89",
                            "37.89"
                        ],
                        [
                            "-87.31",
                            "38.69"
                        ],
                        [
                            "-84.88",
                            "39.21"
                        ],
                        [
                            "-82.79",
                            "40.18"
                        ],
                        [
                            "-81.60",
                            "41.00"
                        ],
                        [
                            "-80.52",
                            "40.99"
                        ],
                        [
                            "-78.66",
                            "41.79"
                        ],
                        [
                            "-77.47",
                            "41.90"
                        ],
                        [
                            "-70.91",
                            "44.02"
                        ]
                    ]
                ]
            },
            "properties": {
                "forecastId": null,
                "geometryId": null,
                "tag": "3C",
                "forecastHour": 6,
                "hazard": "ICE",
                "frequency": null,
                "severity": "MOD",
                "status": "NRML",
                "base": "FZL",
                "top": "260",
                "fzlBase": "130",
                "fzlTop": "150",
                "level": null,
                "product": "ZULU",
                "rawAirSigmet": "ICE",
                "validTimeTo": "2026-10-02T21:00:00.000",
                "validTimeFrom": [
                    "2026-10-02T14:45"
                ]
            }
        },
        {
            "type": "Feature",
            "geometry": {
                "type": "Polygon",
                "coordinates": [
                    [
                        [
                            "-122.56",
                            "49.00"
                        ],
                        [
                            "-120.77",
                            "48.92"
                        ],
                        [
                            "-120.77",
                            "48.38"
                        ],
                        [
                            "-122.05",
                            "47.09"
                        ],
                        [
                            "-123.07",
                            "45.99"
                        ],
                        [
                            "-124.08",
                            "44.53"
                        ],
                        [
                            "-124.05",
                            "46.34"
                        ],
                        [
                            "-124.55",
                            "48.27"
                        ],
                        [
                            "-122.56",
                            "49.00"
                        ]
                    ]
                ]
            },
            "properties": {
                "forecastId": null,
                "geometryId": null,
                "tag": "3E",
                "forecastHour": 6,
                "hazard": "MT_OBSC",
                "frequency": null,
                "severity": null,
                "status": "NRML",
                "base": null,
                "top": null,
                "fzlBase": null,
                "fzlTop": null,
                "level": null,
                "product": "SIERRA",
                "rawAirSigmet": "MTNS OBSC BY CLDS",
                "validTimeTo": "2026-10-02T21:00:00.000",
                "validTimeFrom": [
                    "2026-10-02T19:58"
                ]
            }
        },
        {
            "type": "Feature",
            "geometry": {
                "type": "Polygon",
                "coordinates": [
                    [
                        [
                            "-64.60",
                            "42.34"
                        ],
                        [
                            "-64.62",
                            "41.25"
                        ],
                        [
                            "-65.00",
                            "40.79"
                        ],
                        [
                            "-67.11",
                            "38.83"
                        ],
                        [
                            "-68.53",
                            "37.50"
                        ],
                        [
                            "-70.26",
                            "35.45"
                        ],
                        [
                            "-71.18",
                            "33.93"
                        ],
                        [
                            "-71.41",
                            "32.81"
                        ],
                        [
                            "-71.22",
                            "31.88"
                        ],
                        [
                            "-70.83",
                            "30.50"
                        ],
                        [
                            "-70.79",
                            "29.96"
                        ],
                        [
                            "-71.18",
                            "28.70"
                        ],
                        [
                            "-72.20",
                            "27.84"
                        ],
                        [
                            "-72.87",
                            "27.68"
                        ],
                        [
                            "-74.54",
                            "27.52"
                        ],
                        [
                            "-75.91",
                            "27.54"
                        ],
                        [
                            "-76.83",
                            "28.16"
                        ],
                        [
                            "-78.16",
                            "29.48"
                        ],
                        [
                            "-79.64",
                            "30.73"
                        ],
                        [
                            "-80.77",
                            "32.48"
                        ],
                        [
                            "-81.15",
                            "33.79"
                        ],
                        [
                            "-80.86",
                            "34.88"
                        ],
                        [
                            "-79.84",
                            "35.93"
                        ],
                        [
                            "-76.40",
                            "38.12"
                        ],
                        [
                            "-74.52",
                            "39.20"
                        ],
                        [
                            "-72.61",
                            "40.07"
                        ],
                        [
                            "-70.31",
                            "41.04"
                        ],
                        [
                            "-67.72",
                            "41.92"
                        ],
                        [
                            "-65.83",
                            "42.41"
                        ],
                        [
                            "-64.60",
                            "42.34"
                        ]
                    ]
                ]
            },
            "properties": {
                "forecastId": null,
                "geometryId": null,
                "tag": "1C",
                "forecastHour": 6,
                "hazard": "FZLVL",
                "frequency": null,
                "severity": null,
                "status": "NRML",
                "base": null,
                "top": null,
                "fzlBase": null,
                "fzlTop": null,
                "level": "160",
                "product": "ZULU",
                "rawAirSigmet": null,
                "validTimeTo": "2026-10-02T21:00:00.000",
                "validTimeFrom": [
                    "2026-10-02T14:45"
                ]
            }
        },
        {
            "type": "Feature",
            "geometry": {
                "type": "Polygon",
                "coordinates": [
                    [
                        [
                            "-85.06",
                            "44.43"
                        ],
                        [
                            "-82.19",
                            "44.22"
                        ],
                        [
                            "-82.11",
                            "43.70"
                        ],
                        [
                            "-83.60",
                            "43.59"
                        ],
                        [
                            "-85.18",
                            "43.85"
                        ],
                        [
                            "-85.06",
                            "44.43"
                        ]
                    ]
                ]
            },
            "properties": {
                "forecastId": null,
                "geometryId": null,
                "tag": "2C",
                "forecastHour": 6,
                "hazard": "M_FZLVL",
                "frequency": null,
                "severity": null,
                "status": "NRML",
                "base": "080",
                "top": "100",
                "fzlBase": null,
                "fzlTop": null,
                "level": null,
                "product": "ZULU",
                "rawAirSigmet": null,
                "validTimeTo": "2026-10-02T21:00:00.000",
                "validTimeFrom": [
                    "2026-10-02T14:45"
                ]
            }
        },
        {
            "type": "Feature",
            "geometry": {
                "type": "Polygon",
                "coordinates": [
                    [
                        [
                            "-107.54",
                            "33.13"
                        ],
                        [
                            "-106.70",
                            "32.86"
                        ],
                        [
                            "-107.06",
                            "32.46"
                        ],
                        [
                            "-107.46",
                            "31.83"
                        ],
                        [
                            "-107.64",
                            "31.60"
                        ],
                        [
                            "-108.34",
                            "31.60"
                        ],
                        [
                            "-108.06",
                            "32.27"
                        ],
                        [
                            "-107.54",
                            "33.13"
                        ]
                    ]
                ]
            },
            "properties": {
                "forecastId": null,
                "geometryId": null,
                "tag": "1C",
                "forecastHour": 6,
                "hazard": "M_FZLVL",
                "frequency": null,
                "severity": null,
                "status": "NRML",
                "base": "120",
                "top": "140",
                "fzlBase": null,
                "fzlTop": null,
                "level": null,
                "product": "ZULU",
                "rawAirSigmet": null,
                "validTimeTo": "2026-10-02T21:00:00.000",
                "validTimeFrom": [
                    "2026-10-02T14:45"
                ]
            }
        },
        {
            "type": "Feature",
            "geometry": {
                "type": "LineString",
                "coordinates": [
                    [
                        "-109.21",
                        "60.84"
                    ],
                    [
                        "-107.06",
                        "60.48"
                    ],
                    [
                        "-104.19",
                        "59.81"
                    ],
                    [
                        "-101.08",
                        "58.77"
                    ],
                    [
                        "-96.87",
                        "56.93"
                    ],
                    [
                        "-95.62",
                        "56.24"
                    ],
                    [
                        "-94.41",
                        "55.38"
                    ],
                    [
                        "-92.27",
                        "53.56"
                    ],
                    [
                        "-91.21",
                        "52.87"
                    ],
                    [
                        "-88.98",
                        "51.88"
                    ],
                    [
                        "-85.47",
                        "51.01"
                    ],
                    [
                        "-81.24",
                        "49.44"
                    ],
                    [
                        "-78.85",
                        "49.19"
                    ],
                    [
                        "-77.39",
                        "49.33"
                    ],
                    [
                        "-75.70",
                        "49.76"
                    ],
                    [
                        "-74.00",
                        "50.34"
                    ],
                    [
                        "-71.25",
                        "51.07"
                    ],
                    [
                        "-67.24",
                        "52.16"
                    ],
                    [
                        "-64.29",
                        "53.10"
                    ],
                    [
                        "-60.76",
                        "54.22"
                    ],
                    [
                        "-59.82",
                        "54.56"
                    ]
                ]
            },
            "properties": {
                "forecastId": null,
                "geometryId": null,
                "tag": "1C",
                "forecastHour": 6,
                "hazard": "FZLVL",
                "frequency": null,
                "severity": null,
                "status": "NRML",
                "base": null,
                "top": null,
                "fzlBase": null,
                "fzlTop": null,
                "level": "040",
                "product": "ZULU",
                "rawAirSigmet": null,
                "validTimeTo": "2026-10-02T21:00:00.000",
                "validTimeFrom": [
                    "2026-10-02T14:45"
                ]
            }
        },
        {
            "type": "Feature",
            "geometry": {
                "type": "Polygon",
                "coordinates": [
                    [
                        [
                            "-70.37",
                            "46.48"
                        ],
                        [
                            "-68.73",
                            "46.13"
                        ],
                        [
                            "-68.53",
                            "45.56"
                        ],
                        [
                            "-70.41",
                            "44.09"
                        ],
                        [
                            "-71.70",
                            "43.16"
                        ],
                        [
                            "-73.49",
                            "42.15"
                        ],
                        [
                            "-75.21",
                            "41.22"
                        ],
                        [
                            "-77.04",
                            "40.30"
                        ],
                        [
                            "-78.37",
                            "39.97"
                        ],
                        [
                            "-79.11",
                            "39.19"
                        ],
                        [
                            "-81.53",
                            "38.25"
                        ],
                        [
                            "-83.21",
                            "37.51"
                        ],
                        [
                            "-84.23",
                            "36.95"
                        ],
                        [
                            "-85.09",
                            "36.67"
                        ],
                        [
                            "-82.00",
                            "38.80"
                        ],
                        [
                            "-80.17",
                            "40.86"
                        ],
                        [
                            "-76.38",
                            "42.73"
                        ],
                        [
                            "-76.19",
                            "43.16"
                        ],
                        [
                            "-75.41",
                            "43.93"
                        ],
                        [
                            "-74.64",
                            "44.90"
                        ],
                        [
                            "-72.79",
                            "45.14"
                        ],
                        [
                            "-71.77",
                            "45.42"
                        ],
                        [
                            "-70.37",
                            "46.48"
                        ]
                    ]
                ]
            },
            "properties": {
                "forecastId": null,
                "geometryId": null,
                "tag": "1E",
                "forecastHour": 6,
                "hazard": "MT_OBSC",
                "frequency": null,
                "severity": null,
                "status": "NRML",
                "base": null,
                "top": null,
                "fzlBase": null,
                "fzlTop": null,
                "level": null,
                "product": "SIERRA",
                "rawAirSigmet": "MTNS OBSC BY CLDS PCPN BR",
                "validTimeTo": "2026-10-02T21:00:00.000",
                "validTimeFrom": [
                    "2026-10-02T19:58"
                ]
            }
        },
        {
            "type": "Feature",
            "geometry": {
                "type": "LineString",
                "coordinates": [
                    [
                        "-134.62",
                        "24.33"
                    ],
                    [
                        "-132.77",
                        "24.39"
                    ],
                    [
                        "-131.22",
                        "25.66"
                    ],
                    [
                        "-130.21",
                        "27.00"
                    ],
                    [
                        "-129.06",
                        "28.93"
                    ],
                    [
                        "-127.58",
                        "32.51"
                    ],
                    [
                        "-126.60",
                        "36.42"
                    ],
                    [
                        "-126.33",
                        "37.42"
                    ],
                    [
                        "-125.77",
                        "38.30"
                    ],
                    [
                        "-124.77",
                        "38.94"
                    ],
                    [
                        "-123.80",
                        "39.26"
                    ],
                    [
                        "-121.89",
                        "39.33"
                    ],
                    [
                        "-119.84",
                        "38.45"
                    ],
                    [
                        "-119.20",
                        "38.23"
                    ],
                    [
                        "-118.32",
                        "38.32"
                    ],
                    [
                        "-116.88",
                        "38.74"
                    ],
                    [
                        "-115.51",
                        "39.12"
                    ],
                    [
                        "-113.33",
                        "39.88"
                    ],
                    [
                        "-112.37",
                        "40.23"
                    ],
                    [
                        "-110.60",
                        "40.49"
                    ],
                    [
                        "-108.88",
                        "40.42"
                    ],
                    [
                        "-108.04",
                        "39.98"
                    ],
                    [
                        "-106.33",
                        "37.66"
                    ],
                    [
                        "-106.10",
                        "36.83"
                    ],
                    [
                        "-106.99",
                        "35.92"
                    ],
                    [
                        "-108.49",
                        "34.29"
                    ],
                    [
                        "-109.21",
                        "32.32"
                    ],
                    [
                        "-109.35",
                        "31.30"
                    ],
                    [
                        "-109.22",
                        "30.58"
                    ],
                    [
                        "-108.58",
                        "29.27"
                    ],
                    [
                        "-107.86",
                        "28.28"
                    ],
                    [
                        "-107.03",
                        "27.85"
                    ],
                    [
                        "-106.05",
                        "28.11"
                    ],
                    [
                        "-104.29",
                        "28.99"
                    ],
                    [
                        "-103.13",
                        "29.42"
                    ],
                    [
                        "-101.61",
                        "29.65"
                    ],
                    [
                        "-100.50",
                        "29.97"
                    ],
                    [
                        "-99.31",
                        "30.65"
                    ],
                    [
                        "-98.41",
                        "31.09"
                    ],
                    [
                        "-97.13",
                        "31.16"
                    ],
                    [
                        "-95.12",
                        "32.05"
                    ],
                    [
                        "-93.51",
                        "32.26"
                    ],
                    [
                        "-91.94",
                        "31.74"
                    ],
                    [
                        "-90.10",
                        "31.49"
                    ],
                    [
                        "-89.28",
                        "31.30"
                    ],
                    [
                        "-88.55",
                        "30.85"
                    ],
                    [
                        "-87.69",
                        "29.31"
                    ],
                    [
                        "-86.52",
                        "25.43"
                    ],
                    [
                        "-86.41",
                        "24.63"
                    ],
                    [
                        "-85.76",
                        "24.00"
                    ],
                    [
                        "-84.93",
                        "24.01"
                    ],
                    [
                        "-82.88",
                        "23.89"
                    ],
                    [
                        "-80.83",
                        "23.42"
                    ],
                    [
                        "-79.37",
                        "23.17"
                    ],
                    [
                        "-78.45",
                        "23.35"
                    ],
                    [
                        "-77.46",
                        "23.56"
                    ],
                    [
                        "-76.22",
                        "23.35"
                    ],
                    [
                        "-74.85",
                        "22.32"
                    ],
                    [
                        "-72.70",
                        "21.37"
                    ],
                    [
                        "-71.66",
                        "21.11"
                    ],
                    [
                        "-70.43",
                        "20.56"
                    ],
                    [
                        "-69.66",
                        "18.81"
                    ],
                    [
                        "-69.12",
                        "17.81"
                    ],
                    [
                        "-68.09",
                        "17.09"
                    ],
                    [
                        "-67.08",
                        "16.62"
                    ],
                    [
                        "-66.22",
                        "16.49"
                    ],
                    [
                        "-65.36",
                        "17.03"
                    ],
                    [
                        "-64.53",
                        "17.93"
                    ]
                ]
            },
            "properties": {
                "forecastId": null,
                "geometryId": null,
                "tag": "1C",
                "forecastHour": 6,
                "hazard": "FZLVL",
                "frequency": null,
                "severity": null,
                "status": "NRML",
                "base": null,
                "top": null,
                "fzlBase": null,
                "fzlTop": null,
                "level": "160",
                "product": "ZULU",
                "rawAirSigmet": null,
                "validTimeTo": "2026-10-02T21:00:00.000",
                "validTimeFrom": [
                    "2026-10-02T14:45"
                ]
            }
        },
        {
            "type": "Feature",
            "geometry": {
                "type": "Polygon",
                "coordinates": [
                    [
                        [
                            "-120.93",
                            "49.03"
                        ],
                        [
                            "-119.99",
                            "48.98"
                        ],
                        [
                            "-119.66",
                            "48.38"
                        ],
                        [
                            "-120.92",
                            "47.60"
                        ],
                        [
                            "-122.30",
                            "47.00"
                        ],
                        [
                            "-123.91",
                            "46.67"
                        ],
                        [
                            "-125.71",
                            "46.59"
                        ],
                        [
                            "-127.32",
                            "46.87"
                        ],
                        [
                            "-127.97",
                            "48.23"
                        ],
                        [
                            "-125.16",
                            "48.69"
                        ],
                        [
                            "-122.98",
                            "48.96"
                        ],
                        [
                            "-120.93",
                            "49.03"
                        ]
                    ]
                ]
            },
            "properties": {
                "forecastId": null,
                "geometryId": null,
                "tag": "5W",
                "forecastHour": 6,
                "hazard": "TURB-HI",
                "frequency": null,
                "severity": "MOD",
                "status": "NRML",
                "base": "270",
                "top": "370",
                "fzlBase": null,
                "fzlTop": null,
                "level": null,
                "product": "TANGO",
                "rawAirSigmet": null,
                "validTimeTo": "2026-10-02T21:00:00.000",
                "validTimeFrom": [
                    "2026-10-02T18:30"
                ]
            }
        },
        {
            "type": "Feature",
            "geometry": {
                "type": "Polygon",
                "coordinates": [
                    [
                        [
                            "-93.80",
                            "35.54"
                        ],
                        [
                            "-92.65",
                            "35.30"
                        ],
                        [
                            "-92.21",
                            "34.81"
                        ],
                        [
                            "-92.40",
                            "34.31"
                        ],
                        [
                            "-93.59",
                            "34.01"
                        ],
                        [
                            "-94.91",
                            "33.64"
                        ],
                        [
                            "-96.08",
                            "32.96"
                        ],
                        [
                            "-97.22",
                            "32.07"
                        ],
                        [
                            "-98.15",
                            "31.00"
                        ],
                        [
                            "-99.46",
                            "30.12"
                        ],
                        [
                            "-100.67",
                            "29.79"
                        ],
                        [
                            "-101.25",
                            "30.02"
                        ],
                        [
                            "-101.44",
                            "30.70"
                        ],
                        [
                            "-101.10",
                            "31.61"
                        ],
                        [
                            "-100.00",
                            "32.78"
                        ],
                        [
                            "-97.68",
                            "34.60"
                        ],
                        [
                            "-95.58",
                            "35.37"
                        ],
                        [
                            "-93.80",
                            "35.54"
                        ]
                    ]
                ]
            },
            "properties": {
                "forecastId": null,
                "geometryId": null,
                "tag": "4W",
                "forecastHour": 6,
                "hazard": "TURB-HI",
                "frequency": null,
                "severity": "MOD",
                "status": "NRML",
                "base": "300",
                "top": "410",
                "fzlBase": null,
                "fzlTop": null,
                "level": null,
                "product": "TANGO",
                "rawAirSigmet": null,
                "validTimeTo": "2026-10-02T21:00:00.000",
                "validTimeFrom": [
                    "2026-10-02T18:30"
                ]
            }
        },
        {
            "type": "Feature",
            "geometry": {
                "type": "LineString",
                "coordinates": [
                    [
                        "-137.19",
                        "52.62"
                    ],
                    [
                        "-137.02",
                        "52.62"
                    ],
                    [
                        "-132.57",
                        "52.73"
                    ],
                    [
                        "-131.17",
                        "52.86"
                    ],
                    [
                        "-128.45",
                        "52.89"
                    ],
                    [
                        "-125.33",
                        "52.50"
                    ],
                    [
                        "-121.21",
                        "52.26"
                    ],
                    [
                        "-118.52",
                        "52.40"
                    ],
                    [
                        "-116.16",
                        "53.16"
                    ],
                    [
                        "-114.92",
                        "53.54"
                    ],
                    [
                        "-112.41",
                        "53.93"
                    ],
                    [
                        "-110.67",
                        "53.88"
                    ],
                    [
                        "-108.26",
                        "53.61"
                    ],
                    [
                        "-106.17",
                        "53.28"
                    ],
                    [
                        "-104.35",
                        "52.88"
                    ],
                    [
                        "-102.86",
                        "52.29"
                    ],
                    [
                        "-101.71",
                        "51.60"
                    ],
                    [
                        "-99.60",
                        "49.89"
                    ],
                    [
                        "-97.40",
                        "48.24"
                    ],
                    [
                        "-96.10",
                        "47.40"
                    ],
                    [
                        "-94.49",
                        "46.63"
                    ],
                    [
                        "-92.28",
                        "46.11"
                    ],
                    [
                        "-90.36",
                        "46.06"
                    ],
                    [
                        "-88.08",
                        "45.74"
                    ],
                    [
                        "-85.90",
                        "45.20"
                    ],
                    [
                        "-83.94",
                        "44.92"
                    ],
                    [
                        "-81.03",
                        "45.07"
                    ],
                    [
                        "-77.89",
                        "45.33"
                    ],
                    [
                        "-75.05",
                        "45.88"
                    ],
                    [
                        "-72.12",
                        "46.88"
                    ],
                    [
                        "-69.34",
                        "47.76"
                    ],
                    [
                        "-63.06",
                        "49.97"
                    ],
                    [
                        "-59.49",
                        "51.07"
                    ],
                    [
                        "-56.10",
                        "52.19"
                    ]
                ]
            },
            "properties": {
                "forecastId": null,
                "geometryId": null,
                "tag": "1C",
                "forecastHour": 6,
                "hazard": "FZLVL",
                "frequency": null,
                "severity": null,
                "status": "NRML",
                "base": null,
                "top": null,
                "fzlBase": null,
                "fzlTop": null,
                "level": "080",
                "product": "ZULU",
                "rawAirSigmet": null,
                "validTimeTo": "2026-10-02T21:00:00.000",
                "validTimeFrom": [
                    "2026-10-02T14:45"
                ]
            }
        },
        {
            "type": "Feature",
            "geometry": {
                "type": "Polygon",
                "coordinates": [
                    [
                        [
                            "-101.66",
                            "49.12"
                        ],
                        [
                            "-100.75",
                            "48.36"
                        ],
                        [
                            "-100.52",
                            "47.92"
                        ],
                        [
                            "-100.64",
                            "47.25"
                        ],
                        [
                            "-104.22",
                            "47.08"
                        ],
                        [
                            "-108.53",
                            "47.82"
                        ],
                        [
                            "-108.87",
                            "48.91"
                        ],
                        [
                            "-103.68",
                            "49.06"
                        ],
                        [
                            "-101.66",
                            "49.12"
                        ]
                    ]
                ]
            },
            "properties": {
                "forecastId": null,
                "geometryId": null,
                "tag": "4C",
                "forecastHour": 6,
                "hazard": "ICE",
                "frequency": null,
                "severity": "MOD",
                "status": "NRML",
                "base": "110",
                "top": "200",
                "fzlBase": null,
                "fzlTop": null,
                "level": null,
                "product": "ZULU",
                "rawAirSigmet": "ICE",
                "validTimeTo": "2026-10-02T21:00:00.000",
                "validTimeFrom": [
                    "2026-10-02T14:45"
                ]
            }
        },
        {
            "type": "Feature",
            "geometry": {
                "type": "Polygon",
                "coordinates": [
                    [
                        [
                            "-97.93",
                            "49.04"
                        ],
                        [
                            "-96.73",
                            "47.88"
                        ],
                        [
                            "-95.79",
                            "46.90"
                        ],
                        [
                            "-94.84",
                            "45.91"
                        ],
                        [
                            "-94.05",
                            "44.55"
                        ],
                        [
                            "-97.39",
                            "44.23"
                        ],
                        [
                            "-98.02",
                            "44.94"
                        ],
                        [
                            "-98.05",
                            "46.09"
                        ],
                        [
                            "-99.24",
                            "47.23"
                        ],
                        [
                            "-100.50",
                            "47.76"
                        ],
                        [
                            "-100.52",
                            "47.99"
                        ],
                        [
                            "-100.83",
                            "48.44"
                        ],
                        [
                            "-101.50",
                            "48.96"
                        ],
                        [
                            "-99.44",
                            "48.98"
                        ],
                        [
                            "-97.93",
                            "49.04"
                        ]
                    ]
                ]
            },
            "properties": {
                "forecastId": null,
                "geometryId": null,
                "tag": "4C",
                "forecastHour": 6,
                "hazard": "ICE",
                "frequency": null,
                "severity": "MOD",
                "status": "NRML",
                "base": "FZL",
                "top": "190",
                "fzlBase": "070",
                "fzlTop": "120",
                "level": null,
                "product": "ZULU",
                "rawAirSigmet": "ICE",
                "validTimeTo": "2026-10-02T21:00:00.000",
                "validTimeFrom": [
                    "2026-10-02T14:45"
                ]
            }
        },
        {
            "type": "Feature",
            "geometry": {
                "type": "Polygon",
                "coordinates": [
                    [
                        [
                            "-83.72",
                            "32.28"
                        ],
                        [
                            "-82.08",
                            "32.16"
                        ],
                        [
                            "-80.84",
                            "31.90"
                        ],
                        [
                            "-79.78",
                            "31.51"
                        ],
                        [
                            "-78.62",
                            "30.90"
                        ],
                        [
                            "-77.50",
                            "30.31"
                        ],
                        [
                            "-76.78",
                            "29.65"
                        ],
                        [
                            "-76.81",
                            "29.17"
                        ],
                        [
                            "-77.10",
                            "27.23"
                        ],
                        [
                            "-78.65",
                            "28.25"
                        ],
                        [
                            "-80.25",
                            "28.89"
                        ],
                        [
                            "-82.59",
                            "29.63"
                        ],
                        [
                            "-84.73",
                            "30.07"
                        ],
                        [
                            "-85.53",
                            "30.55"
                        ],
                        [
                            "-85.69",
                            "30.94"
                        ],
                        [
                            "-85.48",
                            "31.44"
                        ],
                        [
                            "-84.53",
                            "32.04"
                        ],
                        [
                            "-83.72",
                            "32.28"
                        ]
                    ]
                ]
            },
            "properties": {
                "forecastId": null,
                "geometryId": null,
                "tag": "2W",
                "forecastHour": 6,
                "hazard": "TURB-HI",
                "frequency": null,
                "severity": "MOD",
                "status": "NRML",
                "base": "320",
                "top": "420",
                "fzlBase": null,
                "fzlTop": null,
                "level": null,
                "product": "TANGO",
                "rawAirSigmet": null,
                "validTimeTo": "2026-10-02T21:00:00.000",
                "validTimeFrom": [
                    "2026-10-02T18:30"
                ]
            }
        },
        {
            "type": "Feature",
            "geometry": {
                "type": "Polygon",
                "coordinates": [
                    [
                        [
                            "-75.08",
                            "45.02"
                        ],
                        [
                            "-73.61",
                            "45.00"
                        ],
                        [
                            "-73.99",
                            "43.48"
                        ],
                        [
                            "-75.16",
                            "42.22"
                        ],
                        [
                            "-77.14",
                            "41.12"
                        ],
                        [
                            "-80.04",
                            "39.89"
                        ],
                        [
                            "-83.06",
                            "39.18"
                        ],
                        [
                            "-84.68",
                            "38.41"
                        ],
                        [
                            "-86.67",
                            "37.82"
                        ],
                        [
                            "-88.06",
                            "37.65"
                        ],
                        [
                            "-89.24",
                            "37.73"
                        ],
                        [
                            "-90.17",
                            "38.03"
                        ],
                        [
                            "-90.53",
                            "38.42"
                        ],
                        [
                            "-90.55",
                            "38.81"
                        ],
                        [
                            "-89.82",
                            "39.52"
                        ],
                        [
                            "-88.77",
                            "39.92"
                        ],
                        [
                            "-86.74",
                            "40.64"
                        ],
                        [
                            "-85.05",
                            "41.07"
                        ],
                        [
                            "-83.09",
                            "41.79"
                        ],
                        [
                            "-82.40",
                            "41.72"
                        ],
                        [
                            "-78.91",
                            "42.84"
                        ],
                        [
                            "-79.07",
                            "43.58"
                        ],
                        [
                            "-76.79",
                            "43.63"
                        ],
                        [
                            "-75.08",
                            "45.02"
                        ]
                    ]
                ]
            },
            "properties": {
                "forecastId": null,
                "geometryId": null,
                "tag": "1W",
                "forecastHour": 6,
                "hazard": "TURB-HI",
                "frequency": null,
                "severity": "MOD",
                "status": "NRML",
                "base": "250",
                "top": "390",
                "fzlBase": null,
                "fzlTop": null,
                "level": null,
                "product": "TANGO",
                "rawAirSigmet": null,
                "validTimeTo": "2026-10-02T21:00:00.000",
                "validTimeFrom": [
                    "2026-10-02T18:30"
                ]
            }
        },
        {
            "type": "Feature",
            "geometry": {
                "type": "Polygon",
                "coordinates": [
                    [
                        [
                            "-95.17",
                            "33.16"
                        ],
                        [
                            "-94.50",
                            "33.08"
                        ],
                        [
                            "-93.97",
                            "32.70"
                        ],
                        [
                            "-94.21",
                            "32.06"
                        ],
                        [
                            "-95.09",
                            "31.75"
                        ],
                        [
                            "-96.17",
                            "31.70"
                        ],
                        [
                            "-97.11",
                            "30.65"
                        ],
                        [
                            "-97.64",
                            "29.47"
                        ],
                        [
                            "-98.43",
                            "29.88"
                        ],
                        [
                            "-98.87",
                            "30.45"
                        ],
                        [
                            "-98.80",
                            "31.20"
                        ],
                        [
                            "-98.07",
                            "31.74"
                        ],
                        [
                            "-96.84",
                            "32.64"
                        ],
                        [
                            "-95.17",
                            "33.16"
                        ]
                    ]
                ]
            },
            "properties": {
                "forecastId": null,
                "geometryId": null,
                "tag": "2E",
                "forecastHour": 6,
                "hazard": "IFR",
                "frequency": null,
                "severity": null,
                "status": "NRML",
                "base": null,
                "top": null,
                "fzlBase": null,
                "fzlTop": null,
                "level": null,
                "product": "SIERRA",
                "rawAirSigmet": "CIG BLW 010 VIS BLW 3SM PCPN BR",
                "validTimeTo": "2026-10-02T21:00:00.000",
                "validTimeFrom": [
                    "2026-10-02T19:58"
                ]
            }
        },
        {
            "type": "Feature",
            "geometry": {
                "type": "Polygon",
                "coordinates": [
                    [
                        [
                            "-81.42",
                            "41.26"
                        ],
                        [
                            "-79.28",
                            "41.11"
                        ],
                        [
                            "-78.32",
                            "40.41"
                        ],
                        [
                            "-79.13",
                            "39.10"
                        ],
                        [
                            "-81.34",
                            "38.17"
                        ],
                        [
                            "-82.88",
                            "37.70"
                        ],
                        [
                            "-86.67",
                            "36.41"
                        ],
                        [
                            "-88.94",
                            "35.32"
                        ],
                        [
                            "-90.77",
                            "34.12"
                        ],
                        [
                            "-92.21",
                            "34.60"
                        ],
                        [
                            "-94.30",
                            "35.81"
                        ],
                        [
                            "-94.24",
                            "36.38"
                        ],
                        [
                            "-89.82",
                            "37.14"
                        ],
                        [
                            "-87.42",
                            "38.32"
                        ],
                        [
                            "-84.69",
                            "39.30"
                        ],
                        [
                            "-81.42",
                            "41.26"
                        ]
                    ]
                ]
            },
            "properties": {
                "forecastId": null,
                "geometryId": null,
                "tag": "2E",
                "forecastHour": 6,
                "hazard": "IFR",
                "frequency": null,
                "severity": null,
                "status": "AMD",
                "base": null,
                "top": null,
                "fzlBase": null,
                "fzlTop": null,
                "level": null,
                "product": "SIERRA",
                "rawAirSigmet": "CIG BLW 010 VIS BLW 3SM PCPN BR",
                "validTimeTo": "2026-10-02T21:00:00.000",
                "validTimeFrom": [
                    "2026-10-02T19:58"
                ]
            }
        },
        {
            "type": "Feature",
            "geometry": {
                "type": "Polygon",
                "coordinates": [
                    [
                        [
                            "-103.90",
                            "36.07"
                        ],
                        [
                            "-104.57",
                            "33.41"
                        ],
                        [
                            "-104.37",
                            "31.89"
                        ],
                        [
                            "-102.34",
                            "30.05"
                        ],
                        [
                            "-104.37",
                            "29.88"
                        ],
                        [
                            "-106.24",
                            "31.76"
                        ],
                        [
                            "-107.95",
                            "31.65"
                        ],
                        [
                            "-108.37",
                            "32.92"
                        ],
                        [
                            "-106.83",
                            "34.15"
                        ],
                        [
                            "-105.39",
                            "34.83"
                        ],
                        [
                            "-103.90",
                            "36.07"
                        ]
                    ]
                ]
            },
            "properties": {
                "forecastId": null,
                "geometryId": null,
                "tag": "2E",
                "forecastHour": 6,
                "hazard": "MT_OBSC",
                "frequency": null,
                "severity": null,
                "status": "NRML",
                "base": null,
                "top": null,
                "fzlBase": null,
                "fzlTop": null,
                "level": null,
                "product": "SIERRA",
                "rawAirSigmet": "MTNS OBSC BY CLDS PCPN",
                "validTimeTo": "2026-10-02T21:00:00.000",
                "validTimeFrom": [
                    "2026-10-02T19:58"
                ]
            }
        },
        {
            "type": "Feature",
            "geometry": {
                "type": "Polygon",
                "coordinates": [
                    [
                        [
                            "-125.02",
                            "48.69"
                        ],
                        [
                            "-124.51",
                            "48.12"
                        ],
                        [
                            "-124.02",
                            "47.51"
                        ],
                        [
                            "-123.89",
                            "45.58"
                        ],
                        [
                            "-124.02",
                            "44.23"
                        ],
                        [
                            "-124.17",
                            "43.14"
                        ],
                        [
                            "-124.70",
                            "42.17"
                        ],
                        [
                            "-124.10",
                            "41.48"
                        ],
                        [
                            "-124.06",
                            "40.65"
                        ],
                        [
                            "-124.54",
                            "40.36"
                        ],
                        [
                            "-124.11",
                            "39.88"
                        ],
                        [
                            "-123.60",
                            "38.67"
                        ],
                        [
                            "-122.40",
                            "36.95"
                        ],
                        [
                            "-121.74",
                            "35.48"
                        ],
                        [
                            "-120.93",
                            "34.02"
                        ],
                        [
                            "-120.76",
                            "33.31"
                        ],
                        [
                            "-121.27",
                            "33.01"
                        ],
                        [
                            "-122.17",
                            "33.20"
                        ],
                        [
                            "-124.42",
                            "36.18"
                        ],
                        [
                            "-125.84",
                            "38.40"
                        ],
                        [
                            "-125.56",
                            "39.52"
                        ],
                        [
                            "-125.48",
                            "40.63"
                        ],
                        [
                            "-125.48",
                            "41.46"
                        ],
                        [
                            "-125.69",
                            "43.63"
                        ],
                        [
                            "-126.37",
                            "44.73"
                        ],
                        [
                            "-127.57",
                            "47.20"
                        ],
                        [
                            "-127.17",
                            "48.25"
                        ],
                        [
                            "-125.02",
                            "48.69"
                        ]
                    ]
                ]
            },
            "properties": {
                "forecastId": null,
                "geometryId": null,
                "tag": "1E",
                "forecastHour": 6,
                "hazard": "IFR",
                "frequency": null,
                "severity": null,
                "status": "AMD",
                "base": null,
                "top": null,
                "fzlBase": null,
                "fzlTop": null,
                "level": null,
                "product": "SIERRA",
                "rawAirSigmet": "CIG BLW 010 VIS BLW 3SM BR FG",
                "validTimeTo": "2026-10-02T21:00:00.000",
                "validTimeFrom": [
                    "2026-10-02T19:58"
                ]
            }
        },
        {
            "type": "Feature",
            "geometry": {
                "type": "LineString",
                "coordinates": [
                    [
                        "-151.35",
                        "42.71"
                    ],
                    [
                        "-148.91",
                        "44.67"
                    ],
                    [
                        "-147.69",
                        "45.40"
                    ],
                    [
                        "-146.88",
                        "45.69"
                    ],
                    [
                        "-145.45",
                        "45.81"
                    ],
                    [
                        "-143.86",
                        "45.63"
                    ],
                    [
                        "-141.51",
                        "44.76"
                    ],
                    [
                        "-140.51",
                        "44.48"
                    ],
                    [
                        "-139.12",
                        "44.63"
                    ],
                    [
                        "-137.78",
                        "45.54"
                    ],
                    [
                        "-137.24",
                        "46.24"
                    ],
                    [
                        "-135.77",
                        "47.76"
                    ],
                    [
                        "-134.95",
                        "48.25"
                    ],
                    [
                        "-133.43",
                        "48.83"
                    ],
                    [
                        "-131.37",
                        "49.24"
                    ],
                    [
                        "-128.36",
                        "49.39"
                    ],
                    [
                        "-125.82",
                        "49.02"
                    ],
                    [
                        "-123.08",
                        "48.27"
                    ],
                    [
                        "-120.99",
                        "47.94"
                    ],
                    [
                        "-118.09",
                        "47.63"
                    ],
                    [
                        "-106.68",
                        "47.44"
                    ],
                    [
                        "-103.33",
                        "47.06"
                    ],
                    [
                        "-101.06",
                        "46.67"
                    ],
                    [
                        "-99.25",
                        "45.78"
                    ],
                    [
                        "-97.21",
                        "44.45"
                    ],
                    [
                        "-95.28",
                        "43.49"
                    ],
                    [
                        "-93.30",
                        "42.91"
                    ],
                    [
                        "-90.62",
                        "42.58"
                    ],
                    [
                        "-88.38",
                        "42.47"
                    ],
                    [
                        "-83.91",
                        "42.83"
                    ],
                    [
                        "-79.29",
                        "43.35"
                    ],
                    [
                        "-76.88",
                        "43.62"
                    ],
                    [
                        "-75.33",
                        "43.91"
                    ],
                    [
                        "-73.18",
                        "44.50"
                    ],
                    [
                        "-70.71",
                        "45.30"
                    ],
                    [
                        "-68.55",
                        "45.87"
                    ],
                    [
                        "-66.48",
                        "46.54"
                    ],
                    [
                        "-61.64",
                        "48.06"
                    ],
                    [
                        "-57.05",
                        "49.44"
                    ],
                    [
                        "-54.88",
                        "50.06"
                    ],
                    [
                        "-52.10",
                        "50.34"
                    ]
                ]
            },
            "properties": {
                "forecastId": null,
                "geometryId": null,
                "tag": "1C",
                "forecastHour": 6,
                "hazard": "FZLVL",
                "frequency": null,
                "severity": null,
                "status": "NRML",
                "base": null,
                "top": null,
                "fzlBase": null,
                "fzlTop": null,
                "level": "120",
                "product": "ZULU",
                "rawAirSigmet": null,
                "validTimeTo": "2026-10-02T21:00:00.000",
                "validTimeFrom": [
                    "2026-10-02T14:45"
                ]
            }
        }
    ],
    "metadata": {
        "creationTime": "2026-10-02T20:37"
    }
}