{
    "type": "FeatureCollection",
    "features": [
        {
            "type": "Feature",
            "geometry": {
                "type": "Polygon",
                "coordinates": [
                    [
                        [
                            "-123.73",
                            "44.91"
                        ],
                        [
                            "-124.15",
                            "43.61"
                        ],
                        [
                            "-124.18",
                            "42.71"
                        ],
                        [
                            "-123.93",
                            "41.61"
                        ],
                        [
                            "-124.09",
                            "40.32"
                        ],
                        [
                            "-123.58",
                            "39.15"
                        ],
                        [
                            "-122.43",
                            "37.90"
                        ],
                        [
                            "-121.63",
                            "36.77"
                        ],
                        [
                            "-121.50",
                            "36.08"
                        ],
                        [
                            "-120.64",
                            "35.14"
                        ],
                        [
                            "-120.36",
                            "34.20"
                        ],
                        [
                            "-121.16",
                            "34.22"
                        ],
                        [
                            "-123.70",
                            "37.23"
                        ],
                        [
                            "-124.38",
                            "37.08"
                        ],
                        [
                            "-125.22",
                            "37.22"
                        ],
                        [
                            "-127.15",
                            "39.96"
                        ],
                        [
                            "-126.67",
                            "43.29"
                        ],
                        [
                            "-125.84",
                            "42.72"
                        ],
                        [
                            "-124.94",
                            "43.56"
                        ],
                        [
                            "-124.46",
                            "44.83"
                        ],
                        [
                            "-123.73",
                            "44.91"
                        ]
                    ]
                ]
            },
            "properties": {
                "forecastId": null,
                "geometryId": null,
                "tag": "3E",
                "forecastHour": 0,
                "hazard": "IFR",
                "frequency": null,
                "severity": null,
                "status": "NRML",
                "base": null,
                "top": null,
                "fzlBase": null,
                "fzlTop": null,
                "level": null,
                "product": "SIERRA",
                "rawAirSigmet": "CIG BLW 010 VIS BLW 3SM BR FG",
                "validTimeTo": "2026-08-06T03:00:00.000",
                "validTimeFrom": [
                    "2026-08-06T02:45"
                ]
            }
        },
        {
            "type": "Feature",
            "geometry": {
                "type": "LineString",
                "coordinates": [
                    [
                        "-53.13",
                        "51.18"
                    ],
                    [
                        "-54.20",
                        "50.78"
                    ],
                    [
                        "-55.21",
                        "50.34"
                    ],
                    [
                        "-56.08",
                        "49.80"
                    ],
                    [
                        "-56.72",
                        "49.11"
                    ],
                    [
                        "-56.74",
                        "49.04"
                    ],
                    [
                        "-56.83",
                        "48.04"
                    ],
                    [
                        "-56.81",
                        "47.98"
                    ],
                    [
                        "-56.38",
                        "47.22"
                    ],
                    [
                        "-55.78",
                        "46.57"
                    ],
                    [
                        "-55.03",
                        "46.03"
                    ],
                    [
                        "-54.11",
                        "45.58"
                    ],
                    [
                        "-53.62",
                        "45.44"
                    ],
                    [
                        "-52.91",
                        "45.29"
                    ],
                    [
                        "-52.00",
                        "45.19"
                    ],
                    [
                        "-51.31",
                        "45.21"
                    ],
                    [
                        "-50.71",
                        "45.22"
                    ],
                    [
                        "-49.59",
                        "45.41"
                    ],
                    [
                        "-48.61",
                        "45.72"
                    ],
                    [
                        "-47.74",
                        "46.17"
                    ],
                    [
                        "-46.97",
                        "46.75"
                    ]
                ]
            },
            "properties": {
                "forecastId": null,
                "geometryId": null,
                "tag": "1C",
                "forecastHour": 0,
                "hazard": "FZLVL",
                "frequency": null,
                "severity": null,
                "status": "NRML",
                "base": null,
                "top": null,
                "fzlBase": null,
                "fzlTop": null,
                "level": "120",
                "product": "ZULU",
                "rawAirSigmet": null,
                "validTimeTo": "2026-08-06T03:00:00.000",
                "validTimeFrom": [
                    "2026-08-06T02:45"
                ]
            }
        },
        {
            "type": "Feature",
            "geometry": {
                "type": "Polygon",
                "coordinates": [
                    [
                        [
                            "-84.59",
                            "46.74"
                        ],
                        [
                            "-82.50",
                            "45.35"
                        ],
                        [
                            "-84.08",
                            "44.63"
                        ],
                        [
                            "-85.40",
                            "45.04"
                        ],
                        [
                            "-84.59",
                            "46.74"
                        ]
                    ]
                ]
            },
            "properties": {
                "forecastId": null,
                "geometryId": null,
                "tag": "1C",
                "forecastHour": 0,
                "hazard": "ICE",
                "frequency": null,
                "severity": "MOD",
                "status": "NRML",
                "base": "130",
                "top": "230",
                "fzlBase": null,
                "fzlTop": null,
                "level": null,
                "product": "ZULU",
                "rawAirSigmet": "ICE",
                "validTimeTo": "2026-08-06T03:00:00.000",
                "validTimeFrom": [
                    "2026-08-06T02:45"
                ]
            }
        },
        {
            "type": "Feature",
            "geometry": {
                "type": "LineString",
                "coordinates": [
                    [
                        "-142.99",
                        "33.31"
                    ],
                    [
                        "-141.30",
                        "33.67"
                    ],
                    [
                        "-139.85",
                        "33.17"
                    ],
                    [
                        "-138.36",
                        "32.43"
                    ],
                    [
                        "-136.82",
                        "32.16"
                    ],
                    [
                        "-135.35",
                        "32.32"
                    ],
                    [
                        "-134.21",
                        "33.31"
                    ],
                    [
                        "-133.31",
                        "34.71"
                    ],
                    [
                        "-132.16",
                        "36.72"
                    ],
                    [
                        "-131.05",
                        "38.91"
                    ],
                    [
                        "-128.89",
                        "42.61"
                    ],
                    [
                        "-127.22",
                        "44.79"
                    ],
                    [
                        "-125.84",
                        "45.91"
                    ],
                    [
                        "-124.59",
                        "46.55"
                    ],
                    [
                        "-122.62",
                        "47.20"
                    ],
                    [
                        "-120.44",
                        "47.45"
                    ],
                    [
                        "-119.17",
                        "47.21"
                    ],
                    [
                        "-117.85",
                        "46.76"
                    ],
                    [
                        "-115.17",
                        "45.61"
                    ],
                    [
                        "-113.18",
                        "44.57"
                    ],
                    [
                        "-111.71",
                        "44.02"
                    ],
                    [
                        "-109.27",
                        "43.24"
                    ],
                    [
                        "-106.93",
                        "41.96"
                    ],
                    [
                        "-105.74",
                        "41.46"
                    ],
                    [
                        "-104.16",
                        "41.14"
                    ],
                    [
                        "-99.77",
                        "40.57"
                    ],
                    [
                        "-95.80",
                        "37.85"
                    ],
                    [
                        "-93.98",
                        "36.65"
                    ],
                    [
                        "-91.73",
                        "36.21"
                    ],
                    [
                        "-90.53",
                        "36.09"
                    ],
                    [
                        "-89.06",
                        "36.00"
                    ],
                    [
                        "-87.23",
                        "35.71"
                    ],
                    [
                        "-86.24",
                        "34.10"
                    ],
                    [
                        "-85.53",
                        "33.63"
                    ],
                    [
                        "-84.72",
                        "33.43"
                    ],
                    [
                        "-82.99",
                        "33.15"
                    ],
                    [
                        "-82.28",
                        "32.56"
                    ],
                    [
                        "-82.22",
                        "31.78"
                    ],
                    [
                        "-82.91",
                        "30.41"
                    ],
                    [
                        "-84.74",
                        "28.98"
                    ],
                    [
                        "-86.11",
                        "27.48"
                    ],
                    [
                        "-86.59",
                        "26.67"
                    ],
                    [
                        "-87.65",
                        "25.76"
                    ],
                    [
                        "-89.40",
                        "24.87"
                    ],
                    [
                        "-91.12",
                        "23.63"
                    ],
                    [
                        "-92.70",
                        "23.14"
                    ],
                    [
                        "-93.85",
                        "23.00"
                    ],
                    [
                        "-95.30",
                        "23.48"
                    ],
                    [
                        "-96.36",
                        "25.14"
                    ],
                    [
                        "-97.03",
                        "25.60"
                    ],
                    [
                        "-97.74",
                        "25.24"
                    ],
                    [
                        "-97.78",
                        "24.89"
                    ],
                    [
                        "-97.09",
                        "23.32"
                    ],
                    [
                        "-96.94",
                        "22.12"
                    ],
                    [
                        "-97.16",
                        "20.77"
                    ],
                    [
                        "-97.86",
                        "19.72"
                    ],
                    [
                        "-99.11",
                        "19.46"
                    ],
                    [
                        "-100.59",
                        "19.39"
                    ],
                    [
                        "-101.60",
                        "19.69"
                    ],
                    [
                        "-102.56",
                        "19.58"
                    ],
                    [
                        "-104.11",
                        "18.65"
                    ],
                    [
                        "-104.50",
                        "18.11"
                    ],
                    [
                        "-104.37",
                        "17.38"
                    ],
                    [
                        "-103.90",
                        "16.67"
                    ]
                ]
            },
            "properties": {
                "forecastId": null,
                "geometryId": null,
                "tag": "1C",
                "forecastHour": 0,
                "hazard": "FZLVL",
                "frequency": null,
                "severity": null,
                "status": "NRML",
                "base": null,
                "top": null,
                "fzlBase": null,
                "fzlTop": null,
                "level": "160",
                "product": "ZULU",
                "rawAirSigmet": null,
                "validTimeTo": "2026-08-06T03:00:00.000",
                "validTimeFrom": [
                    "2026-08-06T02:45"
                ]
            }
        },
        {
            "type": "Feature",
            "geometry": {
                "type": "Polygon",
                "coordinates": [
                    [
                        [
                            "-87.16",
                            "47.57"
                        ],
                        [
                            "-82.30",
                            "45.54"
                        ],
                        [
                            "-83.49",
                            "44.18"
                        ],
                        [
                            "-86.08",
                            "41.92"
                        ],
                        [
                            "-87.18",
                            "41.62"
                        ],
                        [
                            "-88.56",
                            "41.61"
                        ],
                        [
                            "-90.29",
                            "41.96"
                        ],
                        [
                            "-91.11",
                            "42.99"
                        ],
                        [
                            "-89.29",
                            "45.48"
                        ],
                        [
                            "-87.16",
                            "47.57"
                        ]
                    ]
                ]
            },
            "properties": {
                "forecastId": null,
                "geometryId": null,
                "tag": "1W",
                "forecastHour": 0,
                "hazard": "TURB-HI",
                "frequency": null,
                "severity": "MOD",
                "status": "NRML",
                "base": "240",
                "top": "420",
                "fzlBase": null,
                "fzlTop": null,
                "level": null,
                "product": "TANGO",
                "rawAirSigmet": null,
                "validTimeTo": "2026-08-06T03:00:00.000",
                "validTimeFrom": [
                    "2026-08-06T02:45"
                ]
            }
        },
        {
            "type": "Feature",
            "geometry": {
                "type": "LineString",
                "coordinates": [
                    [
                        "-80.75",
                        "59.83"
                    ],
                    [
                        "-80.10",
                        "59.41"
                    ],
                    [
                        "-79.64",
                        "59.11"
                    ],
                    [
                        "-78.56",
                        "58.41"
                    ],
                    [
                        "-77.72",
                        "57.90"
                    ],
                    [
                        "-77.50",
                        "57.73"
                    ],
                    [
                        "-76.66",
                        "57.60"
                    ],
                    [
                        "-75.89",
                        "57.62"
                    ],
                    [
                        "-75.17",
                        "58.08"
                    ],
                    [
                        "-74.48",
                        "58.81"
                    ],
                    [
                        "-74.39",
                        "58.99"
                    ]
                ]
            },
            "properties": {
                "forecastId": null,
                "geometryId": null,
                "tag": "1C",
                "forecastHour": 0,
                "hazard": "FZLVL",
                "frequency": null,
                "severity": null,
                "status": "NRML",
                "base": null,
                "top": null,
                "fzlBase": null,
                "fzlTop": null,
                "level": "080",
                "product": "ZULU",
                "rawAirSigmet": null,
                "validTimeTo": "2026-08-06T03:00:00.000",
                "validTimeFrom": [
                    "2026-08-06T02:45"
                ]
            }
        },
        {
            "type": "Feature",
            "geometry": {
                "type": "Polygon",
                "coordinates": [
                    [
                        [
                            "-109.25",
                            "39.35"
                        ],
                        [
                            "-108.81",
                            "38.98"
                        ],
                        [
                            "-109.19",
                            "38.19"
                        ],
                        [
                            "-110.18",
                            "37.94"
                        ],
                        [
                            "-111.53",
                            "37.68"
                        ],
                        [
                            "-112.51",
                            "37.94"
                        ],
                        [
                            "-112.87",
                            "38.71"
                        ],
                        [
                            "-112.27",
                            "39.11"
                        ],
                        [
                            "-109.25",
                            "39.35"
                        ]
                    ]
                ]
            },
            "properties": {
                "forecastId": null,
                "geometryId": null,
                "tag": "6E",
                "forecastHour": 0,
                "hazard": "MT_OBSC",
                "frequency": null,
                "severity": null,
                "status": "NRML",
                "base": null,
                "top": null,
                "fzlBase": null,
                "fzlTop": null,
                "level": null,
                "product": "SIERRA",
                "rawAirSigmet": "FU HZ",
                "validTimeTo": "2026-08-06T03:00:00.000",
                "validTimeFrom": [
                    "2026-08-06T02:45"
                ]
            }
        },
        {
            "type": "Feature",
            "geometry": {
                "type": "LineString",
                "coordinates": [
                    [
                        "-151.32",
                        "41.77"
                    ],
                    [
                        "-148.91",
                        "40.51"
                    ],
                    [
                        "-147.35",
                        "39.65"
                    ],
                    [
                        "-146.00",
                        "39.37"
                    ],
                    [
                        "-144.91",
                        "39.40"
                    ],
                    [
                        "-143.35",
                        "39.46"
                    ],
                    [
                        "-141.82",
                        "39.70"
                    ],
                    [
                        "-140.69",
                        "40.17"
                    ],
                    [
                        "-139.43",
                        "41.66"
                    ],
                    [
                        "-138.66",
                        "43.09"
                    ],
                    [
                        "-137.71",
                        "44.76"
                    ],
                    [
                        "-137.02",
                        "46.34"
                    ],
                    [
                        "-136.60",
                        "47.78"
                    ],
                    [
                        "-136.72",
                        "49.37"
                    ],
                    [
                        "-137.54",
                        "51.56"
                    ],
                    [
                        "-137.48",
                        "53.06"
                    ]
                ]
            },
            "properties": {
                "forecastId": null,
                "geometryId": null,
                "tag": "1C",
                "forecastHour": 0,
                "hazard": "FZLVL",
                "frequency": null,
                "severity": null,
                "status": "NRML",
                "base": null,
                "top": null,
                "fzlBase": null,
                "fzlTop": null,
                "level": "120",
                "product": "ZULU",
                "rawAirSigmet": null,
                "validTimeTo": "2026-08-06T03:00:00.000",
                "validTimeFrom": [
                    "2026-08-06T02:45"
                ]
            }
        },
        {
            "type": "Feature",
            "geometry": {
                "type": "Polygon",
                "coordinates": [
                    [
                        [
                            "-119.76",
                            "46.01"
                        ],
                        [
                            "-117.86",
                            "45.68"
                        ],
                        [
                            "-117.76",
                            "44.66"
                        ],
                        [
                            "-119.26",
                            "44.42"
                        ],
                        [
                            "-120.96",
                            "44.31"
                        ],
                        [
                            "-120.96",
                            "44.50"
                        ],
                        [
                            "-121.56",
                            "44.87"
                        ],
                        [
                            "-121.37",
                            "45.34"
                        ],
                        [
                            "-122.61",
                            "45.13"
                        ],
                        [
                            "-123.10",
                            "43.97"
                        ],
                        [
                            "-123.83",
                            "43.77"
                        ],
                        [
                            "-123.75",
                            "44.30"
                        ],
                        [
                            "-123.50",
                            "45.07"
                        ],
                        [
                            "-123.27",
                            "45.65"
                        ],
                        [
                            "-121.86",
                            "45.78"
                        ],
                        [
                            "-119.76",
                            "46.01"
                        ]
                    ]
                ]
            },
            "properties": {
                "forecastId": null,
                "geometryId": null,
                "tag": "6E",
                "forecastHour": 0,
                "hazard": "IFR",
                "frequency": null,
                "severity": null,
                "status": "NRML",
                "base": null,
                "top": null,
                "fzlBase": null,
                "fzlTop": null,
                "level": null,
                "product": "SIERRA",
                "rawAirSigmet": "VIS BLW 3SM HZ FU",
                "validTimeTo": "2026-08-06T03:00:00.000",
                "validTimeFrom": [
                    "2026-08-06T02:45"
                ]
            }
        },
        {
            "type": "Feature",
            "geometry": {
                "type": "Polygon",
                "coordinates": [
                    [
                        [
                            "-68.35",
                            "47.39"
                        ],
                        [
                            "-67.24",
                            "46.25"
                        ],
                        [
                            "-66.41",
                            "45.07"
                        ],
                        [
                            "-64.51",
                            "43.55"
                        ],
                        [
                            "-62.70",
                            "42.47"
                        ],
                        [
                            "-61.98",
                            "41.87"
                        ],
                        [
                            "-61.65",
                            "41.28"
                        ],
                        [
                            "-63.48",
                            "39.27"
                        ],
                        [
                            "-60.34",
                            "35.42"
                        ],
                        [
                            "-59.11",
                            "34.18"
                        ],
                        [
                            "-58.65",
                            "33.45"
                        ],
                        [
                            "-58.38",
                            "32.36"
                        ],
                        [
                            "-58.56",
                            "31.56"
                        ],
                        [
                            "-59.11",
                            "31.03"
                        ],
                        [
                            "-59.96",
                            "30.78"
                        ],
                        [
                            "-61.04",
                            "30.69"
                        ],
                        [
                            "-62.87",
                            "30.52"
                        ],
                        [
                            "-64.19",
                            "30.55"
                        ],
                        [
                            "-65.48",
                            "30.77"
                        ],
                        [
                            "-67.38",
                            "31.81"
                        ],
                        [
                            "-69.06",
                            "32.50"
                        ],
                        [
                            "-70.06",
                            "32.78"
                        ],
                        [
                            "-72.18",
                            "33.06"
                        ],
                        [
                            "-77.49",
                            "33.45"
                        ],
                        [
                            "-78.55",
                            "33.76"
                        ],
                        [
                            "-79.46",
                            "34.32"
                        ],
                        [
                            "-79.89",
                            "35.27"
                        ],
                        [
                            "-79.39",
                            "36.53"
                        ],
                        [
                            "-78.38",
                            "37.95"
                        ],
                        [
                            "-77.71",
                            "39.17"
                        ],
                        [
                            "-76.62",
                            "41.02"
                        ],
                        [
                            "-74.60",
                            "43.84"
                        ],
                        [
                            "-72.39",
                            "46.08"
                        ],
                        [
                            "-71.56",
                            "46.63"
                        ],
                        [
                            "-69.83",
                            "47.41"
                        ],
                        [
                            "-68.35",
                            "47.39"
                        ]
                    ]
                ]
            },
            "properties": {
                "forecastId": null,
                "geometryId": null,
                "tag": "1C",
                "forecastHour": 0,
                "hazard": "FZLVL",
                "frequency": null,
                "severity": null,
                "status": "NRML",
                "base": null,
                "top": null,
                "fzlBase": null,
                "fzlTop": null,
                "level": "160",
                "product": "ZULU",
                "rawAirSigmet": null,
                "validTimeTo": "2026-08-06T03:00:00.000",
                "validTimeFrom": [
                    "2026-08-06T02:45"
                ]
            }
        },
        {
            "type": "Feature",
            "geometry": {
                "type": "Polygon",
                "coordinates": [
                    [
                        [
                            "-96.90",
                            "49.04"
                        ],
                        [
                            "-94.71",
                            "48.99"
                        ],
                        [
                            "-93.66",
                            "48.77"
                        ],
                        [
                            "-95.17",
                            "47.19"
                        ],
                        [
                            "-96.71",
                            "47.11"
                        ],
                        [
                            "-96.90",
                            "49.04"
                        ]
                    ]
                ]
            },
            "properties": {
                "forecastId": null,
                "geometryId": null,
                "tag": "3C",
                "forecastHour": 0,
                "hazard": "ICE",
                "frequency": null,
                "severity": "MOD",
                "status": "NRML",
                "base": "130",
                "top": "210",
                "fzlBase": null,
                "fzlTop": null,
                "level": null,
                "product": "ZULU",
                "rawAirSigmet": "ICE",
                "validTimeTo": "2026-08-06T03:00:00.000",
                "validTimeFrom": [
                    "2026-08-06T02:45"
                ]
            }
        },
        {
            "type": "Feature",
            "geometry": {
                "type": "LineString",
                "coordinates": [
                    [
                        "-126.87",
                        "13.45"
                    ],
                    [
                        "-123.23",
                        "14.90"
                    ],
                    [
                        "-120.38",
                        "15.24"
                    ],
                    [
                        "-119.89",
                        "15.37"
                    ],
                    [
                        "-118.80",
                        "16.21"
                    ],
                    [
                        "-118.16",
                        "17.32"
                    ],
                    [
                        "-117.44",
                        "18.05"
                    ],
                    [
                        "-115.79",
                        "18.41"
                    ],
                    [
                        "-114.03",
                        "18.29"
                    ],
                    [
                        "-113.24",
                        "18.41"
                    ],
                    [
                        "-112.63",
                        "19.07"
                    ],
                    [
                        "-112.88",
                        "20.20"
                    ],
                    [
                        "-114.28",
                        "21.08"
                    ],
                    [
                        "-115.04",
                        "21.70"
                    ],
                    [
                        "-116.34",
                        "22.08"
                    ],
                    [
                        "-116.88",
                        "21.62"
                    ],
                    [
                        "-117.40",
                        "20.55"
                    ],
                    [
                        "-118.16",
                        "19.63"
                    ],
                    [
                        "-119.62",
                        "19.18"
                    ],
                    [
                        "-120.31",
                        "19.36"
                    ],
                    [
                        "-120.65",
                        "19.78"
                    ],
                    [
                        "-120.62",
                        "21.13"
                    ],
                    [
                        "-119.91",
                        "22.05"
                    ],
                    [
                        "-118.63",
                        "22.82"
                    ],
                    [
                        "-118.08",
                        "23.57"
                    ],
                    [
                        "-118.48",
                        "24.78"
                    ],
                    [
                        "-118.92",
                        "26.37"
                    ],
                    [
                        "-118.99",
                        "27.27"
                    ],
                    [
                        "-118.67",
                        "28.63"
                    ],
                    [
                        "-117.61",
                        "30.02"
                    ],
                    [
                        "-117.38",
                        "30.49"
                    ],
                    [
                        "-117.65",
                        "31.09"
                    ],
                    [
                        "-118.78",
                        "31.41"
                    ],
                    [
                        "-120.60",
                        "31.60"
                    ],
                    [
                        "-121.68",
                        "31.53"
                    ],
                    [
                        "-122.73",
                        "31.15"
                    ],
                    [
                        "-124.88",
                        "30.40"
                    ],
                    [
                        "-127.52",
                        "28.15"
                    ],
                    [
                        "-129.42",
                        "26.50"
                    ],
                    [
                        "-130.29",
                        "25.41"
                    ],
                    [
                        "-131.08",
                        "23.94"
                    ],
                    [
                        "-130.93",
                        "21.97"
                    ],
                    [
                        "-130.38",
                        "20.37"
                    ],
                    [
                        "-130.12",
                        "19.07"
                    ]
                ]
            },
            "properties": {
                "forecastId": null,
                "geometryId": null,
                "tag": "1C",
                "forecastHour": 0,
                "hazard": "FZLVL",
                "frequency": null,
                "severity": null,
                "status": "NRML",
                "base": null,
                "top": null,
                "fzlBase": null,
                "fzlTop": null,
                "level": "160",
                "product": "ZULU",
                "rawAirSigmet": null,
                "validTimeTo": "2026-08-06T03:00:00.000",
                "validTimeFrom": [
                    "2026-08-06T02:45"
                ]
            }
        },
        {
            "type": "Feature",
            "geometry": {
                "type": "LineString",
                "coordinates": [
                    [
                        "-79.93",
                        "14.73"
                    ],
                    [
                        "-79.73",
                        "15.24"
                    ],
                    [
                        "-79.17",
                        "16.85"
                    ],
                    [
                        "-78.79",
                        "17.42"
                    ],
                    [
                        "-77.89",
                        "18.14"
                    ],
                    [
                        "-76.19",
                        "18.44"
                    ],
                    [
                        "-74.50",
                        "17.67"
                    ],
                    [
                        "-73.56",
                        "17.74"
                    ],
                    [
                        "-72.74",
                        "18.33"
                    ],
                    [
                        "-71.41",
                        "19.94"
                    ],
                    [
                        "-70.94",
                        "21.78"
                    ],
                    [
                        "-70.18",
                        "22.77"
                    ],
                    [
                        "-68.39",
                        "23.08"
                    ],
                    [
                        "-66.58",
                        "23.38"
                    ],
                    [
                        "-64.39",
                        "23.26"
                    ],
                    [
                        "-62.83",
                        "23.63"
                    ],
                    [
                        "-60.58",
                        "25.10"
                    ],
                    [
                        "-58.89",
                        "25.33"
                    ]
                ]
            },
            "properties": {
                "forecastId": null,
                "geometryId": null,
                "tag": "1C",
                "forecastHour": 0,
                "hazard": "FZLVL",
                "frequency": null,
                "severity": null,
                "status": "NRML",
                "base": null,
                "top": null,
                "fzlBase": null,
                "fzlTop": null,
                "level": "160",
                "product": "ZULU",
                "rawAirSigmet": null,
                "validTimeTo": "2026-08-06T03:00:00.000",
                "validTimeFrom": [
                    "2026-08-06T02:45"
                ]
            }
        },
        {
            "type": "Feature",
            "geometry": {
                "type": "LineString",
                "coordinates": [
                    [
                        "-93.78",
                        "17.34"
                    ],
                    [
                        "-93.67",
                        "17.90"
                    ],
                    [
                        "-93.11",
                        "18.37"
                    ],
                    [
                        "-93.09",
                        "18.38"
                    ],
                    [
                        "-92.48",
                        "18.34"
                    ],
                    [
                        "-92.14",
                        "18.17"
                    ],
                    [
                        "-91.93",
                        "18.04"
                    ],
                    [
                        "-91.55",
                        "17.45"
                    ],
                    [
                        "-91.51",
                        "17.28"
                    ],
                    [
                        "-91.47",
                        "16.85"
                    ]
                ]
            },
            "properties": {
                "forecastId": null,
                "geometryId": null,
                "tag": "1C",
                "forecastHour": 0,
                "hazard": "FZLVL",
                "frequency": null,
                "severity": null,
                "status": "NRML",
                "base": null,
                "top": null,
                "fzlBase": null,
                "fzlTop": null,
                "level": "160",
                "product": "ZULU",
                "rawAirSigmet": null,
                "validTimeTo": "2026-08-06T03:00:00.000",
                "validTimeFrom": [
                    "2026-08-06T02:45"
                ]
            }
        },
        {
            "type": "Feature",
            "geometry": {
                "type": "Polygon",
                "coordinates": [
                    [
                        [
                            "-116.06",
                            "49.08"
                        ],
                        [
                            "-116.40",
                            "47.92"
                        ],
                        [
                            "-116.83",
                            "47.78"
                        ],
                        [
                            "-118.73",
                            "47.51"
                        ],
                        [
                            "-120.50",
                            "46.88"
                        ],
                        [
                            "-121.01",
                            "47.16"
                        ],
                        [
                            "-120.67",
                            "48.00"
                        ],
                        [
                            "-120.33",
                            "48.94"
                        ],
                        [
                            "-117.71",
                            "48.95"
                        ],
                        [
                            "-116.06",
                            "49.08"
                        ]
                    ]
                ]
            },
            "properties": {
                "forecastId": null,
                "geometryId": null,
                "tag": "7E",
                "forecastHour": 0,
                "hazard": "IFR",
                "frequency": null,
                "severity": null,
                "status": "NRML",
                "base": null,
                "top": null,
                "fzlBase": null,
                "fzlTop": null,
                "level": null,
                "product": "SIERRA",
                "rawAirSigmet": "VIS BLW 3SM HZ FU",
                "validTimeTo": "2026-08-06T03:00:00.000",
                "validTimeFrom": [
                    "2026-08-06T02:45"
                ]
            }
        },
        {
            "type": "Feature",
            "geometry": {
                "type": "Polygon",
                "coordinates": [
                    [
                        [
                            "-93.44",
                            "42.01"
                        ],
                        [
                            "-91.61",
                            "41.06"
                        ],
                        [
                            "-91.48",
                            "39.99"
                        ],
                        [
                            "-93.61",
                            "39.26"
                        ],
                        [
                            "-96.67",
                            "38.91"
                        ],
                        [
                            "-97.05",
                            "39.73"
                        ],
                        [
                            "-96.30",
                            "40.85"
                        ],
                        [
                            "-93.44",
                            "42.01"
                        ]
                    ]
                ]
            },
            "properties": {
                "forecastId": null,
                "geometryId": null,
                "tag": "4E",
                "forecastHour": 0,
                "hazard": "IFR",
                "frequency": null,
                "severity": null,
                "status": "NRML",
                "base": null,
                "top": null,
                "fzlBase": null,
                "fzlTop": null,
                "level": null,
                "product": "SIERRA",
                "rawAirSigmet": "CIG BLW 010 VIS BLW 3SM PCPN BR",
                "validTimeTo": "2026-08-06T03:00:00.000",
                "validTimeFrom": [
                    "2026-08-06T02:45"
                ]
            }
        },
        {
            "type": "Feature",
            "geometry": {
                "type": "LineString",
                "coordinates": [
                    [
                        "-117.75",
                        "58.95"
                    ],
                    [
                        "-116.72",
                        "58.52"
                    ],
                    [
                        "-115.83",
                        "58.33"
                    ],
                    [
                        "-115.04",
                        "58.22"
                    ],
                    [
                        "-113.49",
                        "58.25"
                    ],
                    [
                        "-111.99",
                        "58.48"
                    ],
                    [
                        "-111.33",
                        "58.68"
                    ],
                    [
                        "-111.34",
                        "59.50"
                    ],
                    [
                        "-112.42",
                        "60.25"
                    ],
                    [
                        "-112.43",
                        "60.26"
                    ]
                ]
            },
            "properties": {
                "forecastId": null,
                "geometryId": null,
                "tag": "1C",
                "forecastHour": 0,
                "hazard": "FZLVL",
                "frequency": null,
                "severity": null,
                "status": "NRML",
                "base": null,
                "top": null,
                "fzlBase": null,
                "fzlTop": null,
                "level": "080",
                "product": "ZULU",
                "rawAirSigmet": null,
                "validTimeTo": "2026-08-06T03:00:00.000",
                "validTimeFrom": [
                    "2026-08-06T02:45"
                ]
            }
        },
        {
            "type": "Feature",
            "geometry": {
                "type": "LineString",
                "coordinates": [
                    [
                        "-125.64",
                        "57.70"
                    ],
                    [
                        "-120.21",
                        "55.30"
                    ],
                    [
                        "-115.61",
                        "53.47"
                    ],
                    [
                        "-113.11",
                        "52.57"
                    ],
                    [
                        "-110.65",
                        "51.56"
                    ],
                    [
                        "-108.87",
                        "50.68"
                    ],
                    [
                        "-106.80",
                        "49.88"
                    ],
                    [
                        "-104.10",
                        "49.30"
                    ],
                    [
                        "-101.86",
                        "48.54"
                    ],
                    [
                        "-98.00",
                        "46.03"
                    ],
                    [
                        "-97.20",
                        "45.70"
                    ],
                    [
                        "-95.59",
                        "45.46"
                    ],
                    [
                        "-93.64",
                        "45.73"
                    ],
                    [
                        "-91.02",
                        "46.48"
                    ],
                    [
                        "-88.71",
                        "46.93"
                    ],
                    [
                        "-86.19",
                        "47.21"
                    ],
                    [
                        "-84.66",
                        "47.72"
                    ],
                    [
                        "-82.27",
                        "48.95"
                    ],
                    [
                        "-80.30",
                        "49.85"
                    ],
                    [
                        "-75.72",
                        "51.86"
                    ],
                    [
                        "-73.12",
                        "52.96"
                    ],
                    [
                        "-70.92",
                        "53.77"
                    ],
                    [
                        "-69.41",
                        "54.55"
                    ],
                    [
                        "-68.33",
                        "55.35"
                    ],
                    [
                        "-66.82",
                        "57.00"
                    ]
                ]
            },
            "properties": {
                "forecastId": null,
                "geometryId": null,
                "tag": "1C",
                "forecastHour": 0,
                "hazard": "FZLVL",
                "frequency": null,
                "severity": null,
                "status": "NRML",
                "base": null,
                "top": null,
                "fzlBase": null,
                "fzlTop": null,
                "level": "120",
                "product": "ZULU",
                "rawAirSigmet": null,
                "validTimeTo": "2026-08-06T03:00:00.000",
                "validTimeFrom": [
                    "2026-08-06T02:45"
                ]
            }
        },
        {
            "type": "Feature",
            "geometry": {
                "type": "Polygon",
                "coordinates": [
                    [
                        [
                            "-115.36",
                            "49.03"
                        ],
                        [
                            "-114.17",
                            "49.01"
                        ],
                        [
                            "-113.53",
                            "48.94"
                        ],
                        [
                            "-113.71",
                            "47.68"
                        ],
                        [
                            "-111.88",
                            "46.88"
                        ],
                        [
                            "-110.73",
                            "46.59"
                        ],
                        [
                            "-109.22",
                            "46.12"
                        ],
                        [
                            "-107.25",
                            "45.12"
                        ],
                        [
                            "-106.83",
                            "44.67"
                        ],
                        [
                            "-105.87",
                            "42.94"
                        ],
                        [
                            "-105.53",
                            "42.30"
                        ],
                        [
                            "-107.09",
                            "41.86"
                        ],
                        [
                            "-107.64",
                            "41.26"
                        ],
                        [
                            "-109.36",
                            "41.12"
                        ],
                        [
                            "-112.24",
                            "41.66"
                        ],
                        [
                            "-113.70",
                            "41.94"
                        ],
                        [
                            "-116.67",
                            "41.39"
                        ],
                        [
                            "-118.21",
                            "42.90"
                        ],
                        [
                            "-119.26",
                            "43.48"
                        ],
                        [
                            "-120.32",
                            "43.80"
                        ],
                        [
                            "-121.48",
                            "42.75"
                        ],
                        [
                            "-122.74",
                            "41.94"
                        ],
                        [
                            "-123.95",
                            "42.18"
                        ],
                        [
                            "-124.36",
                            "42.64"
                        ],
                        [
                            "-124.09",
                            "46.11"
                        ],
                        [
                            "-123.33",
                            "46.58"
                        ],
                        [
                            "-122.86",
                            "47.43"
                        ],
                        [
                            "-122.33",
                            "48.89"
                        ],
                        [
                            "-116.15",
                            "49.03"
                        ],
                        [
                            "-115.36",
                            "49.03"
                        ]
                    ]
                ]
            },
            "properties": {
                "forecastId": null,
                "geometryId": null,
                "tag": "1E",
                "forecastHour": 0,
                "hazard": "MT_OBSC",
                "frequency": null,
                "severity": null,
                "status": "NRML",
                "base": null,
                "top": null,
                "fzlBase": null,
                "fzlTop": null,
                "level": null,
                "product": "SIERRA",
                "rawAirSigmet": "FU HZ",
                "validTimeTo": "2026-08-06T03:00:00.000",
                "validTimeFrom": [
                    "2026-08-06T02:45"
                ]
            }
        },
        {
            "type": "Feature",
            "geometry": {
                "type": "Polygon",
                "coordinates": [
                    [
                        [
                            "-69.91",
                            "41.90"
                        ],
                        [
                            "-68.07",
                            "41.46"
                        ],
                        [
                            "-67.57",
                            "41.06"
                        ],
                        [
                            "-67.92",
                            "40.58"
                        ],
                        [
                            "-69.35",
                            "40.56"
                        ],
                        [
                            "-70.92",
                            "40.40"
                        ],
                        [
                            "-72.37",
                            "40.18"
                        ],
                        [
                            "-74.06",
                            "39.92"
                        ],
                        [
                            "-74.98",
                            "40.00"
                        ],
                        [
                            "-76.92",
                            "39.72"
                        ],
                        [
                            "-77.28",
                            "40.30"
                        ],
                        [
                            "-76.76",
                            "40.76"
                        ],
                        [
                            "-75.62",
                            "41.30"
                        ],
                        [
                            "-73.00",
                            "41.53"
                        ],
                        [
                            "-71.20",
                            "41.70"
                        ],
                        [
                            "-69.91",
                            "41.90"
                        ]
                    ]
                ]
            },
            "properties": {
                "forecastId": null,
                "geometryId": null,
                "tag": "1E",
                "forecastHour": 0,
                "hazard": "IFR",
                "frequency": null,
                "severity": null,
                "status": "NRML",
                "base": null,
                "top": null,
                "fzlBase": null,
                "fzlTop": null,
                "level": null,
                "product": "SIERRA",
                "rawAirSigmet": "CIG BLW 010 VIS BLW 3SM PCPN BR",
                "validTimeTo": "2026-08-06T03:00:00.000",
                "validTimeFrom": [
                    "2026-08-06T02:45"
                ]
            }
        },
        {
            "type": "Feature",
            "geometry": {
                "type": "Polygon",
                "coordinates": [
                    [
                        [
                            "-77.96",
                            "42.51"
                        ],
                        [
                            "-76.11",
                            "42.30"
                        ],
                        [
                            "-74.38",
                            "42.19"
                        ],
                        [
                            "-76.97",
                            "40.23"
                        ],
                        [
                            "-81.03",
                            "34.91"
                        ],
                        [
                            "-82.42",
                            "34.44"
                        ],
                        [
                            "-82.80",
                            "35.27"
                        ],
                        [
                            "-84.07",
                            "37.29"
                        ],
                        [
                            "-81.89",
                            "39.04"
                        ],
                        [
                            "-80.17",
                            "40.90"
                        ],
                        [
                            "-79.08",
                            "41.83"
                        ],
                        [
                            "-77.96",
                            "42.51"
                        ]
                    ]
                ]
            },
            "properties": {
                "forecastId": null,
                "geometryId": null,
                "tag": "3E",
                "forecastHour": 0,
                "hazard": "MT_OBSC",
                "frequency": null,
                "severity": null,
                "status": "NRML",
                "base": null,
                "top": null,
                "fzlBase": null,
                "fzlTop": null,
                "level": null,
                "product": "SIERRA",
                "rawAirSigmet": "MTNS OBSC BY CLDS PCPN BR",
                "validTimeTo": "2026-08-06T03:00:00.000",
                "validTimeFrom": [
                    "2026-08-06T02:45"
                ]
            }
        },
        {
            "type": "Feature",
            "geometry": {
                "type": "Polygon",
                "coordinates": [
                    [
                        [
                            "-119.99",
                            "39.29"
                        ],
                        [
                            "-119.40",
                            "38.97"
                        ],
                        [
                            "-119.38",
                            "38.39"
                        ],
                        [
                            "-119.85",
                            "37.83"
                        ],
                        [
                            "-119.96",
                            "37.50"
                        ],
                        [
                            "-120.39",
                            "37.55"
                        ],
                        [
                            "-120.86",
                            "37.96"
                        ],
                        [
                            "-120.54",
                            "38.78"
                        ],
                        [
                            "-119.99",
                            "39.29"
                        ]
                    ]
                ]
            },
            "properties": {
                "forecastId": null,
                "geometryId": null,
                "tag": "2E",
                "forecastHour": 0,
                "hazard": "MT_OBSC",
                "frequency": null,
                "severity": null,
                "status": "NRML",
                "base": null,
                "top": null,
                "fzlBase": null,
                "fzlTop": null,
                "level": null,
                "product": "SIERRA",
                "rawAirSigmet": "FU HZ",
                "validTimeTo": "2026-08-06T03:00:00.000",
                "validTimeFrom": [
                    "2026-08-06T02:45"
                ]
            }
        }
    ],
    "metadata": {
        "creationTime": "2026-08-06T03:29"
    }
}