{
    "type": "FeatureCollection",
    "features": [
        {
            "type": "Feature",
            "geometry": {
                "type": "LineString",
                "coordinates": [
                    [
                        "-135.21",
                        "44.90"
                    ],
                    [
                        "-133.47",
                        "45.40"
                    ],
                    [
                        "-131.81",
                        "45.61"
                    ],
                    [
                        "-130.45",
                        "46.06"
                    ],
                    [
                        "-129.42",
                        "46.91"
                    ],
                    [
                        "-127.48",
                        "47.97"
                    ],
                    [
                        "-126.46",
                        "49.11"
                    ],
                    [
                        "-125.85",
                        "49.75"
                    ],
                    [
                        "-125.06",
                        "50.13"
                    ],
                    [
                        "-122.31",
                        "51.10"
                    ],
                    [
                        "-120.77",
                        "51.60"
                    ],
                    [
                        "-119.14",
                        "51.70"
                    ],
                    [
                        "-117.30",
                        "52.42"
                    ],
                    [
                        "-116.23",
                        "52.80"
                    ],
                    [
                        "-114.80",
                        "53.00"
                    ],
                    [
                        "-111.42",
                        "52.85"
                    ],
                    [
                        "-106.71",
                        "52.14"
                    ],
                    [
                        "-105.57",
                        "52.25"
                    ],
                    [
                        "-104.90",
                        "52.82"
                    ],
                    [
                        "-105.23",
                        "53.68"
                    ],
                    [
                        "-105.22",
                        "54.16"
                    ],
                    [
                        "-104.69",
                        "54.32"
                    ],
                    [
                        "-98.43",
                        "54.80"
                    ],
                    [
                        "-95.71",
                        "55.29"
                    ],
                    [
                        "-93.35",
                        "55.95"
                    ],
                    [
                        "-91.03",
                        "56.83"
                    ],
                    [
                        "-88.85",
                        "57.40"
                    ],
                    [
                        "-87.28",
                        "57.56"
                    ],
                    [
                        "-86.17",
                        "57.14"
                    ],
                    [
                        "-85.27",
                        "56.53"
                    ],
                    [
                        "-84.57",
                        "55.78"
                    ],
                    [
                        "-84.13",
                        "55.07"
                    ],
                    [
                        "-83.31",
                        "54.68"
                    ],
                    [
                        "-80.65",
                        "54.20"
                    ],
                    [
                        "-77.19",
                        "51.89"
                    ],
                    [
                        "-75.28",
                        "51.85"
                    ],
                    [
                        "-74.03",
                        "52.03"
                    ],
                    [
                        "-73.06",
                        "52.11"
                    ],
                    [
                        "-71.81",
                        "51.93"
                    ],
                    [
                        "-71.18",
                        "51.21"
                    ],
                    [
                        "-71.43",
                        "50.31"
                    ],
                    [
                        "-73.02",
                        "48.72"
                    ],
                    [
                        "-73.80",
                        "48.06"
                    ],
                    [
                        "-74.15",
                        "47.18"
                    ],
                    [
                        "-74.34",
                        "46.27"
                    ],
                    [
                        "-74.19",
                        "45.56"
                    ],
                    [
                        "-73.42",
                        "45.33"
                    ],
                    [
                        "-72.18",
                        "45.49"
                    ],
                    [
                        "-70.83",
                        "45.47"
                    ],
                    [
                        "-69.50",
                        "45.74"
                    ],
                    [
                        "-68.42",
                        "46.33"
                    ],
                    [
                        "-67.32",
                        "46.64"
                    ],
                    [
                        "-65.34",
                        "46.84"
                    ],
                    [
                        "-63.08",
                        "47.29"
                    ],
                    [
                        "-63.91",
                        "48.10"
                    ],
                    [
                        "-64.39",
                        "48.96"
                    ],
                    [
                        "-58.70",
                        "53.91"
                    ]
                ]
            },
            "properties": {
                "forecastId": null,
                "geometryId": null,
                "tag": "1C",
                "forecastHour": 6,
                "hazard": "FZLVL",
                "frequency": null,
                "severity": null,
                "status": "NRML",
                "base": null,
                "top": null,
                "fzlBase": null,
                "fzlTop": null,
                "level": "120",
                "product": "ZULU",
                "rawAirSigmet": null,
                "validTimeTo": "2026-07-30T15:00:00.000",
                "validTimeFrom": [
                    "2026-07-30T11:37"
                ]
            }
        },
        {
            "type": "Feature",
            "geometry": {
                "type": "Polygon",
                "coordinates": [
                    [
                        [
                            "-122.20",
                            "37.34"
                        ],
                        [
                            "-121.51",
                            "36.66"
                        ],
                        [
                            "-121.74",
                            "36.19"
                        ],
                        [
                            "-120.81",
                            "35.35"
                        ],
                        [
                            "-119.89",
                            "34.59"
                        ],
                        [
                            "-118.92",
                            "33.86"
                        ],
                        [
                            "-117.81",
                            "33.34"
                        ],
                        [
                            "-117.38",
                            "32.79"
                        ],
                        [
                            "-117.34",
                            "32.31"
                        ],
                        [
                            "-120.78",
                            "30.73"
                        ],
                        [
                            "-121.97",
                            "32.50"
                        ],
                        [
                            "-121.66",
                            "33.41"
                        ],
                        [
                            "-122.05",
                            "34.68"
                        ],
                        [
                            "-122.63",
                            "36.10"
                        ],
                        [
                            "-122.86",
                            "36.81"
                        ],
                        [
                            "-122.20",
                            "37.34"
                        ]
                    ]
                ]
            },
            "properties": {
                "forecastId": null,
                "geometryId": null,
                "tag": "1E",
                "forecastHour": 6,
                "hazard": "IFR",
                "frequency": null,
                "severity": null,
                "status": "NRML",
                "base": null,
                "top": null,
                "fzlBase": null,
                "fzlTop": null,
                "level": null,
                "product": "SIERRA",
                "rawAirSigmet": "CIG BLW 010 VIS BLW 3SM BR FG",
                "validTimeTo": "2026-07-30T15:00:00.000",
                "validTimeFrom": [
                    "2026-07-30T08:45"
                ]
            }
        },
        {
            "type": "Feature",
            "geometry": {
                "type": "LineString",
                "coordinates": [
                    [
                        "-123.30",
                        "16.89"
                    ],
                    [
                        "-123.71",
                        "17.92"
                    ],
                    [
                        "-124.29",
                        "18.34"
                    ],
                    [
                        "-125.04",
                        "18.75"
                    ],
                    [
                        "-125.37",
                        "19.80"
                    ],
                    [
                        "-125.37",
                        "20.92"
                    ],
                    [
                        "-125.07",
                        "21.62"
                    ],
                    [
                        "-124.39",
                        "22.13"
                    ],
                    [
                        "-123.21",
                        "22.29"
                    ],
                    [
                        "-122.05",
                        "22.50"
                    ],
                    [
                        "-121.15",
                        "22.50"
                    ],
                    [
                        "-120.43",
                        "21.88"
                    ],
                    [
                        "-120.11",
                        "20.82"
                    ],
                    [
                        "-119.82",
                        "20.13"
                    ],
                    [
                        "-119.37",
                        "19.10"
                    ],
                    [
                        "-118.98",
                        "18.43"
                    ],
                    [
                        "-118.74",
                        "17.73"
                    ]
                ]
            },
            "properties": {
                "forecastId": null,
                "geometryId": null,
                "tag": "1C",
                "forecastHour": 6,
                "hazard": "FZLVL",
                "frequency": null,
                "severity": null,
                "status": "NRML",
                "base": null,
                "top": null,
                "fzlBase": null,
                "fzlTop": null,
                "level": "160",
                "product": "ZULU",
                "rawAirSigmet": null,
                "validTimeTo": "2026-07-30T15:00:00.000",
                "validTimeFrom": [
                    "2026-07-30T11:37"
                ]
            }
        },
        {
            "type": "Feature",
            "geometry": {
                "type": "Polygon",
                "coordinates": [
                    [
                        [
                            "-113.03",
                            "39.42"
                        ],
                        [
                            "-112.89",
                            "39.08"
                        ],
                        [
                            "-112.83",
                            "39.04"
                        ],
                        [
                            "-112.38",
                            "39.12"
                        ],
                        [
                            "-112.36",
                            "39.13"
                        ],
                        [
                            "-112.29",
                            "39.49"
                        ],
                        [
                            "-112.45",
                            "39.54"
                        ],
                        [
                            "-112.91",
                            "39.53"
                        ],
                        [
                            "-113.03",
                            "39.42"
                        ]
                    ]
                ]
            },
            "properties": {
                "forecastId": null,
                "geometryId": null,
                "tag": "1C",
                "forecastHour": 6,
                "hazard": "FZLVL",
                "frequency": null,
                "severity": null,
                "status": "NRML",
                "base": null,
                "top": null,
                "fzlBase": null,
                "fzlTop": null,
                "level": "160",
                "product": "ZULU",
                "rawAirSigmet": null,
                "validTimeTo": "2026-07-30T15:00:00.000",
                "validTimeFrom": [
                    "2026-07-30T11:37"
                ]
            }
        },
        {
            "type": "Feature",
            "geometry": {
                "type": "Polygon",
                "coordinates": [
                    [
                        [
                            "-123.28",
                            "48.35"
                        ],
                        [
                            "-122.47",
                            "47.10"
                        ],
                        [
                            "-122.59",
                            "46.17"
                        ],
                        [
                            "-123.47",
                            "45.64"
                        ],
                        [
                            "-124.05",
                            "44.55"
                        ],
                        [
                            "-124.13",
                            "46.92"
                        ],
                        [
                            "-124.55",
                            "48.22"
                        ],
                        [
                            "-123.28",
                            "48.35"
                        ]
                    ]
                ]
            },
            "properties": {
                "forecastId": null,
                "geometryId": null,
                "tag": "5E",
                "forecastHour": 6,
                "hazard": "MT_OBSC",
                "frequency": null,
                "severity": null,
                "status": "NRML",
                "base": null,
                "top": null,
                "fzlBase": null,
                "fzlTop": null,
                "level": null,
                "product": "SIERRA",
                "rawAirSigmet": "BR FG",
                "validTimeTo": "2026-07-30T15:00:00.000",
                "validTimeFrom": [
                    "2026-07-30T08:45"
                ]
            }
        },
        {
            "type": "Feature",
            "geometry": {
                "type": "Polygon",
                "coordinates": [
                    [
                        [
                            "-122.74",
                            "48.63"
                        ],
                        [
                            "-122.63",
                            "47.62"
                        ],
                        [
                            "-122.86",
                            "47.39"
                        ],
                        [
                            "-123.55",
                            "46.44"
                        ],
                        [
                            "-123.82",
                            "45.26"
                        ],
                        [
                            "-124.05",
                            "44.63"
                        ],
                        [
                            "-123.94",
                            "43.44"
                        ],
                        [
                            "-124.17",
                            "42.59"
                        ],
                        [
                            "-123.71",
                            "41.53"
                        ],
                        [
                            "-123.78",
                            "40.81"
                        ],
                        [
                            "-124.52",
                            "40.02"
                        ],
                        [
                            "-125.06",
                            "40.87"
                        ],
                        [
                            "-125.29",
                            "41.99"
                        ],
                        [
                            "-125.33",
                            "42.71"
                        ],
                        [
                            "-124.98",
                            "43.38"
                        ],
                        [
                            "-124.55",
                            "44.44"
                        ],
                        [
                            "-124.28",
                            "45.77"
                        ],
                        [
                            "-124.36",
                            "46.86"
                        ],
                        [
                            "-124.44",
                            "47.57"
                        ],
                        [
                            "-125.13",
                            "48.17"
                        ],
                        [
                            "-125.09",
                            "48.60"
                        ],
                        [
                            "-123.51",
                            "48.22"
                        ],
                        [
                            "-122.74",
                            "48.63"
                        ]
                    ]
                ]
            },
            "properties": {
                "forecastId": null,
                "geometryId": null,
                "tag": "3E",
                "forecastHour": 6,
                "hazard": "IFR",
                "frequency": null,
                "severity": null,
                "status": "NRML",
                "base": null,
                "top": null,
                "fzlBase": null,
                "fzlTop": null,
                "level": null,
                "product": "SIERRA",
                "rawAirSigmet": "CIG BLW 010 VIS BLW 3SM BR FG",
                "validTimeTo": "2026-07-30T15:00:00.000",
                "validTimeFrom": [
                    "2026-07-30T08:45"
                ]
            }
        },
        {
            "type": "Feature",
            "geometry": {
                "type": "Polygon",
                "coordinates": [
                    [
                        [
                            "-106.84",
                            "49.08"
                        ],
                        [
                            "-104.60",
                            "48.95"
                        ],
                        [
                            "-105.54",
                            "47.93"
                        ],
                        [
                            "-106.81",
                            "46.54"
                        ],
                        [
                            "-109.12",
                            "44.39"
                        ],
                        [
                            "-110.53",
                            "43.43"
                        ],
                        [
                            "-111.57",
                            "43.78"
                        ],
                        [
                            "-111.52",
                            "44.39"
                        ],
                        [
                            "-109.80",
                            "46.42"
                        ],
                        [
                            "-108.24",
                            "47.94"
                        ],
                        [
                            "-106.84",
                            "49.08"
                        ]
                    ]
                ]
            },
            "properties": {
                "forecastId": null,
                "geometryId": null,
                "tag": "1W",
                "forecastHour": 6,
                "hazard": "TURB-HI",
                "frequency": null,
                "severity": "MOD",
                "status": "NRML",
                "base": "290",
                "top": "400",
                "fzlBase": null,
                "fzlTop": null,
                "level": null,
                "product": "TANGO",
                "rawAirSigmet": null,
                "validTimeTo": "2026-07-30T15:00:00.000",
                "validTimeFrom": [
                    "2026-07-30T08:45"
                ]
            }
        },
        {
            "type": "Feature",
            "geometry": {
                "type": "Polygon",
                "coordinates": [
                    [
                        [
                            "-123.24",
                            "38.67"
                        ],
                        [
                            "-122.12",
                            "37.89"
                        ],
                        [
                            "-121.20",
                            "36.78"
                        ],
                        [
                            "-121.31",
                            "36.35"
                        ],
                        [
                            "-120.78",
                            "35.51"
                        ],
                        [
                            "-119.93",
                            "35.38"
                        ],
                        [
                            "-119.54",
                            "35.00"
                        ],
                        [
                            "-119.39",
                            "34.46"
                        ],
                        [
                            "-118.54",
                            "34.40"
                        ],
                        [
                            "-117.54",
                            "34.27"
                        ],
                        [
                            "-116.92",
                            "33.73"
                        ],
                        [
                            "-116.42",
                            "32.83"
                        ],
                        [
                            "-117.27",
                            "32.95"
                        ],
                        [
                            "-118.50",
                            "33.89"
                        ],
                        [
                            "-120.74",
                            "34.49"
                        ],
                        [
                            "-123.24",
                            "38.67"
                        ]
                    ]
                ]
            },
            "properties": {
                "forecastId": null,
                "geometryId": null,
                "tag": "4E",
                "forecastHour": 6,
                "hazard": "MT_OBSC",
                "frequency": null,
                "severity": null,
                "status": "NRML",
                "base": null,
                "top": null,
                "fzlBase": null,
                "fzlTop": null,
                "level": null,
                "product": "SIERRA",
                "rawAirSigmet": "BR FG",
                "validTimeTo": "2026-07-30T15:00:00.000",
                "validTimeFrom": [
                    "2026-07-30T08:45"
                ]
            }
        },
        {
            "type": "Feature",
            "geometry": {
                "type": "LineString",
                "coordinates": [
                    [
                        "-131.82",
                        "36.08"
                    ],
                    [
                        "-130.66",
                        "35.90"
                    ],
                    [
                        "-130.02",
                        "36.03"
                    ],
                    [
                        "-127.53",
                        "37.05"
                    ],
                    [
                        "-123.80",
                        "39.85"
                    ],
                    [
                        "-122.74",
                        "40.44"
                    ],
                    [
                        "-121.09",
                        "40.75"
                    ],
                    [
                        "-119.41",
                        "40.47"
                    ],
                    [
                        "-117.78",
                        "40.60"
                    ],
                    [
                        "-115.10",
                        "41.35"
                    ],
                    [
                        "-112.70",
                        "42.56"
                    ],
                    [
                        "-108.04",
                        "41.11"
                    ],
                    [
                        "-106.36",
                        "41.24"
                    ],
                    [
                        "-105.11",
                        "41.55"
                    ],
                    [
                        "-104.17",
                        "42.40"
                    ],
                    [
                        "-102.26",
                        "42.40"
                    ],
                    [
                        "-101.43",
                        "43.07"
                    ],
                    [
                        "-100.56",
                        "43.36"
                    ],
                    [
                        "-99.73",
                        "43.31"
                    ],
                    [
                        "-98.25",
                        "42.77"
                    ],
                    [
                        "-97.36",
                        "42.56"
                    ],
                    [
                        "-96.42",
                        "42.65"
                    ],
                    [
                        "-94.97",
                        "42.83"
                    ],
                    [
                        "-93.94",
                        "42.91"
                    ],
                    [
                        "-93.49",
                        "43.20"
                    ],
                    [
                        "-92.99",
                        "44.14"
                    ],
                    [
                        "-91.36",
                        "44.25"
                    ],
                    [
                        "-89.99",
                        "44.08"
                    ],
                    [
                        "-89.25",
                        "43.37"
                    ],
                    [
                        "-88.93",
                        "42.63"
                    ],
                    [
                        "-88.46",
                        "42.28"
                    ],
                    [
                        "-87.53",
                        "41.45"
                    ],
                    [
                        "-86.06",
                        "39.58"
                    ],
                    [
                        "-85.78",
                        "38.70"
                    ],
                    [
                        "-85.61",
                        "37.39"
                    ],
                    [
                        "-85.24",
                        "36.45"
                    ],
                    [
                        "-84.36",
                        "35.81"
                    ],
                    [
                        "-81.64",
                        "34.82"
                    ],
                    [
                        "-82.65",
                        "34.23"
                    ],
                    [
                        "-83.57",
                        "33.46"
                    ],
                    [
                        "-84.90",
                        "31.94"
                    ],
                    [
                        "-84.71",
                        "30.98"
                    ],
                    [
                        "-84.00",
                        "30.26"
                    ],
                    [
                        "-83.50",
                        "29.66"
                    ],
                    [
                        "-83.98",
                        "29.36"
                    ],
                    [
                        "-85.39",
                        "29.16"
                    ],
                    [
                        "-85.77",
                        "28.56"
                    ],
                    [
                        "-85.49",
                        "28.03"
                    ],
                    [
                        "-85.56",
                        "27.55"
                    ],
                    [
                        "-86.17",
                        "27.26"
                    ],
                    [
                        "-86.75",
                        "26.47"
                    ],
                    [
                        "-86.10",
                        "25.63"
                    ],
                    [
                        "-85.01",
                        "25.61"
                    ],
                    [
                        "-84.00",
                        "25.91"
                    ],
                    [
                        "-82.55",
                        "25.70"
                    ],
                    [
                        "-81.19",
                        "25.73"
                    ],
                    [
                        "-80.01",
                        "25.43"
                    ],
                    [
                        "-80.04",
                        "24.76"
                    ],
                    [
                        "-80.41",
                        "24.34"
                    ],
                    [
                        "-81.32",
                        "23.98"
                    ],
                    [
                        "-82.44",
                        "23.84"
                    ],
                    [
                        "-84.99",
                        "24.26"
                    ],
                    [
                        "-86.46",
                        "23.93"
                    ],
                    [
                        "-87.02",
                        "23.60"
                    ],
                    [
                        "-87.15",
                        "24.25"
                    ],
                    [
                        "-90.94",
                        "25.16"
                    ],
                    [
                        "-91.91",
                        "25.64"
                    ],
                    [
                        "-93.00",
                        "25.39"
                    ],
                    [
                        "-94.00",
                        "24.58"
                    ],
                    [
                        "-94.46",
                        "23.36"
                    ],
                    [
                        "-95.11",
                        "22.45"
                    ],
                    [
                        "-95.03",
                        "21.89"
                    ],
                    [
                        "-94.51",
                        "21.76"
                    ],
                    [
                        "-92.01",
                        "22.09"
                    ],
                    [
                        "-89.46",
                        "22.40"
                    ],
                    [
                        "-89.92",
                        "19.62"
                    ]
                ]
            },
            "properties": {
                "forecastId": null,
                "geometryId": null,
                "tag": "1C",
                "forecastHour": 6,
                "hazard": "FZLVL",
                "frequency": null,
                "severity": null,
                "status": "NRML",
                "base": null,
                "top": null,
                "fzlBase": null,
                "fzlTop": null,
                "level": "160",
                "product": "ZULU",
                "rawAirSigmet": null,
                "validTimeTo": "2026-07-30T15:00:00.000",
                "validTimeFrom": [
                    "2026-07-30T11:37"
                ]
            }
        },
        {
            "type": "Feature",
            "geometry": {
                "type": "Polygon",
                "coordinates": [
                    [
                        [
                            "-104.49",
                            "48.49"
                        ],
                        [
                            "-103.45",
                            "47.80"
                        ],
                        [
                            "-102.97",
                            "46.41"
                        ],
                        [
                            "-102.14",
                            "45.51"
                        ],
                        [
                            "-102.00",
                            "44.61"
                        ],
                        [
                            "-103.20",
                            "43.71"
                        ],
                        [
                            "-104.40",
                            "43.58"
                        ],
                        [
                            "-105.32",
                            "42.96"
                        ],
                        [
                            "-107.16",
                            "42.91"
                        ],
                        [
                            "-108.39",
                            "43.65"
                        ],
                        [
                            "-108.55",
                            "44.87"
                        ],
                        [
                            "-108.14",
                            "46.18"
                        ],
                        [
                            "-107.26",
                            "47.48"
                        ],
                        [
                            "-105.73",
                            "48.42"
                        ],
                        [
                            "-104.49",
                            "48.49"
                        ]
                    ]
                ]
            },
            "properties": {
                "forecastId": null,
                "geometryId": null,
                "tag": "4C",
                "forecastHour": 6,
                "hazard": "ICE",
                "frequency": null,
                "severity": "MOD",
                "status": "NRML",
                "base": "150",
                "top": "260",
                "fzlBase": null,
                "fzlTop": null,
                "level": null,
                "product": "ZULU",
                "rawAirSigmet": "ICE",
                "validTimeTo": "2026-07-30T15:00:00.000",
                "validTimeFrom": [
                    "2026-07-30T11:37"
                ]
            }
        },
        {
            "type": "Feature",
            "geometry": {
                "type": "Polygon",
                "coordinates": [
                    [
                        [
                            "-67.00",
                            "43.40"
                        ],
                        [
                            "-66.95",
                            "39.60"
                        ],
                        [
                            "-70.15",
                            "37.85"
                        ],
                        [
                            "-72.40",
                            "36.90"
                        ],
                        [
                            "-72.57",
                            "36.32"
                        ],
                        [
                            "-73.17",
                            "36.66"
                        ],
                        [
                            "-73.17",
                            "37.17"
                        ],
                        [
                            "-71.19",
                            "38.59"
                        ],
                        [
                            "-69.73",
                            "39.78"
                        ],
                        [
                            "-68.56",
                            "41.15"
                        ],
                        [
                            "-67.00",
                            "43.40"
                        ]
                    ]
                ]
            },
            "properties": {
                "forecastId": null,
                "geometryId": null,
                "tag": "2W",
                "forecastHour": 6,
                "hazard": "TURB-HI",
                "frequency": null,
                "severity": "MOD",
                "status": "NRML",
                "base": "290",
                "top": "370",
                "fzlBase": null,
                "fzlTop": null,
                "level": null,
                "product": "TANGO",
                "rawAirSigmet": null,
                "validTimeTo": "2026-07-30T15:00:00.000",
                "validTimeFrom": [
                    "2026-07-30T08:45"
                ]
            }
        },
        {
            "type": "Feature",
            "geometry": {
                "type": "Polygon",
                "coordinates": [
                    [
                        [
                            "-113.09",
                            "48.97"
                        ],
                        [
                            "-111.30",
                            "47.41"
                        ],
                        [
                            "-109.74",
                            "48.53"
                        ],
                        [
                            "-107.97",
                            "46.12"
                        ],
                        [
                            "-110.82",
                            "45.96"
                        ],
                        [
                            "-112.06",
                            "45.48"
                        ],
                        [
                            "-112.17",
                            "44.66"
                        ],
                        [
                            "-111.29",
                            "43.80"
                        ],
                        [
                            "-110.59",
                            "43.30"
                        ],
                        [
                            "-110.44",
                            "42.56"
                        ],
                        [
                            "-111.21",
                            "42.45"
                        ],
                        [
                            "-112.21",
                            "42.62"
                        ],
                        [
                            "-113.41",
                            "42.65"
                        ],
                        [
                            "-114.06",
                            "42.08"
                        ],
                        [
                            "-115.18",
                            "41.85"
                        ],
                        [
                            "-116.34",
                            "42.31"
                        ],
                        [
                            "-117.69",
                            "42.88"
                        ],
                        [
                            "-119.43",
                            "42.99"
                        ],
                        [
                            "-119.97",
                            "43.89"
                        ],
                        [
                            "-119.19",
                            "44.85"
                        ],
                        [
                            "-118.92",
                            "45.91"
                        ],
                        [
                            "-117.65",
                            "46.92"
                        ],
                        [
                            "-116.73",
                            "47.21"
                        ],
                        [
                            "-116.22",
                            "47.88"
                        ],
                        [
                            "-116.42",
                            "48.22"
                        ],
                        [
                            "-118.19",
                            "47.93"
                        ],
                        [
                            "-119.39",
                            "48.32"
                        ],
                        [
                            "-120.20",
                            "48.93"
                        ],
                        [
                            "-117.16",
                            "48.92"
                        ],
                        [
                            "-115.11",
                            "48.95"
                        ],
                        [
                            "-113.90",
                            "48.97"
                        ],
                        [
                            "-113.09",
                            "48.97"
                        ]
                    ]
                ]
            },
            "properties": {
                "forecastId": null,
                "geometryId": null,
                "tag": "1E",
                "forecastHour": 6,
                "hazard": "MT_OBSC",
                "frequency": null,
                "severity": null,
                "status": "NRML",
                "base": null,
                "top": null,
                "fzlBase": null,
                "fzlTop": null,
                "level": null,
                "product": "SIERRA",
                "rawAirSigmet": "FU HZ",
                "validTimeTo": "2026-07-30T15:00:00.000",
                "validTimeFrom": [
                    "2026-07-30T08:45"
                ]
            }
        },
        {
            "type": "Feature",
            "geometry": {
                "type": "Polygon",
                "coordinates": [
                    [
                        [
                            "-69.39",
                            "47.59"
                        ],
                        [
                            "-68.53",
                            "45.58"
                        ],
                        [
                            "-71.62",
                            "43.21"
                        ],
                        [
                            "-75.88",
                            "40.94"
                        ],
                        [
                            "-76.62",
                            "41.13"
                        ],
                        [
                            "-77.22",
                            "41.76"
                        ],
                        [
                            "-77.68",
                            "42.71"
                        ],
                        [
                            "-76.19",
                            "43.18"
                        ],
                        [
                            "-74.70",
                            "44.92"
                        ],
                        [
                            "-71.74",
                            "45.39"
                        ],
                        [
                            "-69.39",
                            "47.59"
                        ]
                    ]
                ]
            },
            "properties": {
                "forecastId": null,
                "geometryId": null,
                "tag": "2E",
                "forecastHour": 6,
                "hazard": "MT_OBSC",
                "frequency": null,
                "severity": null,
                "status": "NRML",
                "base": null,
                "top": null,
                "fzlBase": null,
                "fzlTop": null,
                "level": null,
                "product": "SIERRA",
                "rawAirSigmet": "MTNS OBSC BY CLDS PCPN BR",
                "validTimeTo": "2026-07-30T15:00:00.000",
                "validTimeFrom": [
                    "2026-07-30T08:45"
                ]
            }
        },
        {
            "type": "Feature",
            "geometry": {
                "type": "Polygon",
                "coordinates": [
                    [
                        [
                            "-70.62",
                            "44.07"
                        ],
                        [
                            "-69.78",
                            "43.97"
                        ],
                        [
                            "-70.54",
                            "43.63"
                        ],
                        [
                            "-71.25",
                            "42.65"
                        ],
                        [
                            "-71.50",
                            "41.69"
                        ],
                        [
                            "-72.76",
                            "41.53"
                        ],
                        [
                            "-73.62",
                            "41.88"
                        ],
                        [
                            "-73.23",
                            "42.78"
                        ],
                        [
                            "-72.62",
                            "43.32"
                        ],
                        [
                            "-71.76",
                            "43.71"
                        ],
                        [
                            "-70.62",
                            "44.07"
                        ]
                    ]
                ]
            },
            "properties": {
                "forecastId": null,
                "geometryId": null,
                "tag": "1W",
                "forecastHour": 6,
                "hazard": "TURB-LO",
                "frequency": null,
                "severity": "MOD",
                "status": "NRML",
                "base": "020",
                "top": "080",
                "fzlBase": null,
                "fzlTop": null,
                "level": null,
                "product": "TANGO",
                "rawAirSigmet": null,
                "validTimeTo": "2026-07-30T15:00:00.000",
                "validTimeFrom": [
                    "2026-07-30T08:45"
                ]
            }
        },
        {
            "type": "Feature",
            "geometry": {
                "type": "Polygon",
                "coordinates": [
                    [
                        [
                            "-98.65",
                            "41.34"
                        ],
                        [
                            "-97.78",
                            "41.31"
                        ],
                        [
                            "-97.22",
                            "40.86"
                        ],
                        [
                            "-96.98",
                            "40.09"
                        ],
                        [
                            "-97.05",
                            "39.26"
                        ],
                        [
                            "-97.17",
                            "38.62"
                        ],
                        [
                            "-97.39",
                            "37.76"
                        ],
                        [
                            "-97.71",
                            "36.93"
                        ],
                        [
                            "-98.56",
                            "35.98"
                        ],
                        [
                            "-99.55",
                            "35.72"
                        ],
                        [
                            "-99.91",
                            "36.32"
                        ],
                        [
                            "-99.59",
                            "37.04"
                        ],
                        [
                            "-99.50",
                            "38.01"
                        ],
                        [
                            "-99.90",
                            "39.04"
                        ],
                        [
                            "-100.07",
                            "39.89"
                        ],
                        [
                            "-99.55",
                            "40.79"
                        ],
                        [
                            "-98.65",
                            "41.34"
                        ]
                    ]
                ]
            },
            "properties": {
                "forecastId": null,
                "geometryId": null,
                "tag": "2C",
                "forecastHour": 6,
                "hazard": "ICE",
                "frequency": null,
                "severity": "MOD",
                "status": "AMD",
                "base": "160",
                "top": "260",
                "fzlBase": null,
                "fzlTop": null,
                "level": null,
                "product": "ZULU",
                "rawAirSigmet": "ICE",
                "validTimeTo": "2026-07-30T15:00:00.000",
                "validTimeFrom": [
                    "2026-07-30T11:37"
                ]
            }
        },
        {
            "type": "Feature",
            "geometry": {
                "type": "LineString",
                "coordinates": [
                    [
                        "-85.81",
                        "19.42"
                    ],
                    [
                        "-85.55",
                        "20.13"
                    ],
                    [
                        "-84.57",
                        "20.79"
                    ],
                    [
                        "-83.27",
                        "21.06"
                    ],
                    [
                        "-82.19",
                        "21.33"
                    ],
                    [
                        "-80.86",
                        "21.55"
                    ],
                    [
                        "-79.31",
                        "21.32"
                    ],
                    [
                        "-77.78",
                        "20.99"
                    ],
                    [
                        "-76.64",
                        "20.66"
                    ],
                    [
                        "-75.38",
                        "20.57"
                    ],
                    [
                        "-73.90",
                        "20.55"
                    ],
                    [
                        "-72.38",
                        "20.26"
                    ],
                    [
                        "-71.31",
                        "19.68"
                    ],
                    [
                        "-69.80",
                        "19.35"
                    ],
                    [
                        "-68.74",
                        "18.79"
                    ]
                ]
            },
            "properties": {
                "forecastId": null,
                "geometryId": null,
                "tag": "1C",
                "forecastHour": 6,
                "hazard": "FZLVL",
                "frequency": null,
                "severity": null,
                "status": "NRML",
                "base": null,
                "top": null,
                "fzlBase": null,
                "fzlTop": null,
                "level": "160",
                "product": "ZULU",
                "rawAirSigmet": null,
                "validTimeTo": "2026-07-30T15:00:00.000",
                "validTimeFrom": [
                    "2026-07-30T11:37"
                ]
            }
        },
        {
            "type": "Feature",
            "geometry": {
                "type": "Polygon",
                "coordinates": [
                    [
                        [
                            "-92.88",
                            "48.51"
                        ],
                        [
                            "-92.17",
                            "48.16"
                        ],
                        [
                            "-91.16",
                            "48.01"
                        ],
                        [
                            "-89.45",
                            "48.01"
                        ],
                        [
                            "-88.18",
                            "48.34"
                        ],
                        [
                            "-85.00",
                            "46.94"
                        ],
                        [
                            "-82.48",
                            "45.29"
                        ],
                        [
                            "-82.43",
                            "43.08"
                        ],
                        [
                            "-83.01",
                            "42.40"
                        ],
                        [
                            "-83.01",
                            "41.77"
                        ],
                        [
                            "-82.34",
                            "41.64"
                        ],
                        [
                            "-82.65",
                            "37.95"
                        ],
                        [
                            "-82.15",
                            "34.16"
                        ],
                        [
                            "-83.31",
                            "32.51"
                        ],
                        [
                            "-83.92",
                            "32.66"
                        ],
                        [
                            "-85.40",
                            "37.60"
                        ],
                        [
                            "-86.77",
                            "42.43"
                        ],
                        [
                            "-87.45",
                            "44.58"
                        ],
                        [
                            "-91.10",
                            "47.01"
                        ],
                        [
                            "-92.71",
                            "48.03"
                        ],
                        [
                            "-93.68",
                            "48.49"
                        ],
                        [
                            "-92.88",
                            "48.51"
                        ]
                    ]
                ]
            },
            "properties": {
                "forecastId": null,
                "geometryId": null,
                "tag": "4W",
                "forecastHour": 6,
                "hazard": "TURB-HI",
                "frequency": null,
                "severity": "MOD",
                "status": "NRML",
                "base": "290",
                "top": "400",
                "fzlBase": null,
                "fzlTop": null,
                "level": null,
                "product": "TANGO",
                "rawAirSigmet": null,
                "validTimeTo": "2026-07-30T15:00:00.000",
                "validTimeFrom": [
                    "2026-07-30T08:45"
                ]
            }
        },
        {
            "type": "Feature",
            "geometry": {
                "type": "LineString",
                "coordinates": [
                    [
                        "-137.16",
                        "49.15"
                    ],
                    [
                        "-136.85",
                        "49.35"
                    ],
                    [
                        "-136.77",
                        "49.44"
                    ],
                    [
                        "-136.54",
                        "49.76"
                    ],
                    [
                        "-136.47",
                        "49.91"
                    ],
                    [
                        "-136.33",
                        "50.15"
                    ],
                    [
                        "-136.15",
                        "50.36"
                    ],
                    [
                        "-135.95",
                        "50.57"
                    ],
                    [
                        "-135.79",
                        "50.71"
                    ],
                    [
                        "-135.58",
                        "50.98"
                    ],
                    [
                        "-135.46",
                        "51.14"
                    ],
                    [
                        "-135.34",
                        "51.37"
                    ],
                    [
                        "-135.17",
                        "51.66"
                    ],
                    [
                        "-135.13",
                        "51.74"
                    ],
                    [
                        "-134.97",
                        "52.11"
                    ],
                    [
                        "-134.92",
                        "52.26"
                    ],
                    [
                        "-134.83",
                        "52.47"
                    ],
                    [
                        "-134.75",
                        "52.82"
                    ],
                    [
                        "-134.76",
                        "53.04"
                    ],
                    [
                        "-134.75",
                        "53.16"
                    ],
                    [
                        "-134.89",
                        "53.46"
                    ],
                    [
                        "-135.05",
                        "53.61"
                    ],
                    [
                        "-135.18",
                        "53.74"
                    ],
                    [
                        "-135.52",
                        "54.01"
                    ]
                ]
            },
            "properties": {
                "forecastId": null,
                "geometryId": null,
                "tag": "1C",
                "forecastHour": 6,
                "hazard": "FZLVL",
                "frequency": null,
                "severity": null,
                "status": "NRML",
                "base": null,
                "top": null,
                "fzlBase": null,
                "fzlTop": null,
                "level": "080",
                "product": "ZULU",
                "rawAirSigmet": null,
                "validTimeTo": "2026-07-30T15:00:00.000",
                "validTimeFrom": [
                    "2026-07-30T11:37"
                ]
            }
        },
        {
            "type": "Feature",
            "geometry": {
                "type": "Polygon",
                "coordinates": [
                    [
                        [
                            "-69.24",
                            "47.64"
                        ],
                        [
                            "-67.83",
                            "47.27"
                        ],
                        [
                            "-67.79",
                            "45.69"
                        ],
                        [
                            "-67.09",
                            "44.40"
                        ],
                        [
                            "-67.55",
                            "43.70"
                        ],
                        [
                            "-68.65",
                            "43.47"
                        ],
                        [
                            "-69.77",
                            "42.71"
                        ],
                        [
                            "-69.99",
                            "41.66"
                        ],
                        [
                            "-69.55",
                            "40.84"
                        ],
                        [
                            "-69.55",
                            "39.99"
                        ],
                        [
                            "-70.39",
                            "39.31"
                        ],
                        [
                            "-71.45",
                            "39.54"
                        ],
                        [
                            "-72.05",
                            "40.19"
                        ],
                        [
                            "-73.29",
                            "40.82"
                        ],
                        [
                            "-74.75",
                            "41.09"
                        ],
                        [
                            "-75.52",
                            "41.51"
                        ],
                        [
                            "-75.78",
                            "42.27"
                        ],
                        [
                            "-75.38",
                            "43.17"
                        ],
                        [
                            "-74.79",
                            "43.83"
                        ],
                        [
                            "-74.40",
                            "44.95"
                        ],
                        [
                            "-73.57",
                            "44.94"
                        ],
                        [
                            "-70.90",
                            "45.10"
                        ],
                        [
                            "-69.24",
                            "47.64"
                        ]
                    ]
                ]
            },
            "properties": {
                "forecastId": null,
                "geometryId": null,
                "tag": "1C",
                "forecastHour": 6,
                "hazard": "ICE",
                "frequency": null,
                "severity": "MOD",
                "status": "NRML",
                "base": "120",
                "top": "250",
                "fzlBase": null,
                "fzlTop": null,
                "level": null,
                "product": "ZULU",
                "rawAirSigmet": "ICE",
                "validTimeTo": "2026-07-30T15:00:00.000",
                "validTimeFrom": [
                    "2026-07-30T11:37"
                ]
            }
        },
        {
            "type": "Feature",
            "geometry": {
                "type": "LineString",
                "coordinates": [
                    [
                        "-110.66",
                        "18.86"
                    ],
                    [
                        "-111.68",
                        "18.78"
                    ],
                    [
                        "-112.29",
                        "19.46"
                    ],
                    [
                        "-112.23",
                        "20.48"
                    ],
                    [
                        "-111.91",
                        "21.28"
                    ],
                    [
                        "-111.44",
                        "22.06"
                    ],
                    [
                        "-110.85",
                        "21.34"
                    ],
                    [
                        "-110.56",
                        "20.71"
                    ],
                    [
                        "-109.77",
                        "20.17"
                    ],
                    [
                        "-106.74",
                        "21.10"
                    ],
                    [
                        "-105.82",
                        "21.63"
                    ],
                    [
                        "-106.09",
                        "22.43"
                    ],
                    [
                        "-107.18",
                        "23.59"
                    ],
                    [
                        "-108.32",
                        "24.92"
                    ],
                    [
                        "-109.47",
                        "25.95"
                    ],
                    [
                        "-110.06",
                        "26.72"
                    ],
                    [
                        "-110.69",
                        "27.13"
                    ],
                    [
                        "-112.74",
                        "27.41"
                    ],
                    [
                        "-113.71",
                        "27.40"
                    ],
                    [
                        "-114.34",
                        "26.96"
                    ],
                    [
                        "-115.11",
                        "25.67"
                    ],
                    [
                        "-115.76",
                        "25.16"
                    ],
                    [
                        "-116.48",
                        "25.13"
                    ],
                    [
                        "-116.26",
                        "23.87"
                    ],
                    [
                        "-116.88",
                        "23.62"
                    ],
                    [
                        "-117.60",
                        "23.74"
                    ],
                    [
                        "-118.34",
                        "23.84"
                    ],
                    [
                        "-119.20",
                        "23.94"
                    ],
                    [
                        "-120.02",
                        "24.40"
                    ],
                    [
                        "-121.34",
                        "25.45"
                    ],
                    [
                        "-123.21",
                        "25.81"
                    ],
                    [
                        "-125.29",
                        "25.57"
                    ],
                    [
                        "-127.15",
                        "24.97"
                    ],
                    [
                        "-128.30",
                        "24.62"
                    ]
                ]
            },
            "properties": {
                "forecastId": null,
                "geometryId": null,
                "tag": "1C",
                "forecastHour": 6,
                "hazard": "FZLVL",
                "frequency": null,
                "severity": null,
                "status": "NRML",
                "base": null,
                "top": null,
                "fzlBase": null,
                "fzlTop": null,
                "level": "160",
                "product": "ZULU",
                "rawAirSigmet": null,
                "validTimeTo": "2026-07-30T15:00:00.000",
                "validTimeFrom": [
                    "2026-07-30T11:37"
                ]
            }
        },
        {
            "type": "Feature",
            "geometry": {
                "type": "Polygon",
                "coordinates": [
                    [
                        [
                            "-67.05",
                            "45.03"
                        ],
                        [
                            "-66.90",
                            "40.40"
                        ],
                        [
                            "-68.71",
                            "40.40"
                        ],
                        [
                            "-69.48",
                            "40.19"
                        ],
                        [
                            "-70.18",
                            "39.60"
                        ],
                        [
                            "-71.37",
                            "39.81"
                        ],
                        [
                            "-71.87",
                            "40.31"
                        ],
                        [
                            "-71.99",
                            "41.07"
                        ],
                        [
                            "-71.87",
                            "41.59"
                        ],
                        [
                            "-72.37",
                            "41.74"
                        ],
                        [
                            "-73.07",
                            "42.02"
                        ],
                        [
                            "-72.91",
                            "42.56"
                        ],
                        [
                            "-72.37",
                            "43.19"
                        ],
                        [
                            "-71.95",
                            "43.94"
                        ],
                        [
                            "-71.83",
                            "44.55"
                        ],
                        [
                            "-70.91",
                            "44.77"
                        ],
                        [
                            "-69.60",
                            "44.58"
                        ],
                        [
                            "-68.53",
                            "44.65"
                        ],
                        [
                            "-67.05",
                            "45.03"
                        ]
                    ]
                ]
            },
            "properties": {
                "forecastId": null,
                "geometryId": null,
                "tag": "2E",
                "forecastHour": 6,
                "hazard": "IFR",
                "frequency": null,
                "severity": null,
                "status": "NRML",
                "base": null,
                "top": null,
                "fzlBase": null,
                "fzlTop": null,
                "level": null,
                "product": "SIERRA",
                "rawAirSigmet": "CIG BLW 010 VIS BLW 3SM PCPN BR",
                "validTimeTo": "2026-07-30T15:00:00.000",
                "validTimeFrom": [
                    "2026-07-30T08:45"
                ]
            }
        },
        {
            "type": "Feature",
            "geometry": {
                "type": "Polygon",
                "coordinates": [
                    [
                        [
                            "-77.52",
                            "42.71"
                        ],
                        [
                            "-76.22",
                            "42.30"
                        ],
                        [
                            "-75.61",
                            "41.80"
                        ],
                        [
                            "-75.32",
                            "41.19"
                        ],
                        [
                            "-75.65",
                            "40.55"
                        ],
                        [
                            "-76.15",
                            "39.89"
                        ],
                        [
                            "-77.18",
                            "39.04"
                        ],
                        [
                            "-78.22",
                            "38.23"
                        ],
                        [
                            "-79.10",
                            "38.21"
                        ],
                        [
                            "-79.84",
                            "38.64"
                        ],
                        [
                            "-79.38",
                            "39.96"
                        ],
                        [
                            "-78.79",
                            "40.57"
                        ],
                        [
                            "-78.71",
                            "41.06"
                        ],
                        [
                            "-79.35",
                            "41.72"
                        ],
                        [
                            "-78.80",
                            "42.39"
                        ],
                        [
                            "-77.52",
                            "42.71"
                        ]
                    ]
                ]
            },
            "properties": {
                "forecastId": null,
                "geometryId": null,
                "tag": "2W",
                "forecastHour": 6,
                "hazard": "TURB-LO",
                "frequency": null,
                "severity": "MOD",
                "status": "NRML",
                "base": "SFC",
                "top": "080",
                "fzlBase": null,
                "fzlTop": null,
                "level": null,
                "product": "TANGO",
                "rawAirSigmet": null,
                "validTimeTo": "2026-07-30T15:00:00.000",
                "validTimeFrom": [
                    "2026-07-30T08:45"
                ]
            }
        },
        {
            "type": "Feature",
            "geometry": {
                "type": "LineString",
                "coordinates": [
                    [
                        "-131.27",
                        "55.69"
                    ],
                    [
                        "-131.02",
                        "55.41"
                    ],
                    [
                        "-130.79",
                        "55.22"
                    ],
                    [
                        "-130.69",
                        "55.14"
                    ],
                    [
                        "-130.27",
                        "54.88"
                    ],
                    [
                        "-130.03",
                        "54.79"
                    ],
                    [
                        "-129.51",
                        "54.68"
                    ],
                    [
                        "-129.42",
                        "54.66"
                    ],
                    [
                        "-128.86",
                        "54.68"
                    ],
                    [
                        "-128.37",
                        "54.83"
                    ],
                    [
                        "-128.33",
                        "54.85"
                    ],
                    [
                        "-127.93",
                        "55.09"
                    ],
                    [
                        "-127.71",
                        "55.26"
                    ],
                    [
                        "-127.51",
                        "55.43"
                    ],
                    [
                        "-127.25",
                        "55.64"
                    ],
                    [
                        "-127.11",
                        "55.79"
                    ],
                    [
                        "-126.85",
                        "56.01"
                    ],
                    [
                        "-126.73",
                        "56.23"
                    ],
                    [
                        "-126.67",
                        "56.35"
                    ]
                ]
            },
            "properties": {
                "forecastId": null,
                "geometryId": null,
                "tag": "1C",
                "forecastHour": 6,
                "hazard": "FZLVL",
                "frequency": null,
                "severity": null,
                "status": "NRML",
                "base": null,
                "top": null,
                "fzlBase": null,
                "fzlTop": null,
                "level": "080",
                "product": "ZULU",
                "rawAirSigmet": null,
                "validTimeTo": "2026-07-30T15:00:00.000",
                "validTimeFrom": [
                    "2026-07-30T11:37"
                ]
            }
        }
    ],
    "metadata": {
        "creationTime": "2026-07-30T14:23"
    }
}