{
    "type": "FeatureCollection",
    "features": [
        {
            "type": "Feature",
            "geometry": {
                "type": "Polygon",
                "coordinates": [
                    [
                        [
                            "-91.29",
                            "40.77"
                        ],
                        [
                            "-91.06",
                            "40.30"
                        ],
                        [
                            "-90.76",
                            "39.94"
                        ],
                        [
                            "-90.25",
                            "39.57"
                        ],
                        [
                            "-89.51",
                            "39.32"
                        ],
                        [
                            "-88.81",
                            "39.17"
                        ],
                        [
                            "-88.23",
                            "39.15"
                        ],
                        [
                            "-87.69",
                            "39.27"
                        ],
                        [
                            "-87.21",
                            "39.48"
                        ],
                        [
                            "-87.19",
                            "39.87"
                        ],
                        [
                            "-87.92",
                            "40.20"
                        ],
                        [
                            "-88.53",
                            "40.44"
                        ],
                        [
                            "-88.98",
                            "40.68"
                        ],
                        [
                            "-89.59",
                            "40.96"
                        ],
                        [
                            "-90.35",
                            "41.16"
                        ],
                        [
                            "-91.28",
                            "41.15"
                        ],
                        [
                            "-91.29",
                            "40.77"
                        ]
                    ]
                ]
            },
            "properties": {
                "forecastId": null,
                "geometryId": null,
                "tag": "1C",
                "forecastHour": 3,
                "hazard": "FZLVL",
                "frequency": null,
                "severity": null,
                "status": "NRML",
                "base": null,
                "top": null,
                "fzlBase": null,
                "fzlTop": null,
                "level": "160",
                "product": "ZULU",
                "rawAirSigmet": null,
                "validTimeTo": "2026-08-15T18:00:00.000",
                "validTimeFrom": [
                    "2026-08-15T15:47"
                ]
            }
        },
        {
            "type": "Feature",
            "geometry": {
                "type": "Polygon",
                "coordinates": [
                    [
                        [
                            "-121.21",
                            "47.69"
                        ],
                        [
                            "-117.25",
                            "47.32"
                        ],
                        [
                            "-118.17",
                            "45.65"
                        ],
                        [
                            "-120.34",
                            "45.48"
                        ],
                        [
                            "-122.70",
                            "45.86"
                        ],
                        [
                            "-121.21",
                            "47.69"
                        ]
                    ]
                ]
            },
            "properties": {
                "forecastId": null,
                "geometryId": null,
                "tag": "2C",
                "forecastHour": 3,
                "hazard": "ICE",
                "frequency": null,
                "severity": "MOD",
                "status": "NRML",
                "base": "120",
                "top": "220",
                "fzlBase": null,
                "fzlTop": null,
                "level": null,
                "product": "ZULU",
                "rawAirSigmet": "ICE",
                "validTimeTo": "2026-08-15T18:00:00.000",
                "validTimeFrom": [
                    "2026-08-15T15:47"
                ]
            }
        },
        {
            "type": "Feature",
            "geometry": {
                "type": "Polygon",
                "coordinates": [
                    [
                        [
                            "-123.35",
                            "48.95"
                        ],
                        [
                            "-121.78",
                            "48.90"
                        ],
                        [
                            "-121.28",
                            "48.17"
                        ],
                        [
                            "-121.30",
                            "47.11"
                        ],
                        [
                            "-121.86",
                            "46.21"
                        ],
                        [
                            "-121.69",
                            "44.98"
                        ],
                        [
                            "-122.66",
                            "44.17"
                        ],
                        [
                            "-124.02",
                            "44.38"
                        ],
                        [
                            "-124.79",
                            "45.23"
                        ],
                        [
                            "-124.53",
                            "46.10"
                        ],
                        [
                            "-125.41",
                            "47.04"
                        ],
                        [
                            "-126.32",
                            "47.57"
                        ],
                        [
                            "-127.43",
                            "47.21"
                        ],
                        [
                            "-128.15",
                            "48.34"
                        ],
                        [
                            "-126.09",
                            "48.51"
                        ],
                        [
                            "-123.35",
                            "48.95"
                        ]
                    ]
                ]
            },
            "properties": {
                "forecastId": null,
                "geometryId": null,
                "tag": "2E",
                "forecastHour": 3,
                "hazard": "IFR",
                "frequency": null,
                "severity": null,
                "status": "NRML",
                "base": null,
                "top": null,
                "fzlBase": null,
                "fzlTop": null,
                "level": null,
                "product": "SIERRA",
                "rawAirSigmet": "CIG BLW 010 VIS BLW 3SM BR",
                "validTimeTo": "2026-08-15T18:00:00.000",
                "validTimeFrom": [
                    "2026-08-15T14:45"
                ]
            }
        },
        {
            "type": "Feature",
            "geometry": {
                "type": "Polygon",
                "coordinates": [
                    [
                        [
                            "-88.63",
                            "48.20"
                        ],
                        [
                            "-86.22",
                            "47.48"
                        ],
                        [
                            "-86.94",
                            "46.23"
                        ],
                        [
                            "-90.95",
                            "47.22"
                        ],
                        [
                            "-90.55",
                            "47.92"
                        ],
                        [
                            "-88.63",
                            "48.20"
                        ]
                    ]
                ]
            },
            "properties": {
                "forecastId": null,
                "geometryId": null,
                "tag": "1C",
                "forecastHour": 3,
                "hazard": "ICE",
                "frequency": null,
                "severity": "MOD",
                "status": "NRML",
                "base": "140",
                "top": "250",
                "fzlBase": null,
                "fzlTop": null,
                "level": null,
                "product": "ZULU",
                "rawAirSigmet": "ICE",
                "validTimeTo": "2026-08-15T18:00:00.000",
                "validTimeFrom": [
                    "2026-08-15T15:47"
                ]
            }
        },
        {
            "type": "Feature",
            "geometry": {
                "type": "Polygon",
                "coordinates": [
                    [
                        [
                            "-93.27",
                            "48.49"
                        ],
                        [
                            "-89.48",
                            "47.95"
                        ],
                        [
                            "-88.29",
                            "48.32"
                        ],
                        [
                            "-88.44",
                            "47.66"
                        ],
                        [
                            "-90.08",
                            "47.30"
                        ],
                        [
                            "-91.56",
                            "46.51"
                        ],
                        [
                            "-92.72",
                            "46.07"
                        ],
                        [
                            "-94.19",
                            "45.88"
                        ],
                        [
                            "-95.21",
                            "46.45"
                        ],
                        [
                            "-95.13",
                            "47.15"
                        ],
                        [
                            "-93.80",
                            "47.87"
                        ],
                        [
                            "-93.27",
                            "48.49"
                        ]
                    ]
                ]
            },
            "properties": {
                "forecastId": null,
                "geometryId": null,
                "tag": "1E",
                "forecastHour": 3,
                "hazard": "IFR",
                "frequency": null,
                "severity": null,
                "status": "NRML",
                "base": null,
                "top": null,
                "fzlBase": null,
                "fzlTop": null,
                "level": null,
                "product": "SIERRA",
                "rawAirSigmet": "CIG BLW 010 VIS BLW 3SM PCPN BR FG",
                "validTimeTo": "2026-08-15T18:00:00.000",
                "validTimeFrom": [
                    "2026-08-15T14:45"
                ]
            }
        },
        {
            "type": "Feature",
            "geometry": {
                "type": "Polygon",
                "coordinates": [
                    [
                        [
                            "-70.46",
                            "46.20"
                        ],
                        [
                            "-68.71",
                            "45.33"
                        ],
                        [
                            "-66.89",
                            "44.61"
                        ],
                        [
                            "-67.22",
                            "42.36"
                        ],
                        [
                            "-69.46",
                            "42.57"
                        ],
                        [
                            "-71.75",
                            "43.26"
                        ],
                        [
                            "-73.31",
                            "43.98"
                        ],
                        [
                            "-74.07",
                            "45.08"
                        ],
                        [
                            "-72.62",
                            "45.19"
                        ],
                        [
                            "-71.27",
                            "45.28"
                        ],
                        [
                            "-70.90",
                            "45.65"
                        ],
                        [
                            "-70.46",
                            "46.20"
                        ]
                    ]
                ]
            },
            "properties": {
                "forecastId": null,
                "geometryId": null,
                "tag": "2W",
                "forecastHour": 3,
                "hazard": "TURB-HI",
                "frequency": null,
                "severity": "MOD",
                "status": "NRML",
                "base": "230",
                "top": "370",
                "fzlBase": null,
                "fzlTop": null,
                "level": null,
                "product": "TANGO",
                "rawAirSigmet": null,
                "validTimeTo": "2026-08-15T18:00:00.000",
                "validTimeFrom": [
                    "2026-08-15T14:45"
                ]
            }
        },
        {
            "type": "Feature",
            "geometry": {
                "type": "LineString",
                "coordinates": [
                    [
                        "-133.64",
                        "41.07"
                    ],
                    [
                        "-132.24",
                        "42.69"
                    ],
                    [
                        "-131.29",
                        "43.79"
                    ],
                    [
                        "-131.46",
                        "45.18"
                    ],
                    [
                        "-131.32",
                        "45.66"
                    ],
                    [
                        "-130.57",
                        "46.05"
                    ],
                    [
                        "-128.37",
                        "46.79"
                    ],
                    [
                        "-127.86",
                        "47.23"
                    ],
                    [
                        "-126.61",
                        "47.67"
                    ],
                    [
                        "-124.44",
                        "47.20"
                    ],
                    [
                        "-123.46",
                        "46.17"
                    ],
                    [
                        "-122.54",
                        "46.27"
                    ],
                    [
                        "-122.01",
                        "46.74"
                    ],
                    [
                        "-120.13",
                        "47.68"
                    ],
                    [
                        "-118.17",
                        "48.32"
                    ],
                    [
                        "-115.96",
                        "48.78"
                    ],
                    [
                        "-113.23",
                        "48.94"
                    ],
                    [
                        "-110.87",
                        "48.62"
                    ],
                    [
                        "-109.81",
                        "48.37"
                    ],
                    [
                        "-108.57",
                        "48.42"
                    ],
                    [
                        "-104.64",
                        "49.23"
                    ],
                    [
                        "-102.65",
                        "49.98"
                    ],
                    [
                        "-101.19",
                        "50.87"
                    ],
                    [
                        "-99.92",
                        "51.64"
                    ],
                    [
                        "-98.15",
                        "52.23"
                    ],
                    [
                        "-96.94",
                        "52.48"
                    ],
                    [
                        "-95.51",
                        "52.54"
                    ],
                    [
                        "-93.43",
                        "51.92"
                    ],
                    [
                        "-91.31",
                        "51.63"
                    ],
                    [
                        "-89.59",
                        "51.13"
                    ],
                    [
                        "-88.29",
                        "50.81"
                    ],
                    [
                        "-87.18",
                        "51.07"
                    ],
                    [
                        "-86.65",
                        "51.79"
                    ],
                    [
                        "-85.56",
                        "52.21"
                    ],
                    [
                        "-81.53",
                        "51.11"
                    ],
                    [
                        "-80.09",
                        "50.26"
                    ],
                    [
                        "-79.48",
                        "49.65"
                    ],
                    [
                        "-79.17",
                        "48.96"
                    ],
                    [
                        "-77.95",
                        "47.98"
                    ],
                    [
                        "-77.72",
                        "47.30"
                    ],
                    [
                        "-78.23",
                        "46.61"
                    ],
                    [
                        "-78.61",
                        "45.86"
                    ],
                    [
                        "-78.76",
                        "44.84"
                    ],
                    [
                        "-78.15",
                        "44.35"
                    ],
                    [
                        "-77.08",
                        "44.01"
                    ],
                    [
                        "-74.15",
                        "42.61"
                    ],
                    [
                        "-73.21",
                        "42.57"
                    ],
                    [
                        "-72.16",
                        "42.84"
                    ],
                    [
                        "-70.24",
                        "43.57"
                    ],
                    [
                        "-69.41",
                        "43.67"
                    ],
                    [
                        "-68.19",
                        "43.33"
                    ],
                    [
                        "-66.96",
                        "42.61"
                    ],
                    [
                        "-65.27",
                        "41.68"
                    ],
                    [
                        "-63.16",
                        "40.88"
                    ]
                ]
            },
            "properties": {
                "forecastId": null,
                "geometryId": null,
                "tag": "1C",
                "forecastHour": 3,
                "hazard": "FZLVL",
                "frequency": null,
                "severity": null,
                "status": "NRML",
                "base": null,
                "top": null,
                "fzlBase": null,
                "fzlTop": null,
                "level": "120",
                "product": "ZULU",
                "rawAirSigmet": null,
                "validTimeTo": "2026-08-15T18:00:00.000",
                "validTimeFrom": [
                    "2026-08-15T15:47"
                ]
            }
        },
        {
            "type": "Feature",
            "geometry": {
                "type": "Polygon",
                "coordinates": [
                    [
                        [
                            "-121.40",
                            "48.98"
                        ],
                        [
                            "-118.69",
                            "48.90"
                        ],
                        [
                            "-118.78",
                            "47.32"
                        ],
                        [
                            "-118.37",
                            "45.83"
                        ],
                        [
                            "-119.65",
                            "44.79"
                        ],
                        [
                            "-120.09",
                            "43.66"
                        ],
                        [
                            "-121.73",
                            "43.74"
                        ],
                        [
                            "-122.25",
                            "44.93"
                        ],
                        [
                            "-122.33",
                            "46.82"
                        ],
                        [
                            "-121.40",
                            "48.98"
                        ]
                    ]
                ]
            },
            "properties": {
                "forecastId": null,
                "geometryId": null,
                "tag": "3E",
                "forecastHour": 3,
                "hazard": "MT_OBSC",
                "frequency": null,
                "severity": null,
                "status": "NRML",
                "base": null,
                "top": null,
                "fzlBase": null,
                "fzlTop": null,
                "level": null,
                "product": "SIERRA",
                "rawAirSigmet": "FU HZ",
                "validTimeTo": "2026-08-15T18:00:00.000",
                "validTimeFrom": [
                    "2026-08-15T14:45"
                ]
            }
        },
        {
            "type": "Feature",
            "geometry": {
                "type": "Polygon",
                "coordinates": [
                    [
                        [
                            "-124.83",
                            "28.98"
                        ],
                        [
                            "-123.99",
                            "29.06"
                        ],
                        [
                            "-123.53",
                            "28.77"
                        ],
                        [
                            "-123.37",
                            "28.42"
                        ],
                        [
                            "-123.40",
                            "28.05"
                        ],
                        [
                            "-123.62",
                            "27.55"
                        ],
                        [
                            "-123.94",
                            "27.14"
                        ],
                        [
                            "-124.41",
                            "26.73"
                        ],
                        [
                            "-125.02",
                            "26.42"
                        ],
                        [
                            "-125.83",
                            "26.32"
                        ],
                        [
                            "-126.34",
                            "26.34"
                        ],
                        [
                            "-127.11",
                            "26.55"
                        ],
                        [
                            "-126.91",
                            "27.21"
                        ],
                        [
                            "-126.59",
                            "27.60"
                        ],
                        [
                            "-126.26",
                            "27.95"
                        ],
                        [
                            "-125.84",
                            "28.32"
                        ],
                        [
                            "-125.20",
                            "28.78"
                        ],
                        [
                            "-124.83",
                            "28.98"
                        ]
                    ]
                ]
            },
            "properties": {
                "forecastId": null,
                "geometryId": null,
                "tag": "1C",
                "forecastHour": 3,
                "hazard": "FZLVL",
                "frequency": null,
                "severity": null,
                "status": "NRML",
                "base": null,
                "top": null,
                "fzlBase": null,
                "fzlTop": null,
                "level": "160",
                "product": "ZULU",
                "rawAirSigmet": null,
                "validTimeTo": "2026-08-15T18:00:00.000",
                "validTimeFrom": [
                    "2026-08-15T15:47"
                ]
            }
        },
        {
            "type": "Feature",
            "geometry": {
                "type": "Polygon",
                "coordinates": [
                    [
                        [
                            "-122.34",
                            "48.70"
                        ],
                        [
                            "-121.94",
                            "47.68"
                        ],
                        [
                            "-122.28",
                            "46.71"
                        ],
                        [
                            "-122.38",
                            "45.25"
                        ],
                        [
                            "-122.97",
                            "43.18"
                        ],
                        [
                            "-124.12",
                            "42.59"
                        ],
                        [
                            "-124.42",
                            "42.76"
                        ],
                        [
                            "-124.19",
                            "46.59"
                        ],
                        [
                            "-124.64",
                            "48.35"
                        ],
                        [
                            "-122.34",
                            "48.70"
                        ]
                    ]
                ]
            },
            "properties": {
                "forecastId": null,
                "geometryId": null,
                "tag": "2E",
                "forecastHour": 3,
                "hazard": "MT_OBSC",
                "frequency": null,
                "severity": null,
                "status": "NRML",
                "base": null,
                "top": null,
                "fzlBase": null,
                "fzlTop": null,
                "level": null,
                "product": "SIERRA",
                "rawAirSigmet": "MTNS OBSC BY CLDS BR",
                "validTimeTo": "2026-08-15T18:00:00.000",
                "validTimeFrom": [
                    "2026-08-15T14:45"
                ]
            }
        },
        {
            "type": "Feature",
            "geometry": {
                "type": "LineString",
                "coordinates": [
                    [
                        "-80.83",
                        "19.01"
                    ],
                    [
                        "-80.71",
                        "19.37"
                    ],
                    [
                        "-80.13",
                        "20.04"
                    ],
                    [
                        "-79.41",
                        "20.45"
                    ],
                    [
                        "-78.59",
                        "20.76"
                    ],
                    [
                        "-77.79",
                        "20.91"
                    ],
                    [
                        "-76.62",
                        "20.81"
                    ],
                    [
                        "-75.45",
                        "20.75"
                    ],
                    [
                        "-74.33",
                        "20.42"
                    ],
                    [
                        "-73.59",
                        "20.08"
                    ],
                    [
                        "-72.41",
                        "20.11"
                    ],
                    [
                        "-71.62",
                        "20.13"
                    ],
                    [
                        "-70.45",
                        "20.07"
                    ],
                    [
                        "-69.34",
                        "19.71"
                    ],
                    [
                        "-68.61",
                        "19.43"
                    ]
                ]
            },
            "properties": {
                "forecastId": null,
                "geometryId": null,
                "tag": "1C",
                "forecastHour": 3,
                "hazard": "FZLVL",
                "frequency": null,
                "severity": null,
                "status": "NRML",
                "base": null,
                "top": null,
                "fzlBase": null,
                "fzlTop": null,
                "level": "160",
                "product": "ZULU",
                "rawAirSigmet": null,
                "validTimeTo": "2026-08-15T18:00:00.000",
                "validTimeFrom": [
                    "2026-08-15T15:47"
                ]
            }
        },
        {
            "type": "Feature",
            "geometry": {
                "type": "Polygon",
                "coordinates": [
                    [
                        [
                            "-81.23",
                            "39.64"
                        ],
                        [
                            "-79.78",
                            "39.31"
                        ],
                        [
                            "-79.33",
                            "38.73"
                        ],
                        [
                            "-78.27",
                            "38.68"
                        ],
                        [
                            "-80.76",
                            "35.27"
                        ],
                        [
                            "-84.54",
                            "33.60"
                        ],
                        [
                            "-84.97",
                            "34.71"
                        ],
                        [
                            "-83.99",
                            "35.90"
                        ],
                        [
                            "-83.82",
                            "37.67"
                        ],
                        [
                            "-82.18",
                            "38.67"
                        ],
                        [
                            "-81.23",
                            "39.64"
                        ]
                    ]
                ]
            },
            "properties": {
                "forecastId": null,
                "geometryId": null,
                "tag": "1E",
                "forecastHour": 3,
                "hazard": "MT_OBSC",
                "frequency": null,
                "severity": null,
                "status": "NRML",
                "base": null,
                "top": null,
                "fzlBase": null,
                "fzlTop": null,
                "level": null,
                "product": "SIERRA",
                "rawAirSigmet": "MTNS OBSC BY CLDS BR",
                "validTimeTo": "2026-08-15T18:00:00.000",
                "validTimeFrom": [
                    "2026-08-15T14:45"
                ]
            }
        },
        {
            "type": "Feature",
            "geometry": {
                "type": "LineString",
                "coordinates": [
                    [
                        "-127.44",
                        "21.43"
                    ],
                    [
                        "-126.55",
                        "21.33"
                    ],
                    [
                        "-125.64",
                        "20.94"
                    ],
                    [
                        "-124.02",
                        "19.71"
                    ],
                    [
                        "-122.99",
                        "19.85"
                    ],
                    [
                        "-122.37",
                        "20.40"
                    ],
                    [
                        "-122.17",
                        "21.21"
                    ],
                    [
                        "-121.77",
                        "21.73"
                    ],
                    [
                        "-120.97",
                        "21.73"
                    ],
                    [
                        "-120.55",
                        "21.06"
                    ],
                    [
                        "-119.65",
                        "20.56"
                    ],
                    [
                        "-118.73",
                        "20.66"
                    ],
                    [
                        "-116.04",
                        "23.48"
                    ],
                    [
                        "-116.60",
                        "24.36"
                    ],
                    [
                        "-117.83",
                        "24.49"
                    ],
                    [
                        "-118.43",
                        "24.41"
                    ],
                    [
                        "-118.84",
                        "24.83"
                    ],
                    [
                        "-118.24",
                        "25.78"
                    ],
                    [
                        "-116.61",
                        "28.40"
                    ],
                    [
                        "-115.45",
                        "29.67"
                    ],
                    [
                        "-114.68",
                        "30.40"
                    ],
                    [
                        "-113.97",
                        "30.63"
                    ],
                    [
                        "-113.24",
                        "29.92"
                    ],
                    [
                        "-112.93",
                        "28.35"
                    ],
                    [
                        "-112.34",
                        "27.59"
                    ],
                    [
                        "-111.09",
                        "27.64"
                    ],
                    [
                        "-109.58",
                        "26.42"
                    ],
                    [
                        "-108.80",
                        "25.69"
                    ],
                    [
                        "-108.31",
                        "24.59"
                    ],
                    [
                        "-108.19",
                        "22.96"
                    ],
                    [
                        "-108.00",
                        "21.67"
                    ],
                    [
                        "-107.43",
                        "21.11"
                    ],
                    [
                        "-106.72",
                        "20.72"
                    ],
                    [
                        "-105.88",
                        "20.62"
                    ],
                    [
                        "-104.12",
                        "20.28"
                    ],
                    [
                        "-103.51",
                        "20.32"
                    ],
                    [
                        "-103.28",
                        "20.98"
                    ],
                    [
                        "-103.16",
                        "22.21"
                    ],
                    [
                        "-102.53",
                        "22.81"
                    ],
                    [
                        "-101.23",
                        "23.20"
                    ],
                    [
                        "-100.16",
                        "23.50"
                    ],
                    [
                        "-99.42",
                        "24.06"
                    ],
                    [
                        "-98.25",
                        "25.70"
                    ],
                    [
                        "-97.91",
                        "26.80"
                    ],
                    [
                        "-97.84",
                        "27.81"
                    ],
                    [
                        "-98.22",
                        "28.58"
                    ],
                    [
                        "-98.89",
                        "29.05"
                    ],
                    [
                        "-100.47",
                        "29.70"
                    ],
                    [
                        "-102.05",
                        "30.16"
                    ],
                    [
                        "-104.41",
                        "30.64"
                    ],
                    [
                        "-105.66",
                        "30.96"
                    ],
                    [
                        "-106.60",
                        "31.60"
                    ],
                    [
                        "-107.85",
                        "31.73"
                    ],
                    [
                        "-108.88",
                        "31.30"
                    ],
                    [
                        "-109.38",
                        "31.61"
                    ],
                    [
                        "-109.31",
                        "32.25"
                    ],
                    [
                        "-108.79",
                        "32.97"
                    ],
                    [
                        "-107.40",
                        "34.21"
                    ],
                    [
                        "-106.24",
                        "35.51"
                    ],
                    [
                        "-105.33",
                        "36.91"
                    ],
                    [
                        "-104.07",
                        "37.99"
                    ],
                    [
                        "-101.89",
                        "41.43"
                    ],
                    [
                        "-101.10",
                        "42.20"
                    ],
                    [
                        "-99.92",
                        "42.68"
                    ],
                    [
                        "-97.26",
                        "42.08"
                    ],
                    [
                        "-95.46",
                        "41.04"
                    ],
                    [
                        "-94.61",
                        "40.54"
                    ],
                    [
                        "-94.14",
                        "39.61"
                    ],
                    [
                        "-93.57",
                        "39.83"
                    ],
                    [
                        "-93.63",
                        "40.47"
                    ],
                    [
                        "-93.96",
                        "41.31"
                    ],
                    [
                        "-93.92",
                        "42.27"
                    ],
                    [
                        "-94.46",
                        "43.11"
                    ],
                    [
                        "-94.40",
                        "44.55"
                    ],
                    [
                        "-93.97",
                        "45.56"
                    ],
                    [
                        "-92.97",
                        "46.15"
                    ],
                    [
                        "-92.05",
                        "46.53"
                    ],
                    [
                        "-90.27",
                        "46.71"
                    ],
                    [
                        "-89.04",
                        "46.29"
                    ],
                    [
                        "-88.19",
                        "45.58"
                    ],
                    [
                        "-86.76",
                        "44.39"
                    ],
                    [
                        "-85.33",
                        "43.60"
                    ],
                    [
                        "-83.70",
                        "42.52"
                    ],
                    [
                        "-83.55",
                        "41.55"
                    ],
                    [
                        "-83.64",
                        "40.50"
                    ],
                    [
                        "-84.27",
                        "39.62"
                    ],
                    [
                        "-83.74",
                        "38.49"
                    ],
                    [
                        "-82.80",
                        "37.95"
                    ],
                    [
                        "-81.54",
                        "38.08"
                    ],
                    [
                        "-79.04",
                        "38.52"
                    ],
                    [
                        "-78.22",
                        "39.24"
                    ],
                    [
                        "-77.20",
                        "39.80"
                    ],
                    [
                        "-76.11",
                        "39.69"
                    ],
                    [
                        "-74.77",
                        "39.22"
                    ],
                    [
                        "-72.61",
                        "38.56"
                    ],
                    [
                        "-70.43",
                        "38.11"
                    ],
                    [
                        "-68.03",
                        "37.71"
                    ],
                    [
                        "-66.59",
                        "37.28"
                    ],
                    [
                        "-66.28",
                        "36.76"
                    ],
                    [
                        "-66.54",
                        "36.01"
                    ],
                    [
                        "-67.12",
                        "35.08"
                    ],
                    [
                        "-68.62",
                        "35.21"
                    ],
                    [
                        "-71.21",
                        "36.02"
                    ],
                    [
                        "-72.39",
                        "35.76"
                    ],
                    [
                        "-73.06",
                        "34.99"
                    ],
                    [
                        "-73.57",
                        "34.09"
                    ],
                    [
                        "-73.70",
                        "33.33"
                    ],
                    [
                        "-72.80",
                        "32.09"
                    ],
                    [
                        "-72.34",
                        "31.44"
                    ],
                    [
                        "-72.74",
                        "30.93"
                    ],
                    [
                        "-74.57",
                        "30.37"
                    ],
                    [
                        "-77.32",
                        "30.06"
                    ],
                    [
                        "-78.58",
                        "30.13"
                    ],
                    [
                        "-79.98",
                        "30.01"
                    ],
                    [
                        "-81.00",
                        "29.78"
                    ],
                    [
                        "-82.31",
                        "30.17"
                    ],
                    [
                        "-83.24",
                        "30.64"
                    ],
                    [
                        "-84.81",
                        "31.04"
                    ],
                    [
                        "-85.61",
                        "31.19"
                    ],
                    [
                        "-86.47",
                        "30.97"
                    ],
                    [
                        "-87.38",
                        "30.77"
                    ],
                    [
                        "-88.22",
                        "30.12"
                    ],
                    [
                        "-89.20",
                        "26.35"
                    ],
                    [
                        "-89.37",
                        "25.24"
                    ],
                    [
                        "-90.04",
                        "24.20"
                    ],
                    [
                        "-91.03",
                        "22.54"
                    ],
                    [
                        "-92.14",
                        "20.92"
                    ],
                    [
                        "-91.06",
                        "20.58"
                    ],
                    [
                        "-90.61",
                        "19.64"
                    ]
                ]
            },
            "properties": {
                "forecastId": null,
                "geometryId": null,
                "tag": "1C",
                "forecastHour": 3,
                "hazard": "FZLVL",
                "frequency": null,
                "severity": null,
                "status": "NRML",
                "base": null,
                "top": null,
                "fzlBase": null,
                "fzlTop": null,
                "level": "160",
                "product": "ZULU",
                "rawAirSigmet": null,
                "validTimeTo": "2026-08-15T18:00:00.000",
                "validTimeFrom": [
                    "2026-08-15T15:47"
                ]
            }
        },
        {
            "type": "Feature",
            "geometry": {
                "type": "Polygon",
                "coordinates": [
                    [
                        [
                            "-124.50",
                            "43.89"
                        ],
                        [
                            "-124.03",
                            "43.51"
                        ],
                        [
                            "-124.22",
                            "42.57"
                        ],
                        [
                            "-123.74",
                            "41.79"
                        ],
                        [
                            "-123.70",
                            "41.12"
                        ],
                        [
                            "-124.05",
                            "40.44"
                        ],
                        [
                            "-123.43",
                            "39.57"
                        ],
                        [
                            "-123.14",
                            "38.78"
                        ],
                        [
                            "-122.18",
                            "37.89"
                        ],
                        [
                            "-122.05",
                            "36.77"
                        ],
                        [
                            "-121.54",
                            "36.09"
                        ],
                        [
                            "-120.90",
                            "35.65"
                        ],
                        [
                            "-120.70",
                            "34.49"
                        ],
                        [
                            "-121.42",
                            "33.85"
                        ],
                        [
                            "-122.84",
                            "34.28"
                        ],
                        [
                            "-123.54",
                            "35.05"
                        ],
                        [
                            "-124.25",
                            "36.06"
                        ],
                        [
                            "-125.64",
                            "37.97"
                        ],
                        [
                            "-125.20",
                            "38.76"
                        ],
                        [
                            "-125.23",
                            "39.63"
                        ],
                        [
                            "-125.19",
                            "40.53"
                        ],
                        [
                            "-124.84",
                            "41.26"
                        ],
                        [
                            "-125.23",
                            "41.94"
                        ],
                        [
                            "-125.43",
                            "42.87"
                        ],
                        [
                            "-125.10",
                            "43.59"
                        ],
                        [
                            "-124.50",
                            "43.89"
                        ]
                    ]
                ]
            },
            "properties": {
                "forecastId": null,
                "geometryId": null,
                "tag": "2E",
                "forecastHour": 3,
                "hazard": "IFR",
                "frequency": null,
                "severity": null,
                "status": "NRML",
                "base": null,
                "top": null,
                "fzlBase": null,
                "fzlTop": null,
                "level": null,
                "product": "SIERRA",
                "rawAirSigmet": "CIG BLW 010 VIS BLW 3SM BR",
                "validTimeTo": "2026-08-15T18:00:00.000",
                "validTimeFrom": [
                    "2026-08-15T14:45"
                ]
            }
        },
        {
            "type": "Feature",
            "geometry": {
                "type": "Polygon",
                "coordinates": [
                    [
                        [
                            "-123.47",
                            "38.80"
                        ],
                        [
                            "-122.49",
                            "38.51"
                        ],
                        [
                            "-121.96",
                            "37.92"
                        ],
                        [
                            "-121.28",
                            "36.52"
                        ],
                        [
                            "-121.72",
                            "36.23"
                        ],
                        [
                            "-123.47",
                            "38.80"
                        ]
                    ]
                ]
            },
            "properties": {
                "forecastId": null,
                "geometryId": null,
                "tag": "5E",
                "forecastHour": 3,
                "hazard": "MT_OBSC",
                "frequency": null,
                "severity": null,
                "status": "NRML",
                "base": null,
                "top": null,
                "fzlBase": null,
                "fzlTop": null,
                "level": null,
                "product": "SIERRA",
                "rawAirSigmet": "MTNS OBSC BY CLDS BR",
                "validTimeTo": "2026-08-15T18:00:00.000",
                "validTimeFrom": [
                    "2026-08-15T14:45"
                ]
            }
        },
        {
            "type": "Feature",
            "geometry": {
                "type": "LineString",
                "coordinates": [
                    [
                        "-72.34",
                        "57.35"
                    ],
                    [
                        "-72.07",
                        "56.71"
                    ],
                    [
                        "-71.41",
                        "56.03"
                    ],
                    [
                        "-70.81",
                        "55.58"
                    ],
                    [
                        "-70.14",
                        "54.95"
                    ],
                    [
                        "-69.14",
                        "54.53"
                    ],
                    [
                        "-67.94",
                        "54.25"
                    ],
                    [
                        "-66.82",
                        "53.93"
                    ],
                    [
                        "-66.02",
                        "53.50"
                    ],
                    [
                        "-65.19",
                        "52.81"
                    ],
                    [
                        "-65.15",
                        "52.09"
                    ],
                    [
                        "-65.21",
                        "51.27"
                    ],
                    [
                        "-64.27",
                        "50.93"
                    ],
                    [
                        "-62.85",
                        "50.50"
                    ],
                    [
                        "-61.32",
                        "50.51"
                    ],
                    [
                        "-60.56",
                        "50.73"
                    ],
                    [
                        "-59.47",
                        "50.96"
                    ]
                ]
            },
            "properties": {
                "forecastId": null,
                "geometryId": null,
                "tag": "1C",
                "forecastHour": 3,
                "hazard": "FZLVL",
                "frequency": null,
                "severity": null,
                "status": "NRML",
                "base": null,
                "top": null,
                "fzlBase": null,
                "fzlTop": null,
                "level": "080",
                "product": "ZULU",
                "rawAirSigmet": null,
                "validTimeTo": "2026-08-15T18:00:00.000",
                "validTimeFrom": [
                    "2026-08-15T15:47"
                ]
            }
        },
        {
            "type": "Feature",
            "geometry": {
                "type": "Polygon",
                "coordinates": [
                    [
                        [
                            "-83.01",
                            "27.87"
                        ],
                        [
                            "-82.59",
                            "27.97"
                        ],
                        [
                            "-82.18",
                            "27.87"
                        ],
                        [
                            "-81.80",
                            "27.61"
                        ],
                        [
                            "-81.72",
                            "27.53"
                        ],
                        [
                            "-81.49",
                            "27.14"
                        ],
                        [
                            "-81.48",
                            "26.79"
                        ],
                        [
                            "-81.48",
                            "26.78"
                        ],
                        [
                            "-81.48",
                            "26.76"
                        ],
                        [
                            "-81.61",
                            "26.42"
                        ],
                        [
                            "-81.96",
                            "26.10"
                        ],
                        [
                            "-82.37",
                            "26.14"
                        ],
                        [
                            "-82.76",
                            "26.30"
                        ],
                        [
                            "-83.11",
                            "26.55"
                        ],
                        [
                            "-83.14",
                            "26.58"
                        ],
                        [
                            "-83.31",
                            "26.93"
                        ],
                        [
                            "-83.38",
                            "27.30"
                        ],
                        [
                            "-83.28",
                            "27.66"
                        ],
                        [
                            "-83.01",
                            "27.87"
                        ]
                    ]
                ]
            },
            "properties": {
                "forecastId": null,
                "geometryId": null,
                "tag": "1C",
                "forecastHour": 3,
                "hazard": "FZLVL",
                "frequency": null,
                "severity": null,
                "status": "NRML",
                "base": null,
                "top": null,
                "fzlBase": null,
                "fzlTop": null,
                "level": "160",
                "product": "ZULU",
                "rawAirSigmet": null,
                "validTimeTo": "2026-08-15T18:00:00.000",
                "validTimeFrom": [
                    "2026-08-15T15:47"
                ]
            }
        },
        {
            "type": "Feature",
            "geometry": {
                "type": "Polygon",
                "coordinates": [
                    [
                        [
                            "-93.85",
                            "43.87"
                        ],
                        [
                            "-91.87",
                            "43.80"
                        ],
                        [
                            "-90.26",
                            "43.33"
                        ],
                        [
                            "-89.04",
                            "43.22"
                        ],
                        [
                            "-87.51",
                            "43.36"
                        ],
                        [
                            "-85.66",
                            "42.70"
                        ],
                        [
                            "-84.70",
                            "41.61"
                        ],
                        [
                            "-84.74",
                            "40.62"
                        ],
                        [
                            "-85.96",
                            "40.14"
                        ],
                        [
                            "-87.84",
                            "40.55"
                        ],
                        [
                            "-89.43",
                            "41.12"
                        ],
                        [
                            "-91.05",
                            "41.01"
                        ],
                        [
                            "-92.92",
                            "40.80"
                        ],
                        [
                            "-94.34",
                            "41.32"
                        ],
                        [
                            "-96.42",
                            "40.87"
                        ],
                        [
                            "-98.43",
                            "41.29"
                        ],
                        [
                            "-100.27",
                            "40.67"
                        ],
                        [
                            "-101.14",
                            "40.99"
                        ],
                        [
                            "-101.12",
                            "42.46"
                        ],
                        [
                            "-100.19",
                            "43.43"
                        ],
                        [
                            "-98.93",
                            "43.84"
                        ],
                        [
                            "-97.38",
                            "43.68"
                        ],
                        [
                            "-95.50",
                            "43.61"
                        ],
                        [
                            "-93.85",
                            "43.87"
                        ]
                    ]
                ]
            },
            "properties": {
                "forecastId": null,
                "geometryId": null,
                "tag": "1E",
                "forecastHour": 3,
                "hazard": "IFR",
                "frequency": null,
                "severity": null,
                "status": "NRML",
                "base": null,
                "top": null,
                "fzlBase": null,
                "fzlTop": null,
                "level": null,
                "product": "SIERRA",
                "rawAirSigmet": "CIG BLW 010 VIS BLW 3SM PCPN BR FG",
                "validTimeTo": "2026-08-15T18:00:00.000",
                "validTimeFrom": [
                    "2026-08-15T14:45"
                ]
            }
        }
    ],
    "metadata": {
        "creationTime": "2026-08-15T16:32"
    }
}