{
    "type": "FeatureCollection",
    "features": [
        {
            "type": "Feature",
            "geometry": {
                "type": "LineString",
                "coordinates": [
                    [
                        "-103.75",
                        "19.45"
                    ],
                    [
                        "-103.90",
                        "20.32"
                    ],
                    [
                        "-104.22",
                        "20.71"
                    ],
                    [
                        "-105.19",
                        "21.40"
                    ],
                    [
                        "-106.22",
                        "22.12"
                    ],
                    [
                        "-106.94",
                        "23.18"
                    ],
                    [
                        "-107.71",
                        "24.14"
                    ],
                    [
                        "-108.72",
                        "24.89"
                    ],
                    [
                        "-110.17",
                        "26.74"
                    ],
                    [
                        "-110.84",
                        "27.10"
                    ],
                    [
                        "-111.28",
                        "26.65"
                    ],
                    [
                        "-111.06",
                        "25.06"
                    ],
                    [
                        "-111.33",
                        "24.53"
                    ],
                    [
                        "-112.13",
                        "24.31"
                    ],
                    [
                        "-113.21",
                        "25.05"
                    ],
                    [
                        "-114.45",
                        "25.39"
                    ],
                    [
                        "-115.64",
                        "25.00"
                    ],
                    [
                        "-116.62",
                        "24.18"
                    ],
                    [
                        "-116.98",
                        "23.75"
                    ],
                    [
                        "-117.83",
                        "23.60"
                    ],
                    [
                        "-119.74",
                        "25.04"
                    ],
                    [
                        "-120.84",
                        "25.86"
                    ],
                    [
                        "-122.40",
                        "25.89"
                    ],
                    [
                        "-125.43",
                        "24.73"
                    ],
                    [
                        "-126.75",
                        "24.09"
                    ],
                    [
                        "-128.05",
                        "23.71"
                    ]
                ]
            },
            "properties": {
                "forecastId": null,
                "geometryId": null,
                "tag": "1C",
                "forecastHour": 0,
                "hazard": "FZLVL",
                "frequency": null,
                "severity": null,
                "status": "NRML",
                "base": null,
                "top": null,
                "fzlBase": null,
                "fzlTop": null,
                "level": "160",
                "product": "ZULU",
                "rawAirSigmet": null,
                "validTimeTo": "2026-07-30T09:00:00.000",
                "validTimeFrom": [
                    "2026-07-30T08:45"
                ]
            }
        },
        {
            "type": "Feature",
            "geometry": {
                "type": "LineString",
                "coordinates": [
                    [
                        "-123.64",
                        "16.82"
                    ],
                    [
                        "-124.51",
                        "17.75"
                    ],
                    [
                        "-124.88",
                        "18.79"
                    ],
                    [
                        "-124.59",
                        "19.62"
                    ],
                    [
                        "-124.11",
                        "20.81"
                    ],
                    [
                        "-123.44",
                        "21.54"
                    ],
                    [
                        "-122.34",
                        "21.97"
                    ],
                    [
                        "-121.47",
                        "21.67"
                    ],
                    [
                        "-120.55",
                        "21.08"
                    ],
                    [
                        "-119.31",
                        "20.85"
                    ],
                    [
                        "-118.26",
                        "20.40"
                    ],
                    [
                        "-117.56",
                        "19.40"
                    ],
                    [
                        "-117.27",
                        "18.34"
                    ],
                    [
                        "-117.25",
                        "17.98"
                    ]
                ]
            },
            "properties": {
                "forecastId": null,
                "geometryId": null,
                "tag": "1C",
                "forecastHour": 0,
                "hazard": "FZLVL",
                "frequency": null,
                "severity": null,
                "status": "NRML",
                "base": null,
                "top": null,
                "fzlBase": null,
                "fzlTop": null,
                "level": "160",
                "product": "ZULU",
                "rawAirSigmet": null,
                "validTimeTo": "2026-07-30T09:00:00.000",
                "validTimeFrom": [
                    "2026-07-30T08:45"
                ]
            }
        },
        {
            "type": "Feature",
            "geometry": {
                "type": "Polygon",
                "coordinates": [
                    [
                        [
                            "-77.64",
                            "42.74"
                        ],
                        [
                            "-76.25",
                            "42.34"
                        ],
                        [
                            "-75.53",
                            "41.77"
                        ],
                        [
                            "-75.16",
                            "41.24"
                        ],
                        [
                            "-75.04",
                            "39.76"
                        ],
                        [
                            "-75.77",
                            "39.01"
                        ],
                        [
                            "-76.44",
                            "38.54"
                        ],
                        [
                            "-77.40",
                            "37.94"
                        ],
                        [
                            "-79.31",
                            "38.55"
                        ],
                        [
                            "-79.83",
                            "39.66"
                        ],
                        [
                            "-78.78",
                            "40.70"
                        ],
                        [
                            "-78.71",
                            "41.15"
                        ],
                        [
                            "-79.15",
                            "41.61"
                        ],
                        [
                            "-78.79",
                            "42.23"
                        ],
                        [
                            "-77.64",
                            "42.74"
                        ]
                    ]
                ]
            },
            "properties": {
                "forecastId": null,
                "geometryId": null,
                "tag": "2W",
                "forecastHour": 0,
                "hazard": "TURB-LO",
                "frequency": null,
                "severity": "MOD",
                "status": "NRML",
                "base": "020",
                "top": "080",
                "fzlBase": null,
                "fzlTop": null,
                "level": null,
                "product": "TANGO",
                "rawAirSigmet": null,
                "validTimeTo": "2026-07-30T09:00:00.000",
                "validTimeFrom": [
                    "2026-07-30T08:45"
                ]
            }
        },
        {
            "type": "Feature",
            "geometry": {
                "type": "Polygon",
                "coordinates": [
                    [
                        [
                            "-99.27",
                            "42.09"
                        ],
                        [
                            "-97.92",
                            "41.88"
                        ],
                        [
                            "-96.68",
                            "41.33"
                        ],
                        [
                            "-95.64",
                            "40.78"
                        ],
                        [
                            "-94.57",
                            "39.95"
                        ],
                        [
                            "-93.77",
                            "39.05"
                        ],
                        [
                            "-93.32",
                            "37.87"
                        ],
                        [
                            "-93.77",
                            "37.18"
                        ],
                        [
                            "-94.57",
                            "37.04"
                        ],
                        [
                            "-95.88",
                            "37.73"
                        ],
                        [
                            "-96.37",
                            "38.88"
                        ],
                        [
                            "-97.68",
                            "39.84"
                        ],
                        [
                            "-99.06",
                            "40.19"
                        ],
                        [
                            "-100.03",
                            "40.92"
                        ],
                        [
                            "-100.27",
                            "41.71"
                        ],
                        [
                            "-99.27",
                            "42.09"
                        ]
                    ]
                ]
            },
            "properties": {
                "forecastId": null,
                "geometryId": null,
                "tag": "2C",
                "forecastHour": 0,
                "hazard": "ICE",
                "frequency": null,
                "severity": "MOD",
                "status": "NRML",
                "base": "160",
                "top": "260",
                "fzlBase": null,
                "fzlTop": null,
                "level": null,
                "product": "ZULU",
                "rawAirSigmet": "ICE",
                "validTimeTo": "2026-07-30T09:00:00.000",
                "validTimeFrom": [
                    "2026-07-30T08:45"
                ]
            }
        },
        {
            "type": "Feature",
            "geometry": {
                "type": "Polygon",
                "coordinates": [
                    [
                        [
                            "-71.55",
                            "44.18"
                        ],
                        [
                            "-70.41",
                            "43.96"
                        ],
                        [
                            "-70.63",
                            "43.01"
                        ],
                        [
                            "-71.78",
                            "42.28"
                        ],
                        [
                            "-73.44",
                            "42.18"
                        ],
                        [
                            "-74.11",
                            "42.89"
                        ],
                        [
                            "-73.49",
                            "43.87"
                        ],
                        [
                            "-71.55",
                            "44.18"
                        ]
                    ]
                ]
            },
            "properties": {
                "forecastId": null,
                "geometryId": null,
                "tag": "1W",
                "forecastHour": 0,
                "hazard": "TURB-LO",
                "frequency": null,
                "severity": "MOD",
                "status": "NRML",
                "base": "020",
                "top": "100",
                "fzlBase": null,
                "fzlTop": null,
                "level": null,
                "product": "TANGO",
                "rawAirSigmet": null,
                "validTimeTo": "2026-07-30T09:00:00.000",
                "validTimeFrom": [
                    "2026-07-30T08:45"
                ]
            }
        },
        {
            "type": "Feature",
            "geometry": {
                "type": "LineString",
                "coordinates": [
                    [
                        "-135.29",
                        "45.10"
                    ],
                    [
                        "-131.75",
                        "46.33"
                    ],
                    [
                        "-128.13",
                        "47.88"
                    ],
                    [
                        "-126.91",
                        "48.95"
                    ],
                    [
                        "-124.73",
                        "49.59"
                    ],
                    [
                        "-122.90",
                        "50.36"
                    ],
                    [
                        "-120.96",
                        "50.94"
                    ],
                    [
                        "-119.36",
                        "51.82"
                    ],
                    [
                        "-118.37",
                        "52.22"
                    ],
                    [
                        "-117.16",
                        "52.36"
                    ],
                    [
                        "-111.88",
                        "52.50"
                    ],
                    [
                        "-109.55",
                        "52.38"
                    ],
                    [
                        "-107.64",
                        "52.47"
                    ],
                    [
                        "-106.32",
                        "52.81"
                    ],
                    [
                        "-105.99",
                        "53.29"
                    ],
                    [
                        "-106.13",
                        "54.44"
                    ],
                    [
                        "-103.57",
                        "54.85"
                    ],
                    [
                        "-101.50",
                        "54.85"
                    ],
                    [
                        "-99.21",
                        "55.21"
                    ],
                    [
                        "-97.29",
                        "55.93"
                    ],
                    [
                        "-96.40",
                        "56.97"
                    ],
                    [
                        "-96.17",
                        "57.74"
                    ],
                    [
                        "-95.64",
                        "58.36"
                    ]
                ]
            },
            "properties": {
                "forecastId": null,
                "geometryId": null,
                "tag": "1C",
                "forecastHour": 0,
                "hazard": "FZLVL",
                "frequency": null,
                "severity": null,
                "status": "NRML",
                "base": null,
                "top": null,
                "fzlBase": null,
                "fzlTop": null,
                "level": "120",
                "product": "ZULU",
                "rawAirSigmet": null,
                "validTimeTo": "2026-07-30T09:00:00.000",
                "validTimeFrom": [
                    "2026-07-30T08:45"
                ]
            }
        },
        {
            "type": "Feature",
            "geometry": {
                "type": "Polygon",
                "coordinates": [
                    [
                        [
                            "-76.81",
                            "41.75"
                        ],
                        [
                            "-75.83",
                            "41.54"
                        ],
                        [
                            "-75.61",
                            "40.79"
                        ],
                        [
                            "-76.49",
                            "39.11"
                        ],
                        [
                            "-77.07",
                            "39.01"
                        ],
                        [
                            "-77.60",
                            "39.28"
                        ],
                        [
                            "-77.44",
                            "40.16"
                        ],
                        [
                            "-77.40",
                            "40.88"
                        ],
                        [
                            "-76.81",
                            "41.75"
                        ]
                    ]
                ]
            },
            "properties": {
                "forecastId": null,
                "geometryId": null,
                "tag": "2W",
                "forecastHour": 0,
                "hazard": "LLWS",
                "frequency": null,
                "severity": null,
                "status": "NRML",
                "base": null,
                "top": null,
                "fzlBase": null,
                "fzlTop": null,
                "level": null,
                "product": "TANGO",
                "rawAirSigmet": "AIR SPEED LOSS OR GAIN OF 20KTS OR MORE BELOW 2000 FT AGL",
                "validTimeTo": "2026-07-30T09:00:00.000",
                "validTimeFrom": [
                    "2026-07-30T08:45"
                ]
            }
        },
        {
            "type": "Feature",
            "geometry": {
                "type": "Polygon",
                "coordinates": [
                    [
                        [
                            "-98.89",
                            "42.35"
                        ],
                        [
                            "-98.09",
                            "41.90"
                        ],
                        [
                            "-97.06",
                            "41.47"
                        ],
                        [
                            "-96.23",
                            "40.31"
                        ],
                        [
                            "-96.23",
                            "39.42"
                        ],
                        [
                            "-100.01",
                            "39.09"
                        ],
                        [
                            "-101.33",
                            "39.67"
                        ],
                        [
                            "-100.97",
                            "40.33"
                        ],
                        [
                            "-100.60",
                            "41.59"
                        ],
                        [
                            "-99.81",
                            "42.19"
                        ],
                        [
                            "-98.89",
                            "42.35"
                        ]
                    ]
                ]
            },
            "properties": {
                "forecastId": null,
                "geometryId": null,
                "tag": "5E",
                "forecastHour": 0,
                "hazard": "IFR",
                "frequency": null,
                "severity": null,
                "status": "NRML",
                "base": null,
                "top": null,
                "fzlBase": null,
                "fzlTop": null,
                "level": null,
                "product": "SIERRA",
                "rawAirSigmet": "CIG BLW 010 VIS BLW 3SM BR FG",
                "validTimeTo": "2026-07-30T09:00:00.000",
                "validTimeFrom": [
                    "2026-07-30T08:45"
                ]
            }
        },
        {
            "type": "Feature",
            "geometry": {
                "type": "LineString",
                "coordinates": [
                    [
                        "-93.22",
                        "58.36"
                    ],
                    [
                        "-91.68",
                        "57.12"
                    ],
                    [
                        "-89.48",
                        "56.22"
                    ],
                    [
                        "-88.63",
                        "55.65"
                    ],
                    [
                        "-87.54",
                        "55.42"
                    ],
                    [
                        "-85.82",
                        "54.51"
                    ],
                    [
                        "-84.38",
                        "53.19"
                    ],
                    [
                        "-81.83",
                        "52.48"
                    ],
                    [
                        "-79.88",
                        "51.63"
                    ],
                    [
                        "-78.98",
                        "51.18"
                    ],
                    [
                        "-77.39",
                        "50.97"
                    ],
                    [
                        "-75.51",
                        "50.86"
                    ],
                    [
                        "-74.01",
                        "50.55"
                    ],
                    [
                        "-73.65",
                        "49.91"
                    ],
                    [
                        "-74.23",
                        "49.19"
                    ],
                    [
                        "-74.05",
                        "47.49"
                    ],
                    [
                        "-74.81",
                        "45.85"
                    ],
                    [
                        "-74.17",
                        "45.03"
                    ],
                    [
                        "-73.42",
                        "44.50"
                    ],
                    [
                        "-72.08",
                        "44.46"
                    ],
                    [
                        "-70.81",
                        "44.70"
                    ],
                    [
                        "-68.72",
                        "45.17"
                    ],
                    [
                        "-66.59",
                        "45.51"
                    ],
                    [
                        "-65.10",
                        "45.71"
                    ],
                    [
                        "-64.76",
                        "46.41"
                    ],
                    [
                        "-65.15",
                        "48.05"
                    ],
                    [
                        "-64.71",
                        "49.23"
                    ],
                    [
                        "-64.12",
                        "49.99"
                    ],
                    [
                        "-62.31",
                        "51.01"
                    ],
                    [
                        "-60.98",
                        "52.51"
                    ],
                    [
                        "-60.19",
                        "53.22"
                    ],
                    [
                        "-59.18",
                        "53.50"
                    ],
                    [
                        "-58.27",
                        "53.65"
                    ]
                ]
            },
            "properties": {
                "forecastId": null,
                "geometryId": null,
                "tag": "1C",
                "forecastHour": 0,
                "hazard": "FZLVL",
                "frequency": null,
                "severity": null,
                "status": "NRML",
                "base": null,
                "top": null,
                "fzlBase": null,
                "fzlTop": null,
                "level": "120",
                "product": "ZULU",
                "rawAirSigmet": null,
                "validTimeTo": "2026-07-30T09:00:00.000",
                "validTimeFrom": [
                    "2026-07-30T08:45"
                ]
            }
        },
        {
            "type": "Feature",
            "geometry": {
                "type": "Polygon",
                "coordinates": [
                    [
                        [
                            "-67.55",
                            "45.34"
                        ],
                        [
                            "-66.89",
                            "44.90"
                        ],
                        [
                            "-67.13",
                            "41.69"
                        ],
                        [
                            "-67.12",
                            "40.26"
                        ],
                        [
                            "-67.72",
                            "39.70"
                        ],
                        [
                            "-68.65",
                            "40.37"
                        ],
                        [
                            "-69.98",
                            "40.28"
                        ],
                        [
                            "-70.79",
                            "40.11"
                        ],
                        [
                            "-74.30",
                            "40.87"
                        ],
                        [
                            "-76.04",
                            "41.16"
                        ],
                        [
                            "-77.17",
                            "41.48"
                        ],
                        [
                            "-77.58",
                            "41.95"
                        ],
                        [
                            "-77.35",
                            "43.02"
                        ],
                        [
                            "-76.68",
                            "43.85"
                        ],
                        [
                            "-75.83",
                            "44.30"
                        ],
                        [
                            "-74.10",
                            "44.08"
                        ],
                        [
                            "-73.55",
                            "44.49"
                        ],
                        [
                            "-73.03",
                            "44.79"
                        ],
                        [
                            "-72.19",
                            "45.10"
                        ],
                        [
                            "-70.26",
                            "45.25"
                        ],
                        [
                            "-69.47",
                            "45.03"
                        ],
                        [
                            "-67.55",
                            "45.34"
                        ]
                    ]
                ]
            },
            "properties": {
                "forecastId": null,
                "geometryId": null,
                "tag": "2E",
                "forecastHour": 0,
                "hazard": "IFR",
                "frequency": null,
                "severity": null,
                "status": "NRML",
                "base": null,
                "top": null,
                "fzlBase": null,
                "fzlTop": null,
                "level": null,
                "product": "SIERRA",
                "rawAirSigmet": "CIG BLW 010 VIS BLW 3SM PCPN BR",
                "validTimeTo": "2026-07-30T09:00:00.000",
                "validTimeFrom": [
                    "2026-07-30T08:45"
                ]
            }
        },
        {
            "type": "Feature",
            "geometry": {
                "type": "Polygon",
                "coordinates": [
                    [
                        [
                            "-95.15",
                            "49.41"
                        ],
                        [
                            "-94.82",
                            "49.34"
                        ],
                        [
                            "-94.62",
                            "48.74"
                        ],
                        [
                            "-93.83",
                            "48.58"
                        ],
                        [
                            "-93.03",
                            "48.61"
                        ],
                        [
                            "-92.38",
                            "48.28"
                        ],
                        [
                            "-91.42",
                            "48.10"
                        ],
                        [
                            "-89.69",
                            "48.06"
                        ],
                        [
                            "-89.28",
                            "47.98"
                        ],
                        [
                            "-88.36",
                            "48.35"
                        ],
                        [
                            "-84.83",
                            "46.84"
                        ],
                        [
                            "-84.22",
                            "42.29"
                        ],
                        [
                            "-83.07",
                            "39.98"
                        ],
                        [
                            "-83.36",
                            "38.83"
                        ],
                        [
                            "-84.87",
                            "37.99"
                        ],
                        [
                            "-86.04",
                            "38.69"
                        ],
                        [
                            "-87.27",
                            "41.57"
                        ],
                        [
                            "-88.23",
                            "44.14"
                        ],
                        [
                            "-89.05",
                            "45.41"
                        ],
                        [
                            "-90.84",
                            "46.58"
                        ],
                        [
                            "-93.23",
                            "47.07"
                        ],
                        [
                            "-95.08",
                            "48.14"
                        ],
                        [
                            "-95.39",
                            "48.79"
                        ],
                        [
                            "-95.17",
                            "49.04"
                        ],
                        [
                            "-95.15",
                            "49.41"
                        ]
                    ]
                ]
            },
            "properties": {
                "forecastId": null,
                "geometryId": null,
                "tag": "4W",
                "forecastHour": 0,
                "hazard": "TURB-HI",
                "frequency": null,
                "severity": "MOD",
                "status": "NRML",
                "base": "270",
                "top": "410",
                "fzlBase": null,
                "fzlTop": null,
                "level": null,
                "product": "TANGO",
                "rawAirSigmet": null,
                "validTimeTo": "2026-07-30T09:00:00.000",
                "validTimeFrom": [
                    "2026-07-30T08:45"
                ]
            }
        },
        {
            "type": "Feature",
            "geometry": {
                "type": "Polygon",
                "coordinates": [
                    [
                        [
                            "-69.46",
                            "47.35"
                        ],
                        [
                            "-67.92",
                            "47.23"
                        ],
                        [
                            "-67.78",
                            "45.91"
                        ],
                        [
                            "-67.10",
                            "44.95"
                        ],
                        [
                            "-67.12",
                            "44.10"
                        ],
                        [
                            "-68.46",
                            "43.68"
                        ],
                        [
                            "-69.98",
                            "42.68"
                        ],
                        [
                            "-71.33",
                            "42.61"
                        ],
                        [
                            "-71.96",
                            "42.16"
                        ],
                        [
                            "-71.56",
                            "41.19"
                        ],
                        [
                            "-71.86",
                            "40.36"
                        ],
                        [
                            "-72.68",
                            "39.67"
                        ],
                        [
                            "-73.97",
                            "39.30"
                        ],
                        [
                            "-75.08",
                            "39.66"
                        ],
                        [
                            "-76.24",
                            "40.54"
                        ],
                        [
                            "-76.93",
                            "41.75"
                        ],
                        [
                            "-76.90",
                            "42.71"
                        ],
                        [
                            "-76.60",
                            "43.75"
                        ],
                        [
                            "-74.91",
                            "44.97"
                        ],
                        [
                            "-70.98",
                            "45.06"
                        ],
                        [
                            "-69.46",
                            "47.35"
                        ]
                    ]
                ]
            },
            "properties": {
                "forecastId": null,
                "geometryId": null,
                "tag": "1C",
                "forecastHour": 0,
                "hazard": "ICE",
                "frequency": null,
                "severity": "MOD",
                "status": "NRML",
                "base": "110",
                "top": "250",
                "fzlBase": null,
                "fzlTop": null,
                "level": null,
                "product": "ZULU",
                "rawAirSigmet": "ICE",
                "validTimeTo": "2026-07-30T09:00:00.000",
                "validTimeFrom": [
                    "2026-07-30T08:45"
                ]
            }
        },
        {
            "type": "Feature",
            "geometry": {
                "type": "Polygon",
                "coordinates": [
                    [
                        [
                            "-82.78",
                            "33.99"
                        ],
                        [
                            "-82.56",
                            "33.36"
                        ],
                        [
                            "-83.09",
                            "32.05"
                        ],
                        [
                            "-85.73",
                            "31.59"
                        ],
                        [
                            "-87.03",
                            "31.84"
                        ],
                        [
                            "-87.37",
                            "32.44"
                        ],
                        [
                            "-86.90",
                            "33.16"
                        ],
                        [
                            "-85.14",
                            "33.58"
                        ],
                        [
                            "-84.34",
                            "33.44"
                        ],
                        [
                            "-83.44",
                            "33.64"
                        ],
                        [
                            "-82.78",
                            "33.99"
                        ]
                    ]
                ]
            },
            "properties": {
                "forecastId": null,
                "geometryId": null,
                "tag": "4E",
                "forecastHour": 0,
                "hazard": "IFR",
                "frequency": null,
                "severity": null,
                "status": "NRML",
                "base": null,
                "top": null,
                "fzlBase": null,
                "fzlTop": null,
                "level": null,
                "product": "SIERRA",
                "rawAirSigmet": "CIG BLW 010 VIS BLW 3SM BR",
                "validTimeTo": "2026-07-30T09:00:00.000",
                "validTimeFrom": [
                    "2026-07-30T08:45"
                ]
            }
        },
        {
            "type": "Feature",
            "geometry": {
                "type": "LineString",
                "coordinates": [
                    [
                        "-131.59",
                        "35.43"
                    ],
                    [
                        "-129.80",
                        "36.70"
                    ],
                    [
                        "-128.45",
                        "38.19"
                    ],
                    [
                        "-127.97",
                        "38.90"
                    ],
                    [
                        "-127.17",
                        "39.31"
                    ],
                    [
                        "-125.72",
                        "39.45"
                    ],
                    [
                        "-124.52",
                        "39.74"
                    ],
                    [
                        "-118.76",
                        "40.79"
                    ],
                    [
                        "-116.72",
                        "41.57"
                    ],
                    [
                        "-115.24",
                        "42.39"
                    ],
                    [
                        "-113.91",
                        "42.55"
                    ],
                    [
                        "-113.12",
                        "42.24"
                    ],
                    [
                        "-112.39",
                        "41.47"
                    ],
                    [
                        "-111.33",
                        "41.19"
                    ],
                    [
                        "-108.63",
                        "41.62"
                    ],
                    [
                        "-107.68",
                        "42.00"
                    ],
                    [
                        "-106.67",
                        "42.14"
                    ],
                    [
                        "-105.21",
                        "42.25"
                    ],
                    [
                        "-103.97",
                        "42.53"
                    ],
                    [
                        "-101.14",
                        "42.69"
                    ],
                    [
                        "-100.31",
                        "42.36"
                    ],
                    [
                        "-99.31",
                        "42.44"
                    ],
                    [
                        "-98.66",
                        "42.87"
                    ],
                    [
                        "-97.28",
                        "42.95"
                    ],
                    [
                        "-95.47",
                        "42.33"
                    ],
                    [
                        "-94.57",
                        "42.13"
                    ],
                    [
                        "-93.77",
                        "42.21"
                    ],
                    [
                        "-93.03",
                        "42.78"
                    ],
                    [
                        "-92.20",
                        "42.98"
                    ],
                    [
                        "-91.39",
                        "42.83"
                    ],
                    [
                        "-90.45",
                        "42.51"
                    ],
                    [
                        "-88.76",
                        "41.95"
                    ],
                    [
                        "-87.96",
                        "41.38"
                    ],
                    [
                        "-87.66",
                        "40.54"
                    ],
                    [
                        "-86.73",
                        "39.09"
                    ],
                    [
                        "-86.00",
                        "38.29"
                    ],
                    [
                        "-85.23",
                        "37.78"
                    ],
                    [
                        "-83.77",
                        "36.92"
                    ],
                    [
                        "-83.49",
                        "36.48"
                    ],
                    [
                        "-83.81",
                        "36.03"
                    ],
                    [
                        "-84.39",
                        "35.68"
                    ],
                    [
                        "-85.85",
                        "34.09"
                    ],
                    [
                        "-87.07",
                        "32.77"
                    ],
                    [
                        "-86.16",
                        "31.44"
                    ],
                    [
                        "-86.42",
                        "29.33"
                    ],
                    [
                        "-85.58",
                        "28.81"
                    ],
                    [
                        "-84.20",
                        "28.54"
                    ],
                    [
                        "-80.06",
                        "28.15"
                    ],
                    [
                        "-79.40",
                        "26.89"
                    ],
                    [
                        "-78.30",
                        "25.35"
                    ],
                    [
                        "-77.83",
                        "23.44"
                    ],
                    [
                        "-77.83",
                        "22.60"
                    ],
                    [
                        "-77.24",
                        "21.93"
                    ],
                    [
                        "-75.77",
                        "21.19"
                    ],
                    [
                        "-75.34",
                        "20.28"
                    ],
                    [
                        "-74.38",
                        "20.05"
                    ],
                    [
                        "-71.26",
                        "20.67"
                    ],
                    [
                        "-70.66",
                        "19.11"
                    ],
                    [
                        "-70.01",
                        "18.57"
                    ],
                    [
                        "-68.88",
                        "18.10"
                    ]
                ]
            },
            "properties": {
                "forecastId": null,
                "geometryId": null,
                "tag": "1C",
                "forecastHour": 0,
                "hazard": "FZLVL",
                "frequency": null,
                "severity": null,
                "status": "NRML",
                "base": null,
                "top": null,
                "fzlBase": null,
                "fzlTop": null,
                "level": "160",
                "product": "ZULU",
                "rawAirSigmet": null,
                "validTimeTo": "2026-07-30T09:00:00.000",
                "validTimeFrom": [
                    "2026-07-30T08:45"
                ]
            }
        },
        {
            "type": "Feature",
            "geometry": {
                "type": "Polygon",
                "coordinates": [
                    [
                        [
                            "-82.21",
                            "40.12"
                        ],
                        [
                            "-81.81",
                            "39.69"
                        ],
                        [
                            "-82.39",
                            "38.93"
                        ],
                        [
                            "-83.30",
                            "38.29"
                        ],
                        [
                            "-84.78",
                            "38.71"
                        ],
                        [
                            "-84.57",
                            "39.28"
                        ],
                        [
                            "-83.46",
                            "39.49"
                        ],
                        [
                            "-82.21",
                            "40.12"
                        ]
                    ]
                ]
            },
            "properties": {
                "forecastId": null,
                "geometryId": null,
                "tag": "4E",
                "forecastHour": 0,
                "hazard": "IFR",
                "frequency": null,
                "severity": null,
                "status": "NRML",
                "base": null,
                "top": null,
                "fzlBase": null,
                "fzlTop": null,
                "level": null,
                "product": "SIERRA",
                "rawAirSigmet": "CIG BLW 010 VIS BLW 3SM BR",
                "validTimeTo": "2026-07-30T09:00:00.000",
                "validTimeFrom": [
                    "2026-07-30T08:45"
                ]
            }
        },
        {
            "type": "Feature",
            "geometry": {
                "type": "Polygon",
                "coordinates": [
                    [
                        [
                            "-122.94",
                            "38.21"
                        ],
                        [
                            "-122.37",
                            "37.68"
                        ],
                        [
                            "-122.06",
                            "37.10"
                        ],
                        [
                            "-121.92",
                            "36.79"
                        ],
                        [
                            "-121.64",
                            "36.05"
                        ],
                        [
                            "-121.16",
                            "35.51"
                        ],
                        [
                            "-120.60",
                            "35.41"
                        ],
                        [
                            "-119.63",
                            "34.26"
                        ],
                        [
                            "-119.21",
                            "34.21"
                        ],
                        [
                            "-118.70",
                            "33.98"
                        ],
                        [
                            "-117.97",
                            "33.56"
                        ],
                        [
                            "-117.45",
                            "32.93"
                        ],
                        [
                            "-117.24",
                            "32.39"
                        ],
                        [
                            "-120.87",
                            "30.71"
                        ],
                        [
                            "-123.32",
                            "34.66"
                        ],
                        [
                            "-122.65",
                            "34.42"
                        ],
                        [
                            "-121.88",
                            "34.92"
                        ],
                        [
                            "-121.86",
                            "35.57"
                        ],
                        [
                            "-122.38",
                            "36.35"
                        ],
                        [
                            "-123.03",
                            "37.33"
                        ],
                        [
                            "-122.94",
                            "38.21"
                        ]
                    ]
                ]
            },
            "properties": {
                "forecastId": null,
                "geometryId": null,
                "tag": "1E",
                "forecastHour": 0,
                "hazard": "IFR",
                "frequency": null,
                "severity": null,
                "status": "NRML",
                "base": null,
                "top": null,
                "fzlBase": null,
                "fzlTop": null,
                "level": null,
                "product": "SIERRA",
                "rawAirSigmet": "CIG BLW 010 VIS BLW 3SM BR FG",
                "validTimeTo": "2026-07-30T09:00:00.000",
                "validTimeFrom": [
                    "2026-07-30T08:45"
                ]
            }
        },
        {
            "type": "Feature",
            "geometry": {
                "type": "Polygon",
                "coordinates": [
                    [
                        [
                            "-121.05",
                            "35.25"
                        ],
                        [
                            "-120.03",
                            "34.76"
                        ],
                        [
                            "-119.02",
                            "34.74"
                        ],
                        [
                            "-118.09",
                            "34.42"
                        ],
                        [
                            "-116.84",
                            "33.73"
                        ],
                        [
                            "-116.34",
                            "32.83"
                        ],
                        [
                            "-117.19",
                            "32.95"
                        ],
                        [
                            "-118.42",
                            "33.92"
                        ],
                        [
                            "-120.58",
                            "34.40"
                        ],
                        [
                            "-121.05",
                            "35.25"
                        ]
                    ]
                ]
            },
            "properties": {
                "forecastId": null,
                "geometryId": null,
                "tag": "4E",
                "forecastHour": 0,
                "hazard": "MT_OBSC",
                "frequency": null,
                "severity": null,
                "status": "NRML",
                "base": null,
                "top": null,
                "fzlBase": null,
                "fzlTop": null,
                "level": null,
                "product": "SIERRA",
                "rawAirSigmet": "BR FG",
                "validTimeTo": "2026-07-30T09:00:00.000",
                "validTimeFrom": [
                    "2026-07-30T08:45"
                ]
            }
        },
        {
            "type": "Feature",
            "geometry": {
                "type": "LineString",
                "coordinates": [
                    [
                        "-137.61",
                        "50.04"
                    ],
                    [
                        "-137.18",
                        "50.26"
                    ],
                    [
                        "-137.09",
                        "50.34"
                    ],
                    [
                        "-136.84",
                        "50.66"
                    ],
                    [
                        "-136.78",
                        "50.74"
                    ],
                    [
                        "-136.51",
                        "51.08"
                    ],
                    [
                        "-136.40",
                        "51.16"
                    ],
                    [
                        "-136.11",
                        "51.36"
                    ],
                    [
                        "-135.70",
                        "51.63"
                    ],
                    [
                        "-135.68",
                        "51.64"
                    ],
                    [
                        "-135.34",
                        "52.01"
                    ],
                    [
                        "-135.31",
                        "52.05"
                    ],
                    [
                        "-135.18",
                        "52.41"
                    ],
                    [
                        "-135.27",
                        "52.73"
                    ],
                    [
                        "-135.50",
                        "53.02"
                    ],
                    [
                        "-135.79",
                        "53.30"
                    ],
                    [
                        "-136.13",
                        "53.55"
                    ],
                    [
                        "-136.16",
                        "53.56"
                    ]
                ]
            },
            "properties": {
                "forecastId": null,
                "geometryId": null,
                "tag": "1C",
                "forecastHour": 0,
                "hazard": "FZLVL",
                "frequency": null,
                "severity": null,
                "status": "NRML",
                "base": null,
                "top": null,
                "fzlBase": null,
                "fzlTop": null,
                "level": "080",
                "product": "ZULU",
                "rawAirSigmet": null,
                "validTimeTo": "2026-07-30T09:00:00.000",
                "validTimeFrom": [
                    "2026-07-30T08:45"
                ]
            }
        },
        {
            "type": "Feature",
            "geometry": {
                "type": "Polygon",
                "coordinates": [
                    [
                        [
                            "-95.14",
                            "49.37"
                        ],
                        [
                            "-94.78",
                            "49.33"
                        ],
                        [
                            "-94.63",
                            "48.74"
                        ],
                        [
                            "-93.82",
                            "48.55"
                        ],
                        [
                            "-92.96",
                            "48.59"
                        ],
                        [
                            "-94.84",
                            "48.14"
                        ],
                        [
                            "-95.58",
                            "48.63"
                        ],
                        [
                            "-99.11",
                            "48.62"
                        ],
                        [
                            "-98.85",
                            "48.99"
                        ],
                        [
                            "-95.11",
                            "48.98"
                        ],
                        [
                            "-95.14",
                            "49.37"
                        ]
                    ]
                ]
            },
            "properties": {
                "forecastId": null,
                "geometryId": null,
                "tag": "3W",
                "forecastHour": 0,
                "hazard": "LLWS",
                "frequency": null,
                "severity": null,
                "status": "NRML",
                "base": null,
                "top": null,
                "fzlBase": null,
                "fzlTop": null,
                "level": null,
                "product": "TANGO",
                "rawAirSigmet": "AIR SPEED LOSS OR GAIN OF 20KTS OR MORE BELOW 2000 FT AGL",
                "validTimeTo": "2026-07-30T09:00:00.000",
                "validTimeFrom": [
                    "2026-07-30T08:45"
                ]
            }
        },
        {
            "type": "Feature",
            "geometry": {
                "type": "LineString",
                "coordinates": [
                    [
                        "-83.41",
                        "19.24"
                    ],
                    [
                        "-83.47",
                        "19.98"
                    ],
                    [
                        "-83.68",
                        "20.84"
                    ],
                    [
                        "-83.77",
                        "21.83"
                    ],
                    [
                        "-83.96",
                        "22.58"
                    ],
                    [
                        "-84.66",
                        "23.15"
                    ],
                    [
                        "-85.86",
                        "23.12"
                    ],
                    [
                        "-86.31",
                        "22.74"
                    ],
                    [
                        "-86.74",
                        "22.03"
                    ],
                    [
                        "-87.55",
                        "21.43"
                    ],
                    [
                        "-88.36",
                        "21.04"
                    ],
                    [
                        "-89.00",
                        "20.68"
                    ],
                    [
                        "-89.78",
                        "20.35"
                    ],
                    [
                        "-90.15",
                        "19.63"
                    ]
                ]
            },
            "properties": {
                "forecastId": null,
                "geometryId": null,
                "tag": "1C",
                "forecastHour": 0,
                "hazard": "FZLVL",
                "frequency": null,
                "severity": null,
                "status": "NRML",
                "base": null,
                "top": null,
                "fzlBase": null,
                "fzlTop": null,
                "level": "160",
                "product": "ZULU",
                "rawAirSigmet": null,
                "validTimeTo": "2026-07-30T09:00:00.000",
                "validTimeFrom": [
                    "2026-07-30T08:45"
                ]
            }
        },
        {
            "type": "Feature",
            "geometry": {
                "type": "Polygon",
                "coordinates": [
                    [
                        [
                            "-79.35",
                            "39.54"
                        ],
                        [
                            "-78.81",
                            "39.24"
                        ],
                        [
                            "-79.16",
                            "38.61"
                        ],
                        [
                            "-80.55",
                            "37.21"
                        ],
                        [
                            "-82.02",
                            "36.94"
                        ],
                        [
                            "-82.75",
                            "35.13"
                        ],
                        [
                            "-84.18",
                            "34.62"
                        ],
                        [
                            "-84.75",
                            "35.06"
                        ],
                        [
                            "-84.41",
                            "35.88"
                        ],
                        [
                            "-83.79",
                            "36.16"
                        ],
                        [
                            "-82.79",
                            "36.81"
                        ],
                        [
                            "-82.21",
                            "37.89"
                        ],
                        [
                            "-81.75",
                            "38.64"
                        ],
                        [
                            "-80.78",
                            "39.54"
                        ],
                        [
                            "-79.35",
                            "39.54"
                        ]
                    ]
                ]
            },
            "properties": {
                "forecastId": null,
                "geometryId": null,
                "tag": "3E",
                "forecastHour": 0,
                "hazard": "MT_OBSC",
                "frequency": null,
                "severity": null,
                "status": "NRML",
                "base": null,
                "top": null,
                "fzlBase": null,
                "fzlTop": null,
                "level": null,
                "product": "SIERRA",
                "rawAirSigmet": "BR FG",
                "validTimeTo": "2026-07-30T09:00:00.000",
                "validTimeFrom": [
                    "2026-07-30T08:45"
                ]
            }
        },
        {
            "type": "Feature",
            "geometry": {
                "type": "Polygon",
                "coordinates": [
                    [
                        [
                            "-106.60",
                            "45.86"
                        ],
                        [
                            "-104.77",
                            "45.86"
                        ],
                        [
                            "-103.80",
                            "45.27"
                        ],
                        [
                            "-103.45",
                            "44.27"
                        ],
                        [
                            "-103.90",
                            "43.34"
                        ],
                        [
                            "-104.66",
                            "42.71"
                        ],
                        [
                            "-105.29",
                            "41.26"
                        ],
                        [
                            "-106.50",
                            "40.88"
                        ],
                        [
                            "-107.91",
                            "40.98"
                        ],
                        [
                            "-108.92",
                            "42.26"
                        ],
                        [
                            "-108.85",
                            "43.89"
                        ],
                        [
                            "-107.91",
                            "45.17"
                        ],
                        [
                            "-106.60",
                            "45.86"
                        ]
                    ]
                ]
            },
            "properties": {
                "forecastId": null,
                "geometryId": null,
                "tag": "4C",
                "forecastHour": 0,
                "hazard": "ICE",
                "frequency": null,
                "severity": "MOD",
                "status": "NRML",
                "base": "150",
                "top": "260",
                "fzlBase": null,
                "fzlTop": null,
                "level": null,
                "product": "ZULU",
                "rawAirSigmet": "ICE",
                "validTimeTo": "2026-07-30T09:00:00.000",
                "validTimeFrom": [
                    "2026-07-30T08:45"
                ]
            }
        },
        {
            "type": "Feature",
            "geometry": {
                "type": "Polygon",
                "coordinates": [
                    [
                        [
                            "-69.35",
                            "47.59"
                        ],
                        [
                            "-68.50",
                            "45.58"
                        ],
                        [
                            "-71.58",
                            "43.21"
                        ],
                        [
                            "-76.04",
                            "40.95"
                        ],
                        [
                            "-76.54",
                            "41.24"
                        ],
                        [
                            "-77.46",
                            "41.62"
                        ],
                        [
                            "-77.70",
                            "42.76"
                        ],
                        [
                            "-76.19",
                            "43.07"
                        ],
                        [
                            "-74.66",
                            "44.92"
                        ],
                        [
                            "-71.70",
                            "45.39"
                        ],
                        [
                            "-69.35",
                            "47.59"
                        ]
                    ]
                ]
            },
            "properties": {
                "forecastId": null,
                "geometryId": null,
                "tag": "2E",
                "forecastHour": 0,
                "hazard": "MT_OBSC",
                "frequency": null,
                "severity": null,
                "status": "NRML",
                "base": null,
                "top": null,
                "fzlBase": null,
                "fzlTop": null,
                "level": null,
                "product": "SIERRA",
                "rawAirSigmet": "MTNS OBSC BY CLDS PCPN BR",
                "validTimeTo": "2026-07-30T09:00:00.000",
                "validTimeFrom": [
                    "2026-07-30T08:45"
                ]
            }
        },
        {
            "type": "Feature",
            "geometry": {
                "type": "LineString",
                "coordinates": [
                    [
                        "-134.33",
                        "54.40"
                    ],
                    [
                        "-133.71",
                        "54.28"
                    ],
                    [
                        "-132.83",
                        "54.15"
                    ],
                    [
                        "-131.92",
                        "53.97"
                    ],
                    [
                        "-131.24",
                        "53.77"
                    ],
                    [
                        "-130.58",
                        "53.55"
                    ],
                    [
                        "-130.01",
                        "53.30"
                    ],
                    [
                        "-129.45",
                        "53.06"
                    ],
                    [
                        "-128.64",
                        "52.87"
                    ],
                    [
                        "-127.70",
                        "53.24"
                    ],
                    [
                        "-127.31",
                        "53.62"
                    ],
                    [
                        "-126.99",
                        "54.07"
                    ],
                    [
                        "-126.83",
                        "54.42"
                    ],
                    [
                        "-126.82",
                        "55.06"
                    ],
                    [
                        "-126.90",
                        "55.37"
                    ],
                    [
                        "-127.09",
                        "55.98"
                    ],
                    [
                        "-127.21",
                        "56.28"
                    ]
                ]
            },
            "properties": {
                "forecastId": null,
                "geometryId": null,
                "tag": "1C",
                "forecastHour": 0,
                "hazard": "FZLVL",
                "frequency": null,
                "severity": null,
                "status": "NRML",
                "base": null,
                "top": null,
                "fzlBase": null,
                "fzlTop": null,
                "level": "080",
                "product": "ZULU",
                "rawAirSigmet": null,
                "validTimeTo": "2026-07-30T09:00:00.000",
                "validTimeFrom": [
                    "2026-07-30T08:45"
                ]
            }
        },
        {
            "type": "Feature",
            "geometry": {
                "type": "Polygon",
                "coordinates": [
                    [
                        [
                            "-79.64",
                            "39.19"
                        ],
                        [
                            "-79.58",
                            "38.45"
                        ],
                        [
                            "-80.29",
                            "37.44"
                        ],
                        [
                            "-81.69",
                            "36.43"
                        ],
                        [
                            "-82.68",
                            "35.73"
                        ],
                        [
                            "-82.88",
                            "35.16"
                        ],
                        [
                            "-83.41",
                            "34.63"
                        ],
                        [
                            "-83.97",
                            "34.89"
                        ],
                        [
                            "-83.94",
                            "35.58"
                        ],
                        [
                            "-84.44",
                            "36.04"
                        ],
                        [
                            "-85.44",
                            "36.65"
                        ],
                        [
                            "-85.16",
                            "37.34"
                        ],
                        [
                            "-83.76",
                            "37.64"
                        ],
                        [
                            "-82.76",
                            "37.68"
                        ],
                        [
                            "-82.07",
                            "37.97"
                        ],
                        [
                            "-80.57",
                            "38.68"
                        ],
                        [
                            "-79.64",
                            "39.19"
                        ]
                    ]
                ]
            },
            "properties": {
                "forecastId": null,
                "geometryId": null,
                "tag": "4E",
                "forecastHour": 0,
                "hazard": "IFR",
                "frequency": null,
                "severity": null,
                "status": "NRML",
                "base": null,
                "top": null,
                "fzlBase": null,
                "fzlTop": null,
                "level": null,
                "product": "SIERRA",
                "rawAirSigmet": "CIG BLW 010 VIS BLW 3SM BR",
                "validTimeTo": "2026-07-30T09:00:00.000",
                "validTimeFrom": [
                    "2026-07-30T08:45"
                ]
            }
        },
        {
            "type": "Feature",
            "geometry": {
                "type": "Polygon",
                "coordinates": [
                    [
                        [
                            "-105.23",
                            "48.93"
                        ],
                        [
                            "-107.16",
                            "48.07"
                        ],
                        [
                            "-109.63",
                            "46.61"
                        ],
                        [
                            "-111.75",
                            "44.29"
                        ],
                        [
                            "-113.16",
                            "43.11"
                        ],
                        [
                            "-115.15",
                            "43.09"
                        ],
                        [
                            "-115.08",
                            "43.77"
                        ],
                        [
                            "-113.91",
                            "45.79"
                        ],
                        [
                            "-112.84",
                            "47.29"
                        ],
                        [
                            "-111.63",
                            "48.92"
                        ],
                        [
                            "-105.23",
                            "48.93"
                        ]
                    ]
                ]
            },
            "properties": {
                "forecastId": null,
                "geometryId": null,
                "tag": "1W",
                "forecastHour": 0,
                "hazard": "TURB-HI",
                "frequency": null,
                "severity": "MOD",
                "status": "NRML",
                "base": "300",
                "top": "420",
                "fzlBase": null,
                "fzlTop": null,
                "level": null,
                "product": "TANGO",
                "rawAirSigmet": null,
                "validTimeTo": "2026-07-30T09:00:00.000",
                "validTimeFrom": [
                    "2026-07-30T08:45"
                ]
            }
        },
        {
            "type": "Feature",
            "geometry": {
                "type": "Polygon",
                "coordinates": [
                    [
                        [
                            "-113.15",
                            "49.00"
                        ],
                        [
                            "-111.36",
                            "47.44"
                        ],
                        [
                            "-109.76",
                            "48.51"
                        ],
                        [
                            "-108.73",
                            "47.22"
                        ],
                        [
                            "-107.80",
                            "45.84"
                        ],
                        [
                            "-109.46",
                            "45.70"
                        ],
                        [
                            "-110.87",
                            "45.66"
                        ],
                        [
                            "-112.37",
                            "45.15"
                        ],
                        [
                            "-112.75",
                            "44.30"
                        ],
                        [
                            "-113.06",
                            "43.19"
                        ],
                        [
                            "-114.33",
                            "42.02"
                        ],
                        [
                            "-116.22",
                            "41.59"
                        ],
                        [
                            "-117.88",
                            "41.85"
                        ],
                        [
                            "-119.81",
                            "42.71"
                        ],
                        [
                            "-120.27",
                            "43.61"
                        ],
                        [
                            "-120.20",
                            "44.66"
                        ],
                        [
                            "-119.66",
                            "45.58"
                        ],
                        [
                            "-118.89",
                            "46.65"
                        ],
                        [
                            "-117.88",
                            "47.15"
                        ],
                        [
                            "-117.60",
                            "47.53"
                        ],
                        [
                            "-117.43",
                            "47.84"
                        ],
                        [
                            "-117.73",
                            "48.09"
                        ],
                        [
                            "-118.89",
                            "48.30"
                        ],
                        [
                            "-119.70",
                            "48.19"
                        ],
                        [
                            "-120.39",
                            "48.53"
                        ],
                        [
                            "-120.17",
                            "48.96"
                        ],
                        [
                            "-117.22",
                            "48.94"
                        ],
                        [
                            "-115.18",
                            "48.97"
                        ],
                        [
                            "-113.96",
                            "48.99"
                        ],
                        [
                            "-113.15",
                            "49.00"
                        ]
                    ]
                ]
            },
            "properties": {
                "forecastId": null,
                "geometryId": null,
                "tag": "1E",
                "forecastHour": 0,
                "hazard": "MT_OBSC",
                "frequency": null,
                "severity": null,
                "status": "NRML",
                "base": null,
                "top": null,
                "fzlBase": null,
                "fzlTop": null,
                "level": null,
                "product": "SIERRA",
                "rawAirSigmet": "FU HZ",
                "validTimeTo": "2026-07-30T09:00:00.000",
                "validTimeFrom": [
                    "2026-07-30T08:45"
                ]
            }
        },
        {
            "type": "Feature",
            "geometry": {
                "type": "LineString",
                "coordinates": [
                    [
                        "-109.30",
                        "19.00"
                    ],
                    [
                        "-109.76",
                        "19.32"
                    ],
                    [
                        "-110.10",
                        "19.67"
                    ],
                    [
                        "-110.36",
                        "20.35"
                    ],
                    [
                        "-110.36",
                        "21.09"
                    ],
                    [
                        "-110.08",
                        "21.48"
                    ],
                    [
                        "-109.57",
                        "21.79"
                    ],
                    [
                        "-108.92",
                        "21.60"
                    ],
                    [
                        "-108.48",
                        "21.27"
                    ],
                    [
                        "-108.24",
                        "20.93"
                    ],
                    [
                        "-107.92",
                        "20.23"
                    ],
                    [
                        "-107.44",
                        "19.90"
                    ],
                    [
                        "-107.01",
                        "19.82"
                    ],
                    [
                        "-106.23",
                        "19.75"
                    ],
                    [
                        "-105.47",
                        "19.96"
                    ],
                    [
                        "-104.68",
                        "19.76"
                    ],
                    [
                        "-104.41",
                        "19.40"
                    ]
                ]
            },
            "properties": {
                "forecastId": null,
                "geometryId": null,
                "tag": "1C",
                "forecastHour": 0,
                "hazard": "FZLVL",
                "frequency": null,
                "severity": null,
                "status": "NRML",
                "base": null,
                "top": null,
                "fzlBase": null,
                "fzlTop": null,
                "level": "160",
                "product": "ZULU",
                "rawAirSigmet": null,
                "validTimeTo": "2026-07-30T09:00:00.000",
                "validTimeFrom": [
                    "2026-07-30T08:45"
                ]
            }
        },
        {
            "type": "Feature",
            "geometry": {
                "type": "Polygon",
                "coordinates": [
                    [
                        [
                            "-99.42",
                            "40.22"
                        ],
                        [
                            "-98.05",
                            "40.16"
                        ],
                        [
                            "-97.87",
                            "39.30"
                        ],
                        [
                            "-98.80",
                            "38.39"
                        ],
                        [
                            "-99.10",
                            "37.62"
                        ],
                        [
                            "-100.02",
                            "37.58"
                        ],
                        [
                            "-100.06",
                            "38.14"
                        ],
                        [
                            "-100.02",
                            "39.15"
                        ],
                        [
                            "-99.42",
                            "40.22"
                        ]
                    ]
                ]
            },
            "properties": {
                "forecastId": null,
                "geometryId": null,
                "tag": "1W",
                "forecastHour": 0,
                "hazard": "LLWS",
                "frequency": null,
                "severity": null,
                "status": "NRML",
                "base": null,
                "top": null,
                "fzlBase": null,
                "fzlTop": null,
                "level": null,
                "product": "TANGO",
                "rawAirSigmet": "AIR SPEED LOSS OR GAIN OF 20KTS OR MORE BELOW 2000 FT AGL",
                "validTimeTo": "2026-07-30T09:00:00.000",
                "validTimeFrom": [
                    "2026-07-30T08:45"
                ]
            }
        },
        {
            "type": "Feature",
            "geometry": {
                "type": "Polygon",
                "coordinates": [
                    [
                        [
                            "-103.41",
                            "36.63"
                        ],
                        [
                            "-102.95",
                            "36.43"
                        ],
                        [
                            "-102.96",
                            "35.97"
                        ],
                        [
                            "-103.15",
                            "35.49"
                        ],
                        [
                            "-103.62",
                            "35.27"
                        ],
                        [
                            "-104.25",
                            "35.44"
                        ],
                        [
                            "-103.91",
                            "36.26"
                        ],
                        [
                            "-103.41",
                            "36.63"
                        ]
                    ]
                ]
            },
            "properties": {
                "forecastId": null,
                "geometryId": null,
                "tag": "4W",
                "forecastHour": 0,
                "hazard": "LLWS",
                "frequency": null,
                "severity": null,
                "status": "NRML",
                "base": null,
                "top": null,
                "fzlBase": null,
                "fzlTop": null,
                "level": null,
                "product": "TANGO",
                "rawAirSigmet": "AIR SPEED LOSS OR GAIN OF 20KTS OR MORE BELOW 2000 FT AGL",
                "validTimeTo": "2026-07-30T09:00:00.000",
                "validTimeFrom": [
                    "2026-07-30T08:45"
                ]
            }
        },
        {
            "type": "Feature",
            "geometry": {
                "type": "Polygon",
                "coordinates": [
                    [
                        [
                            "-67.07",
                            "42.83"
                        ],
                        [
                            "-66.96",
                            "41.44"
                        ],
                        [
                            "-71.31",
                            "37.72"
                        ],
                        [
                            "-72.46",
                            "37.37"
                        ],
                        [
                            "-72.92",
                            "36.89"
                        ],
                        [
                            "-74.37",
                            "36.48"
                        ],
                        [
                            "-74.94",
                            "36.98"
                        ],
                        [
                            "-73.23",
                            "38.22"
                        ],
                        [
                            "-67.07",
                            "42.83"
                        ]
                    ]
                ]
            },
            "properties": {
                "forecastId": null,
                "geometryId": null,
                "tag": "2W",
                "forecastHour": 0,
                "hazard": "TURB-HI",
                "frequency": null,
                "severity": "MOD",
                "status": "NRML",
                "base": "300",
                "top": "380",
                "fzlBase": null,
                "fzlTop": null,
                "level": null,
                "product": "TANGO",
                "rawAirSigmet": null,
                "validTimeTo": "2026-07-30T09:00:00.000",
                "validTimeFrom": [
                    "2026-07-30T08:45"
                ]
            }
        }
    ],
    "metadata": {
        "creationTime": "2026-07-30T09:34"
    }
}