{
    "type": "FeatureCollection",
    "features": [
        {
            "type": "Feature",
            "geometry": {
                "type": "Polygon",
                "coordinates": [
                    [
                        [
                            "-118.63",
                            "46.28"
                        ],
                        [
                            "-114.83",
                            "46.16"
                        ],
                        [
                            "-114.31",
                            "45.71"
                        ],
                        [
                            "-114.35",
                            "45.34"
                        ],
                        [
                            "-115.10",
                            "45.13"
                        ],
                        [
                            "-117.37",
                            "44.72"
                        ],
                        [
                            "-121.07",
                            "44.32"
                        ],
                        [
                            "-123.41",
                            "44.19"
                        ],
                        [
                            "-124.33",
                            "44.17"
                        ],
                        [
                            "-125.36",
                            "44.73"
                        ],
                        [
                            "-125.55",
                            "45.06"
                        ],
                        [
                            "-125.15",
                            "45.65"
                        ],
                        [
                            "-124.09",
                            "45.84"
                        ],
                        [
                            "-122.43",
                            "45.98"
                        ],
                        [
                            "-121.10",
                            "46.09"
                        ],
                        [
                            "-118.63",
                            "46.28"
                        ]
                    ]
                ]
            },
            "properties": {
                "forecastId": null,
                "geometryId": null,
                "tag": "2W",
                "forecastHour": 0,
                "hazard": "TURB-HI",
                "frequency": null,
                "severity": "MOD",
                "status": "NRML",
                "base": "340",
                "top": "430",
                "fzlBase": null,
                "fzlTop": null,
                "level": null,
                "product": "TANGO",
                "rawAirSigmet": null,
                "validTimeTo": "2026-08-18T15:00:00.000",
                "validTimeFrom": [
                    "2026-08-18T14:45"
                ]
            }
        },
        {
            "type": "Feature",
            "geometry": {
                "type": "LineString",
                "coordinates": [
                    [
                        "-95.96",
                        "19.71"
                    ],
                    [
                        "-96.12",
                        "20.07"
                    ],
                    [
                        "-96.16",
                        "20.13"
                    ],
                    [
                        "-96.56",
                        "20.41"
                    ],
                    [
                        "-96.60",
                        "20.43"
                    ],
                    [
                        "-96.95",
                        "20.55"
                    ],
                    [
                        "-97.33",
                        "20.49"
                    ],
                    [
                        "-97.39",
                        "20.42"
                    ],
                    [
                        "-97.49",
                        "20.05"
                    ],
                    [
                        "-97.51",
                        "19.69"
                    ]
                ]
            },
            "properties": {
                "forecastId": null,
                "geometryId": null,
                "tag": "1C",
                "forecastHour": 0,
                "hazard": "FZLVL",
                "frequency": null,
                "severity": null,
                "status": "NRML",
                "base": null,
                "top": null,
                "fzlBase": null,
                "fzlTop": null,
                "level": "160",
                "product": "ZULU",
                "rawAirSigmet": null,
                "validTimeTo": "2026-08-18T15:00:00.000",
                "validTimeFrom": [
                    "2026-08-18T14:45"
                ]
            }
        },
        {
            "type": "Feature",
            "geometry": {
                "type": "LineString",
                "coordinates": [
                    [
                        "-67.92",
                        "22.62"
                    ],
                    [
                        "-68.33",
                        "22.59"
                    ],
                    [
                        "-68.75",
                        "22.48"
                    ],
                    [
                        "-68.76",
                        "22.47"
                    ],
                    [
                        "-69.22",
                        "22.19"
                    ],
                    [
                        "-69.22",
                        "22.18"
                    ],
                    [
                        "-69.46",
                        "21.86"
                    ],
                    [
                        "-69.52",
                        "21.50"
                    ],
                    [
                        "-69.42",
                        "21.23"
                    ],
                    [
                        "-69.36",
                        "21.10"
                    ],
                    [
                        "-69.11",
                        "20.82"
                    ],
                    [
                        "-68.91",
                        "20.65"
                    ],
                    [
                        "-68.78",
                        "20.51"
                    ],
                    [
                        "-68.43",
                        "20.27"
                    ]
                ]
            },
            "properties": {
                "forecastId": null,
                "geometryId": null,
                "tag": "1C",
                "forecastHour": 0,
                "hazard": "FZLVL",
                "frequency": null,
                "severity": null,
                "status": "NRML",
                "base": null,
                "top": null,
                "fzlBase": null,
                "fzlTop": null,
                "level": "160",
                "product": "ZULU",
                "rawAirSigmet": null,
                "validTimeTo": "2026-08-18T15:00:00.000",
                "validTimeFrom": [
                    "2026-08-18T14:45"
                ]
            }
        },
        {
            "type": "Feature",
            "geometry": {
                "type": "Polygon",
                "coordinates": [
                    [
                        [
                            "-92.80",
                            "35.03"
                        ],
                        [
                            "-92.36",
                            "35.23"
                        ],
                        [
                            "-91.95",
                            "34.97"
                        ],
                        [
                            "-92.37",
                            "34.78"
                        ],
                        [
                            "-92.77",
                            "34.62"
                        ],
                        [
                            "-92.81",
                            "34.62"
                        ],
                        [
                            "-92.91",
                            "34.63"
                        ],
                        [
                            "-92.88",
                            "34.99"
                        ],
                        [
                            "-92.80",
                            "35.03"
                        ]
                    ]
                ]
            },
            "properties": {
                "forecastId": null,
                "geometryId": null,
                "tag": "1C",
                "forecastHour": 0,
                "hazard": "FZLVL",
                "frequency": null,
                "severity": null,
                "status": "NRML",
                "base": null,
                "top": null,
                "fzlBase": null,
                "fzlTop": null,
                "level": "160",
                "product": "ZULU",
                "rawAirSigmet": null,
                "validTimeTo": "2026-08-18T15:00:00.000",
                "validTimeFrom": [
                    "2026-08-18T14:45"
                ]
            }
        },
        {
            "type": "Feature",
            "geometry": {
                "type": "Polygon",
                "coordinates": [
                    [
                        [
                            "-122.98",
                            "48.57"
                        ],
                        [
                            "-122.49",
                            "48.37"
                        ],
                        [
                            "-124.14",
                            "47.90"
                        ],
                        [
                            "-123.85",
                            "47.45"
                        ],
                        [
                            "-123.39",
                            "47.45"
                        ],
                        [
                            "-122.93",
                            "47.60"
                        ],
                        [
                            "-122.74",
                            "47.51"
                        ],
                        [
                            "-122.50",
                            "47.01"
                        ],
                        [
                            "-122.31",
                            "46.30"
                        ],
                        [
                            "-122.30",
                            "45.71"
                        ],
                        [
                            "-122.34",
                            "45.32"
                        ],
                        [
                            "-122.77",
                            "45.59"
                        ],
                        [
                            "-123.51",
                            "45.51"
                        ],
                        [
                            "-123.64",
                            "45.15"
                        ],
                        [
                            "-124.09",
                            "42.93"
                        ],
                        [
                            "-123.82",
                            "42.69"
                        ],
                        [
                            "-123.55",
                            "42.22"
                        ],
                        [
                            "-123.43",
                            "41.82"
                        ],
                        [
                            "-123.40",
                            "40.71"
                        ],
                        [
                            "-123.86",
                            "40.09"
                        ],
                        [
                            "-123.71",
                            "38.90"
                        ],
                        [
                            "-122.26",
                            "38.83"
                        ],
                        [
                            "-122.27",
                            "38.54"
                        ],
                        [
                            "-122.28",
                            "38.03"
                        ],
                        [
                            "-122.07",
                            "37.75"
                        ],
                        [
                            "-121.77",
                            "37.32"
                        ],
                        [
                            "-121.44",
                            "37.05"
                        ],
                        [
                            "-121.08",
                            "36.34"
                        ],
                        [
                            "-121.50",
                            "36.15"
                        ],
                        [
                            "-121.34",
                            "35.79"
                        ],
                        [
                            "-120.93",
                            "35.52"
                        ],
                        [
                            "-120.28",
                            "35.33"
                        ],
                        [
                            "-120.03",
                            "35.01"
                        ],
                        [
                            "-119.91",
                            "34.53"
                        ],
                        [
                            "-118.21",
                            "33.85"
                        ],
                        [
                            "-117.72",
                            "33.20"
                        ],
                        [
                            "-117.61",
                            "32.20"
                        ],
                        [
                            "-120.86",
                            "30.71"
                        ],
                        [
                            "-123.38",
                            "34.57"
                        ],
                        [
                            "-125.32",
                            "37.39"
                        ],
                        [
                            "-127.00",
                            "39.72"
                        ],
                        [
                            "-126.52",
                            "45.05"
                        ],
                        [
                            "-127.87",
                            "48.15"
                        ],
                        [
                            "-124.90",
                            "48.53"
                        ],
                        [
                            "-123.57",
                            "48.13"
                        ],
                        [
                            "-122.98",
                            "48.57"
                        ]
                    ]
                ]
            },
            "properties": {
                "forecastId": null,
                "geometryId": null,
                "tag": "2E",
                "forecastHour": 0,
                "hazard": "IFR",
                "frequency": null,
                "severity": null,
                "status": "NRML",
                "base": null,
                "top": null,
                "fzlBase": null,
                "fzlTop": null,
                "level": null,
                "product": "SIERRA",
                "rawAirSigmet": "CIG BLW 010 VIS BLW 3SM BR FG",
                "validTimeTo": "2026-08-18T15:00:00.000",
                "validTimeFrom": [
                    "2026-08-18T14:45"
                ]
            }
        },
        {
            "type": "Feature",
            "geometry": {
                "type": "LineString",
                "coordinates": [
                    [
                        "-106.70",
                        "19.23"
                    ],
                    [
                        "-106.25",
                        "19.98"
                    ],
                    [
                        "-105.39",
                        "20.17"
                    ],
                    [
                        "-103.93",
                        "20.21"
                    ],
                    [
                        "-103.58",
                        "21.04"
                    ],
                    [
                        "-103.52",
                        "21.69"
                    ],
                    [
                        "-102.76",
                        "21.98"
                    ],
                    [
                        "-101.69",
                        "21.62"
                    ],
                    [
                        "-100.50",
                        "21.79"
                    ],
                    [
                        "-98.93",
                        "22.20"
                    ],
                    [
                        "-98.32",
                        "22.95"
                    ],
                    [
                        "-98.45",
                        "24.05"
                    ],
                    [
                        "-99.17",
                        "25.97"
                    ],
                    [
                        "-99.90",
                        "26.74"
                    ],
                    [
                        "-101.13",
                        "26.66"
                    ],
                    [
                        "-102.30",
                        "25.05"
                    ],
                    [
                        "-103.45",
                        "24.81"
                    ],
                    [
                        "-104.28",
                        "25.05"
                    ],
                    [
                        "-105.12",
                        "25.61"
                    ],
                    [
                        "-105.48",
                        "26.04"
                    ],
                    [
                        "-105.55",
                        "26.75"
                    ],
                    [
                        "-104.98",
                        "28.58"
                    ],
                    [
                        "-104.96",
                        "29.69"
                    ],
                    [
                        "-105.75",
                        "30.36"
                    ],
                    [
                        "-106.84",
                        "30.69"
                    ],
                    [
                        "-107.68",
                        "30.48"
                    ],
                    [
                        "-108.96",
                        "28.83"
                    ],
                    [
                        "-109.50",
                        "28.06"
                    ],
                    [
                        "-110.71",
                        "27.77"
                    ],
                    [
                        "-112.08",
                        "27.59"
                    ],
                    [
                        "-112.73",
                        "26.91"
                    ],
                    [
                        "-113.87",
                        "25.46"
                    ],
                    [
                        "-113.97",
                        "24.52"
                    ],
                    [
                        "-113.56",
                        "23.55"
                    ],
                    [
                        "-112.47",
                        "21.95"
                    ],
                    [
                        "-110.99",
                        "20.73"
                    ],
                    [
                        "-110.52",
                        "19.97"
                    ],
                    [
                        "-110.39",
                        "18.89"
                    ]
                ]
            },
            "properties": {
                "forecastId": null,
                "geometryId": null,
                "tag": "1C",
                "forecastHour": 0,
                "hazard": "FZLVL",
                "frequency": null,
                "severity": null,
                "status": "NRML",
                "base": null,
                "top": null,
                "fzlBase": null,
                "fzlTop": null,
                "level": "160",
                "product": "ZULU",
                "rawAirSigmet": null,
                "validTimeTo": "2026-08-18T15:00:00.000",
                "validTimeFrom": [
                    "2026-08-18T14:45"
                ]
            }
        },
        {
            "type": "Feature",
            "geometry": {
                "type": "Polygon",
                "coordinates": [
                    [
                        [
                            "-107.82",
                            "24.03"
                        ],
                        [
                            "-107.43",
                            "24.18"
                        ],
                        [
                            "-107.22",
                            "23.95"
                        ],
                        [
                            "-107.17",
                            "23.59"
                        ],
                        [
                            "-107.28",
                            "23.21"
                        ],
                        [
                            "-107.33",
                            "23.15"
                        ],
                        [
                            "-107.71",
                            "22.95"
                        ],
                        [
                            "-108.12",
                            "23.02"
                        ],
                        [
                            "-108.23",
                            "23.13"
                        ],
                        [
                            "-108.20",
                            "23.50"
                        ],
                        [
                            "-108.17",
                            "23.56"
                        ],
                        [
                            "-107.94",
                            "23.89"
                        ],
                        [
                            "-107.82",
                            "24.03"
                        ]
                    ]
                ]
            },
            "properties": {
                "forecastId": null,
                "geometryId": null,
                "tag": "1C",
                "forecastHour": 0,
                "hazard": "FZLVL",
                "frequency": null,
                "severity": null,
                "status": "NRML",
                "base": null,
                "top": null,
                "fzlBase": null,
                "fzlTop": null,
                "level": "160",
                "product": "ZULU",
                "rawAirSigmet": null,
                "validTimeTo": "2026-08-18T15:00:00.000",
                "validTimeFrom": [
                    "2026-08-18T14:45"
                ]
            }
        },
        {
            "type": "Feature",
            "geometry": {
                "type": "LineString",
                "coordinates": [
                    [
                        "-72.66",
                        "17.96"
                    ],
                    [
                        "-72.77",
                        "18.72"
                    ],
                    [
                        "-73.27",
                        "19.53"
                    ],
                    [
                        "-74.73",
                        "20.30"
                    ],
                    [
                        "-76.38",
                        "21.15"
                    ],
                    [
                        "-77.99",
                        "22.56"
                    ],
                    [
                        "-80.43",
                        "22.38"
                    ],
                    [
                        "-81.87",
                        "23.16"
                    ],
                    [
                        "-82.71",
                        "23.77"
                    ],
                    [
                        "-82.07",
                        "24.41"
                    ],
                    [
                        "-80.38",
                        "25.40"
                    ],
                    [
                        "-77.96",
                        "25.43"
                    ],
                    [
                        "-78.23",
                        "26.08"
                    ],
                    [
                        "-79.07",
                        "26.29"
                    ],
                    [
                        "-80.40",
                        "26.55"
                    ],
                    [
                        "-81.05",
                        "27.09"
                    ],
                    [
                        "-82.98",
                        "28.29"
                    ],
                    [
                        "-82.88",
                        "28.97"
                    ],
                    [
                        "-82.17",
                        "29.83"
                    ],
                    [
                        "-82.52",
                        "30.52"
                    ],
                    [
                        "-83.21",
                        "30.95"
                    ],
                    [
                        "-83.33",
                        "31.58"
                    ],
                    [
                        "-82.96",
                        "31.90"
                    ],
                    [
                        "-82.13",
                        "32.33"
                    ],
                    [
                        "-81.08",
                        "32.91"
                    ],
                    [
                        "-80.09",
                        "33.24"
                    ],
                    [
                        "-79.15",
                        "33.57"
                    ],
                    [
                        "-78.23",
                        "34.17"
                    ],
                    [
                        "-79.24",
                        "34.36"
                    ],
                    [
                        "-80.14",
                        "34.27"
                    ],
                    [
                        "-81.29",
                        "34.07"
                    ],
                    [
                        "-82.52",
                        "34.11"
                    ],
                    [
                        "-83.58",
                        "34.52"
                    ],
                    [
                        "-85.37",
                        "34.68"
                    ],
                    [
                        "-87.22",
                        "35.57"
                    ],
                    [
                        "-88.76",
                        "36.57"
                    ],
                    [
                        "-89.39",
                        "37.06"
                    ],
                    [
                        "-88.70",
                        "37.75"
                    ],
                    [
                        "-88.20",
                        "38.47"
                    ],
                    [
                        "-87.20",
                        "39.23"
                    ],
                    [
                        "-85.25",
                        "40.12"
                    ],
                    [
                        "-83.40",
                        "40.78"
                    ],
                    [
                        "-81.17",
                        "41.24"
                    ],
                    [
                        "-77.76",
                        "40.96"
                    ],
                    [
                        "-77.22",
                        "40.40"
                    ],
                    [
                        "-77.60",
                        "39.07"
                    ],
                    [
                        "-77.14",
                        "38.36"
                    ],
                    [
                        "-75.96",
                        "38.13"
                    ],
                    [
                        "-75.18",
                        "38.53"
                    ],
                    [
                        "-74.05",
                        "38.74"
                    ],
                    [
                        "-72.61",
                        "38.92"
                    ],
                    [
                        "-71.67",
                        "38.73"
                    ],
                    [
                        "-70.26",
                        "38.41"
                    ],
                    [
                        "-69.22",
                        "38.85"
                    ],
                    [
                        "-68.57",
                        "39.41"
                    ],
                    [
                        "-67.76",
                        "39.66"
                    ],
                    [
                        "-67.31",
                        "39.12"
                    ],
                    [
                        "-67.64",
                        "38.00"
                    ],
                    [
                        "-68.37",
                        "37.15"
                    ],
                    [
                        "-68.80",
                        "36.16"
                    ],
                    [
                        "-68.98",
                        "35.01"
                    ],
                    [
                        "-69.42",
                        "33.66"
                    ],
                    [
                        "-68.93",
                        "33.14"
                    ],
                    [
                        "-68.09",
                        "33.51"
                    ],
                    [
                        "-67.41",
                        "34.28"
                    ],
                    [
                        "-66.34",
                        "34.51"
                    ],
                    [
                        "-65.83",
                        "35.02"
                    ],
                    [
                        "-65.80",
                        "35.65"
                    ],
                    [
                        "-66.40",
                        "36.26"
                    ],
                    [
                        "-67.21",
                        "36.83"
                    ],
                    [
                        "-66.32",
                        "37.25"
                    ],
                    [
                        "-64.19",
                        "37.49"
                    ]
                ]
            },
            "properties": {
                "forecastId": null,
                "geometryId": null,
                "tag": "1C",
                "forecastHour": 0,
                "hazard": "FZLVL",
                "frequency": null,
                "severity": null,
                "status": "NRML",
                "base": null,
                "top": null,
                "fzlBase": null,
                "fzlTop": null,
                "level": "160",
                "product": "ZULU",
                "rawAirSigmet": null,
                "validTimeTo": "2026-08-18T15:00:00.000",
                "validTimeFrom": [
                    "2026-08-18T14:45"
                ]
            }
        },
        {
            "type": "Feature",
            "geometry": {
                "type": "Polygon",
                "coordinates": [
                    [
                        [
                            "-89.47",
                            "35.80"
                        ],
                        [
                            "-89.20",
                            "35.67"
                        ],
                        [
                            "-88.89",
                            "35.32"
                        ],
                        [
                            "-89.07",
                            "35.05"
                        ],
                        [
                            "-89.65",
                            "34.79"
                        ],
                        [
                            "-90.27",
                            "34.43"
                        ],
                        [
                            "-91.11",
                            "34.21"
                        ],
                        [
                            "-91.73",
                            "34.39"
                        ],
                        [
                            "-92.35",
                            "34.70"
                        ],
                        [
                            "-92.21",
                            "35.27"
                        ],
                        [
                            "-91.59",
                            "35.54"
                        ],
                        [
                            "-90.84",
                            "35.45"
                        ],
                        [
                            "-89.47",
                            "35.80"
                        ]
                    ]
                ]
            },
            "properties": {
                "forecastId": null,
                "geometryId": null,
                "tag": "2C",
                "forecastHour": 0,
                "hazard": "ICE",
                "frequency": null,
                "severity": "MOD",
                "status": "NRML",
                "base": "160",
                "top": "220",
                "fzlBase": null,
                "fzlTop": null,
                "level": null,
                "product": "ZULU",
                "rawAirSigmet": "ICE",
                "validTimeTo": "2026-08-18T15:00:00.000",
                "validTimeFrom": [
                    "2026-08-18T14:45"
                ]
            }
        },
        {
            "type": "Feature",
            "geometry": {
                "type": "Polygon",
                "coordinates": [
                    [
                        [
                            "-116.61",
                            "56.25"
                        ],
                        [
                            "-116.34",
                            "56.24"
                        ],
                        [
                            "-116.03",
                            "56.19"
                        ],
                        [
                            "-115.69",
                            "55.98"
                        ],
                        [
                            "-115.83",
                            "55.66"
                        ],
                        [
                            "-115.88",
                            "55.64"
                        ],
                        [
                            "-116.39",
                            "55.61"
                        ],
                        [
                            "-116.43",
                            "55.61"
                        ],
                        [
                            "-117.04",
                            "55.82"
                        ],
                        [
                            "-117.17",
                            "55.85"
                        ],
                        [
                            "-117.10",
                            "56.03"
                        ],
                        [
                            "-116.92",
                            "56.19"
                        ],
                        [
                            "-116.61",
                            "56.25"
                        ]
                    ]
                ]
            },
            "properties": {
                "forecastId": null,
                "geometryId": null,
                "tag": "1C",
                "forecastHour": 0,
                "hazard": "FZLVL",
                "frequency": null,
                "severity": null,
                "status": "NRML",
                "base": null,
                "top": null,
                "fzlBase": null,
                "fzlTop": null,
                "level": "120",
                "product": "ZULU",
                "rawAirSigmet": null,
                "validTimeTo": "2026-08-18T15:00:00.000",
                "validTimeFrom": [
                    "2026-08-18T14:45"
                ]
            }
        },
        {
            "type": "Feature",
            "geometry": {
                "type": "LineString",
                "coordinates": [
                    [
                        "-103.15",
                        "58.24"
                    ],
                    [
                        "-102.72",
                        "57.15"
                    ],
                    [
                        "-101.92",
                        "56.15"
                    ],
                    [
                        "-100.24",
                        "54.33"
                    ],
                    [
                        "-99.14",
                        "53.48"
                    ],
                    [
                        "-98.51",
                        "52.46"
                    ],
                    [
                        "-97.74",
                        "51.32"
                    ],
                    [
                        "-96.53",
                        "50.87"
                    ],
                    [
                        "-95.10",
                        "50.07"
                    ],
                    [
                        "-94.07",
                        "49.23"
                    ],
                    [
                        "-92.53",
                        "48.88"
                    ],
                    [
                        "-90.74",
                        "48.86"
                    ],
                    [
                        "-87.61",
                        "49.76"
                    ],
                    [
                        "-84.69",
                        "50.74"
                    ],
                    [
                        "-82.39",
                        "52.13"
                    ],
                    [
                        "-81.18",
                        "52.99"
                    ],
                    [
                        "-80.30",
                        "53.92"
                    ],
                    [
                        "-78.14",
                        "55.66"
                    ],
                    [
                        "-77.48",
                        "56.58"
                    ],
                    [
                        "-77.20",
                        "57.75"
                    ]
                ]
            },
            "properties": {
                "forecastId": null,
                "geometryId": null,
                "tag": "1C",
                "forecastHour": 0,
                "hazard": "FZLVL",
                "frequency": null,
                "severity": null,
                "status": "NRML",
                "base": null,
                "top": null,
                "fzlBase": null,
                "fzlTop": null,
                "level": "080",
                "product": "ZULU",
                "rawAirSigmet": null,
                "validTimeTo": "2026-08-18T15:00:00.000",
                "validTimeFrom": [
                    "2026-08-18T14:45"
                ]
            }
        },
        {
            "type": "Feature",
            "geometry": {
                "type": "LineString",
                "coordinates": [
                    [
                        "-132.74",
                        "38.68"
                    ],
                    [
                        "-132.57",
                        "38.80"
                    ],
                    [
                        "-132.38",
                        "39.00"
                    ],
                    [
                        "-132.26",
                        "39.23"
                    ],
                    [
                        "-132.15",
                        "39.62"
                    ],
                    [
                        "-132.15",
                        "39.67"
                    ],
                    [
                        "-132.13",
                        "39.99"
                    ],
                    [
                        "-132.15",
                        "40.36"
                    ],
                    [
                        "-132.23",
                        "40.70"
                    ],
                    [
                        "-132.37",
                        "41.04"
                    ],
                    [
                        "-132.49",
                        "41.38"
                    ],
                    [
                        "-132.54",
                        "41.73"
                    ],
                    [
                        "-132.55",
                        "42.02"
                    ],
                    [
                        "-132.55",
                        "42.09"
                    ],
                    [
                        "-132.64",
                        "42.43"
                    ],
                    [
                        "-132.76",
                        "42.57"
                    ],
                    [
                        "-132.95",
                        "42.73"
                    ],
                    [
                        "-133.36",
                        "42.84"
                    ],
                    [
                        "-133.87",
                        "42.88"
                    ],
                    [
                        "-133.96",
                        "42.87"
                    ],
                    [
                        "-134.34",
                        "42.83"
                    ]
                ]
            },
            "properties": {
                "forecastId": null,
                "geometryId": null,
                "tag": "1C",
                "forecastHour": 0,
                "hazard": "FZLVL",
                "frequency": null,
                "severity": null,
                "status": "NRML",
                "base": null,
                "top": null,
                "fzlBase": null,
                "fzlTop": null,
                "level": "120",
                "product": "ZULU",
                "rawAirSigmet": null,
                "validTimeTo": "2026-08-18T15:00:00.000",
                "validTimeFrom": [
                    "2026-08-18T14:45"
                ]
            }
        },
        {
            "type": "Feature",
            "geometry": {
                "type": "Polygon",
                "coordinates": [
                    [
                        [
                            "-124.42",
                            "48.34"
                        ],
                        [
                            "-124.30",
                            "48.15"
                        ],
                        [
                            "-124.31",
                            "47.85"
                        ],
                        [
                            "-124.23",
                            "47.72"
                        ],
                        [
                            "-123.95",
                            "47.50"
                        ],
                        [
                            "-123.44",
                            "47.28"
                        ],
                        [
                            "-122.98",
                            "47.32"
                        ],
                        [
                            "-122.67",
                            "47.28"
                        ],
                        [
                            "-122.44",
                            "47.15"
                        ],
                        [
                            "-122.33",
                            "47.03"
                        ],
                        [
                            "-122.31",
                            "46.96"
                        ],
                        [
                            "-122.54",
                            "46.73"
                        ],
                        [
                            "-122.61",
                            "46.55"
                        ],
                        [
                            "-122.59",
                            "46.40"
                        ],
                        [
                            "-122.52",
                            "46.33"
                        ],
                        [
                            "-122.59",
                            "46.08"
                        ],
                        [
                            "-122.82",
                            "45.93"
                        ],
                        [
                            "-123.07",
                            "45.82"
                        ],
                        [
                            "-123.43",
                            "45.78"
                        ],
                        [
                            "-123.71",
                            "45.41"
                        ],
                        [
                            "-123.74",
                            "45.11"
                        ],
                        [
                            "-123.95",
                            "44.67"
                        ],
                        [
                            "-123.86",
                            "44.36"
                        ],
                        [
                            "-123.71",
                            "43.69"
                        ],
                        [
                            "-124.33",
                            "42.98"
                        ],
                        [
                            "-124.19",
                            "43.81"
                        ],
                        [
                            "-124.08",
                            "44.97"
                        ],
                        [
                            "-124.16",
                            "46.86"
                        ],
                        [
                            "-124.62",
                            "48.29"
                        ],
                        [
                            "-124.42",
                            "48.34"
                        ]
                    ]
                ]
            },
            "properties": {
                "forecastId": null,
                "geometryId": null,
                "tag": "8E",
                "forecastHour": 0,
                "hazard": "MT_OBSC",
                "frequency": null,
                "severity": null,
                "status": "NRML",
                "base": null,
                "top": null,
                "fzlBase": null,
                "fzlTop": null,
                "level": null,
                "product": "SIERRA",
                "rawAirSigmet": "MTNS OBSC BY CLDS BR FG",
                "validTimeTo": "2026-08-18T15:00:00.000",
                "validTimeFrom": [
                    "2026-08-18T14:45"
                ]
            }
        },
        {
            "type": "Feature",
            "geometry": {
                "type": "Polygon",
                "coordinates": [
                    [
                        [
                            "-76.19",
                            "36.82"
                        ],
                        [
                            "-76.58",
                            "35.42"
                        ],
                        [
                            "-76.82",
                            "34.71"
                        ],
                        [
                            "-76.13",
                            "34.56"
                        ],
                        [
                            "-74.80",
                            "34.62"
                        ],
                        [
                            "-73.45",
                            "34.73"
                        ],
                        [
                            "-71.99",
                            "34.84"
                        ],
                        [
                            "-71.36",
                            "35.15"
                        ],
                        [
                            "-71.02",
                            "35.68"
                        ],
                        [
                            "-71.23",
                            "36.55"
                        ],
                        [
                            "-72.02",
                            "37.31"
                        ],
                        [
                            "-72.95",
                            "37.15"
                        ],
                        [
                            "-73.33",
                            "36.84"
                        ],
                        [
                            "-74.33",
                            "37.11"
                        ],
                        [
                            "-75.59",
                            "37.65"
                        ],
                        [
                            "-76.19",
                            "36.82"
                        ]
                    ]
                ]
            },
            "properties": {
                "forecastId": null,
                "geometryId": null,
                "tag": "1C",
                "forecastHour": 0,
                "hazard": "FZLVL",
                "frequency": null,
                "severity": null,
                "status": "NRML",
                "base": null,
                "top": null,
                "fzlBase": null,
                "fzlTop": null,
                "level": "160",
                "product": "ZULU",
                "rawAirSigmet": null,
                "validTimeTo": "2026-08-18T15:00:00.000",
                "validTimeFrom": [
                    "2026-08-18T14:45"
                ]
            }
        },
        {
            "type": "Feature",
            "geometry": {
                "type": "LineString",
                "coordinates": [
                    [
                        "-128.31",
                        "24.66"
                    ],
                    [
                        "-126.16",
                        "28.63"
                    ],
                    [
                        "-125.46",
                        "29.91"
                    ],
                    [
                        "-124.94",
                        "31.67"
                    ],
                    [
                        "-124.10",
                        "34.60"
                    ],
                    [
                        "-123.59",
                        "36.15"
                    ],
                    [
                        "-122.54",
                        "37.72"
                    ],
                    [
                        "-121.19",
                        "38.90"
                    ],
                    [
                        "-118.89",
                        "39.32"
                    ],
                    [
                        "-118.00",
                        "39.67"
                    ],
                    [
                        "-116.68",
                        "39.93"
                    ],
                    [
                        "-115.29",
                        "40.16"
                    ],
                    [
                        "-113.75",
                        "40.14"
                    ],
                    [
                        "-109.80",
                        "40.33"
                    ],
                    [
                        "-107.27",
                        "39.99"
                    ],
                    [
                        "-104.94",
                        "40.48"
                    ],
                    [
                        "-103.56",
                        "40.59"
                    ],
                    [
                        "-102.48",
                        "40.36"
                    ],
                    [
                        "-100.81",
                        "39.89"
                    ],
                    [
                        "-100.35",
                        "39.23"
                    ],
                    [
                        "-100.06",
                        "38.24"
                    ],
                    [
                        "-99.07",
                        "36.67"
                    ],
                    [
                        "-97.99",
                        "35.40"
                    ],
                    [
                        "-98.05",
                        "34.05"
                    ],
                    [
                        "-97.62",
                        "33.52"
                    ],
                    [
                        "-96.61",
                        "33.19"
                    ],
                    [
                        "-95.51",
                        "33.07"
                    ],
                    [
                        "-94.45",
                        "32.59"
                    ],
                    [
                        "-93.36",
                        "31.09"
                    ],
                    [
                        "-93.74",
                        "30.17"
                    ],
                    [
                        "-93.68",
                        "29.57"
                    ],
                    [
                        "-92.61",
                        "29.30"
                    ],
                    [
                        "-90.54",
                        "28.75"
                    ],
                    [
                        "-88.45",
                        "28.30"
                    ],
                    [
                        "-86.92",
                        "28.63"
                    ],
                    [
                        "-84.82",
                        "29.20"
                    ],
                    [
                        "-83.65",
                        "28.80"
                    ],
                    [
                        "-84.03",
                        "28.37"
                    ],
                    [
                        "-86.31",
                        "28.23"
                    ],
                    [
                        "-86.40",
                        "27.48"
                    ],
                    [
                        "-85.97",
                        "27.08"
                    ],
                    [
                        "-84.73",
                        "25.96"
                    ],
                    [
                        "-84.36",
                        "25.24"
                    ],
                    [
                        "-84.36",
                        "23.89"
                    ],
                    [
                        "-85.93",
                        "23.09"
                    ],
                    [
                        "-86.88",
                        "22.04"
                    ],
                    [
                        "-87.27",
                        "21.34"
                    ],
                    [
                        "-87.94",
                        "20.95"
                    ],
                    [
                        "-89.12",
                        "20.68"
                    ],
                    [
                        "-89.74",
                        "20.91"
                    ],
                    [
                        "-90.45",
                        "21.17"
                    ],
                    [
                        "-91.41",
                        "20.93"
                    ],
                    [
                        "-91.96",
                        "20.55"
                    ],
                    [
                        "-92.29",
                        "19.69"
                    ]
                ]
            },
            "properties": {
                "forecastId": null,
                "geometryId": null,
                "tag": "1C",
                "forecastHour": 0,
                "hazard": "FZLVL",
                "frequency": null,
                "severity": null,
                "status": "NRML",
                "base": null,
                "top": null,
                "fzlBase": null,
                "fzlTop": null,
                "level": "160",
                "product": "ZULU",
                "rawAirSigmet": null,
                "validTimeTo": "2026-08-18T15:00:00.000",
                "validTimeFrom": [
                    "2026-08-18T14:45"
                ]
            }
        },
        {
            "type": "Feature",
            "geometry": {
                "type": "Polygon",
                "coordinates": [
                    [
                        [
                            "-82.19",
                            "38.61"
                        ],
                        [
                            "-80.49",
                            "38.54"
                        ],
                        [
                            "-80.76",
                            "37.72"
                        ],
                        [
                            "-81.70",
                            "37.23"
                        ],
                        [
                            "-84.35",
                            "37.21"
                        ],
                        [
                            "-82.19",
                            "38.61"
                        ]
                    ]
                ]
            },
            "properties": {
                "forecastId": null,
                "geometryId": null,
                "tag": "3E",
                "forecastHour": 0,
                "hazard": "MT_OBSC",
                "frequency": null,
                "severity": null,
                "status": "NRML",
                "base": null,
                "top": null,
                "fzlBase": null,
                "fzlTop": null,
                "level": null,
                "product": "SIERRA",
                "rawAirSigmet": "MTNS OBSC BY CLDS BR",
                "validTimeTo": "2026-08-18T15:00:00.000",
                "validTimeFrom": [
                    "2026-08-18T14:45"
                ]
            }
        },
        {
            "type": "Feature",
            "geometry": {
                "type": "Polygon",
                "coordinates": [
                    [
                        [
                            "-107.35",
                            "43.99"
                        ],
                        [
                            "-105.49",
                            "43.99"
                        ],
                        [
                            "-104.42",
                            "43.41"
                        ],
                        [
                            "-103.81",
                            "42.84"
                        ],
                        [
                            "-104.20",
                            "41.82"
                        ],
                        [
                            "-104.91",
                            "40.85"
                        ],
                        [
                            "-106.64",
                            "40.18"
                        ],
                        [
                            "-107.48",
                            "39.96"
                        ],
                        [
                            "-109.65",
                            "40.23"
                        ],
                        [
                            "-111.59",
                            "40.45"
                        ],
                        [
                            "-112.57",
                            "40.80"
                        ],
                        [
                            "-113.32",
                            "41.82"
                        ],
                        [
                            "-113.41",
                            "42.53"
                        ],
                        [
                            "-112.65",
                            "42.97"
                        ],
                        [
                            "-111.55",
                            "43.19"
                        ],
                        [
                            "-110.27",
                            "43.37"
                        ],
                        [
                            "-108.72",
                            "43.72"
                        ],
                        [
                            "-107.35",
                            "43.99"
                        ]
                    ]
                ]
            },
            "properties": {
                "forecastId": null,
                "geometryId": null,
                "tag": "4C",
                "forecastHour": 0,
                "hazard": "ICE",
                "frequency": null,
                "severity": "MOD",
                "status": "NRML",
                "base": "FZL",
                "top": "250",
                "fzlBase": "140",
                "fzlTop": "170",
                "level": null,
                "product": "ZULU",
                "rawAirSigmet": "ICE",
                "validTimeTo": "2026-08-18T15:00:00.000",
                "validTimeFrom": [
                    "2026-08-18T14:45"
                ]
            }
        },
        {
            "type": "Feature",
            "geometry": {
                "type": "Polygon",
                "coordinates": [
                    [
                        [
                            "-84.94",
                            "46.81"
                        ],
                        [
                            "-84.17",
                            "46.23"
                        ],
                        [
                            "-82.48",
                            "45.36"
                        ],
                        [
                            "-82.12",
                            "43.53"
                        ],
                        [
                            "-83.31",
                            "43.45"
                        ],
                        [
                            "-84.39",
                            "43.63"
                        ],
                        [
                            "-86.55",
                            "44.20"
                        ],
                        [
                            "-87.22",
                            "45.53"
                        ],
                        [
                            "-86.38",
                            "46.40"
                        ],
                        [
                            "-84.94",
                            "46.81"
                        ]
                    ]
                ]
            },
            "properties": {
                "forecastId": null,
                "geometryId": null,
                "tag": "3W",
                "forecastHour": 0,
                "hazard": "TURB-HI",
                "frequency": null,
                "severity": "MOD",
                "status": "NRML",
                "base": "240",
                "top": "390",
                "fzlBase": null,
                "fzlTop": null,
                "level": null,
                "product": "TANGO",
                "rawAirSigmet": null,
                "validTimeTo": "2026-08-18T15:00:00.000",
                "validTimeFrom": [
                    "2026-08-18T14:45"
                ]
            }
        },
        {
            "type": "Feature",
            "geometry": {
                "type": "Polygon",
                "coordinates": [
                    [
                        [
                            "-74.62",
                            "39.14"
                        ],
                        [
                            "-74.21",
                            "38.97"
                        ],
                        [
                            "-74.21",
                            "38.54"
                        ],
                        [
                            "-74.54",
                            "38.26"
                        ],
                        [
                            "-74.95",
                            "38.43"
                        ],
                        [
                            "-74.98",
                            "38.97"
                        ],
                        [
                            "-74.62",
                            "39.14"
                        ]
                    ]
                ]
            },
            "properties": {
                "forecastId": null,
                "geometryId": null,
                "tag": "3E",
                "forecastHour": 0,
                "hazard": "IFR",
                "frequency": null,
                "severity": null,
                "status": "NRML",
                "base": null,
                "top": null,
                "fzlBase": null,
                "fzlTop": null,
                "level": null,
                "product": "SIERRA",
                "rawAirSigmet": "CIG BLW 010 VIS BLW 3SM BR FG",
                "validTimeTo": "2026-08-18T15:00:00.000",
                "validTimeFrom": [
                    "2026-08-18T14:45"
                ]
            }
        },
        {
            "type": "Feature",
            "geometry": {
                "type": "Polygon",
                "coordinates": [
                    [
                        [
                            "-78.74",
                            "43.79"
                        ],
                        [
                            "-76.82",
                            "43.62"
                        ],
                        [
                            "-75.34",
                            "42.46"
                        ],
                        [
                            "-74.93",
                            "41.38"
                        ],
                        [
                            "-75.33",
                            "40.73"
                        ],
                        [
                            "-75.87",
                            "40.23"
                        ],
                        [
                            "-76.33",
                            "39.95"
                        ],
                        [
                            "-77.20",
                            "39.80"
                        ],
                        [
                            "-79.08",
                            "39.72"
                        ],
                        [
                            "-80.37",
                            "40.10"
                        ],
                        [
                            "-80.80",
                            "40.90"
                        ],
                        [
                            "-80.62",
                            "42.18"
                        ],
                        [
                            "-78.93",
                            "42.72"
                        ],
                        [
                            "-79.12",
                            "43.52"
                        ],
                        [
                            "-78.74",
                            "43.79"
                        ]
                    ]
                ]
            },
            "properties": {
                "forecastId": null,
                "geometryId": null,
                "tag": "1W",
                "forecastHour": 0,
                "hazard": "TURB-HI",
                "frequency": null,
                "severity": "MOD",
                "status": "NRML",
                "base": "340",
                "top": "450",
                "fzlBase": null,
                "fzlTop": null,
                "level": null,
                "product": "TANGO",
                "rawAirSigmet": null,
                "validTimeTo": "2026-08-18T15:00:00.000",
                "validTimeFrom": [
                    "2026-08-18T14:45"
                ]
            }
        },
        {
            "type": "Feature",
            "geometry": {
                "type": "Polygon",
                "coordinates": [
                    [
                        [
                            "-68.75",
                            "46.05"
                        ],
                        [
                            "-68.55",
                            "45.74"
                        ],
                        [
                            "-68.47",
                            "45.60"
                        ],
                        [
                            "-68.67",
                            "45.42"
                        ],
                        [
                            "-68.93",
                            "45.22"
                        ],
                        [
                            "-69.16",
                            "45.06"
                        ],
                        [
                            "-69.56",
                            "44.74"
                        ],
                        [
                            "-70.41",
                            "44.11"
                        ],
                        [
                            "-71.17",
                            "43.37"
                        ],
                        [
                            "-72.10",
                            "43.01"
                        ],
                        [
                            "-71.93",
                            "43.63"
                        ],
                        [
                            "-70.23",
                            "45.14"
                        ],
                        [
                            "-68.75",
                            "46.05"
                        ]
                    ]
                ]
            },
            "properties": {
                "forecastId": null,
                "geometryId": null,
                "tag": "1E",
                "forecastHour": 0,
                "hazard": "MT_OBSC",
                "frequency": null,
                "severity": null,
                "status": "NRML",
                "base": null,
                "top": null,
                "fzlBase": null,
                "fzlTop": null,
                "level": null,
                "product": "SIERRA",
                "rawAirSigmet": "MTNS OBSC BY CLDS BR FG",
                "validTimeTo": "2026-08-18T15:00:00.000",
                "validTimeFrom": [
                    "2026-08-18T14:45"
                ]
            }
        },
        {
            "type": "Feature",
            "geometry": {
                "type": "Polygon",
                "coordinates": [
                    [
                        [
                            "-92.65",
                            "45.63"
                        ],
                        [
                            "-90.31",
                            "45.14"
                        ],
                        [
                            "-89.51",
                            "44.17"
                        ],
                        [
                            "-88.58",
                            "42.66"
                        ],
                        [
                            "-87.92",
                            "41.11"
                        ],
                        [
                            "-87.88",
                            "40.14"
                        ],
                        [
                            "-89.03",
                            "39.61"
                        ],
                        [
                            "-90.31",
                            "39.87"
                        ],
                        [
                            "-91.95",
                            "41.52"
                        ],
                        [
                            "-92.69",
                            "42.21"
                        ],
                        [
                            "-93.94",
                            "42.50"
                        ],
                        [
                            "-95.49",
                            "42.57"
                        ],
                        [
                            "-96.24",
                            "42.93"
                        ],
                        [
                            "-96.24",
                            "43.55"
                        ],
                        [
                            "-95.66",
                            "44.39"
                        ],
                        [
                            "-94.60",
                            "45.27"
                        ],
                        [
                            "-92.65",
                            "45.63"
                        ]
                    ]
                ]
            },
            "properties": {
                "forecastId": null,
                "geometryId": null,
                "tag": "3C",
                "forecastHour": 0,
                "hazard": "ICE",
                "frequency": null,
                "severity": "MOD",
                "status": "NRML",
                "base": "FZL",
                "top": "240",
                "fzlBase": "110",
                "fzlTop": "140",
                "level": null,
                "product": "ZULU",
                "rawAirSigmet": "ICE",
                "validTimeTo": "2026-08-18T15:00:00.000",
                "validTimeFrom": [
                    "2026-08-18T14:45"
                ]
            }
        },
        {
            "type": "Feature",
            "geometry": {
                "type": "Polygon",
                "coordinates": [
                    [
                        [
                            "-118.50",
                            "49.00"
                        ],
                        [
                            "-116.73",
                            "48.89"
                        ],
                        [
                            "-114.50",
                            "48.90"
                        ],
                        [
                            "-114.34",
                            "48.56"
                        ],
                        [
                            "-114.35",
                            "48.48"
                        ],
                        [
                            "-114.78",
                            "48.21"
                        ],
                        [
                            "-115.18",
                            "48.23"
                        ],
                        [
                            "-115.65",
                            "48.28"
                        ],
                        [
                            "-115.90",
                            "48.55"
                        ],
                        [
                            "-116.05",
                            "48.52"
                        ],
                        [
                            "-116.15",
                            "48.39"
                        ],
                        [
                            "-116.03",
                            "48.27"
                        ],
                        [
                            "-116.34",
                            "48.12"
                        ],
                        [
                            "-117.31",
                            "48.15"
                        ],
                        [
                            "-117.79",
                            "47.91"
                        ],
                        [
                            "-118.25",
                            "47.83"
                        ],
                        [
                            "-118.85",
                            "47.85"
                        ],
                        [
                            "-119.62",
                            "48.11"
                        ],
                        [
                            "-119.71",
                            "48.92"
                        ],
                        [
                            "-118.50",
                            "49.00"
                        ]
                    ]
                ]
            },
            "properties": {
                "forecastId": null,
                "geometryId": null,
                "tag": "2E",
                "forecastHour": 0,
                "hazard": "MT_OBSC",
                "frequency": null,
                "severity": null,
                "status": "NRML",
                "base": null,
                "top": null,
                "fzlBase": null,
                "fzlTop": null,
                "level": null,
                "product": "SIERRA",
                "rawAirSigmet": "FU HZ",
                "validTimeTo": "2026-08-18T15:00:00.000",
                "validTimeFrom": [
                    "2026-08-18T14:45"
                ]
            }
        },
        {
            "type": "Feature",
            "geometry": {
                "type": "Polygon",
                "coordinates": [
                    [
                        [
                            "-67.06",
                            "44.78"
                        ],
                        [
                            "-67.18",
                            "40.15"
                        ],
                        [
                            "-69.21",
                            "39.88"
                        ],
                        [
                            "-70.38",
                            "40.37"
                        ],
                        [
                            "-70.61",
                            "42.18"
                        ],
                        [
                            "-70.49",
                            "43.12"
                        ],
                        [
                            "-69.37",
                            "44.03"
                        ],
                        [
                            "-67.06",
                            "44.78"
                        ]
                    ]
                ]
            },
            "properties": {
                "forecastId": null,
                "geometryId": null,
                "tag": "4E",
                "forecastHour": 0,
                "hazard": "IFR",
                "frequency": null,
                "severity": null,
                "status": "NRML",
                "base": null,
                "top": null,
                "fzlBase": null,
                "fzlTop": null,
                "level": null,
                "product": "SIERRA",
                "rawAirSigmet": "CIG BLW 010 VIS BLW 3SM BR",
                "validTimeTo": "2026-08-18T15:00:00.000",
                "validTimeFrom": [
                    "2026-08-18T14:45"
                ]
            }
        },
        {
            "type": "Feature",
            "geometry": {
                "type": "LineString",
                "coordinates": [
                    [
                        "-119.26",
                        "57.20"
                    ],
                    [
                        "-118.49",
                        "56.32"
                    ],
                    [
                        "-118.66",
                        "55.70"
                    ],
                    [
                        "-119.17",
                        "55.31"
                    ],
                    [
                        "-119.74",
                        "54.92"
                    ],
                    [
                        "-121.11",
                        "54.75"
                    ],
                    [
                        "-122.11",
                        "54.39"
                    ],
                    [
                        "-122.32",
                        "53.72"
                    ],
                    [
                        "-121.71",
                        "53.41"
                    ],
                    [
                        "-120.65",
                        "53.31"
                    ],
                    [
                        "-120.01",
                        "52.75"
                    ],
                    [
                        "-120.06",
                        "52.00"
                    ],
                    [
                        "-120.20",
                        "50.56"
                    ],
                    [
                        "-119.68",
                        "50.10"
                    ],
                    [
                        "-118.79",
                        "49.86"
                    ],
                    [
                        "-116.97",
                        "49.85"
                    ],
                    [
                        "-115.67",
                        "50.05"
                    ],
                    [
                        "-115.02",
                        "50.33"
                    ],
                    [
                        "-113.23",
                        "51.08"
                    ],
                    [
                        "-111.77",
                        "50.87"
                    ],
                    [
                        "-109.69",
                        "49.19"
                    ],
                    [
                        "-108.09",
                        "48.48"
                    ],
                    [
                        "-106.50",
                        "48.00"
                    ],
                    [
                        "-103.38",
                        "47.25"
                    ],
                    [
                        "-101.70",
                        "46.74"
                    ],
                    [
                        "-100.38",
                        "46.08"
                    ],
                    [
                        "-98.92",
                        "45.50"
                    ],
                    [
                        "-96.90",
                        "45.33"
                    ],
                    [
                        "-93.07",
                        "44.65"
                    ],
                    [
                        "-89.15",
                        "45.05"
                    ],
                    [
                        "-86.71",
                        "44.70"
                    ],
                    [
                        "-85.31",
                        "44.61"
                    ],
                    [
                        "-83.47",
                        "44.85"
                    ],
                    [
                        "-81.86",
                        "45.42"
                    ],
                    [
                        "-79.22",
                        "46.64"
                    ],
                    [
                        "-76.47",
                        "47.75"
                    ],
                    [
                        "-74.79",
                        "48.43"
                    ],
                    [
                        "-73.21",
                        "48.90"
                    ],
                    [
                        "-71.94",
                        "49.29"
                    ],
                    [
                        "-69.51",
                        "49.14"
                    ],
                    [
                        "-68.02",
                        "49.11"
                    ],
                    [
                        "-67.25",
                        "49.28"
                    ],
                    [
                        "-65.80",
                        "49.59"
                    ],
                    [
                        "-64.47",
                        "49.70"
                    ],
                    [
                        "-63.49",
                        "49.54"
                    ],
                    [
                        "-63.24",
                        "49.20"
                    ],
                    [
                        "-63.35",
                        "48.62"
                    ],
                    [
                        "-62.78",
                        "48.20"
                    ],
                    [
                        "-60.70",
                        "47.92"
                    ]
                ]
            },
            "properties": {
                "forecastId": null,
                "geometryId": null,
                "tag": "1C",
                "forecastHour": 0,
                "hazard": "FZLVL",
                "frequency": null,
                "severity": null,
                "status": "NRML",
                "base": null,
                "top": null,
                "fzlBase": null,
                "fzlTop": null,
                "level": "120",
                "product": "ZULU",
                "rawAirSigmet": null,
                "validTimeTo": "2026-08-18T15:00:00.000",
                "validTimeFrom": [
                    "2026-08-18T14:45"
                ]
            }
        }
    ],
    "metadata": {
        "creationTime": "2026-08-18T15:38"
    }
}