{
    "type": "FeatureCollection",
    "features": [
        {
            "type": "Feature",
            "geometry": {
                "type": "LineString",
                "coordinates": [
                    [
                        "-136.37",
                        "47.50"
                    ],
                    [
                        "-135.34",
                        "47.92"
                    ],
                    [
                        "-135.30",
                        "48.59"
                    ],
                    [
                        "-134.78",
                        "49.08"
                    ],
                    [
                        "-133.04",
                        "49.39"
                    ],
                    [
                        "-130.86",
                        "49.12"
                    ],
                    [
                        "-129.46",
                        "49.66"
                    ],
                    [
                        "-128.22",
                        "50.52"
                    ],
                    [
                        "-127.58",
                        "50.79"
                    ],
                    [
                        "-126.62",
                        "50.83"
                    ],
                    [
                        "-125.45",
                        "50.77"
                    ],
                    [
                        "-124.70",
                        "51.11"
                    ],
                    [
                        "-124.67",
                        "52.44"
                    ],
                    [
                        "-123.24",
                        "53.28"
                    ],
                    [
                        "-122.07",
                        "54.28"
                    ],
                    [
                        "-122.06",
                        "54.84"
                    ],
                    [
                        "-122.48",
                        "55.61"
                    ],
                    [
                        "-123.32",
                        "56.77"
                    ]
                ]
            },
            "properties": {
                "forecastId": null,
                "geometryId": null,
                "tag": "1C",
                "forecastHour": 0,
                "hazard": "FZLVL",
                "frequency": null,
                "severity": null,
                "status": "NRML",
                "base": null,
                "top": null,
                "fzlBase": null,
                "fzlTop": null,
                "level": "080",
                "product": "ZULU",
                "rawAirSigmet": null,
                "validTimeTo": "2026-07-27T15:00:00.000",
                "validTimeFrom": [
                    "2026-07-27T14:45"
                ]
            }
        },
        {
            "type": "Feature",
            "geometry": {
                "type": "Polygon",
                "coordinates": [
                    [
                        [
                            "-113.12",
                            "48.99"
                        ],
                        [
                            "-111.42",
                            "47.41"
                        ],
                        [
                            "-109.73",
                            "48.51"
                        ],
                        [
                            "-108.52",
                            "46.80"
                        ],
                        [
                            "-107.56",
                            "45.53"
                        ],
                        [
                            "-109.10",
                            "45.06"
                        ],
                        [
                            "-110.90",
                            "45.43"
                        ],
                        [
                            "-111.98",
                            "45.14"
                        ],
                        [
                            "-112.02",
                            "44.17"
                        ],
                        [
                            "-112.11",
                            "43.23"
                        ],
                        [
                            "-112.58",
                            "42.28"
                        ],
                        [
                            "-112.82",
                            "41.35"
                        ],
                        [
                            "-113.69",
                            "41.12"
                        ],
                        [
                            "-114.40",
                            "40.90"
                        ],
                        [
                            "-115.19",
                            "41.08"
                        ],
                        [
                            "-115.63",
                            "41.84"
                        ],
                        [
                            "-116.06",
                            "41.94"
                        ],
                        [
                            "-116.47",
                            "41.01"
                        ],
                        [
                            "-116.76",
                            "41.19"
                        ],
                        [
                            "-117.59",
                            "41.64"
                        ],
                        [
                            "-118.19",
                            "42.00"
                        ],
                        [
                            "-119.10",
                            "42.04"
                        ],
                        [
                            "-119.65",
                            "42.01"
                        ],
                        [
                            "-120.44",
                            "42.22"
                        ],
                        [
                            "-120.93",
                            "42.45"
                        ],
                        [
                            "-120.83",
                            "43.91"
                        ],
                        [
                            "-121.84",
                            "44.64"
                        ],
                        [
                            "-121.39",
                            "45.21"
                        ],
                        [
                            "-118.97",
                            "46.96"
                        ],
                        [
                            "-117.30",
                            "47.87"
                        ],
                        [
                            "-115.48",
                            "48.57"
                        ],
                        [
                            "-114.70",
                            "48.96"
                        ],
                        [
                            "-113.12",
                            "48.99"
                        ]
                    ]
                ]
            },
            "properties": {
                "forecastId": null,
                "geometryId": null,
                "tag": "3E",
                "forecastHour": 0,
                "hazard": "MT_OBSC",
                "frequency": null,
                "severity": null,
                "status": "NRML",
                "base": null,
                "top": null,
                "fzlBase": null,
                "fzlTop": null,
                "level": null,
                "product": "SIERRA",
                "rawAirSigmet": "FU HZ",
                "validTimeTo": "2026-07-27T15:00:00.000",
                "validTimeFrom": [
                    "2026-07-27T14:45"
                ]
            }
        },
        {
            "type": "Feature",
            "geometry": {
                "type": "LineString",
                "coordinates": [
                    [
                        "-104.62",
                        "58.19"
                    ],
                    [
                        "-102.67",
                        "56.48"
                    ],
                    [
                        "-101.23",
                        "55.83"
                    ],
                    [
                        "-100.39",
                        "55.58"
                    ],
                    [
                        "-99.89",
                        "55.01"
                    ],
                    [
                        "-99.40",
                        "54.02"
                    ],
                    [
                        "-97.84",
                        "53.49"
                    ],
                    [
                        "-96.50",
                        "52.84"
                    ],
                    [
                        "-95.00",
                        "52.29"
                    ],
                    [
                        "-93.34",
                        "51.94"
                    ],
                    [
                        "-91.52",
                        "51.74"
                    ],
                    [
                        "-89.21",
                        "51.77"
                    ],
                    [
                        "-87.71",
                        "51.64"
                    ],
                    [
                        "-86.10",
                        "51.17"
                    ],
                    [
                        "-84.23",
                        "50.91"
                    ],
                    [
                        "-80.43",
                        "50.05"
                    ],
                    [
                        "-79.30",
                        "49.29"
                    ],
                    [
                        "-78.01",
                        "48.69"
                    ],
                    [
                        "-76.25",
                        "48.73"
                    ],
                    [
                        "-74.91",
                        "48.19"
                    ],
                    [
                        "-74.80",
                        "46.82"
                    ],
                    [
                        "-75.47",
                        "45.59"
                    ],
                    [
                        "-75.83",
                        "44.03"
                    ],
                    [
                        "-75.49",
                        "43.07"
                    ],
                    [
                        "-72.52",
                        "43.52"
                    ],
                    [
                        "-71.80",
                        "43.76"
                    ],
                    [
                        "-70.83",
                        "43.73"
                    ],
                    [
                        "-70.80",
                        "42.59"
                    ],
                    [
                        "-70.45",
                        "41.91"
                    ],
                    [
                        "-69.45",
                        "41.91"
                    ],
                    [
                        "-68.05",
                        "42.43"
                    ],
                    [
                        "-67.79",
                        "43.45"
                    ],
                    [
                        "-69.08",
                        "43.66"
                    ],
                    [
                        "-70.10",
                        "43.66"
                    ],
                    [
                        "-70.16",
                        "44.33"
                    ],
                    [
                        "-69.29",
                        "45.43"
                    ],
                    [
                        "-68.43",
                        "46.58"
                    ],
                    [
                        "-67.53",
                        "47.37"
                    ],
                    [
                        "-66.08",
                        "47.14"
                    ],
                    [
                        "-64.89",
                        "47.73"
                    ],
                    [
                        "-63.96",
                        "48.99"
                    ],
                    [
                        "-63.09",
                        "49.86"
                    ],
                    [
                        "-62.19",
                        "51.05"
                    ],
                    [
                        "-61.72",
                        "52.47"
                    ],
                    [
                        "-61.03",
                        "53.97"
                    ],
                    [
                        "-60.03",
                        "54.61"
                    ]
                ]
            },
            "properties": {
                "forecastId": null,
                "geometryId": null,
                "tag": "1C",
                "forecastHour": 0,
                "hazard": "FZLVL",
                "frequency": null,
                "severity": null,
                "status": "NRML",
                "base": null,
                "top": null,
                "fzlBase": null,
                "fzlTop": null,
                "level": "120",
                "product": "ZULU",
                "rawAirSigmet": null,
                "validTimeTo": "2026-07-27T15:00:00.000",
                "validTimeFrom": [
                    "2026-07-27T14:45"
                ]
            }
        },
        {
            "type": "Feature",
            "geometry": {
                "type": "Polygon",
                "coordinates": [
                    [
                        [
                            "-95.78",
                            "20.89"
                        ],
                        [
                            "-95.70",
                            "20.80"
                        ],
                        [
                            "-95.39",
                            "20.47"
                        ],
                        [
                            "-95.37",
                            "20.44"
                        ],
                        [
                            "-95.37",
                            "20.08"
                        ],
                        [
                            "-95.39",
                            "20.05"
                        ],
                        [
                            "-95.41",
                            "20.07"
                        ],
                        [
                            "-95.78",
                            "20.32"
                        ],
                        [
                            "-95.87",
                            "20.44"
                        ],
                        [
                            "-95.99",
                            "20.80"
                        ],
                        [
                            "-95.78",
                            "20.89"
                        ]
                    ]
                ]
            },
            "properties": {
                "forecastId": null,
                "geometryId": null,
                "tag": "1C",
                "forecastHour": 0,
                "hazard": "FZLVL",
                "frequency": null,
                "severity": null,
                "status": "NRML",
                "base": null,
                "top": null,
                "fzlBase": null,
                "fzlTop": null,
                "level": "160",
                "product": "ZULU",
                "rawAirSigmet": null,
                "validTimeTo": "2026-07-27T15:00:00.000",
                "validTimeFrom": [
                    "2026-07-27T14:45"
                ]
            }
        },
        {
            "type": "Feature",
            "geometry": {
                "type": "Polygon",
                "coordinates": [
                    [
                        [
                            "-85.85",
                            "28.72"
                        ],
                        [
                            "-85.43",
                            "28.73"
                        ],
                        [
                            "-85.15",
                            "28.52"
                        ],
                        [
                            "-85.22",
                            "28.16"
                        ],
                        [
                            "-85.49",
                            "27.92"
                        ],
                        [
                            "-85.91",
                            "27.86"
                        ],
                        [
                            "-86.15",
                            "28.22"
                        ],
                        [
                            "-86.05",
                            "28.58"
                        ],
                        [
                            "-85.85",
                            "28.72"
                        ]
                    ]
                ]
            },
            "properties": {
                "forecastId": null,
                "geometryId": null,
                "tag": "1C",
                "forecastHour": 0,
                "hazard": "FZLVL",
                "frequency": null,
                "severity": null,
                "status": "NRML",
                "base": null,
                "top": null,
                "fzlBase": null,
                "fzlTop": null,
                "level": "160",
                "product": "ZULU",
                "rawAirSigmet": null,
                "validTimeTo": "2026-07-27T15:00:00.000",
                "validTimeFrom": [
                    "2026-07-27T14:45"
                ]
            }
        },
        {
            "type": "Feature",
            "geometry": {
                "type": "Polygon",
                "coordinates": [
                    [
                        [
                            "-119.18",
                            "44.61"
                        ],
                        [
                            "-117.91",
                            "44.00"
                        ],
                        [
                            "-119.14",
                            "42.43"
                        ],
                        [
                            "-120.87",
                            "40.66"
                        ],
                        [
                            "-122.41",
                            "38.60"
                        ],
                        [
                            "-123.83",
                            "37.47"
                        ],
                        [
                            "-124.97",
                            "37.56"
                        ],
                        [
                            "-125.48",
                            "38.55"
                        ],
                        [
                            "-124.99",
                            "39.66"
                        ],
                        [
                            "-123.87",
                            "41.29"
                        ],
                        [
                            "-121.43",
                            "43.67"
                        ],
                        [
                            "-119.18",
                            "44.61"
                        ]
                    ]
                ]
            },
            "properties": {
                "forecastId": null,
                "geometryId": null,
                "tag": "1W",
                "forecastHour": 0,
                "hazard": "TURB-HI",
                "frequency": null,
                "severity": "MOD",
                "status": "NRML",
                "base": "330",
                "top": "420",
                "fzlBase": null,
                "fzlTop": null,
                "level": null,
                "product": "TANGO",
                "rawAirSigmet": null,
                "validTimeTo": "2026-07-27T15:00:00.000",
                "validTimeFrom": [
                    "2026-07-27T14:45"
                ]
            }
        },
        {
            "type": "Feature",
            "geometry": {
                "type": "Polygon",
                "coordinates": [
                    [
                        [
                            "-123.99",
                            "48.56"
                        ],
                        [
                            "-123.75",
                            "47.99"
                        ],
                        [
                            "-123.40",
                            "47.86"
                        ],
                        [
                            "-122.97",
                            "47.49"
                        ],
                        [
                            "-122.94",
                            "47.04"
                        ],
                        [
                            "-123.05",
                            "46.80"
                        ],
                        [
                            "-123.36",
                            "46.49"
                        ],
                        [
                            "-124.12",
                            "46.04"
                        ],
                        [
                            "-124.14",
                            "46.93"
                        ],
                        [
                            "-124.61",
                            "48.27"
                        ],
                        [
                            "-123.99",
                            "48.56"
                        ]
                    ]
                ]
            },
            "properties": {
                "forecastId": null,
                "geometryId": null,
                "tag": "1E",
                "forecastHour": 0,
                "hazard": "MT_OBSC",
                "frequency": null,
                "severity": null,
                "status": "NRML",
                "base": null,
                "top": null,
                "fzlBase": null,
                "fzlTop": null,
                "level": null,
                "product": "SIERRA",
                "rawAirSigmet": "MTNS OBSC BY CLDS PCPN BR",
                "validTimeTo": "2026-07-27T15:00:00.000",
                "validTimeFrom": [
                    "2026-07-27T14:45"
                ]
            }
        },
        {
            "type": "Feature",
            "geometry": {
                "type": "Polygon",
                "coordinates": [
                    [
                        [
                            "-125.05",
                            "48.58"
                        ],
                        [
                            "-124.46",
                            "48.43"
                        ],
                        [
                            "-123.71",
                            "48.33"
                        ],
                        [
                            "-123.44",
                            "47.41"
                        ],
                        [
                            "-124.53",
                            "47.15"
                        ],
                        [
                            "-125.16",
                            "47.86"
                        ],
                        [
                            "-125.74",
                            "48.46"
                        ],
                        [
                            "-125.05",
                            "48.58"
                        ]
                    ]
                ]
            },
            "properties": {
                "forecastId": null,
                "geometryId": null,
                "tag": "3E",
                "forecastHour": 0,
                "hazard": "IFR",
                "frequency": null,
                "severity": null,
                "status": "NRML",
                "base": null,
                "top": null,
                "fzlBase": null,
                "fzlTop": null,
                "level": null,
                "product": "SIERRA",
                "rawAirSigmet": "CIG BLW 010 VIS BLW 3SM PCPN BR",
                "validTimeTo": "2026-07-27T15:00:00.000",
                "validTimeFrom": [
                    "2026-07-27T14:45"
                ]
            }
        },
        {
            "type": "Feature",
            "geometry": {
                "type": "LineString",
                "coordinates": [
                    [
                        "-117.00",
                        "18.01"
                    ],
                    [
                        "-116.35",
                        "19.23"
                    ],
                    [
                        "-115.45",
                        "20.17"
                    ],
                    [
                        "-115.52",
                        "21.87"
                    ],
                    [
                        "-115.66",
                        "22.45"
                    ],
                    [
                        "-116.56",
                        "22.80"
                    ],
                    [
                        "-117.57",
                        "22.34"
                    ],
                    [
                        "-118.28",
                        "22.28"
                    ],
                    [
                        "-118.62",
                        "22.95"
                    ],
                    [
                        "-118.63",
                        "23.67"
                    ],
                    [
                        "-118.25",
                        "25.43"
                    ],
                    [
                        "-118.42",
                        "26.68"
                    ],
                    [
                        "-119.81",
                        "27.30"
                    ],
                    [
                        "-120.08",
                        "28.72"
                    ],
                    [
                        "-119.96",
                        "30.25"
                    ],
                    [
                        "-120.57",
                        "30.46"
                    ],
                    [
                        "-121.26",
                        "30.00"
                    ],
                    [
                        "-122.27",
                        "28.72"
                    ],
                    [
                        "-122.23",
                        "27.89"
                    ],
                    [
                        "-121.90",
                        "26.83"
                    ],
                    [
                        "-122.10",
                        "26.03"
                    ],
                    [
                        "-123.12",
                        "25.54"
                    ],
                    [
                        "-124.86",
                        "25.89"
                    ],
                    [
                        "-125.09",
                        "26.36"
                    ],
                    [
                        "-124.82",
                        "27.03"
                    ],
                    [
                        "-123.99",
                        "28.02"
                    ],
                    [
                        "-124.27",
                        "28.97"
                    ],
                    [
                        "-124.74",
                        "29.62"
                    ],
                    [
                        "-125.33",
                        "30.16"
                    ],
                    [
                        "-125.73",
                        "30.99"
                    ],
                    [
                        "-126.95",
                        "31.79"
                    ],
                    [
                        "-128.59",
                        "32.46"
                    ],
                    [
                        "-129.29",
                        "32.87"
                    ],
                    [
                        "-128.54",
                        "33.39"
                    ],
                    [
                        "-127.50",
                        "33.76"
                    ],
                    [
                        "-126.71",
                        "34.31"
                    ],
                    [
                        "-126.10",
                        "35.44"
                    ],
                    [
                        "-125.02",
                        "36.55"
                    ],
                    [
                        "-122.37",
                        "38.50"
                    ],
                    [
                        "-119.28",
                        "40.24"
                    ],
                    [
                        "-118.18",
                        "40.56"
                    ],
                    [
                        "-117.54",
                        "41.04"
                    ],
                    [
                        "-116.24",
                        "42.21"
                    ],
                    [
                        "-115.66",
                        "42.56"
                    ],
                    [
                        "-114.66",
                        "42.38"
                    ],
                    [
                        "-113.98",
                        "42.03"
                    ],
                    [
                        "-113.31",
                        "42.34"
                    ],
                    [
                        "-112.57",
                        "42.98"
                    ],
                    [
                        "-112.26",
                        "43.68"
                    ],
                    [
                        "-112.32",
                        "44.30"
                    ],
                    [
                        "-111.86",
                        "44.90"
                    ],
                    [
                        "-108.31",
                        "46.78"
                    ],
                    [
                        "-107.37",
                        "47.07"
                    ],
                    [
                        "-105.97",
                        "47.08"
                    ],
                    [
                        "-103.90",
                        "47.01"
                    ],
                    [
                        "-99.33",
                        "46.80"
                    ],
                    [
                        "-97.82",
                        "47.34"
                    ],
                    [
                        "-96.97",
                        "47.60"
                    ],
                    [
                        "-95.73",
                        "47.56"
                    ],
                    [
                        "-93.37",
                        "47.23"
                    ],
                    [
                        "-91.82",
                        "46.52"
                    ],
                    [
                        "-91.09",
                        "45.90"
                    ],
                    [
                        "-90.94",
                        "45.01"
                    ],
                    [
                        "-90.87",
                        "43.97"
                    ],
                    [
                        "-90.52",
                        "43.43"
                    ],
                    [
                        "-89.77",
                        "42.33"
                    ],
                    [
                        "-90.45",
                        "41.26"
                    ],
                    [
                        "-90.55",
                        "39.46"
                    ],
                    [
                        "-90.48",
                        "37.72"
                    ],
                    [
                        "-89.29",
                        "34.82"
                    ],
                    [
                        "-88.48",
                        "33.21"
                    ],
                    [
                        "-87.86",
                        "32.64"
                    ],
                    [
                        "-86.85",
                        "32.31"
                    ],
                    [
                        "-85.10",
                        "31.92"
                    ],
                    [
                        "-83.95",
                        "31.94"
                    ],
                    [
                        "-83.33",
                        "32.16"
                    ],
                    [
                        "-82.54",
                        "32.61"
                    ],
                    [
                        "-82.15",
                        "33.38"
                    ],
                    [
                        "-82.36",
                        "34.95"
                    ],
                    [
                        "-82.56",
                        "35.46"
                    ],
                    [
                        "-82.15",
                        "35.72"
                    ],
                    [
                        "-80.86",
                        "35.64"
                    ],
                    [
                        "-78.52",
                        "35.14"
                    ],
                    [
                        "-77.06",
                        "34.32"
                    ],
                    [
                        "-76.22",
                        "33.19"
                    ],
                    [
                        "-75.99",
                        "32.58"
                    ],
                    [
                        "-76.04",
                        "31.66"
                    ],
                    [
                        "-76.81",
                        "30.54"
                    ],
                    [
                        "-76.51",
                        "28.04"
                    ],
                    [
                        "-78.01",
                        "27.34"
                    ],
                    [
                        "-79.12",
                        "27.53"
                    ],
                    [
                        "-80.17",
                        "27.46"
                    ],
                    [
                        "-82.58",
                        "27.73"
                    ],
                    [
                        "-84.30",
                        "27.36"
                    ],
                    [
                        "-85.28",
                        "27.35"
                    ],
                    [
                        "-85.99",
                        "27.65"
                    ],
                    [
                        "-87.68",
                        "27.48"
                    ],
                    [
                        "-88.94",
                        "26.53"
                    ],
                    [
                        "-89.69",
                        "26.18"
                    ],
                    [
                        "-90.61",
                        "26.16"
                    ],
                    [
                        "-91.76",
                        "26.08"
                    ],
                    [
                        "-92.31",
                        "25.54"
                    ],
                    [
                        "-92.91",
                        "24.70"
                    ],
                    [
                        "-92.90",
                        "23.62"
                    ],
                    [
                        "-94.39",
                        "23.00"
                    ],
                    [
                        "-94.74",
                        "22.54"
                    ],
                    [
                        "-94.28",
                        "21.90"
                    ],
                    [
                        "-93.14",
                        "21.06"
                    ],
                    [
                        "-93.19",
                        "19.70"
                    ]
                ]
            },
            "properties": {
                "forecastId": null,
                "geometryId": null,
                "tag": "1C",
                "forecastHour": 0,
                "hazard": "FZLVL",
                "frequency": null,
                "severity": null,
                "status": "NRML",
                "base": null,
                "top": null,
                "fzlBase": null,
                "fzlTop": null,
                "level": "160",
                "product": "ZULU",
                "rawAirSigmet": null,
                "validTimeTo": "2026-07-27T15:00:00.000",
                "validTimeFrom": [
                    "2026-07-27T14:45"
                ]
            }
        },
        {
            "type": "Feature",
            "geometry": {
                "type": "LineString",
                "coordinates": [
                    [
                        "-93.68",
                        "58.36"
                    ],
                    [
                        "-92.80",
                        "57.73"
                    ],
                    [
                        "-91.64",
                        "57.37"
                    ],
                    [
                        "-88.89",
                        "56.71"
                    ],
                    [
                        "-88.17",
                        "55.96"
                    ],
                    [
                        "-88.88",
                        "55.25"
                    ],
                    [
                        "-89.10",
                        "54.52"
                    ],
                    [
                        "-88.58",
                        "53.90"
                    ],
                    [
                        "-87.22",
                        "53.42"
                    ],
                    [
                        "-85.43",
                        "53.27"
                    ],
                    [
                        "-82.29",
                        "52.94"
                    ],
                    [
                        "-80.73",
                        "52.67"
                    ],
                    [
                        "-79.36",
                        "52.26"
                    ],
                    [
                        "-76.62",
                        "52.09"
                    ],
                    [
                        "-74.26",
                        "53.06"
                    ],
                    [
                        "-72.35",
                        "54.13"
                    ],
                    [
                        "-71.54",
                        "54.71"
                    ],
                    [
                        "-70.86",
                        "55.66"
                    ],
                    [
                        "-70.05",
                        "57.13"
                    ]
                ]
            },
            "properties": {
                "forecastId": null,
                "geometryId": null,
                "tag": "1C",
                "forecastHour": 0,
                "hazard": "FZLVL",
                "frequency": null,
                "severity": null,
                "status": "NRML",
                "base": null,
                "top": null,
                "fzlBase": null,
                "fzlTop": null,
                "level": "080",
                "product": "ZULU",
                "rawAirSigmet": null,
                "validTimeTo": "2026-07-27T15:00:00.000",
                "validTimeFrom": [
                    "2026-07-27T14:45"
                ]
            }
        },
        {
            "type": "Feature",
            "geometry": {
                "type": "Polygon",
                "coordinates": [
                    [
                        [
                            "-67.03",
                            "42.67"
                        ],
                        [
                            "-67.03",
                            "38.89"
                        ],
                        [
                            "-68.36",
                            "39.64"
                        ],
                        [
                            "-68.31",
                            "41.02"
                        ],
                        [
                            "-67.98",
                            "41.24"
                        ],
                        [
                            "-67.88",
                            "42.32"
                        ],
                        [
                            "-67.03",
                            "42.67"
                        ]
                    ]
                ]
            },
            "properties": {
                "forecastId": null,
                "geometryId": null,
                "tag": "6E",
                "forecastHour": 0,
                "hazard": "IFR",
                "frequency": null,
                "severity": null,
                "status": "NRML",
                "base": null,
                "top": null,
                "fzlBase": null,
                "fzlTop": null,
                "level": null,
                "product": "SIERRA",
                "rawAirSigmet": "CIG BLW 010 VIS BLW 3SM PCPN BR",
                "validTimeTo": "2026-07-27T15:00:00.000",
                "validTimeFrom": [
                    "2026-07-27T14:45"
                ]
            }
        },
        {
            "type": "Feature",
            "geometry": {
                "type": "Polygon",
                "coordinates": [
                    [
                        [
                            "-108.14",
                            "45.58"
                        ],
                        [
                            "-107.20",
                            "45.10"
                        ],
                        [
                            "-107.30",
                            "44.45"
                        ],
                        [
                            "-108.29",
                            "43.38"
                        ],
                        [
                            "-109.51",
                            "42.69"
                        ],
                        [
                            "-110.89",
                            "41.88"
                        ],
                        [
                            "-111.81",
                            "40.93"
                        ],
                        [
                            "-113.22",
                            "39.94"
                        ],
                        [
                            "-114.60",
                            "40.34"
                        ],
                        [
                            "-114.19",
                            "41.26"
                        ],
                        [
                            "-113.91",
                            "42.02"
                        ],
                        [
                            "-113.54",
                            "42.74"
                        ],
                        [
                            "-112.84",
                            "43.76"
                        ],
                        [
                            "-111.82",
                            "44.60"
                        ],
                        [
                            "-110.33",
                            "45.28"
                        ],
                        [
                            "-108.14",
                            "45.58"
                        ]
                    ]
                ]
            },
            "properties": {
                "forecastId": null,
                "geometryId": null,
                "tag": "2C",
                "forecastHour": 0,
                "hazard": "ICE",
                "frequency": null,
                "severity": "MOD",
                "status": "NRML",
                "base": "160",
                "top": "270",
                "fzlBase": null,
                "fzlTop": null,
                "level": null,
                "product": "ZULU",
                "rawAirSigmet": "ICE",
                "validTimeTo": "2026-07-27T15:00:00.000",
                "validTimeFrom": [
                    "2026-07-27T14:45"
                ]
            }
        },
        {
            "type": "Feature",
            "geometry": {
                "type": "LineString",
                "coordinates": [
                    [
                        "-106.76",
                        "19.23"
                    ],
                    [
                        "-106.64",
                        "19.60"
                    ],
                    [
                        "-106.61",
                        "19.66"
                    ],
                    [
                        "-106.29",
                        "20.00"
                    ],
                    [
                        "-106.25",
                        "20.03"
                    ],
                    [
                        "-105.88",
                        "20.28"
                    ],
                    [
                        "-105.62",
                        "20.41"
                    ],
                    [
                        "-105.51",
                        "20.47"
                    ],
                    [
                        "-105.12",
                        "20.51"
                    ],
                    [
                        "-104.95",
                        "20.46"
                    ],
                    [
                        "-104.72",
                        "20.38"
                    ],
                    [
                        "-104.33",
                        "20.14"
                    ],
                    [
                        "-104.32",
                        "20.12"
                    ],
                    [
                        "-103.91",
                        "19.84"
                    ],
                    [
                        "-103.84",
                        "19.80"
                    ],
                    [
                        "-103.50",
                        "19.55"
                    ],
                    [
                        "-103.40",
                        "19.47"
                    ]
                ]
            },
            "properties": {
                "forecastId": null,
                "geometryId": null,
                "tag": "1C",
                "forecastHour": 0,
                "hazard": "FZLVL",
                "frequency": null,
                "severity": null,
                "status": "NRML",
                "base": null,
                "top": null,
                "fzlBase": null,
                "fzlTop": null,
                "level": "160",
                "product": "ZULU",
                "rawAirSigmet": null,
                "validTimeTo": "2026-07-27T15:00:00.000",
                "validTimeFrom": [
                    "2026-07-27T14:45"
                ]
            }
        },
        {
            "type": "Feature",
            "geometry": {
                "type": "Polygon",
                "coordinates": [
                    [
                        [
                            "-112.55",
                            "29.67"
                        ],
                        [
                            "-112.64",
                            "29.57"
                        ],
                        [
                            "-112.74",
                            "29.28"
                        ],
                        [
                            "-112.77",
                            "28.91"
                        ],
                        [
                            "-112.71",
                            "28.55"
                        ],
                        [
                            "-112.44",
                            "28.21"
                        ],
                        [
                            "-112.44",
                            "28.21"
                        ],
                        [
                            "-111.99",
                            "28.03"
                        ],
                        [
                            "-111.61",
                            "27.94"
                        ],
                        [
                            "-111.56",
                            "27.93"
                        ],
                        [
                            "-111.15",
                            "27.91"
                        ],
                        [
                            "-110.74",
                            "27.99"
                        ],
                        [
                            "-110.66",
                            "28.04"
                        ],
                        [
                            "-110.48",
                            "28.43"
                        ],
                        [
                            "-110.57",
                            "28.78"
                        ],
                        [
                            "-110.74",
                            "29.13"
                        ],
                        [
                            "-110.93",
                            "29.37"
                        ],
                        [
                            "-111.01",
                            "29.47"
                        ],
                        [
                            "-111.40",
                            "29.74"
                        ],
                        [
                            "-111.53",
                            "29.79"
                        ],
                        [
                            "-111.84",
                            "29.86"
                        ],
                        [
                            "-112.26",
                            "29.85"
                        ],
                        [
                            "-112.55",
                            "29.67"
                        ]
                    ]
                ]
            },
            "properties": {
                "forecastId": null,
                "geometryId": null,
                "tag": "1C",
                "forecastHour": 0,
                "hazard": "FZLVL",
                "frequency": null,
                "severity": null,
                "status": "NRML",
                "base": null,
                "top": null,
                "fzlBase": null,
                "fzlTop": null,
                "level": "160",
                "product": "ZULU",
                "rawAirSigmet": null,
                "validTimeTo": "2026-07-27T15:00:00.000",
                "validTimeFrom": [
                    "2026-07-27T14:45"
                ]
            }
        },
        {
            "type": "Feature",
            "geometry": {
                "type": "Polygon",
                "coordinates": [
                    [
                        [
                            "-117.16",
                            "44.40"
                        ],
                        [
                            "-115.91",
                            "44.06"
                        ],
                        [
                            "-115.59",
                            "43.44"
                        ],
                        [
                            "-114.89",
                            "43.21"
                        ],
                        [
                            "-113.64",
                            "43.13"
                        ],
                        [
                            "-113.21",
                            "42.30"
                        ],
                        [
                            "-114.19",
                            "42.12"
                        ],
                        [
                            "-115.16",
                            "42.09"
                        ],
                        [
                            "-116.06",
                            "42.21"
                        ],
                        [
                            "-117.47",
                            "42.58"
                        ],
                        [
                            "-118.64",
                            "42.61"
                        ],
                        [
                            "-119.38",
                            "42.90"
                        ],
                        [
                            "-119.93",
                            "43.50"
                        ],
                        [
                            "-119.54",
                            "43.95"
                        ],
                        [
                            "-118.68",
                            "43.95"
                        ],
                        [
                            "-117.82",
                            "44.17"
                        ],
                        [
                            "-117.16",
                            "44.40"
                        ]
                    ]
                ]
            },
            "properties": {
                "forecastId": null,
                "geometryId": null,
                "tag": "2E",
                "forecastHour": 0,
                "hazard": "IFR",
                "frequency": null,
                "severity": null,
                "status": "NRML",
                "base": null,
                "top": null,
                "fzlBase": null,
                "fzlTop": null,
                "level": null,
                "product": "SIERRA",
                "rawAirSigmet": "CIG BLW 010 VIS BLW 3SM HZ FU",
                "validTimeTo": "2026-07-27T15:00:00.000",
                "validTimeFrom": [
                    "2026-07-27T14:45"
                ]
            }
        },
        {
            "type": "Feature",
            "geometry": {
                "type": "Polygon",
                "coordinates": [
                    [
                        [
                            "-124.45",
                            "38.53"
                        ],
                        [
                            "-123.85",
                            "38.46"
                        ],
                        [
                            "-123.27",
                            "37.93"
                        ],
                        [
                            "-122.96",
                            "37.55"
                        ],
                        [
                            "-122.31",
                            "37.02"
                        ],
                        [
                            "-122.02",
                            "36.40"
                        ],
                        [
                            "-121.91",
                            "35.98"
                        ],
                        [
                            "-121.49",
                            "35.08"
                        ],
                        [
                            "-120.63",
                            "34.15"
                        ],
                        [
                            "-120.11",
                            "33.55"
                        ],
                        [
                            "-119.39",
                            "33.07"
                        ],
                        [
                            "-118.77",
                            "33.00"
                        ],
                        [
                            "-118.36",
                            "33.22"
                        ],
                        [
                            "-118.50",
                            "33.65"
                        ],
                        [
                            "-118.35",
                            "33.68"
                        ],
                        [
                            "-117.97",
                            "33.73"
                        ],
                        [
                            "-117.38",
                            "33.56"
                        ],
                        [
                            "-116.94",
                            "32.92"
                        ],
                        [
                            "-116.92",
                            "32.42"
                        ],
                        [
                            "-120.69",
                            "30.68"
                        ],
                        [
                            "-124.93",
                            "37.03"
                        ],
                        [
                            "-124.78",
                            "37.96"
                        ],
                        [
                            "-124.45",
                            "38.53"
                        ]
                    ]
                ]
            },
            "properties": {
                "forecastId": null,
                "geometryId": null,
                "tag": "1E",
                "forecastHour": 0,
                "hazard": "IFR",
                "frequency": null,
                "severity": null,
                "status": "NRML",
                "base": null,
                "top": null,
                "fzlBase": null,
                "fzlTop": null,
                "level": null,
                "product": "SIERRA",
                "rawAirSigmet": "CIG BLW 010 VIS BLW 3SM BR FG",
                "validTimeTo": "2026-07-27T15:00:00.000",
                "validTimeFrom": [
                    "2026-07-27T14:45"
                ]
            }
        },
        {
            "type": "Feature",
            "geometry": {
                "type": "LineString",
                "coordinates": [
                    [
                        "-134.81",
                        "43.97"
                    ],
                    [
                        "-132.15",
                        "44.82"
                    ],
                    [
                        "-130.51",
                        "45.36"
                    ],
                    [
                        "-128.98",
                        "45.73"
                    ],
                    [
                        "-125.77",
                        "46.63"
                    ],
                    [
                        "-123.78",
                        "46.92"
                    ],
                    [
                        "-122.29",
                        "46.77"
                    ],
                    [
                        "-120.46",
                        "47.30"
                    ],
                    [
                        "-119.56",
                        "47.81"
                    ],
                    [
                        "-117.53",
                        "49.34"
                    ],
                    [
                        "-115.68",
                        "50.70"
                    ],
                    [
                        "-114.84",
                        "51.58"
                    ],
                    [
                        "-113.92",
                        "52.15"
                    ],
                    [
                        "-112.95",
                        "52.82"
                    ],
                    [
                        "-112.13",
                        "53.71"
                    ],
                    [
                        "-111.79",
                        "54.67"
                    ],
                    [
                        "-110.82",
                        "55.20"
                    ],
                    [
                        "-109.19",
                        "55.64"
                    ],
                    [
                        "-108.19",
                        "56.20"
                    ],
                    [
                        "-107.48",
                        "56.56"
                    ],
                    [
                        "-107.81",
                        "57.16"
                    ],
                    [
                        "-108.15",
                        "58.03"
                    ]
                ]
            },
            "properties": {
                "forecastId": null,
                "geometryId": null,
                "tag": "1C",
                "forecastHour": 0,
                "hazard": "FZLVL",
                "frequency": null,
                "severity": null,
                "status": "NRML",
                "base": null,
                "top": null,
                "fzlBase": null,
                "fzlTop": null,
                "level": "120",
                "product": "ZULU",
                "rawAirSigmet": null,
                "validTimeTo": "2026-07-27T15:00:00.000",
                "validTimeFrom": [
                    "2026-07-27T14:45"
                ]
            }
        },
        {
            "type": "Feature",
            "geometry": {
                "type": "Polygon",
                "coordinates": [
                    [
                        [
                            "-73.04",
                            "51.63"
                        ],
                        [
                            "-73.63",
                            "51.38"
                        ],
                        [
                            "-74.25",
                            "51.01"
                        ],
                        [
                            "-74.86",
                            "50.62"
                        ],
                        [
                            "-75.40",
                            "50.30"
                        ],
                        [
                            "-75.84",
                            "50.01"
                        ],
                        [
                            "-76.15",
                            "49.70"
                        ],
                        [
                            "-76.19",
                            "49.31"
                        ],
                        [
                            "-75.23",
                            "49.00"
                        ],
                        [
                            "-74.24",
                            "48.90"
                        ],
                        [
                            "-73.56",
                            "49.12"
                        ],
                        [
                            "-73.01",
                            "49.39"
                        ],
                        [
                            "-72.49",
                            "49.73"
                        ],
                        [
                            "-71.87",
                            "50.27"
                        ],
                        [
                            "-71.67",
                            "50.58"
                        ],
                        [
                            "-71.64",
                            "50.98"
                        ],
                        [
                            "-72.01",
                            "51.52"
                        ],
                        [
                            "-72.49",
                            "51.71"
                        ],
                        [
                            "-73.04",
                            "51.63"
                        ]
                    ]
                ]
            },
            "properties": {
                "forecastId": null,
                "geometryId": null,
                "tag": "1C",
                "forecastHour": 0,
                "hazard": "FZLVL",
                "frequency": null,
                "severity": null,
                "status": "NRML",
                "base": null,
                "top": null,
                "fzlBase": null,
                "fzlTop": null,
                "level": "120",
                "product": "ZULU",
                "rawAirSigmet": null,
                "validTimeTo": "2026-07-27T15:00:00.000",
                "validTimeFrom": [
                    "2026-07-27T14:45"
                ]
            }
        },
        {
            "type": "Feature",
            "geometry": {
                "type": "Polygon",
                "coordinates": [
                    [
                        [
                            "-88.26",
                            "48.26"
                        ],
                        [
                            "-84.95",
                            "46.89"
                        ],
                        [
                            "-84.61",
                            "46.48"
                        ],
                        [
                            "-82.43",
                            "45.19"
                        ],
                        [
                            "-83.18",
                            "44.61"
                        ],
                        [
                            "-85.65",
                            "44.85"
                        ],
                        [
                            "-86.87",
                            "46.76"
                        ],
                        [
                            "-89.85",
                            "47.99"
                        ],
                        [
                            "-88.26",
                            "48.26"
                        ]
                    ]
                ]
            },
            "properties": {
                "forecastId": null,
                "geometryId": null,
                "tag": "2W",
                "forecastHour": 0,
                "hazard": "TURB-HI",
                "frequency": null,
                "severity": "MOD",
                "status": "NRML",
                "base": "350",
                "top": "420",
                "fzlBase": null,
                "fzlTop": null,
                "level": null,
                "product": "TANGO",
                "rawAirSigmet": null,
                "validTimeTo": "2026-07-27T15:00:00.000",
                "validTimeFrom": [
                    "2026-07-27T14:45"
                ]
            }
        },
        {
            "type": "Feature",
            "geometry": {
                "type": "LineString",
                "coordinates": [
                    [
                        "-101.09",
                        "19.58"
                    ],
                    [
                        "-101.23",
                        "20.43"
                    ],
                    [
                        "-101.66",
                        "21.32"
                    ],
                    [
                        "-102.51",
                        "22.52"
                    ],
                    [
                        "-103.79",
                        "23.77"
                    ],
                    [
                        "-104.62",
                        "24.04"
                    ],
                    [
                        "-104.56",
                        "23.05"
                    ],
                    [
                        "-104.54",
                        "22.62"
                    ],
                    [
                        "-105.30",
                        "22.64"
                    ],
                    [
                        "-106.96",
                        "23.39"
                    ],
                    [
                        "-107.82",
                        "23.56"
                    ],
                    [
                        "-108.62",
                        "24.00"
                    ],
                    [
                        "-109.52",
                        "24.41"
                    ],
                    [
                        "-110.26",
                        "24.04"
                    ],
                    [
                        "-111.11",
                        "23.54"
                    ],
                    [
                        "-111.38",
                        "22.81"
                    ],
                    [
                        "-111.15",
                        "22.06"
                    ],
                    [
                        "-111.48",
                        "21.33"
                    ],
                    [
                        "-112.54",
                        "20.40"
                    ],
                    [
                        "-112.86",
                        "19.66"
                    ],
                    [
                        "-112.77",
                        "18.61"
                    ]
                ]
            },
            "properties": {
                "forecastId": null,
                "geometryId": null,
                "tag": "1C",
                "forecastHour": 0,
                "hazard": "FZLVL",
                "frequency": null,
                "severity": null,
                "status": "NRML",
                "base": null,
                "top": null,
                "fzlBase": null,
                "fzlTop": null,
                "level": "160",
                "product": "ZULU",
                "rawAirSigmet": null,
                "validTimeTo": "2026-07-27T15:00:00.000",
                "validTimeFrom": [
                    "2026-07-27T14:45"
                ]
            }
        }
    ],
    "metadata": {
        "creationTime": "2026-07-27T15:47"
    }
}