{
    "type": "FeatureCollection",
    "features": [
        {
            "type": "Feature",
            "geometry": {
                "type": "LineString",
                "coordinates": [
                    [
                        "-133.57",
                        "40.89"
                    ],
                    [
                        "-132.01",
                        "43.17"
                    ],
                    [
                        "-131.70",
                        "45.01"
                    ],
                    [
                        "-130.84",
                        "46.70"
                    ],
                    [
                        "-128.40",
                        "49.88"
                    ],
                    [
                        "-127.58",
                        "50.68"
                    ],
                    [
                        "-126.22",
                        "51.14"
                    ],
                    [
                        "-124.77",
                        "51.62"
                    ],
                    [
                        "-123.31",
                        "51.61"
                    ],
                    [
                        "-120.01",
                        "51.41"
                    ],
                    [
                        "-118.55",
                        "51.20"
                    ],
                    [
                        "-117.27",
                        "50.70"
                    ],
                    [
                        "-115.39",
                        "49.65"
                    ],
                    [
                        "-113.20",
                        "48.71"
                    ],
                    [
                        "-110.53",
                        "48.81"
                    ],
                    [
                        "-109.02",
                        "49.03"
                    ],
                    [
                        "-108.94",
                        "49.86"
                    ],
                    [
                        "-108.25",
                        "50.34"
                    ],
                    [
                        "-106.75",
                        "50.75"
                    ],
                    [
                        "-103.29",
                        "51.19"
                    ],
                    [
                        "-102.10",
                        "51.68"
                    ],
                    [
                        "-101.52",
                        "52.47"
                    ],
                    [
                        "-101.50",
                        "53.06"
                    ],
                    [
                        "-101.88",
                        "53.68"
                    ],
                    [
                        "-102.60",
                        "54.27"
                    ],
                    [
                        "-104.88",
                        "55.34"
                    ],
                    [
                        "-105.54",
                        "55.55"
                    ],
                    [
                        "-106.64",
                        "55.52"
                    ],
                    [
                        "-107.60",
                        "55.54"
                    ],
                    [
                        "-107.82",
                        "55.91"
                    ],
                    [
                        "-107.65",
                        "56.80"
                    ],
                    [
                        "-108.06",
                        "57.51"
                    ],
                    [
                        "-110.34",
                        "57.51"
                    ],
                    [
                        "-111.47",
                        "57.84"
                    ]
                ]
            },
            "properties": {
                "forecastId": null,
                "geometryId": null,
                "tag": "1C",
                "forecastHour": 6,
                "hazard": "FZLVL",
                "frequency": null,
                "severity": null,
                "status": "NRML",
                "base": null,
                "top": null,
                "fzlBase": null,
                "fzlTop": null,
                "level": "120",
                "product": "ZULU",
                "rawAirSigmet": null,
                "validTimeTo": "2026-08-24T21:00:00.000",
                "validTimeFrom": [
                    "2026-08-24T18:06"
                ]
            }
        },
        {
            "type": "Feature",
            "geometry": {
                "type": "LineString",
                "coordinates": [
                    [
                        "-98.05",
                        "58.35"
                    ],
                    [
                        "-94.46",
                        "54.40"
                    ],
                    [
                        "-93.24",
                        "53.79"
                    ],
                    [
                        "-91.37",
                        "53.29"
                    ],
                    [
                        "-89.61",
                        "53.60"
                    ],
                    [
                        "-87.47",
                        "53.64"
                    ],
                    [
                        "-85.88",
                        "54.24"
                    ],
                    [
                        "-84.68",
                        "54.22"
                    ],
                    [
                        "-84.56",
                        "53.57"
                    ],
                    [
                        "-85.35",
                        "52.49"
                    ],
                    [
                        "-85.68",
                        "51.32"
                    ],
                    [
                        "-85.95",
                        "49.79"
                    ],
                    [
                        "-85.07",
                        "49.11"
                    ],
                    [
                        "-84.64",
                        "47.72"
                    ],
                    [
                        "-84.63",
                        "46.13"
                    ],
                    [
                        "-84.30",
                        "44.74"
                    ],
                    [
                        "-83.64",
                        "43.49"
                    ],
                    [
                        "-82.91",
                        "42.19"
                    ],
                    [
                        "-82.42",
                        "41.19"
                    ],
                    [
                        "-81.48",
                        "40.35"
                    ],
                    [
                        "-79.75",
                        "39.67"
                    ],
                    [
                        "-78.46",
                        "39.26"
                    ],
                    [
                        "-76.30",
                        "39.17"
                    ],
                    [
                        "-74.38",
                        "39.38"
                    ],
                    [
                        "-72.85",
                        "39.84"
                    ],
                    [
                        "-71.32",
                        "40.65"
                    ],
                    [
                        "-70.90",
                        "40.83"
                    ],
                    [
                        "-69.92",
                        "41.67"
                    ],
                    [
                        "-68.86",
                        "42.97"
                    ],
                    [
                        "-68.28",
                        "44.04"
                    ],
                    [
                        "-67.71",
                        "45.67"
                    ],
                    [
                        "-67.33",
                        "48.65"
                    ],
                    [
                        "-67.86",
                        "51.12"
                    ],
                    [
                        "-67.59",
                        "52.01"
                    ],
                    [
                        "-67.34",
                        "52.75"
                    ],
                    [
                        "-67.66",
                        "53.32"
                    ],
                    [
                        "-67.81",
                        "54.48"
                    ],
                    [
                        "-67.21",
                        "55.00"
                    ],
                    [
                        "-66.49",
                        "55.22"
                    ],
                    [
                        "-65.32",
                        "55.35"
                    ],
                    [
                        "-63.54",
                        "55.31"
                    ],
                    [
                        "-60.94",
                        "55.12"
                    ]
                ]
            },
            "properties": {
                "forecastId": null,
                "geometryId": null,
                "tag": "1C",
                "forecastHour": 6,
                "hazard": "FZLVL",
                "frequency": null,
                "severity": null,
                "status": "NRML",
                "base": null,
                "top": null,
                "fzlBase": null,
                "fzlTop": null,
                "level": "120",
                "product": "ZULU",
                "rawAirSigmet": null,
                "validTimeTo": "2026-08-24T21:00:00.000",
                "validTimeFrom": [
                    "2026-08-24T18:06"
                ]
            }
        },
        {
            "type": "Feature",
            "geometry": {
                "type": "Polygon",
                "coordinates": [
                    [
                        [
                            "-98.28",
                            "54.99"
                        ],
                        [
                            "-98.55",
                            "54.68"
                        ],
                        [
                            "-98.46",
                            "54.36"
                        ],
                        [
                            "-98.22",
                            "54.06"
                        ],
                        [
                            "-98.21",
                            "54.05"
                        ],
                        [
                            "-97.77",
                            "53.74"
                        ],
                        [
                            "-97.67",
                            "53.68"
                        ],
                        [
                            "-97.20",
                            "53.43"
                        ],
                        [
                            "-97.13",
                            "53.39"
                        ],
                        [
                            "-96.59",
                            "53.14"
                        ],
                        [
                            "-96.30",
                            "53.12"
                        ],
                        [
                            "-96.06",
                            "53.11"
                        ],
                        [
                            "-96.03",
                            "53.12"
                        ],
                        [
                            "-95.80",
                            "53.44"
                        ],
                        [
                            "-95.85",
                            "53.76"
                        ],
                        [
                            "-96.03",
                            "54.07"
                        ],
                        [
                            "-96.07",
                            "54.14"
                        ],
                        [
                            "-96.22",
                            "54.39"
                        ],
                        [
                            "-96.57",
                            "54.70"
                        ],
                        [
                            "-96.62",
                            "54.73"
                        ],
                        [
                            "-97.17",
                            "54.96"
                        ],
                        [
                            "-97.41",
                            "55.00"
                        ],
                        [
                            "-97.72",
                            "55.05"
                        ],
                        [
                            "-98.26",
                            "55.00"
                        ],
                        [
                            "-98.28",
                            "54.99"
                        ]
                    ]
                ]
            },
            "properties": {
                "forecastId": null,
                "geometryId": null,
                "tag": "1C",
                "forecastHour": 6,
                "hazard": "FZLVL",
                "frequency": null,
                "severity": null,
                "status": "NRML",
                "base": null,
                "top": null,
                "fzlBase": null,
                "fzlTop": null,
                "level": "120",
                "product": "ZULU",
                "rawAirSigmet": null,
                "validTimeTo": "2026-08-24T21:00:00.000",
                "validTimeFrom": [
                    "2026-08-24T18:06"
                ]
            }
        },
        {
            "type": "Feature",
            "geometry": {
                "type": "Polygon",
                "coordinates": [
                    [
                        [
                            "-76.50",
                            "43.01"
                        ],
                        [
                            "-76.89",
                            "42.15"
                        ],
                        [
                            "-77.94",
                            "41.54"
                        ],
                        [
                            "-79.04",
                            "41.42"
                        ],
                        [
                            "-79.58",
                            "41.60"
                        ],
                        [
                            "-79.19",
                            "42.15"
                        ],
                        [
                            "-76.50",
                            "43.01"
                        ]
                    ]
                ]
            },
            "properties": {
                "forecastId": null,
                "geometryId": null,
                "tag": "3E",
                "forecastHour": 6,
                "hazard": "MT_OBSC",
                "frequency": null,
                "severity": null,
                "status": "NRML",
                "base": null,
                "top": null,
                "fzlBase": null,
                "fzlTop": null,
                "level": null,
                "product": "SIERRA",
                "rawAirSigmet": "MTNS OBSC BY CLDS PCPN",
                "validTimeTo": "2026-08-24T21:00:00.000",
                "validTimeFrom": [
                    "2026-08-24T18:27"
                ]
            }
        },
        {
            "type": "Feature",
            "geometry": {
                "type": "Polygon",
                "coordinates": [
                    [
                        [
                            "-68.98",
                            "46.37"
                        ],
                        [
                            "-68.26",
                            "45.63"
                        ],
                        [
                            "-69.21",
                            "43.85"
                        ],
                        [
                            "-70.44",
                            "40.91"
                        ],
                        [
                            "-72.38",
                            "37.24"
                        ],
                        [
                            "-74.00",
                            "35.88"
                        ],
                        [
                            "-74.86",
                            "36.38"
                        ],
                        [
                            "-74.00",
                            "38.19"
                        ],
                        [
                            "-72.72",
                            "41.50"
                        ],
                        [
                            "-68.98",
                            "46.37"
                        ]
                    ]
                ]
            },
            "properties": {
                "forecastId": null,
                "geometryId": null,
                "tag": "2W",
                "forecastHour": 6,
                "hazard": "TURB-HI",
                "frequency": null,
                "severity": "MOD",
                "status": "NRML",
                "base": "300",
                "top": "400",
                "fzlBase": null,
                "fzlTop": null,
                "level": null,
                "product": "TANGO",
                "rawAirSigmet": null,
                "validTimeTo": "2026-08-24T21:00:00.000",
                "validTimeFrom": [
                    "2026-08-24T14:45"
                ]
            }
        },
        {
            "type": "Feature",
            "geometry": {
                "type": "Polygon",
                "coordinates": [
                    [
                        [
                            "-125.92",
                            "48.38"
                        ],
                        [
                            "-125.22",
                            "47.91"
                        ],
                        [
                            "-124.44",
                            "46.93"
                        ],
                        [
                            "-124.59",
                            "45.47"
                        ],
                        [
                            "-124.70",
                            "43.93"
                        ],
                        [
                            "-124.36",
                            "41.89"
                        ],
                        [
                            "-124.12",
                            "40.86"
                        ],
                        [
                            "-123.69",
                            "38.95"
                        ],
                        [
                            "-122.68",
                            "38.12"
                        ],
                        [
                            "-122.29",
                            "37.01"
                        ],
                        [
                            "-121.84",
                            "36.13"
                        ],
                        [
                            "-120.93",
                            "35.20"
                        ],
                        [
                            "-120.75",
                            "34.48"
                        ],
                        [
                            "-119.51",
                            "33.65"
                        ],
                        [
                            "-119.01",
                            "32.95"
                        ],
                        [
                            "-118.07",
                            "32.79"
                        ],
                        [
                            "-117.68",
                            "32.29"
                        ],
                        [
                            "-120.73",
                            "30.73"
                        ],
                        [
                            "-126.93",
                            "39.67"
                        ],
                        [
                            "-126.66",
                            "45.31"
                        ],
                        [
                            "-127.99",
                            "48.30"
                        ],
                        [
                            "-125.92",
                            "48.38"
                        ]
                    ]
                ]
            },
            "properties": {
                "forecastId": null,
                "geometryId": null,
                "tag": "2E",
                "forecastHour": 6,
                "hazard": "IFR",
                "frequency": null,
                "severity": null,
                "status": "NRML",
                "base": null,
                "top": null,
                "fzlBase": null,
                "fzlTop": null,
                "level": null,
                "product": "SIERRA",
                "rawAirSigmet": "CIG BLW 010 VIS BLW 3SM BR FG",
                "validTimeTo": "2026-08-24T21:00:00.000",
                "validTimeFrom": [
                    "2026-08-24T18:27"
                ]
            }
        },
        {
            "type": "Feature",
            "geometry": {
                "type": "Polygon",
                "coordinates": [
                    [
                        [
                            "-75.70",
                            "44.49"
                        ],
                        [
                            "-75.25",
                            "44.03"
                        ],
                        [
                            "-74.47",
                            "42.67"
                        ],
                        [
                            "-75.07",
                            "42.06"
                        ],
                        [
                            "-75.36",
                            "41.36"
                        ],
                        [
                            "-76.43",
                            "41.03"
                        ],
                        [
                            "-77.01",
                            "41.06"
                        ],
                        [
                            "-77.71",
                            "41.47"
                        ],
                        [
                            "-78.47",
                            "42.37"
                        ],
                        [
                            "-78.89",
                            "42.99"
                        ],
                        [
                            "-79.07",
                            "43.58"
                        ],
                        [
                            "-77.79",
                            "43.73"
                        ],
                        [
                            "-76.68",
                            "43.77"
                        ],
                        [
                            "-76.00",
                            "44.27"
                        ],
                        [
                            "-75.70",
                            "44.49"
                        ]
                    ]
                ]
            },
            "properties": {
                "forecastId": null,
                "geometryId": null,
                "tag": "1C",
                "forecastHour": 6,
                "hazard": "ICE",
                "frequency": null,
                "severity": "MOD",
                "status": "NRML",
                "base": "090",
                "top": "180",
                "fzlBase": null,
                "fzlTop": null,
                "level": null,
                "product": "ZULU",
                "rawAirSigmet": "ICE",
                "validTimeTo": "2026-08-24T21:00:00.000",
                "validTimeFrom": [
                    "2026-08-24T18:06"
                ]
            }
        },
        {
            "type": "Feature",
            "geometry": {
                "type": "LineString",
                "coordinates": [
                    [
                        "-137.71",
                        "50.25"
                    ],
                    [
                        "-137.22",
                        "50.33"
                    ],
                    [
                        "-136.74",
                        "50.46"
                    ],
                    [
                        "-136.31",
                        "50.67"
                    ],
                    [
                        "-136.00",
                        "50.90"
                    ],
                    [
                        "-135.92",
                        "50.97"
                    ],
                    [
                        "-135.55",
                        "51.33"
                    ],
                    [
                        "-135.55",
                        "51.33"
                    ],
                    [
                        "-135.20",
                        "51.72"
                    ],
                    [
                        "-135.19",
                        "51.73"
                    ],
                    [
                        "-134.89",
                        "52.13"
                    ],
                    [
                        "-134.87",
                        "52.16"
                    ],
                    [
                        "-134.67",
                        "52.50"
                    ],
                    [
                        "-134.59",
                        "52.70"
                    ],
                    [
                        "-134.50",
                        "52.87"
                    ],
                    [
                        "-134.33",
                        "53.23"
                    ],
                    [
                        "-134.31",
                        "53.26"
                    ],
                    [
                        "-134.08",
                        "53.61"
                    ],
                    [
                        "-134.02",
                        "53.78"
                    ],
                    [
                        "-133.93",
                        "53.96"
                    ],
                    [
                        "-133.97",
                        "54.28"
                    ],
                    [
                        "-134.06",
                        "54.59"
                    ]
                ]
            },
            "properties": {
                "forecastId": null,
                "geometryId": null,
                "tag": "1C",
                "forecastHour": 6,
                "hazard": "FZLVL",
                "frequency": null,
                "severity": null,
                "status": "NRML",
                "base": null,
                "top": null,
                "fzlBase": null,
                "fzlTop": null,
                "level": "080",
                "product": "ZULU",
                "rawAirSigmet": null,
                "validTimeTo": "2026-08-24T21:00:00.000",
                "validTimeFrom": [
                    "2026-08-24T18:06"
                ]
            }
        },
        {
            "type": "Feature",
            "geometry": {
                "type": "Polygon",
                "coordinates": [
                    [
                        [
                            "-66.83",
                            "44.82"
                        ],
                        [
                            "-67.07",
                            "42.49"
                        ],
                        [
                            "-67.76",
                            "42.82"
                        ],
                        [
                            "-68.08",
                            "43.02"
                        ],
                        [
                            "-68.27",
                            "43.41"
                        ],
                        [
                            "-68.17",
                            "44.10"
                        ],
                        [
                            "-67.67",
                            "44.53"
                        ],
                        [
                            "-66.83",
                            "44.82"
                        ]
                    ]
                ]
            },
            "properties": {
                "forecastId": null,
                "geometryId": null,
                "tag": "1E",
                "forecastHour": 6,
                "hazard": "IFR",
                "frequency": null,
                "severity": null,
                "status": "NRML",
                "base": null,
                "top": null,
                "fzlBase": null,
                "fzlTop": null,
                "level": null,
                "product": "SIERRA",
                "rawAirSigmet": "CIG BLW 010 VIS BLW 3SM BR",
                "validTimeTo": "2026-08-24T21:00:00.000",
                "validTimeFrom": [
                    "2026-08-24T18:27"
                ]
            }
        },
        {
            "type": "Feature",
            "geometry": {
                "type": "Polygon",
                "coordinates": [
                    [
                        [
                            "-113.25",
                            "28.49"
                        ],
                        [
                            "-113.22",
                            "28.12"
                        ],
                        [
                            "-113.00",
                            "27.78"
                        ],
                        [
                            "-112.75",
                            "27.48"
                        ],
                        [
                            "-112.69",
                            "27.45"
                        ],
                        [
                            "-112.29",
                            "27.17"
                        ],
                        [
                            "-112.11",
                            "27.15"
                        ],
                        [
                            "-111.86",
                            "27.10"
                        ],
                        [
                            "-111.71",
                            "27.19"
                        ],
                        [
                            "-111.73",
                            "27.56"
                        ],
                        [
                            "-111.85",
                            "27.91"
                        ],
                        [
                            "-112.02",
                            "28.26"
                        ],
                        [
                            "-112.03",
                            "28.28"
                        ],
                        [
                            "-112.27",
                            "28.60"
                        ],
                        [
                            "-112.52",
                            "28.80"
                        ],
                        [
                            "-112.95",
                            "28.80"
                        ],
                        [
                            "-113.25",
                            "28.49"
                        ]
                    ]
                ]
            },
            "properties": {
                "forecastId": null,
                "geometryId": null,
                "tag": "1C",
                "forecastHour": 6,
                "hazard": "FZLVL",
                "frequency": null,
                "severity": null,
                "status": "NRML",
                "base": null,
                "top": null,
                "fzlBase": null,
                "fzlTop": null,
                "level": "160",
                "product": "ZULU",
                "rawAirSigmet": null,
                "validTimeTo": "2026-08-24T21:00:00.000",
                "validTimeFrom": [
                    "2026-08-24T18:06"
                ]
            }
        },
        {
            "type": "Feature",
            "geometry": {
                "type": "LineString",
                "coordinates": [
                    [
                        "-84.84",
                        "19.35"
                    ],
                    [
                        "-83.74",
                        "20.09"
                    ],
                    [
                        "-81.76",
                        "20.47"
                    ],
                    [
                        "-80.50",
                        "21.23"
                    ],
                    [
                        "-79.16",
                        "22.48"
                    ],
                    [
                        "-77.53",
                        "23.06"
                    ],
                    [
                        "-76.53",
                        "24.04"
                    ],
                    [
                        "-75.23",
                        "25.35"
                    ],
                    [
                        "-73.75",
                        "26.12"
                    ],
                    [
                        "-72.95",
                        "26.23"
                    ],
                    [
                        "-71.72",
                        "25.97"
                    ],
                    [
                        "-70.20",
                        "25.33"
                    ],
                    [
                        "-68.81",
                        "26.03"
                    ],
                    [
                        "-67.09",
                        "26.33"
                    ]
                ]
            },
            "properties": {
                "forecastId": null,
                "geometryId": null,
                "tag": "1C",
                "forecastHour": 6,
                "hazard": "FZLVL",
                "frequency": null,
                "severity": null,
                "status": "NRML",
                "base": null,
                "top": null,
                "fzlBase": null,
                "fzlTop": null,
                "level": "160",
                "product": "ZULU",
                "rawAirSigmet": null,
                "validTimeTo": "2026-08-24T21:00:00.000",
                "validTimeFrom": [
                    "2026-08-24T18:06"
                ]
            }
        },
        {
            "type": "Feature",
            "geometry": {
                "type": "LineString",
                "coordinates": [
                    [
                        "-130.02",
                        "30.57"
                    ],
                    [
                        "-128.70",
                        "31.04"
                    ],
                    [
                        "-127.49",
                        "31.27"
                    ],
                    [
                        "-126.56",
                        "30.82"
                    ],
                    [
                        "-126.09",
                        "29.76"
                    ],
                    [
                        "-126.03",
                        "28.32"
                    ],
                    [
                        "-126.70",
                        "26.86"
                    ],
                    [
                        "-126.87",
                        "25.47"
                    ],
                    [
                        "-126.25",
                        "25.07"
                    ],
                    [
                        "-125.07",
                        "25.11"
                    ],
                    [
                        "-124.18",
                        "24.93"
                    ],
                    [
                        "-123.12",
                        "25.02"
                    ],
                    [
                        "-120.99",
                        "25.79"
                    ],
                    [
                        "-119.57",
                        "26.49"
                    ],
                    [
                        "-118.99",
                        "27.15"
                    ],
                    [
                        "-118.81",
                        "28.09"
                    ],
                    [
                        "-119.00",
                        "29.08"
                    ],
                    [
                        "-118.63",
                        "29.80"
                    ],
                    [
                        "-117.04",
                        "30.38"
                    ],
                    [
                        "-114.41",
                        "30.34"
                    ],
                    [
                        "-113.20",
                        "31.08"
                    ],
                    [
                        "-113.72",
                        "31.70"
                    ],
                    [
                        "-114.10",
                        "32.10"
                    ],
                    [
                        "-114.11",
                        "32.50"
                    ],
                    [
                        "-114.06",
                        "32.96"
                    ],
                    [
                        "-113.58",
                        "33.46"
                    ],
                    [
                        "-112.94",
                        "33.76"
                    ],
                    [
                        "-112.24",
                        "33.90"
                    ],
                    [
                        "-111.76",
                        "34.06"
                    ],
                    [
                        "-111.35",
                        "34.33"
                    ],
                    [
                        "-110.67",
                        "34.79"
                    ],
                    [
                        "-110.09",
                        "35.17"
                    ],
                    [
                        "-109.60",
                        "35.58"
                    ],
                    [
                        "-109.49",
                        "35.99"
                    ],
                    [
                        "-109.35",
                        "36.58"
                    ],
                    [
                        "-109.71",
                        "37.17"
                    ],
                    [
                        "-109.61",
                        "37.76"
                    ],
                    [
                        "-109.53",
                        "38.44"
                    ],
                    [
                        "-109.28",
                        "38.93"
                    ],
                    [
                        "-109.04",
                        "39.61"
                    ],
                    [
                        "-108.79",
                        "40.29"
                    ],
                    [
                        "-108.51",
                        "40.46"
                    ],
                    [
                        "-107.10",
                        "40.79"
                    ],
                    [
                        "-106.40",
                        "40.91"
                    ],
                    [
                        "-105.65",
                        "40.79"
                    ],
                    [
                        "-104.61",
                        "40.35"
                    ],
                    [
                        "-103.84",
                        "39.73"
                    ],
                    [
                        "-102.77",
                        "39.61"
                    ],
                    [
                        "-101.98",
                        "39.55"
                    ],
                    [
                        "-100.51",
                        "39.13"
                    ],
                    [
                        "-98.93",
                        "38.77"
                    ],
                    [
                        "-96.91",
                        "38.94"
                    ],
                    [
                        "-95.23",
                        "38.95"
                    ],
                    [
                        "-94.37",
                        "38.72"
                    ],
                    [
                        "-93.96",
                        "38.05"
                    ],
                    [
                        "-94.31",
                        "37.24"
                    ],
                    [
                        "-95.03",
                        "36.66"
                    ],
                    [
                        "-95.37",
                        "36.23"
                    ],
                    [
                        "-95.51",
                        "35.42"
                    ],
                    [
                        "-95.55",
                        "35.02"
                    ],
                    [
                        "-95.20",
                        "34.30"
                    ],
                    [
                        "-94.91",
                        "33.78"
                    ],
                    [
                        "-94.86",
                        "33.27"
                    ],
                    [
                        "-95.29",
                        "32.69"
                    ],
                    [
                        "-95.54",
                        "32.13"
                    ],
                    [
                        "-94.67",
                        "31.66"
                    ],
                    [
                        "-93.62",
                        "31.34"
                    ],
                    [
                        "-92.93",
                        "31.00"
                    ],
                    [
                        "-92.36",
                        "30.16"
                    ],
                    [
                        "-91.47",
                        "29.63"
                    ],
                    [
                        "-90.61",
                        "29.20"
                    ],
                    [
                        "-89.65",
                        "29.37"
                    ],
                    [
                        "-88.81",
                        "29.87"
                    ],
                    [
                        "-88.39",
                        "30.29"
                    ],
                    [
                        "-88.51",
                        "30.50"
                    ],
                    [
                        "-88.71",
                        "30.69"
                    ],
                    [
                        "-89.25",
                        "31.12"
                    ],
                    [
                        "-89.69",
                        "31.70"
                    ],
                    [
                        "-89.85",
                        "32.62"
                    ],
                    [
                        "-89.71",
                        "33.56"
                    ],
                    [
                        "-89.63",
                        "34.50"
                    ],
                    [
                        "-89.34",
                        "34.99"
                    ],
                    [
                        "-88.77",
                        "35.42"
                    ],
                    [
                        "-88.05",
                        "35.80"
                    ],
                    [
                        "-87.29",
                        "36.02"
                    ],
                    [
                        "-86.70",
                        "35.90"
                    ],
                    [
                        "-86.06",
                        "35.22"
                    ],
                    [
                        "-86.18",
                        "34.57"
                    ],
                    [
                        "-86.93",
                        "34.04"
                    ],
                    [
                        "-87.52",
                        "33.50"
                    ],
                    [
                        "-87.93",
                        "32.78"
                    ],
                    [
                        "-88.00",
                        "32.06"
                    ],
                    [
                        "-87.73",
                        "31.40"
                    ],
                    [
                        "-87.16",
                        "30.98"
                    ],
                    [
                        "-86.00",
                        "30.91"
                    ],
                    [
                        "-85.34",
                        "30.91"
                    ],
                    [
                        "-84.50",
                        "31.23"
                    ],
                    [
                        "-83.51",
                        "31.95"
                    ],
                    [
                        "-82.44",
                        "32.44"
                    ],
                    [
                        "-81.38",
                        "32.75"
                    ],
                    [
                        "-80.46",
                        "32.80"
                    ],
                    [
                        "-79.57",
                        "33.04"
                    ],
                    [
                        "-78.69",
                        "33.48"
                    ],
                    [
                        "-77.78",
                        "33.52"
                    ],
                    [
                        "-77.01",
                        "33.53"
                    ],
                    [
                        "-75.90",
                        "33.28"
                    ],
                    [
                        "-75.69",
                        "32.88"
                    ],
                    [
                        "-76.25",
                        "32.28"
                    ],
                    [
                        "-77.11",
                        "31.51"
                    ],
                    [
                        "-77.66",
                        "30.91"
                    ],
                    [
                        "-78.36",
                        "30.28"
                    ],
                    [
                        "-79.15",
                        "29.95"
                    ],
                    [
                        "-80.30",
                        "29.50"
                    ],
                    [
                        "-81.08",
                        "29.19"
                    ],
                    [
                        "-81.85",
                        "28.70"
                    ],
                    [
                        "-82.37",
                        "28.24"
                    ],
                    [
                        "-83.17",
                        "27.95"
                    ],
                    [
                        "-83.76",
                        "27.85"
                    ],
                    [
                        "-84.18",
                        "27.99"
                    ],
                    [
                        "-84.67",
                        "28.17"
                    ],
                    [
                        "-85.13",
                        "28.31"
                    ],
                    [
                        "-85.65",
                        "28.49"
                    ],
                    [
                        "-86.36",
                        "28.53"
                    ],
                    [
                        "-86.82",
                        "28.57"
                    ],
                    [
                        "-87.13",
                        "28.24"
                    ],
                    [
                        "-87.53",
                        "27.95"
                    ],
                    [
                        "-87.70",
                        "27.51"
                    ],
                    [
                        "-87.39",
                        "26.93"
                    ],
                    [
                        "-87.02",
                        "26.36"
                    ],
                    [
                        "-86.85",
                        "25.45"
                    ],
                    [
                        "-88.10",
                        "24.50"
                    ],
                    [
                        "-89.34",
                        "23.23"
                    ],
                    [
                        "-91.15",
                        "22.94"
                    ],
                    [
                        "-91.60",
                        "22.29"
                    ],
                    [
                        "-92.41",
                        "22.24"
                    ],
                    [
                        "-93.46",
                        "22.58"
                    ],
                    [
                        "-94.32",
                        "22.29"
                    ],
                    [
                        "-96.09",
                        "21.55"
                    ],
                    [
                        "-96.98",
                        "21.72"
                    ],
                    [
                        "-97.57",
                        "22.17"
                    ],
                    [
                        "-98.59",
                        "23.30"
                    ],
                    [
                        "-99.54",
                        "24.57"
                    ],
                    [
                        "-100.31",
                        "25.29"
                    ],
                    [
                        "-101.22",
                        "25.67"
                    ],
                    [
                        "-104.69",
                        "25.01"
                    ],
                    [
                        "-105.49",
                        "25.21"
                    ],
                    [
                        "-105.59",
                        "24.48"
                    ],
                    [
                        "-105.72",
                        "22.95"
                    ],
                    [
                        "-106.80",
                        "22.79"
                    ],
                    [
                        "-107.53",
                        "22.26"
                    ],
                    [
                        "-108.95",
                        "21.35"
                    ],
                    [
                        "-108.64",
                        "20.53"
                    ],
                    [
                        "-107.90",
                        "20.02"
                    ],
                    [
                        "-106.99",
                        "19.88"
                    ],
                    [
                        "-106.40",
                        "20.43"
                    ],
                    [
                        "-105.80",
                        "20.97"
                    ],
                    [
                        "-105.14",
                        "20.65"
                    ],
                    [
                        "-104.02",
                        "19.43"
                    ]
                ]
            },
            "properties": {
                "forecastId": null,
                "geometryId": null,
                "tag": "1C",
                "forecastHour": 6,
                "hazard": "FZLVL",
                "frequency": null,
                "severity": null,
                "status": "NRML",
                "base": null,
                "top": null,
                "fzlBase": null,
                "fzlTop": null,
                "level": "160",
                "product": "ZULU",
                "rawAirSigmet": null,
                "validTimeTo": "2026-08-24T21:00:00.000",
                "validTimeFrom": [
                    "2026-08-24T18:06"
                ]
            }
        },
        {
            "type": "Feature",
            "geometry": {
                "type": "Polygon",
                "coordinates": [
                    [
                        [
                            "-121.41",
                            "48.60"
                        ],
                        [
                            "-120.69",
                            "48.40"
                        ],
                        [
                            "-120.32",
                            "47.99"
                        ],
                        [
                            "-120.08",
                            "47.54"
                        ],
                        [
                            "-119.40",
                            "47.59"
                        ],
                        [
                            "-117.86",
                            "47.90"
                        ],
                        [
                            "-116.64",
                            "48.17"
                        ],
                        [
                            "-116.12",
                            "47.75"
                        ],
                        [
                            "-116.63",
                            "47.29"
                        ],
                        [
                            "-117.75",
                            "46.98"
                        ],
                        [
                            "-117.89",
                            "46.54"
                        ],
                        [
                            "-117.61",
                            "46.11"
                        ],
                        [
                            "-117.14",
                            "45.76"
                        ],
                        [
                            "-116.18",
                            "45.94"
                        ],
                        [
                            "-116.13",
                            "46.41"
                        ],
                        [
                            "-115.70",
                            "46.91"
                        ],
                        [
                            "-115.31",
                            "47.10"
                        ],
                        [
                            "-114.00",
                            "47.12"
                        ],
                        [
                            "-113.55",
                            "47.41"
                        ],
                        [
                            "-112.47",
                            "47.52"
                        ],
                        [
                            "-111.43",
                            "47.22"
                        ],
                        [
                            "-110.01",
                            "46.97"
                        ],
                        [
                            "-108.48",
                            "46.74"
                        ],
                        [
                            "-107.61",
                            "45.46"
                        ],
                        [
                            "-109.05",
                            "44.68"
                        ],
                        [
                            "-109.69",
                            "44.87"
                        ],
                        [
                            "-109.24",
                            "45.74"
                        ],
                        [
                            "-110.72",
                            "45.63"
                        ],
                        [
                            "-111.93",
                            "45.44"
                        ],
                        [
                            "-113.08",
                            "45.77"
                        ],
                        [
                            "-114.38",
                            "45.73"
                        ],
                        [
                            "-115.34",
                            "45.38"
                        ],
                        [
                            "-115.84",
                            "45.16"
                        ],
                        [
                            "-116.89",
                            "44.83"
                        ],
                        [
                            "-117.60",
                            "44.68"
                        ],
                        [
                            "-118.44",
                            "44.85"
                        ],
                        [
                            "-119.40",
                            "45.11"
                        ],
                        [
                            "-120.61",
                            "44.82"
                        ],
                        [
                            "-121.36",
                            "44.72"
                        ],
                        [
                            "-122.60",
                            "44.85"
                        ],
                        [
                            "-123.21",
                            "44.75"
                        ],
                        [
                            "-123.94",
                            "45.22"
                        ],
                        [
                            "-123.55",
                            "45.85"
                        ],
                        [
                            "-121.96",
                            "46.69"
                        ],
                        [
                            "-122.40",
                            "47.25"
                        ],
                        [
                            "-122.14",
                            "48.21"
                        ],
                        [
                            "-121.41",
                            "48.60"
                        ]
                    ]
                ]
            },
            "properties": {
                "forecastId": null,
                "geometryId": null,
                "tag": "2E",
                "forecastHour": 6,
                "hazard": "MT_OBSC",
                "frequency": null,
                "severity": null,
                "status": "NRML",
                "base": null,
                "top": null,
                "fzlBase": null,
                "fzlTop": null,
                "level": null,
                "product": "SIERRA",
                "rawAirSigmet": "FU HZ",
                "validTimeTo": "2026-08-24T21:00:00.000",
                "validTimeFrom": [
                    "2026-08-24T18:27"
                ]
            }
        },
        {
            "type": "Feature",
            "geometry": {
                "type": "LineString",
                "coordinates": [
                    [
                        "-85.48",
                        "58.19"
                    ],
                    [
                        "-85.47",
                        "57.59"
                    ],
                    [
                        "-85.64",
                        "56.99"
                    ],
                    [
                        "-85.87",
                        "56.39"
                    ],
                    [
                        "-86.21",
                        "55.91"
                    ],
                    [
                        "-86.79",
                        "55.57"
                    ],
                    [
                        "-87.36",
                        "55.38"
                    ],
                    [
                        "-88.45",
                        "55.39"
                    ],
                    [
                        "-89.53",
                        "55.56"
                    ],
                    [
                        "-90.63",
                        "55.42"
                    ],
                    [
                        "-91.73",
                        "55.39"
                    ],
                    [
                        "-92.81",
                        "55.55"
                    ],
                    [
                        "-93.36",
                        "55.64"
                    ],
                    [
                        "-94.40",
                        "55.94"
                    ],
                    [
                        "-94.84",
                        "56.25"
                    ],
                    [
                        "-95.15",
                        "56.56"
                    ],
                    [
                        "-95.45",
                        "57.16"
                    ],
                    [
                        "-95.41",
                        "57.77"
                    ],
                    [
                        "-95.20",
                        "58.37"
                    ]
                ]
            },
            "properties": {
                "forecastId": null,
                "geometryId": null,
                "tag": "1C",
                "forecastHour": 6,
                "hazard": "FZLVL",
                "frequency": null,
                "severity": null,
                "status": "NRML",
                "base": null,
                "top": null,
                "fzlBase": null,
                "fzlTop": null,
                "level": "120",
                "product": "ZULU",
                "rawAirSigmet": null,
                "validTimeTo": "2026-08-24T21:00:00.000",
                "validTimeFrom": [
                    "2026-08-24T18:06"
                ]
            }
        }
    ],
    "metadata": {
        "creationTime": "2026-08-24T19:35"
    }
}