{
    "type": "FeatureCollection",
    "features": [
        {
            "type": "Feature",
            "geometry": {
                "type": "LineString",
                "coordinates": [
                    [
                        "-90.54",
                        "58.33"
                    ],
                    [
                        "-90.40",
                        "57.14"
                    ],
                    [
                        "-92.18",
                        "56.49"
                    ],
                    [
                        "-93.30",
                        "56.32"
                    ],
                    [
                        "-94.46",
                        "56.39"
                    ],
                    [
                        "-95.61",
                        "56.32"
                    ],
                    [
                        "-96.02",
                        "55.63"
                    ],
                    [
                        "-96.03",
                        "54.91"
                    ],
                    [
                        "-96.52",
                        "54.40"
                    ],
                    [
                        "-95.61",
                        "53.78"
                    ],
                    [
                        "-94.55",
                        "53.67"
                    ],
                    [
                        "-92.87",
                        "53.29"
                    ],
                    [
                        "-91.31",
                        "52.57"
                    ],
                    [
                        "-89.26",
                        "52.19"
                    ],
                    [
                        "-87.20",
                        "51.68"
                    ],
                    [
                        "-86.37",
                        "50.69"
                    ],
                    [
                        "-86.37",
                        "49.38"
                    ],
                    [
                        "-86.86",
                        "48.09"
                    ],
                    [
                        "-87.13",
                        "47.21"
                    ],
                    [
                        "-87.03",
                        "45.60"
                    ],
                    [
                        "-86.52",
                        "43.77"
                    ],
                    [
                        "-85.99",
                        "42.36"
                    ],
                    [
                        "-85.22",
                        "41.06"
                    ],
                    [
                        "-83.96",
                        "40.21"
                    ],
                    [
                        "-82.33",
                        "39.44"
                    ],
                    [
                        "-80.53",
                        "38.89"
                    ],
                    [
                        "-79.27",
                        "38.47"
                    ],
                    [
                        "-78.01",
                        "38.26"
                    ],
                    [
                        "-76.99",
                        "38.48"
                    ],
                    [
                        "-74.62",
                        "39.16"
                    ],
                    [
                        "-73.18",
                        "40.45"
                    ],
                    [
                        "-72.47",
                        "41.06"
                    ],
                    [
                        "-71.15",
                        "42.38"
                    ],
                    [
                        "-70.20",
                        "43.57"
                    ],
                    [
                        "-69.79",
                        "44.29"
                    ],
                    [
                        "-69.87",
                        "45.33"
                    ],
                    [
                        "-70.18",
                        "46.35"
                    ],
                    [
                        "-70.91",
                        "47.55"
                    ],
                    [
                        "-70.82",
                        "48.97"
                    ],
                    [
                        "-71.26",
                        "50.37"
                    ],
                    [
                        "-71.35",
                        "50.85"
                    ],
                    [
                        "-70.97",
                        "51.46"
                    ],
                    [
                        "-69.73",
                        "52.09"
                    ],
                    [
                        "-68.23",
                        "52.80"
                    ],
                    [
                        "-66.32",
                        "53.53"
                    ],
                    [
                        "-64.84",
                        "53.73"
                    ],
                    [
                        "-62.18",
                        "53.52"
                    ],
                    [
                        "-58.35",
                        "53.49"
                    ]
                ]
            },
            "properties": {
                "forecastId": null,
                "geometryId": null,
                "tag": "1C",
                "forecastHour": 0,
                "hazard": "FZLVL",
                "frequency": null,
                "severity": null,
                "status": "NRML",
                "base": null,
                "top": null,
                "fzlBase": null,
                "fzlTop": null,
                "level": "120",
                "product": "ZULU",
                "rawAirSigmet": null,
                "validTimeTo": "2026-08-24T09:00:00.000",
                "validTimeFrom": [
                    "2026-08-24T08:45"
                ]
            }
        },
        {
            "type": "Feature",
            "geometry": {
                "type": "Polygon",
                "coordinates": [
                    [
                        [
                            "-120.73",
                            "48.21"
                        ],
                        [
                            "-119.96",
                            "47.91"
                        ],
                        [
                            "-119.20",
                            "47.51"
                        ],
                        [
                            "-118.17",
                            "47.55"
                        ],
                        [
                            "-117.71",
                            "47.09"
                        ],
                        [
                            "-116.98",
                            "46.37"
                        ],
                        [
                            "-116.69",
                            "45.91"
                        ],
                        [
                            "-115.82",
                            "46.09"
                        ],
                        [
                            "-114.82",
                            "46.58"
                        ],
                        [
                            "-113.68",
                            "46.96"
                        ],
                        [
                            "-111.15",
                            "46.20"
                        ],
                        [
                            "-111.02",
                            "46.74"
                        ],
                        [
                            "-113.21",
                            "47.41"
                        ],
                        [
                            "-111.97",
                            "47.71"
                        ],
                        [
                            "-110.59",
                            "47.26"
                        ],
                        [
                            "-109.02",
                            "46.54"
                        ],
                        [
                            "-108.71",
                            "45.81"
                        ],
                        [
                            "-112.40",
                            "44.29"
                        ],
                        [
                            "-114.08",
                            "44.94"
                        ],
                        [
                            "-115.14",
                            "45.06"
                        ],
                        [
                            "-116.34",
                            "44.84"
                        ],
                        [
                            "-116.46",
                            "43.79"
                        ],
                        [
                            "-116.48",
                            "42.91"
                        ],
                        [
                            "-117.60",
                            "43.00"
                        ],
                        [
                            "-117.88",
                            "43.38"
                        ],
                        [
                            "-118.83",
                            "43.28"
                        ],
                        [
                            "-119.13",
                            "43.42"
                        ],
                        [
                            "-118.27",
                            "44.27"
                        ],
                        [
                            "-118.67",
                            "45.09"
                        ],
                        [
                            "-119.44",
                            "45.10"
                        ],
                        [
                            "-119.83",
                            "45.76"
                        ],
                        [
                            "-120.46",
                            "45.27"
                        ],
                        [
                            "-120.66",
                            "44.60"
                        ],
                        [
                            "-120.80",
                            "43.68"
                        ],
                        [
                            "-121.30",
                            "43.05"
                        ],
                        [
                            "-122.07",
                            "42.95"
                        ],
                        [
                            "-122.83",
                            "43.27"
                        ],
                        [
                            "-122.89",
                            "44.27"
                        ],
                        [
                            "-122.47",
                            "45.52"
                        ],
                        [
                            "-121.16",
                            "46.77"
                        ],
                        [
                            "-120.73",
                            "48.21"
                        ]
                    ]
                ]
            },
            "properties": {
                "forecastId": null,
                "geometryId": null,
                "tag": "2E",
                "forecastHour": 0,
                "hazard": "MT_OBSC",
                "frequency": null,
                "severity": null,
                "status": "NRML",
                "base": null,
                "top": null,
                "fzlBase": null,
                "fzlTop": null,
                "level": null,
                "product": "SIERRA",
                "rawAirSigmet": "FU HZ",
                "validTimeTo": "2026-08-24T09:00:00.000",
                "validTimeFrom": [
                    "2026-08-24T08:45"
                ]
            }
        },
        {
            "type": "Feature",
            "geometry": {
                "type": "Polygon",
                "coordinates": [
                    [
                        [
                            "-75.77",
                            "44.41"
                        ],
                        [
                            "-75.45",
                            "43.26"
                        ],
                        [
                            "-75.35",
                            "41.98"
                        ],
                        [
                            "-76.18",
                            "39.93"
                        ],
                        [
                            "-77.48",
                            "40.07"
                        ],
                        [
                            "-77.34",
                            "41.99"
                        ],
                        [
                            "-78.62",
                            "42.76"
                        ],
                        [
                            "-78.09",
                            "43.61"
                        ],
                        [
                            "-76.80",
                            "43.76"
                        ],
                        [
                            "-75.77",
                            "44.41"
                        ]
                    ]
                ]
            },
            "properties": {
                "forecastId": null,
                "geometryId": null,
                "tag": "4C",
                "forecastHour": 0,
                "hazard": "ICE",
                "frequency": null,
                "severity": "MOD",
                "status": "NRML",
                "base": "090",
                "top": "190",
                "fzlBase": null,
                "fzlTop": null,
                "level": null,
                "product": "ZULU",
                "rawAirSigmet": "ICE",
                "validTimeTo": "2026-08-24T09:00:00.000",
                "validTimeFrom": [
                    "2026-08-24T08:45"
                ]
            }
        },
        {
            "type": "Feature",
            "geometry": {
                "type": "Polygon",
                "coordinates": [
                    [
                        [
                            "-78.18",
                            "42.41"
                        ],
                        [
                            "-78.06",
                            "41.98"
                        ],
                        [
                            "-78.02",
                            "41.16"
                        ],
                        [
                            "-78.18",
                            "40.03"
                        ],
                        [
                            "-79.07",
                            "39.22"
                        ],
                        [
                            "-80.09",
                            "38.74"
                        ],
                        [
                            "-80.67",
                            "38.80"
                        ],
                        [
                            "-80.79",
                            "39.40"
                        ],
                        [
                            "-80.09",
                            "40.03"
                        ],
                        [
                            "-79.86",
                            "40.60"
                        ],
                        [
                            "-80.09",
                            "41.01"
                        ],
                        [
                            "-79.04",
                            "42.24"
                        ],
                        [
                            "-78.18",
                            "42.41"
                        ]
                    ]
                ]
            },
            "properties": {
                "forecastId": null,
                "geometryId": null,
                "tag": "3E",
                "forecastHour": 0,
                "hazard": "MT_OBSC",
                "frequency": null,
                "severity": null,
                "status": "NRML",
                "base": null,
                "top": null,
                "fzlBase": null,
                "fzlTop": null,
                "level": null,
                "product": "SIERRA",
                "rawAirSigmet": "MTNS OBSC BY CLDS PCPN",
                "validTimeTo": "2026-08-24T09:00:00.000",
                "validTimeFrom": [
                    "2026-08-24T08:45"
                ]
            }
        },
        {
            "type": "Feature",
            "geometry": {
                "type": "Polygon",
                "coordinates": [
                    [
                        [
                            "-89.91",
                            "46.78"
                        ],
                        [
                            "-89.18",
                            "45.53"
                        ],
                        [
                            "-89.67",
                            "44.88"
                        ],
                        [
                            "-89.92",
                            "43.84"
                        ],
                        [
                            "-90.30",
                            "43.14"
                        ],
                        [
                            "-90.14",
                            "42.67"
                        ],
                        [
                            "-89.38",
                            "41.80"
                        ],
                        [
                            "-89.57",
                            "41.11"
                        ],
                        [
                            "-89.91",
                            "40.61"
                        ],
                        [
                            "-88.83",
                            "40.61"
                        ],
                        [
                            "-88.11",
                            "40.75"
                        ],
                        [
                            "-87.03",
                            "40.60"
                        ],
                        [
                            "-86.57",
                            "40.78"
                        ],
                        [
                            "-86.14",
                            "40.35"
                        ],
                        [
                            "-85.95",
                            "39.96"
                        ],
                        [
                            "-86.16",
                            "39.32"
                        ],
                        [
                            "-86.18",
                            "38.59"
                        ],
                        [
                            "-86.72",
                            "37.83"
                        ],
                        [
                            "-87.37",
                            "37.97"
                        ],
                        [
                            "-87.42",
                            "38.32"
                        ],
                        [
                            "-87.31",
                            "38.83"
                        ],
                        [
                            "-87.40",
                            "39.34"
                        ],
                        [
                            "-87.07",
                            "40.01"
                        ],
                        [
                            "-87.82",
                            "40.18"
                        ],
                        [
                            "-88.65",
                            "40.23"
                        ],
                        [
                            "-89.41",
                            "40.07"
                        ],
                        [
                            "-89.61",
                            "39.67"
                        ],
                        [
                            "-90.20",
                            "39.16"
                        ],
                        [
                            "-89.77",
                            "38.67"
                        ],
                        [
                            "-89.26",
                            "37.85"
                        ],
                        [
                            "-89.34",
                            "37.20"
                        ],
                        [
                            "-89.97",
                            "36.98"
                        ],
                        [
                            "-90.47",
                            "37.35"
                        ],
                        [
                            "-90.98",
                            "37.85"
                        ],
                        [
                            "-91.49",
                            "38.74"
                        ],
                        [
                            "-91.80",
                            "39.40"
                        ],
                        [
                            "-92.58",
                            "39.34"
                        ],
                        [
                            "-93.52",
                            "40.03"
                        ],
                        [
                            "-92.43",
                            "40.98"
                        ],
                        [
                            "-92.27",
                            "41.80"
                        ],
                        [
                            "-91.71",
                            "42.48"
                        ],
                        [
                            "-91.30",
                            "42.80"
                        ],
                        [
                            "-90.96",
                            "43.50"
                        ],
                        [
                            "-90.67",
                            "44.09"
                        ],
                        [
                            "-90.28",
                            "44.61"
                        ],
                        [
                            "-90.26",
                            "45.26"
                        ],
                        [
                            "-90.36",
                            "46.63"
                        ],
                        [
                            "-89.91",
                            "46.78"
                        ]
                    ]
                ]
            },
            "properties": {
                "forecastId": null,
                "geometryId": null,
                "tag": "4E",
                "forecastHour": 0,
                "hazard": "IFR",
                "frequency": null,
                "severity": null,
                "status": "NRML",
                "base": null,
                "top": null,
                "fzlBase": null,
                "fzlTop": null,
                "level": null,
                "product": "SIERRA",
                "rawAirSigmet": "CIG BLW 010 VIS BLW 3SM BR FG",
                "validTimeTo": "2026-08-24T09:00:00.000",
                "validTimeFrom": [
                    "2026-08-24T08:45"
                ]
            }
        },
        {
            "type": "Feature",
            "geometry": {
                "type": "Polygon",
                "coordinates": [
                    [
                        [
                            "-98.97",
                            "36.06"
                        ],
                        [
                            "-98.16",
                            "35.61"
                        ],
                        [
                            "-96.76",
                            "35.50"
                        ],
                        [
                            "-95.65",
                            "35.23"
                        ],
                        [
                            "-95.25",
                            "34.67"
                        ],
                        [
                            "-94.94",
                            "33.68"
                        ],
                        [
                            "-95.16",
                            "33.28"
                        ],
                        [
                            "-95.81",
                            "33.19"
                        ],
                        [
                            "-96.84",
                            "33.42"
                        ],
                        [
                            "-98.11",
                            "33.82"
                        ],
                        [
                            "-99.73",
                            "34.29"
                        ],
                        [
                            "-99.95",
                            "34.95"
                        ],
                        [
                            "-99.56",
                            "35.69"
                        ],
                        [
                            "-98.97",
                            "36.06"
                        ]
                    ]
                ]
            },
            "properties": {
                "forecastId": null,
                "geometryId": null,
                "tag": "1W",
                "forecastHour": 0,
                "hazard": "LLWS",
                "frequency": null,
                "severity": null,
                "status": "NRML",
                "base": null,
                "top": null,
                "fzlBase": null,
                "fzlTop": null,
                "level": null,
                "product": "TANGO",
                "rawAirSigmet": "AIR SPEED LOSS OR GAIN OF 20KTS OR MORE BELOW 2000 FT AGL",
                "validTimeTo": "2026-08-24T09:00:00.000",
                "validTimeFrom": [
                    "2026-08-24T08:45"
                ]
            }
        },
        {
            "type": "Feature",
            "geometry": {
                "type": "Polygon",
                "coordinates": [
                    [
                        [
                            "-71.04",
                            "45.25"
                        ],
                        [
                            "-70.04",
                            "44.13"
                        ],
                        [
                            "-69.89",
                            "42.36"
                        ],
                        [
                            "-70.31",
                            "41.07"
                        ],
                        [
                            "-70.87",
                            "40.63"
                        ],
                        [
                            "-71.31",
                            "40.49"
                        ],
                        [
                            "-72.10",
                            "40.57"
                        ],
                        [
                            "-72.63",
                            "41.40"
                        ],
                        [
                            "-72.69",
                            "42.56"
                        ],
                        [
                            "-72.26",
                            "44.06"
                        ],
                        [
                            "-71.98",
                            "45.18"
                        ],
                        [
                            "-71.04",
                            "45.25"
                        ]
                    ]
                ]
            },
            "properties": {
                "forecastId": null,
                "geometryId": null,
                "tag": "1W",
                "forecastHour": 0,
                "hazard": "TURB-HI",
                "frequency": null,
                "severity": "MOD",
                "status": "NRML",
                "base": "280",
                "top": "380",
                "fzlBase": null,
                "fzlTop": null,
                "level": null,
                "product": "TANGO",
                "rawAirSigmet": null,
                "validTimeTo": "2026-08-24T09:00:00.000",
                "validTimeFrom": [
                    "2026-08-24T08:45"
                ]
            }
        },
        {
            "type": "Feature",
            "geometry": {
                "type": "Polygon",
                "coordinates": [
                    [
                        [
                            "-93.85",
                            "24.45"
                        ],
                        [
                            "-93.69",
                            "24.78"
                        ],
                        [
                            "-93.69",
                            "25.22"
                        ],
                        [
                            "-93.88",
                            "25.91"
                        ],
                        [
                            "-94.47",
                            "26.33"
                        ],
                        [
                            "-95.10",
                            "26.74"
                        ],
                        [
                            "-95.98",
                            "26.98"
                        ],
                        [
                            "-96.43",
                            "26.93"
                        ],
                        [
                            "-96.79",
                            "26.14"
                        ],
                        [
                            "-96.90",
                            "24.92"
                        ],
                        [
                            "-96.30",
                            "25.02"
                        ],
                        [
                            "-95.81",
                            "24.91"
                        ],
                        [
                            "-95.45",
                            "24.82"
                        ],
                        [
                            "-95.40",
                            "24.81"
                        ],
                        [
                            "-95.00",
                            "24.79"
                        ],
                        [
                            "-94.88",
                            "24.82"
                        ],
                        [
                            "-94.60",
                            "24.89"
                        ],
                        [
                            "-93.85",
                            "24.45"
                        ]
                    ]
                ]
            },
            "properties": {
                "forecastId": null,
                "geometryId": null,
                "tag": "1C",
                "forecastHour": 0,
                "hazard": "FZLVL",
                "frequency": null,
                "severity": null,
                "status": "NRML",
                "base": null,
                "top": null,
                "fzlBase": null,
                "fzlTop": null,
                "level": "160",
                "product": "ZULU",
                "rawAirSigmet": null,
                "validTimeTo": "2026-08-24T09:00:00.000",
                "validTimeFrom": [
                    "2026-08-24T08:45"
                ]
            }
        },
        {
            "type": "Feature",
            "geometry": {
                "type": "LineString",
                "coordinates": [
                    [
                        "-129.96",
                        "30.37"
                    ],
                    [
                        "-128.67",
                        "30.43"
                    ],
                    [
                        "-127.78",
                        "30.36"
                    ],
                    [
                        "-126.85",
                        "30.10"
                    ],
                    [
                        "-126.29",
                        "29.66"
                    ],
                    [
                        "-125.77",
                        "28.70"
                    ],
                    [
                        "-125.74",
                        "27.59"
                    ],
                    [
                        "-125.95",
                        "26.79"
                    ],
                    [
                        "-126.18",
                        "26.05"
                    ],
                    [
                        "-126.43",
                        "25.40"
                    ],
                    [
                        "-126.54",
                        "24.42"
                    ],
                    [
                        "-126.61",
                        "23.65"
                    ],
                    [
                        "-126.70",
                        "22.88"
                    ],
                    [
                        "-126.84",
                        "22.10"
                    ],
                    [
                        "-126.96",
                        "21.12"
                    ],
                    [
                        "-127.00",
                        "20.19"
                    ],
                    [
                        "-126.97",
                        "19.62"
                    ]
                ]
            },
            "properties": {
                "forecastId": null,
                "geometryId": null,
                "tag": "1C",
                "forecastHour": 0,
                "hazard": "FZLVL",
                "frequency": null,
                "severity": null,
                "status": "NRML",
                "base": null,
                "top": null,
                "fzlBase": null,
                "fzlTop": null,
                "level": "160",
                "product": "ZULU",
                "rawAirSigmet": null,
                "validTimeTo": "2026-08-24T09:00:00.000",
                "validTimeFrom": [
                    "2026-08-24T08:45"
                ]
            }
        },
        {
            "type": "Feature",
            "geometry": {
                "type": "Polygon",
                "coordinates": [
                    [
                        [
                            "-69.31",
                            "47.59"
                        ],
                        [
                            "-68.50",
                            "45.58"
                        ],
                        [
                            "-71.24",
                            "43.46"
                        ],
                        [
                            "-71.70",
                            "43.86"
                        ],
                        [
                            "-72.48",
                            "45.28"
                        ],
                        [
                            "-71.70",
                            "45.39"
                        ],
                        [
                            "-69.31",
                            "47.59"
                        ]
                    ]
                ]
            },
            "properties": {
                "forecastId": null,
                "geometryId": null,
                "tag": "1E",
                "forecastHour": 0,
                "hazard": "MT_OBSC",
                "frequency": null,
                "severity": null,
                "status": "NRML",
                "base": null,
                "top": null,
                "fzlBase": null,
                "fzlTop": null,
                "level": null,
                "product": "SIERRA",
                "rawAirSigmet": "MTNS OBSC BY CLDS PCPN BR FG",
                "validTimeTo": "2026-08-24T09:00:00.000",
                "validTimeFrom": [
                    "2026-08-24T08:45"
                ]
            }
        },
        {
            "type": "Feature",
            "geometry": {
                "type": "LineString",
                "coordinates": [
                    [
                        "-134.71",
                        "43.73"
                    ],
                    [
                        "-133.94",
                        "44.32"
                    ],
                    [
                        "-131.98",
                        "46.49"
                    ],
                    [
                        "-131.26",
                        "47.39"
                    ],
                    [
                        "-129.89",
                        "48.26"
                    ],
                    [
                        "-126.91",
                        "49.85"
                    ],
                    [
                        "-125.75",
                        "50.26"
                    ],
                    [
                        "-124.71",
                        "50.42"
                    ],
                    [
                        "-123.20",
                        "50.51"
                    ],
                    [
                        "-122.39",
                        "50.41"
                    ],
                    [
                        "-119.20",
                        "49.40"
                    ],
                    [
                        "-117.02",
                        "48.99"
                    ],
                    [
                        "-115.05",
                        "48.56"
                    ],
                    [
                        "-113.59",
                        "48.56"
                    ],
                    [
                        "-112.90",
                        "48.83"
                    ],
                    [
                        "-112.06",
                        "49.48"
                    ],
                    [
                        "-111.41",
                        "50.15"
                    ],
                    [
                        "-110.24",
                        "50.50"
                    ],
                    [
                        "-108.31",
                        "51.13"
                    ],
                    [
                        "-108.11",
                        "51.96"
                    ],
                    [
                        "-108.38",
                        "53.05"
                    ],
                    [
                        "-108.13",
                        "54.20"
                    ],
                    [
                        "-109.19",
                        "55.28"
                    ],
                    [
                        "-110.11",
                        "56.27"
                    ],
                    [
                        "-110.39",
                        "57.15"
                    ],
                    [
                        "-110.28",
                        "57.91"
                    ]
                ]
            },
            "properties": {
                "forecastId": null,
                "geometryId": null,
                "tag": "1C",
                "forecastHour": 0,
                "hazard": "FZLVL",
                "frequency": null,
                "severity": null,
                "status": "NRML",
                "base": null,
                "top": null,
                "fzlBase": null,
                "fzlTop": null,
                "level": "120",
                "product": "ZULU",
                "rawAirSigmet": null,
                "validTimeTo": "2026-08-24T09:00:00.000",
                "validTimeFrom": [
                    "2026-08-24T08:45"
                ]
            }
        },
        {
            "type": "Feature",
            "geometry": {
                "type": "Polygon",
                "coordinates": [
                    [
                        [
                            "-123.99",
                            "39.08"
                        ],
                        [
                            "-122.34",
                            "38.41"
                        ],
                        [
                            "-122.27",
                            "37.42"
                        ],
                        [
                            "-121.23",
                            "36.88"
                        ],
                        [
                            "-121.63",
                            "36.32"
                        ],
                        [
                            "-121.66",
                            "35.88"
                        ],
                        [
                            "-120.81",
                            "35.40"
                        ],
                        [
                            "-120.30",
                            "35.08"
                        ],
                        [
                            "-120.41",
                            "34.51"
                        ],
                        [
                            "-119.99",
                            "33.80"
                        ],
                        [
                            "-118.88",
                            "32.98"
                        ],
                        [
                            "-118.21",
                            "32.85"
                        ],
                        [
                            "-117.28",
                            "32.86"
                        ],
                        [
                            "-116.75",
                            "32.59"
                        ],
                        [
                            "-120.69",
                            "30.63"
                        ],
                        [
                            "-125.96",
                            "38.12"
                        ],
                        [
                            "-124.72",
                            "39.01"
                        ],
                        [
                            "-123.99",
                            "39.08"
                        ]
                    ]
                ]
            },
            "properties": {
                "forecastId": null,
                "geometryId": null,
                "tag": "3E",
                "forecastHour": 0,
                "hazard": "IFR",
                "frequency": null,
                "severity": null,
                "status": "NRML",
                "base": null,
                "top": null,
                "fzlBase": null,
                "fzlTop": null,
                "level": null,
                "product": "SIERRA",
                "rawAirSigmet": "CIG BLW 010 VIS BLW 3SM BR FG",
                "validTimeTo": "2026-08-24T09:00:00.000",
                "validTimeFrom": [
                    "2026-08-24T08:45"
                ]
            }
        },
        {
            "type": "Feature",
            "geometry": {
                "type": "Polygon",
                "coordinates": [
                    [
                        [
                            "-84.43",
                            "46.39"
                        ],
                        [
                            "-83.66",
                            "45.92"
                        ],
                        [
                            "-82.47",
                            "45.27"
                        ],
                        [
                            "-81.89",
                            "43.32"
                        ],
                        [
                            "-83.13",
                            "42.42"
                        ],
                        [
                            "-83.75",
                            "42.75"
                        ],
                        [
                            "-84.27",
                            "43.44"
                        ],
                        [
                            "-84.58",
                            "44.98"
                        ],
                        [
                            "-84.43",
                            "46.39"
                        ]
                    ]
                ]
            },
            "properties": {
                "forecastId": null,
                "geometryId": null,
                "tag": "2C",
                "forecastHour": 0,
                "hazard": "ICE",
                "frequency": null,
                "severity": "MOD",
                "status": "NRML",
                "base": "090",
                "top": "210",
                "fzlBase": null,
                "fzlTop": null,
                "level": null,
                "product": "ZULU",
                "rawAirSigmet": "ICE",
                "validTimeTo": "2026-08-24T09:00:00.000",
                "validTimeFrom": [
                    "2026-08-24T08:45"
                ]
            }
        },
        {
            "type": "Feature",
            "geometry": {
                "type": "Polygon",
                "coordinates": [
                    [
                        [
                            "-81.30",
                            "38.75"
                        ],
                        [
                            "-79.92",
                            "38.48"
                        ],
                        [
                            "-79.65",
                            "38.09"
                        ],
                        [
                            "-80.43",
                            "37.24"
                        ],
                        [
                            "-81.38",
                            "36.94"
                        ],
                        [
                            "-82.13",
                            "35.61"
                        ],
                        [
                            "-83.07",
                            "34.92"
                        ],
                        [
                            "-83.96",
                            "34.43"
                        ],
                        [
                            "-85.17",
                            "35.02"
                        ],
                        [
                            "-85.66",
                            "35.27"
                        ],
                        [
                            "-86.31",
                            "35.98"
                        ],
                        [
                            "-86.16",
                            "36.99"
                        ],
                        [
                            "-85.01",
                            "37.42"
                        ],
                        [
                            "-83.68",
                            "37.98"
                        ],
                        [
                            "-82.36",
                            "38.64"
                        ],
                        [
                            "-81.30",
                            "38.75"
                        ]
                    ]
                ]
            },
            "properties": {
                "forecastId": null,
                "geometryId": null,
                "tag": "5E",
                "forecastHour": 0,
                "hazard": "IFR",
                "frequency": null,
                "severity": null,
                "status": "NRML",
                "base": null,
                "top": null,
                "fzlBase": null,
                "fzlTop": null,
                "level": null,
                "product": "SIERRA",
                "rawAirSigmet": "CIG BLW 010 VIS BLW 3SM BR FG",
                "validTimeTo": "2026-08-24T09:00:00.000",
                "validTimeFrom": [
                    "2026-08-24T08:45"
                ]
            }
        },
        {
            "type": "Feature",
            "geometry": {
                "type": "Polygon",
                "coordinates": [
                    [
                        [
                            "-99.53",
                            "48.99"
                        ],
                        [
                            "-99.84",
                            "47.94"
                        ],
                        [
                            "-101.16",
                            "45.97"
                        ],
                        [
                            "-103.33",
                            "45.40"
                        ],
                        [
                            "-105.91",
                            "45.21"
                        ],
                        [
                            "-107.18",
                            "45.21"
                        ],
                        [
                            "-107.14",
                            "45.96"
                        ],
                        [
                            "-106.19",
                            "46.46"
                        ],
                        [
                            "-104.55",
                            "46.88"
                        ],
                        [
                            "-103.20",
                            "47.89"
                        ],
                        [
                            "-103.01",
                            "48.49"
                        ],
                        [
                            "-102.93",
                            "48.95"
                        ],
                        [
                            "-99.53",
                            "48.99"
                        ]
                    ]
                ]
            },
            "properties": {
                "forecastId": null,
                "geometryId": null,
                "tag": "3W",
                "forecastHour": 0,
                "hazard": "TURB-HI",
                "frequency": null,
                "severity": "MOD",
                "status": "NRML",
                "base": "300",
                "top": "380",
                "fzlBase": null,
                "fzlTop": null,
                "level": null,
                "product": "TANGO",
                "rawAirSigmet": null,
                "validTimeTo": "2026-08-24T09:00:00.000",
                "validTimeFrom": [
                    "2026-08-24T08:45"
                ]
            }
        },
        {
            "type": "Feature",
            "geometry": {
                "type": "Polygon",
                "coordinates": [
                    [
                        [
                            "-79.24",
                            "32.87"
                        ],
                        [
                            "-78.69",
                            "32.45"
                        ],
                        [
                            "-79.18",
                            "31.19"
                        ],
                        [
                            "-81.15",
                            "29.18"
                        ],
                        [
                            "-82.95",
                            "28.14"
                        ],
                        [
                            "-85.16",
                            "27.36"
                        ],
                        [
                            "-87.97",
                            "27.36"
                        ],
                        [
                            "-87.94",
                            "28.20"
                        ],
                        [
                            "-89.61",
                            "28.28"
                        ],
                        [
                            "-89.64",
                            "28.89"
                        ],
                        [
                            "-88.38",
                            "29.62"
                        ],
                        [
                            "-86.11",
                            "30.12"
                        ],
                        [
                            "-84.05",
                            "30.26"
                        ],
                        [
                            "-82.07",
                            "31.53"
                        ],
                        [
                            "-80.29",
                            "32.60"
                        ],
                        [
                            "-79.24",
                            "32.87"
                        ]
                    ]
                ]
            },
            "properties": {
                "forecastId": null,
                "geometryId": null,
                "tag": "4W",
                "forecastHour": 0,
                "hazard": "TURB-HI",
                "frequency": null,
                "severity": "MOD",
                "status": "NRML",
                "base": "330",
                "top": "430",
                "fzlBase": null,
                "fzlTop": null,
                "level": null,
                "product": "TANGO",
                "rawAirSigmet": null,
                "validTimeTo": "2026-08-24T09:00:00.000",
                "validTimeFrom": [
                    "2026-08-24T08:45"
                ]
            }
        },
        {
            "type": "Feature",
            "geometry": {
                "type": "LineString",
                "coordinates": [
                    [
                        "-138.44",
                        "51.64"
                    ],
                    [
                        "-138.02",
                        "51.86"
                    ],
                    [
                        "-138.01",
                        "51.86"
                    ],
                    [
                        "-137.63",
                        "52.19"
                    ],
                    [
                        "-137.53",
                        "52.29"
                    ],
                    [
                        "-137.29",
                        "52.59"
                    ],
                    [
                        "-137.20",
                        "52.69"
                    ],
                    [
                        "-136.97",
                        "53.03"
                    ],
                    [
                        "-136.94",
                        "53.08"
                    ]
                ]
            },
            "properties": {
                "forecastId": null,
                "geometryId": null,
                "tag": "1C",
                "forecastHour": 0,
                "hazard": "FZLVL",
                "frequency": null,
                "severity": null,
                "status": "NRML",
                "base": null,
                "top": null,
                "fzlBase": null,
                "fzlTop": null,
                "level": "080",
                "product": "ZULU",
                "rawAirSigmet": null,
                "validTimeTo": "2026-08-24T09:00:00.000",
                "validTimeFrom": [
                    "2026-08-24T08:45"
                ]
            }
        },
        {
            "type": "Feature",
            "geometry": {
                "type": "LineString",
                "coordinates": [
                    [
                        "-68.61",
                        "19.43"
                    ],
                    [
                        "-68.99",
                        "19.49"
                    ],
                    [
                        "-69.36",
                        "19.58"
                    ],
                    [
                        "-69.74",
                        "19.64"
                    ],
                    [
                        "-70.17",
                        "19.47"
                    ],
                    [
                        "-70.25",
                        "19.41"
                    ],
                    [
                        "-70.32",
                        "19.05"
                    ],
                    [
                        "-70.26",
                        "18.99"
                    ],
                    [
                        "-69.93",
                        "18.71"
                    ],
                    [
                        "-69.57",
                        "18.56"
                    ],
                    [
                        "-69.19",
                        "18.49"
                    ],
                    [
                        "-68.81",
                        "18.44"
                    ]
                ]
            },
            "properties": {
                "forecastId": null,
                "geometryId": null,
                "tag": "1C",
                "forecastHour": 0,
                "hazard": "FZLVL",
                "frequency": null,
                "severity": null,
                "status": "NRML",
                "base": null,
                "top": null,
                "fzlBase": null,
                "fzlTop": null,
                "level": "160",
                "product": "ZULU",
                "rawAirSigmet": null,
                "validTimeTo": "2026-08-24T09:00:00.000",
                "validTimeFrom": [
                    "2026-08-24T08:45"
                ]
            }
        },
        {
            "type": "Feature",
            "geometry": {
                "type": "Polygon",
                "coordinates": [
                    [
                        [
                            "-69.39",
                            "47.28"
                        ],
                        [
                            "-67.73",
                            "47.13"
                        ],
                        [
                            "-67.71",
                            "45.92"
                        ],
                        [
                            "-67.05",
                            "44.90"
                        ],
                        [
                            "-67.05",
                            "43.42"
                        ],
                        [
                            "-68.18",
                            "43.36"
                        ],
                        [
                            "-69.25",
                            "43.40"
                        ],
                        [
                            "-69.92",
                            "43.23"
                        ],
                        [
                            "-70.47",
                            "43.04"
                        ],
                        [
                            "-70.60",
                            "42.74"
                        ],
                        [
                            "-70.74",
                            "42.44"
                        ],
                        [
                            "-70.66",
                            "41.89"
                        ],
                        [
                            "-70.62",
                            "41.69"
                        ],
                        [
                            "-70.73",
                            "41.29"
                        ],
                        [
                            "-71.54",
                            "41.04"
                        ],
                        [
                            "-72.06",
                            "41.28"
                        ],
                        [
                            "-71.98",
                            "41.64"
                        ],
                        [
                            "-72.51",
                            "41.95"
                        ],
                        [
                            "-73.37",
                            "42.19"
                        ],
                        [
                            "-74.51",
                            "41.52"
                        ],
                        [
                            "-74.60",
                            "41.12"
                        ],
                        [
                            "-74.41",
                            "40.63"
                        ],
                        [
                            "-74.49",
                            "40.18"
                        ],
                        [
                            "-75.25",
                            "39.87"
                        ],
                        [
                            "-75.50",
                            "40.02"
                        ],
                        [
                            "-75.47",
                            "40.43"
                        ],
                        [
                            "-75.06",
                            "40.98"
                        ],
                        [
                            "-75.14",
                            "41.77"
                        ],
                        [
                            "-74.90",
                            "42.10"
                        ],
                        [
                            "-73.76",
                            "42.42"
                        ],
                        [
                            "-73.85",
                            "42.98"
                        ],
                        [
                            "-73.62",
                            "43.57"
                        ],
                        [
                            "-73.33",
                            "43.88"
                        ],
                        [
                            "-72.92",
                            "44.31"
                        ],
                        [
                            "-72.44",
                            "45.19"
                        ],
                        [
                            "-70.99",
                            "45.31"
                        ],
                        [
                            "-69.39",
                            "47.28"
                        ]
                    ]
                ]
            },
            "properties": {
                "forecastId": null,
                "geometryId": null,
                "tag": "1E",
                "forecastHour": 0,
                "hazard": "IFR",
                "frequency": null,
                "severity": null,
                "status": "NRML",
                "base": null,
                "top": null,
                "fzlBase": null,
                "fzlTop": null,
                "level": null,
                "product": "SIERRA",
                "rawAirSigmet": "CIG BLW 010 VIS BLW 3SM PCPN BR FG",
                "validTimeTo": "2026-08-24T09:00:00.000",
                "validTimeFrom": [
                    "2026-08-24T08:45"
                ]
            }
        },
        {
            "type": "Feature",
            "geometry": {
                "type": "Polygon",
                "coordinates": [
                    [
                        [
                            "-124.94",
                            "48.66"
                        ],
                        [
                            "-123.35",
                            "46.80"
                        ],
                        [
                            "-124.39",
                            "44.93"
                        ],
                        [
                            "-125.17",
                            "44.43"
                        ],
                        [
                            "-125.73",
                            "42.96"
                        ],
                        [
                            "-125.82",
                            "42.21"
                        ],
                        [
                            "-125.91",
                            "41.36"
                        ],
                        [
                            "-125.78",
                            "40.66"
                        ],
                        [
                            "-125.30",
                            "40.32"
                        ],
                        [
                            "-124.82",
                            "40.59"
                        ],
                        [
                            "-124.37",
                            "41.12"
                        ],
                        [
                            "-123.85",
                            "41.14"
                        ],
                        [
                            "-123.77",
                            "40.78"
                        ],
                        [
                            "-124.06",
                            "40.25"
                        ],
                        [
                            "-125.37",
                            "40.03"
                        ],
                        [
                            "-126.66",
                            "40.12"
                        ],
                        [
                            "-126.90",
                            "40.93"
                        ],
                        [
                            "-126.81",
                            "42.26"
                        ],
                        [
                            "-126.58",
                            "45.47"
                        ],
                        [
                            "-128.14",
                            "48.17"
                        ],
                        [
                            "-124.94",
                            "48.66"
                        ]
                    ]
                ]
            },
            "properties": {
                "forecastId": null,
                "geometryId": null,
                "tag": "3E",
                "forecastHour": 0,
                "hazard": "IFR",
                "frequency": null,
                "severity": null,
                "status": "NRML",
                "base": null,
                "top": null,
                "fzlBase": null,
                "fzlTop": null,
                "level": null,
                "product": "SIERRA",
                "rawAirSigmet": "CIG BLW 010 VIS BLW 3SM BR FG",
                "validTimeTo": "2026-08-24T09:00:00.000",
                "validTimeFrom": [
                    "2026-08-24T08:45"
                ]
            }
        },
        {
            "type": "Feature",
            "geometry": {
                "type": "Polygon",
                "coordinates": [
                    [
                        [
                            "-95.34",
                            "39.10"
                        ],
                        [
                            "-94.65",
                            "39.09"
                        ],
                        [
                            "-93.51",
                            "38.98"
                        ],
                        [
                            "-92.38",
                            "38.12"
                        ],
                        [
                            "-91.66",
                            "36.86"
                        ],
                        [
                            "-90.85",
                            "36.12"
                        ],
                        [
                            "-89.39",
                            "35.57"
                        ],
                        [
                            "-87.89",
                            "35.16"
                        ],
                        [
                            "-87.18",
                            "34.14"
                        ],
                        [
                            "-87.80",
                            "33.11"
                        ],
                        [
                            "-88.86",
                            "32.70"
                        ],
                        [
                            "-91.64",
                            "32.81"
                        ],
                        [
                            "-94.09",
                            "33.21"
                        ],
                        [
                            "-96.53",
                            "35.03"
                        ],
                        [
                            "-96.17",
                            "35.49"
                        ],
                        [
                            "-95.41",
                            "36.26"
                        ],
                        [
                            "-95.17",
                            "36.86"
                        ],
                        [
                            "-95.14",
                            "37.59"
                        ],
                        [
                            "-95.48",
                            "38.45"
                        ],
                        [
                            "-95.34",
                            "39.10"
                        ]
                    ]
                ]
            },
            "properties": {
                "forecastId": null,
                "geometryId": null,
                "tag": "3C",
                "forecastHour": 0,
                "hazard": "ICE",
                "frequency": null,
                "severity": "MOD",
                "status": "NRML",
                "base": "150",
                "top": "270",
                "fzlBase": null,
                "fzlTop": null,
                "level": null,
                "product": "ZULU",
                "rawAirSigmet": "ICE",
                "validTimeTo": "2026-08-24T09:00:00.000",
                "validTimeFrom": [
                    "2026-08-24T08:45"
                ]
            }
        },
        {
            "type": "Feature",
            "geometry": {
                "type": "LineString",
                "coordinates": [
                    [
                        "-128.19",
                        "24.25"
                    ],
                    [
                        "-127.83",
                        "24.45"
                    ],
                    [
                        "-127.71",
                        "24.54"
                    ],
                    [
                        "-127.51",
                        "24.78"
                    ],
                    [
                        "-127.31",
                        "25.00"
                    ],
                    [
                        "-127.26",
                        "25.39"
                    ],
                    [
                        "-127.71",
                        "25.52"
                    ],
                    [
                        "-128.12",
                        "25.48"
                    ],
                    [
                        "-128.52",
                        "25.42"
                    ]
                ]
            },
            "properties": {
                "forecastId": null,
                "geometryId": null,
                "tag": "1C",
                "forecastHour": 0,
                "hazard": "FZLVL",
                "frequency": null,
                "severity": null,
                "status": "NRML",
                "base": null,
                "top": null,
                "fzlBase": null,
                "fzlTop": null,
                "level": "160",
                "product": "ZULU",
                "rawAirSigmet": null,
                "validTimeTo": "2026-08-24T09:00:00.000",
                "validTimeFrom": [
                    "2026-08-24T08:45"
                ]
            }
        },
        {
            "type": "Feature",
            "geometry": {
                "type": "Polygon",
                "coordinates": [
                    [
                        [
                            "-79.46",
                            "41.58"
                        ],
                        [
                            "-78.50",
                            "41.22"
                        ],
                        [
                            "-78.63",
                            "40.45"
                        ],
                        [
                            "-79.30",
                            "39.94"
                        ],
                        [
                            "-80.05",
                            "39.52"
                        ],
                        [
                            "-80.93",
                            "39.91"
                        ],
                        [
                            "-81.55",
                            "40.46"
                        ],
                        [
                            "-80.79",
                            "41.05"
                        ],
                        [
                            "-79.46",
                            "41.58"
                        ]
                    ]
                ]
            },
            "properties": {
                "forecastId": null,
                "geometryId": null,
                "tag": "5W",
                "forecastHour": 0,
                "hazard": "TURB-HI",
                "frequency": null,
                "severity": "MOD",
                "status": "NRML",
                "base": "230",
                "top": "330",
                "fzlBase": null,
                "fzlTop": null,
                "level": null,
                "product": "TANGO",
                "rawAirSigmet": null,
                "validTimeTo": "2026-08-24T09:00:00.000",
                "validTimeFrom": [
                    "2026-08-24T08:45"
                ]
            }
        },
        {
            "type": "Feature",
            "geometry": {
                "type": "Polygon",
                "coordinates": [
                    [
                        [
                            "-82.68",
                            "30.41"
                        ],
                        [
                            "-81.84",
                            "30.29"
                        ],
                        [
                            "-81.50",
                            "30.08"
                        ],
                        [
                            "-81.91",
                            "29.63"
                        ],
                        [
                            "-82.71",
                            "29.55"
                        ],
                        [
                            "-82.90",
                            "29.86"
                        ],
                        [
                            "-82.68",
                            "30.41"
                        ]
                    ]
                ]
            },
            "properties": {
                "forecastId": null,
                "geometryId": null,
                "tag": "6E",
                "forecastHour": 0,
                "hazard": "IFR",
                "frequency": null,
                "severity": null,
                "status": "NRML",
                "base": null,
                "top": null,
                "fzlBase": null,
                "fzlTop": null,
                "level": null,
                "product": "SIERRA",
                "rawAirSigmet": "CIG BLW 010 VIS BLW 3SM BR",
                "validTimeTo": "2026-08-24T09:00:00.000",
                "validTimeFrom": [
                    "2026-08-24T08:45"
                ]
            }
        },
        {
            "type": "Feature",
            "geometry": {
                "type": "LineString",
                "coordinates": [
                    [
                        "-84.12",
                        "19.30"
                    ],
                    [
                        "-83.59",
                        "20.72"
                    ],
                    [
                        "-82.71",
                        "21.75"
                    ],
                    [
                        "-81.18",
                        "22.22"
                    ],
                    [
                        "-79.70",
                        "22.56"
                    ],
                    [
                        "-78.31",
                        "22.91"
                    ],
                    [
                        "-77.01",
                        "23.57"
                    ],
                    [
                        "-75.91",
                        "24.33"
                    ],
                    [
                        "-74.42",
                        "24.66"
                    ],
                    [
                        "-72.73",
                        "24.98"
                    ],
                    [
                        "-71.13",
                        "24.79"
                    ],
                    [
                        "-69.38",
                        "24.82"
                    ],
                    [
                        "-68.50",
                        "26.16"
                    ],
                    [
                        "-67.09",
                        "26.30"
                    ]
                ]
            },
            "properties": {
                "forecastId": null,
                "geometryId": null,
                "tag": "1C",
                "forecastHour": 0,
                "hazard": "FZLVL",
                "frequency": null,
                "severity": null,
                "status": "NRML",
                "base": null,
                "top": null,
                "fzlBase": null,
                "fzlTop": null,
                "level": "160",
                "product": "ZULU",
                "rawAirSigmet": null,
                "validTimeTo": "2026-08-24T09:00:00.000",
                "validTimeFrom": [
                    "2026-08-24T08:45"
                ]
            }
        },
        {
            "type": "Feature",
            "geometry": {
                "type": "Polygon",
                "coordinates": [
                    [
                        [
                            "-94.91",
                            "49.03"
                        ],
                        [
                            "-94.01",
                            "48.43"
                        ],
                        [
                            "-94.03",
                            "47.54"
                        ],
                        [
                            "-94.64",
                            "46.77"
                        ],
                        [
                            "-95.37",
                            "45.88"
                        ],
                        [
                            "-95.49",
                            "44.88"
                        ],
                        [
                            "-95.17",
                            "43.27"
                        ],
                        [
                            "-95.75",
                            "42.24"
                        ],
                        [
                            "-96.58",
                            "42.01"
                        ],
                        [
                            "-96.86",
                            "42.53"
                        ],
                        [
                            "-97.11",
                            "43.29"
                        ],
                        [
                            "-97.55",
                            "44.46"
                        ],
                        [
                            "-98.22",
                            "44.98"
                        ],
                        [
                            "-97.93",
                            "46.01"
                        ],
                        [
                            "-97.16",
                            "47.39"
                        ],
                        [
                            "-97.52",
                            "48.93"
                        ],
                        [
                            "-94.91",
                            "49.03"
                        ]
                    ]
                ]
            },
            "properties": {
                "forecastId": null,
                "geometryId": null,
                "tag": "4C",
                "forecastHour": 0,
                "hazard": "ICE",
                "frequency": null,
                "severity": "MOD",
                "status": "NRML",
                "base": "150",
                "top": "250",
                "fzlBase": null,
                "fzlTop": null,
                "level": null,
                "product": "ZULU",
                "rawAirSigmet": "ICE",
                "validTimeTo": "2026-08-24T09:00:00.000",
                "validTimeFrom": [
                    "2026-08-24T08:45"
                ]
            }
        },
        {
            "type": "Feature",
            "geometry": {
                "type": "LineString",
                "coordinates": [
                    [
                        "-126.73",
                        "18.68"
                    ],
                    [
                        "-126.16",
                        "19.58"
                    ],
                    [
                        "-125.21",
                        "20.57"
                    ],
                    [
                        "-123.21",
                        "22.37"
                    ],
                    [
                        "-121.86",
                        "22.87"
                    ],
                    [
                        "-120.60",
                        "23.62"
                    ],
                    [
                        "-118.95",
                        "24.53"
                    ],
                    [
                        "-117.08",
                        "25.29"
                    ],
                    [
                        "-115.45",
                        "25.15"
                    ],
                    [
                        "-114.78",
                        "25.38"
                    ],
                    [
                        "-114.81",
                        "26.45"
                    ],
                    [
                        "-115.74",
                        "27.37"
                    ],
                    [
                        "-116.10",
                        "28.34"
                    ],
                    [
                        "-115.89",
                        "28.94"
                    ],
                    [
                        "-114.85",
                        "29.81"
                    ],
                    [
                        "-113.54",
                        "30.57"
                    ],
                    [
                        "-111.25",
                        "30.39"
                    ],
                    [
                        "-109.50",
                        "30.44"
                    ],
                    [
                        "-110.22",
                        "31.18"
                    ],
                    [
                        "-110.57",
                        "32.16"
                    ],
                    [
                        "-111.05",
                        "33.22"
                    ],
                    [
                        "-111.15",
                        "34.02"
                    ],
                    [
                        "-111.54",
                        "34.82"
                    ],
                    [
                        "-112.13",
                        "35.64"
                    ],
                    [
                        "-111.93",
                        "36.37"
                    ],
                    [
                        "-112.32",
                        "37.07"
                    ],
                    [
                        "-113.24",
                        "37.93"
                    ],
                    [
                        "-113.78",
                        "38.54"
                    ],
                    [
                        "-113.92",
                        "39.01"
                    ],
                    [
                        "-113.19",
                        "39.61"
                    ],
                    [
                        "-111.79",
                        "39.38"
                    ],
                    [
                        "-110.98",
                        "38.99"
                    ],
                    [
                        "-110.34",
                        "38.44"
                    ],
                    [
                        "-109.25",
                        "38.00"
                    ],
                    [
                        "-107.96",
                        "37.85"
                    ],
                    [
                        "-107.35",
                        "38.18"
                    ],
                    [
                        "-106.90",
                        "38.54"
                    ],
                    [
                        "-106.78",
                        "39.58"
                    ],
                    [
                        "-106.60",
                        "40.55"
                    ],
                    [
                        "-106.22",
                        "41.18"
                    ],
                    [
                        "-105.38",
                        "41.06"
                    ],
                    [
                        "-104.56",
                        "40.51"
                    ],
                    [
                        "-103.78",
                        "40.40"
                    ],
                    [
                        "-103.33",
                        "40.53"
                    ],
                    [
                        "-102.42",
                        "40.91"
                    ],
                    [
                        "-101.43",
                        "41.03"
                    ],
                    [
                        "-99.96",
                        "40.62"
                    ],
                    [
                        "-98.66",
                        "39.94"
                    ],
                    [
                        "-97.83",
                        "39.09"
                    ],
                    [
                        "-97.63",
                        "38.70"
                    ],
                    [
                        "-98.03",
                        "37.79"
                    ],
                    [
                        "-97.46",
                        "36.68"
                    ],
                    [
                        "-96.70",
                        "36.07"
                    ],
                    [
                        "-96.25",
                        "35.29"
                    ],
                    [
                        "-95.77",
                        "34.60"
                    ],
                    [
                        "-94.06",
                        "33.75"
                    ],
                    [
                        "-93.12",
                        "33.05"
                    ],
                    [
                        "-92.10",
                        "32.82"
                    ],
                    [
                        "-90.24",
                        "32.68"
                    ],
                    [
                        "-88.43",
                        "32.87"
                    ],
                    [
                        "-87.41",
                        "33.05"
                    ],
                    [
                        "-86.42",
                        "33.65"
                    ],
                    [
                        "-85.64",
                        "33.87"
                    ],
                    [
                        "-83.96",
                        "33.74"
                    ],
                    [
                        "-82.61",
                        "33.24"
                    ],
                    [
                        "-82.08",
                        "32.94"
                    ],
                    [
                        "-81.78",
                        "32.59"
                    ],
                    [
                        "-81.57",
                        "32.36"
                    ],
                    [
                        "-80.89",
                        "32.67"
                    ],
                    [
                        "-80.26",
                        "32.48"
                    ],
                    [
                        "-79.47",
                        "32.07"
                    ],
                    [
                        "-79.21",
                        "31.68"
                    ],
                    [
                        "-79.14",
                        "31.40"
                    ],
                    [
                        "-79.55",
                        "30.96"
                    ],
                    [
                        "-80.54",
                        "30.99"
                    ],
                    [
                        "-81.27",
                        "31.02"
                    ],
                    [
                        "-82.23",
                        "31.27"
                    ],
                    [
                        "-83.78",
                        "31.07"
                    ],
                    [
                        "-84.79",
                        "30.89"
                    ],
                    [
                        "-86.03",
                        "30.47"
                    ],
                    [
                        "-86.67",
                        "30.07"
                    ],
                    [
                        "-87.04",
                        "29.65"
                    ],
                    [
                        "-87.02",
                        "29.27"
                    ],
                    [
                        "-86.69",
                        "29.05"
                    ],
                    [
                        "-85.93",
                        "28.79"
                    ],
                    [
                        "-85.33",
                        "28.54"
                    ],
                    [
                        "-85.24",
                        "27.87"
                    ],
                    [
                        "-85.45",
                        "27.20"
                    ],
                    [
                        "-85.70",
                        "26.52"
                    ],
                    [
                        "-85.81",
                        "25.60"
                    ]
                ]
            },
            "properties": {
                "forecastId": null,
                "geometryId": null,
                "tag": "1C",
                "forecastHour": 0,
                "hazard": "FZLVL",
                "frequency": null,
                "severity": null,
                "status": "NRML",
                "base": null,
                "top": null,
                "fzlBase": null,
                "fzlTop": null,
                "level": "160",
                "product": "ZULU",
                "rawAirSigmet": null,
                "validTimeTo": "2026-08-24T09:00:00.000",
                "validTimeFrom": [
                    "2026-08-24T08:45"
                ]
            }
        },
        {
            "type": "Feature",
            "geometry": {
                "type": "Polygon",
                "coordinates": [
                    [
                        [
                            "-86.65",
                            "47.52"
                        ],
                        [
                            "-84.89",
                            "46.83"
                        ],
                        [
                            "-84.12",
                            "46.28"
                        ],
                        [
                            "-84.34",
                            "45.60"
                        ],
                        [
                            "-84.95",
                            "44.83"
                        ],
                        [
                            "-85.56",
                            "44.92"
                        ],
                        [
                            "-86.13",
                            "45.64"
                        ],
                        [
                            "-86.35",
                            "46.38"
                        ],
                        [
                            "-86.65",
                            "47.52"
                        ]
                    ]
                ]
            },
            "properties": {
                "forecastId": null,
                "geometryId": null,
                "tag": "2W",
                "forecastHour": 0,
                "hazard": "TURB-HI",
                "frequency": null,
                "severity": "MOD",
                "status": "NRML",
                "base": "280",
                "top": "360",
                "fzlBase": null,
                "fzlTop": null,
                "level": null,
                "product": "TANGO",
                "rawAirSigmet": null,
                "validTimeTo": "2026-08-24T09:00:00.000",
                "validTimeFrom": [
                    "2026-08-24T08:45"
                ]
            }
        }
    ],
    "metadata": {
        "creationTime": "2026-08-24T09:55"
    }
}