{
    "type": "FeatureCollection",
    "features": [
        {
            "type": "Feature",
            "geometry": {
                "type": "LineString",
                "coordinates": [
                    [
                        "-118.33",
                        "58.88"
                    ],
                    [
                        "-120.88",
                        "56.96"
                    ],
                    [
                        "-122.16",
                        "55.84"
                    ],
                    [
                        "-122.59",
                        "54.90"
                    ],
                    [
                        "-121.84",
                        "54.17"
                    ],
                    [
                        "-119.98",
                        "53.31"
                    ],
                    [
                        "-116.99",
                        "51.70"
                    ],
                    [
                        "-115.45",
                        "50.71"
                    ],
                    [
                        "-113.78",
                        "49.87"
                    ],
                    [
                        "-112.11",
                        "49.40"
                    ],
                    [
                        "-110.28",
                        "49.03"
                    ],
                    [
                        "-106.22",
                        "48.11"
                    ],
                    [
                        "-104.48",
                        "47.77"
                    ],
                    [
                        "-102.17",
                        "47.78"
                    ],
                    [
                        "-98.80",
                        "48.41"
                    ],
                    [
                        "-94.91",
                        "49.36"
                    ],
                    [
                        "-93.60",
                        "49.55"
                    ],
                    [
                        "-91.01",
                        "49.75"
                    ],
                    [
                        "-89.49",
                        "50.21"
                    ],
                    [
                        "-88.05",
                        "50.90"
                    ],
                    [
                        "-86.16",
                        "52.16"
                    ],
                    [
                        "-85.08",
                        "53.12"
                    ],
                    [
                        "-82.48",
                        "55.57"
                    ],
                    [
                        "-80.81",
                        "56.94"
                    ],
                    [
                        "-78.81",
                        "57.97"
                    ],
                    [
                        "-76.66",
                        "58.45"
                    ],
                    [
                        "-73.44",
                        "58.48"
                    ],
                    [
                        "-71.61",
                        "58.20"
                    ],
                    [
                        "-69.79",
                        "57.74"
                    ],
                    [
                        "-68.42",
                        "57.26"
                    ],
                    [
                        "-66.11",
                        "56.05"
                    ],
                    [
                        "-63.77",
                        "54.66"
                    ],
                    [
                        "-62.02",
                        "53.61"
                    ],
                    [
                        "-60.80",
                        "52.58"
                    ],
                    [
                        "-59.25",
                        "51.24"
                    ],
                    [
                        "-57.24",
                        "49.79"
                    ],
                    [
                        "-55.65",
                        "48.62"
                    ],
                    [
                        "-53.56",
                        "47.75"
                    ],
                    [
                        "-51.92",
                        "47.34"
                    ],
                    [
                        "-49.92",
                        "47.05"
                    ],
                    [
                        "-49.06",
                        "47.53"
                    ],
                    [
                        "-48.87",
                        "48.23"
                    ]
                ]
            },
            "properties": {
                "forecastId": null,
                "geometryId": null,
                "tag": "1C",
                "forecastHour": 3,
                "hazard": "FZLVL",
                "frequency": null,
                "severity": null,
                "status": "NRML",
                "base": null,
                "top": null,
                "fzlBase": null,
                "fzlTop": null,
                "level": "080",
                "product": "ZULU",
                "rawAirSigmet": null,
                "validTimeTo": "2026-09-12T18:00:00.000",
                "validTimeFrom": [
                    "2026-09-12T14:45"
                ]
            }
        },
        {
            "type": "Feature",
            "geometry": {
                "type": "Polygon",
                "coordinates": [
                    [
                        [
                            "-128.96",
                            "22.16"
                        ],
                        [
                            "-128.74",
                            "22.10"
                        ],
                        [
                            "-128.11",
                            "22.28"
                        ],
                        [
                            "-127.63",
                            "22.69"
                        ],
                        [
                            "-128.44",
                            "22.99"
                        ],
                        [
                            "-128.90",
                            "22.45"
                        ],
                        [
                            "-128.96",
                            "22.16"
                        ]
                    ]
                ]
            },
            "properties": {
                "forecastId": null,
                "geometryId": null,
                "tag": "1C",
                "forecastHour": 3,
                "hazard": "FZLVL",
                "frequency": null,
                "severity": null,
                "status": "NRML",
                "base": null,
                "top": null,
                "fzlBase": null,
                "fzlTop": null,
                "level": "160",
                "product": "ZULU",
                "rawAirSigmet": null,
                "validTimeTo": "2026-09-12T18:00:00.000",
                "validTimeFrom": [
                    "2026-09-12T14:45"
                ]
            }
        },
        {
            "type": "Feature",
            "geometry": {
                "type": "Polygon",
                "coordinates": [
                    [
                        [
                            "-107.74",
                            "17.75"
                        ],
                        [
                            "-107.69",
                            "17.61"
                        ],
                        [
                            "-107.09",
                            "17.53"
                        ],
                        [
                            "-106.50",
                            "17.76"
                        ],
                        [
                            "-105.90",
                            "17.80"
                        ],
                        [
                            "-105.30",
                            "17.45"
                        ],
                        [
                            "-105.12",
                            "17.25"
                        ],
                        [
                            "-104.70",
                            "17.13"
                        ],
                        [
                            "-104.11",
                            "17.18"
                        ],
                        [
                            "-103.99",
                            "17.24"
                        ],
                        [
                            "-103.50",
                            "17.73"
                        ],
                        [
                            "-103.43",
                            "17.80"
                        ],
                        [
                            "-103.50",
                            "17.88"
                        ],
                        [
                            "-104.09",
                            "18.14"
                        ],
                        [
                            "-104.70",
                            "18.23"
                        ],
                        [
                            "-105.30",
                            "18.24"
                        ],
                        [
                            "-105.90",
                            "17.84"
                        ],
                        [
                            "-106.50",
                            "17.87"
                        ],
                        [
                            "-107.11",
                            "17.98"
                        ],
                        [
                            "-107.70",
                            "17.80"
                        ],
                        [
                            "-107.74",
                            "17.75"
                        ]
                    ]
                ]
            },
            "properties": {
                "forecastId": null,
                "geometryId": null,
                "tag": "1C",
                "forecastHour": 3,
                "hazard": "FZLVL",
                "frequency": null,
                "severity": null,
                "status": "NRML",
                "base": null,
                "top": null,
                "fzlBase": null,
                "fzlTop": null,
                "level": "160",
                "product": "ZULU",
                "rawAirSigmet": null,
                "validTimeTo": "2026-09-12T18:00:00.000",
                "validTimeFrom": [
                    "2026-09-12T14:45"
                ]
            }
        },
        {
            "type": "Feature",
            "geometry": {
                "type": "Polygon",
                "coordinates": [
                    [
                        [
                            "-122.38",
                            "39.94"
                        ],
                        [
                            "-121.85",
                            "39.07"
                        ],
                        [
                            "-122.55",
                            "38.75"
                        ],
                        [
                            "-123.26",
                            "39.08"
                        ],
                        [
                            "-122.80",
                            "39.92"
                        ],
                        [
                            "-122.38",
                            "39.94"
                        ]
                    ]
                ]
            },
            "properties": {
                "forecastId": null,
                "geometryId": null,
                "tag": "1E",
                "forecastHour": 3,
                "hazard": "MT_OBSC",
                "frequency": null,
                "severity": null,
                "status": "NRML",
                "base": null,
                "top": null,
                "fzlBase": null,
                "fzlTop": null,
                "level": null,
                "product": "SIERRA",
                "rawAirSigmet": "FU HZ",
                "validTimeTo": "2026-09-12T18:00:00.000",
                "validTimeFrom": [
                    "2026-09-12T14:45"
                ]
            }
        },
        {
            "type": "Feature",
            "geometry": {
                "type": "Polygon",
                "coordinates": [
                    [
                        [
                            "-132.27",
                            "45.59"
                        ],
                        [
                            "-132.48",
                            "44.26"
                        ],
                        [
                            "-132.08",
                            "43.18"
                        ],
                        [
                            "-131.15",
                            "42.34"
                        ],
                        [
                            "-129.88",
                            "42.07"
                        ],
                        [
                            "-128.02",
                            "42.58"
                        ],
                        [
                            "-126.94",
                            "43.27"
                        ],
                        [
                            "-126.04",
                            "44.32"
                        ],
                        [
                            "-125.60",
                            "45.23"
                        ],
                        [
                            "-125.47",
                            "46.07"
                        ],
                        [
                            "-125.91",
                            "46.76"
                        ],
                        [
                            "-127.33",
                            "47.21"
                        ],
                        [
                            "-129.53",
                            "46.87"
                        ],
                        [
                            "-131.49",
                            "46.18"
                        ],
                        [
                            "-132.27",
                            "45.59"
                        ]
                    ]
                ]
            },
            "properties": {
                "forecastId": null,
                "geometryId": null,
                "tag": "1C",
                "forecastHour": 3,
                "hazard": "FZLVL",
                "frequency": null,
                "severity": null,
                "status": "NRML",
                "base": null,
                "top": null,
                "fzlBase": null,
                "fzlTop": null,
                "level": "080",
                "product": "ZULU",
                "rawAirSigmet": null,
                "validTimeTo": "2026-09-12T18:00:00.000",
                "validTimeFrom": [
                    "2026-09-12T14:45"
                ]
            }
        },
        {
            "type": "Feature",
            "geometry": {
                "type": "Polygon",
                "coordinates": [
                    [
                        [
                            "-114.12",
                            "48.96"
                        ],
                        [
                            "-113.97",
                            "48.42"
                        ],
                        [
                            "-118.77",
                            "47.37"
                        ],
                        [
                            "-122.05",
                            "45.30"
                        ],
                        [
                            "-124.77",
                            "42.71"
                        ],
                        [
                            "-126.89",
                            "41.65"
                        ],
                        [
                            "-126.51",
                            "45.01"
                        ],
                        [
                            "-127.05",
                            "46.36"
                        ],
                        [
                            "-124.85",
                            "48.44"
                        ],
                        [
                            "-123.46",
                            "48.10"
                        ],
                        [
                            "-123.24",
                            "48.81"
                        ],
                        [
                            "-118.56",
                            "48.88"
                        ],
                        [
                            "-114.12",
                            "48.96"
                        ]
                    ]
                ]
            },
            "properties": {
                "forecastId": null,
                "geometryId": null,
                "tag": "2W",
                "forecastHour": 3,
                "hazard": "TURB-HI",
                "frequency": null,
                "severity": "MOD",
                "status": "NRML",
                "base": "180",
                "top": "420",
                "fzlBase": null,
                "fzlTop": null,
                "level": null,
                "product": "TANGO",
                "rawAirSigmet": null,
                "validTimeTo": "2026-09-12T18:00:00.000",
                "validTimeFrom": [
                    "2026-09-12T14:45"
                ]
            }
        },
        {
            "type": "Feature",
            "geometry": {
                "type": "LineString",
                "coordinates": [
                    [
                        "-56.88",
                        "28.04"
                    ],
                    [
                        "-57.96",
                        "28.05"
                    ],
                    [
                        "-59.93",
                        "29.12"
                    ],
                    [
                        "-61.10",
                        "29.19"
                    ],
                    [
                        "-62.77",
                        "28.68"
                    ],
                    [
                        "-64.23",
                        "28.26"
                    ],
                    [
                        "-66.05",
                        "27.98"
                    ],
                    [
                        "-67.48",
                        "28.02"
                    ],
                    [
                        "-68.52",
                        "28.64"
                    ],
                    [
                        "-68.80",
                        "30.06"
                    ],
                    [
                        "-68.58",
                        "31.56"
                    ],
                    [
                        "-68.59",
                        "32.76"
                    ],
                    [
                        "-69.03",
                        "34.48"
                    ],
                    [
                        "-68.17",
                        "34.91"
                    ],
                    [
                        "-66.30",
                        "34.76"
                    ],
                    [
                        "-62.86",
                        "34.24"
                    ],
                    [
                        "-61.12",
                        "33.87"
                    ],
                    [
                        "-58.86",
                        "33.74"
                    ],
                    [
                        "-55.87",
                        "34.15"
                    ],
                    [
                        "-53.98",
                        "34.19"
                    ],
                    [
                        "-52.26",
                        "33.94"
                    ],
                    [
                        "-50.50",
                        "33.94"
                    ]
                ]
            },
            "properties": {
                "forecastId": null,
                "geometryId": null,
                "tag": "1C",
                "forecastHour": 3,
                "hazard": "FZLVL",
                "frequency": null,
                "severity": null,
                "status": "NRML",
                "base": null,
                "top": null,
                "fzlBase": null,
                "fzlTop": null,
                "level": "160",
                "product": "ZULU",
                "rawAirSigmet": null,
                "validTimeTo": "2026-09-12T18:00:00.000",
                "validTimeFrom": [
                    "2026-09-12T14:45"
                ]
            }
        },
        {
            "type": "Feature",
            "geometry": {
                "type": "LineString",
                "coordinates": [
                    [
                        "-134.11",
                        "23.85"
                    ],
                    [
                        "-130.43",
                        "26.96"
                    ],
                    [
                        "-129.53",
                        "27.80"
                    ],
                    [
                        "-128.61",
                        "29.07"
                    ],
                    [
                        "-127.96",
                        "30.09"
                    ],
                    [
                        "-127.50",
                        "31.27"
                    ],
                    [
                        "-127.24",
                        "33.77"
                    ],
                    [
                        "-126.80",
                        "34.81"
                    ],
                    [
                        "-126.03",
                        "35.85"
                    ],
                    [
                        "-125.11",
                        "36.88"
                    ],
                    [
                        "-123.62",
                        "37.96"
                    ],
                    [
                        "-121.79",
                        "38.82"
                    ],
                    [
                        "-119.20",
                        "39.66"
                    ],
                    [
                        "-116.95",
                        "40.03"
                    ],
                    [
                        "-114.85",
                        "39.81"
                    ],
                    [
                        "-113.56",
                        "39.38"
                    ],
                    [
                        "-112.05",
                        "38.65"
                    ],
                    [
                        "-110.62",
                        "38.11"
                    ],
                    [
                        "-108.84",
                        "37.88"
                    ],
                    [
                        "-107.30",
                        "37.93"
                    ],
                    [
                        "-106.09",
                        "38.17"
                    ],
                    [
                        "-104.18",
                        "38.52"
                    ],
                    [
                        "-101.94",
                        "38.56"
                    ],
                    [
                        "-100.02",
                        "38.22"
                    ],
                    [
                        "-98.80",
                        "37.63"
                    ],
                    [
                        "-97.67",
                        "36.49"
                    ],
                    [
                        "-97.31",
                        "35.27"
                    ],
                    [
                        "-97.22",
                        "34.22"
                    ],
                    [
                        "-96.53",
                        "33.69"
                    ],
                    [
                        "-95.11",
                        "34.67"
                    ],
                    [
                        "-93.76",
                        "35.36"
                    ],
                    [
                        "-90.90",
                        "36.17"
                    ],
                    [
                        "-89.70",
                        "36.05"
                    ],
                    [
                        "-89.88",
                        "34.53"
                    ],
                    [
                        "-90.74",
                        "33.68"
                    ],
                    [
                        "-92.10",
                        "32.82"
                    ],
                    [
                        "-96.01",
                        "32.48"
                    ],
                    [
                        "-97.08",
                        "31.66"
                    ],
                    [
                        "-98.41",
                        "31.19"
                    ],
                    [
                        "-99.20",
                        "31.14"
                    ],
                    [
                        "-100.23",
                        "31.91"
                    ],
                    [
                        "-101.01",
                        "32.37"
                    ],
                    [
                        "-102.18",
                        "32.42"
                    ],
                    [
                        "-103.29",
                        "31.65"
                    ],
                    [
                        "-104.06",
                        "30.52"
                    ],
                    [
                        "-104.35",
                        "29.53"
                    ],
                    [
                        "-104.13",
                        "28.59"
                    ],
                    [
                        "-103.42",
                        "28.27"
                    ],
                    [
                        "-102.54",
                        "28.29"
                    ],
                    [
                        "-100.99",
                        "28.66"
                    ],
                    [
                        "-99.81",
                        "29.09"
                    ],
                    [
                        "-98.90",
                        "28.99"
                    ],
                    [
                        "-97.99",
                        "28.54"
                    ],
                    [
                        "-96.96",
                        "27.85"
                    ],
                    [
                        "-96.08",
                        "26.85"
                    ],
                    [
                        "-95.71",
                        "25.28"
                    ],
                    [
                        "-94.82",
                        "24.45"
                    ],
                    [
                        "-92.54",
                        "23.49"
                    ],
                    [
                        "-89.31",
                        "22.89"
                    ],
                    [
                        "-87.61",
                        "22.48"
                    ],
                    [
                        "-86.10",
                        "22.55"
                    ],
                    [
                        "-84.64",
                        "22.78"
                    ],
                    [
                        "-83.56",
                        "22.66"
                    ],
                    [
                        "-82.44",
                        "21.03"
                    ],
                    [
                        "-81.77",
                        "20.33"
                    ],
                    [
                        "-80.38",
                        "19.93"
                    ],
                    [
                        "-77.98",
                        "20.04"
                    ],
                    [
                        "-76.88",
                        "19.62"
                    ],
                    [
                        "-75.82",
                        "18.60"
                    ],
                    [
                        "-74.56",
                        "17.83"
                    ],
                    [
                        "-74.09",
                        "17.29"
                    ],
                    [
                        "-73.43",
                        "16.37"
                    ],
                    [
                        "-72.82",
                        "16.07"
                    ],
                    [
                        "-71.54",
                        "16.11"
                    ],
                    [
                        "-70.29",
                        "16.39"
                    ],
                    [
                        "-68.00",
                        "17.16"
                    ],
                    [
                        "-66.02",
                        "17.43"
                    ],
                    [
                        "-64.97",
                        "17.88"
                    ],
                    [
                        "-64.26",
                        "18.47"
                    ]
                ]
            },
            "properties": {
                "forecastId": null,
                "geometryId": null,
                "tag": "1C",
                "forecastHour": 3,
                "hazard": "FZLVL",
                "frequency": null,
                "severity": null,
                "status": "NRML",
                "base": null,
                "top": null,
                "fzlBase": null,
                "fzlTop": null,
                "level": "160",
                "product": "ZULU",
                "rawAirSigmet": null,
                "validTimeTo": "2026-09-12T18:00:00.000",
                "validTimeFrom": [
                    "2026-09-12T14:45"
                ]
            }
        },
        {
            "type": "Feature",
            "geometry": {
                "type": "Polygon",
                "coordinates": [
                    [
                        [
                            "-108.02",
                            "48.92"
                        ],
                        [
                            "-106.22",
                            "47.84"
                        ],
                        [
                            "-105.11",
                            "47.27"
                        ],
                        [
                            "-103.53",
                            "46.63"
                        ],
                        [
                            "-101.42",
                            "46.34"
                        ],
                        [
                            "-99.74",
                            "46.26"
                        ],
                        [
                            "-99.68",
                            "45.71"
                        ],
                        [
                            "-102.58",
                            "45.70"
                        ],
                        [
                            "-104.75",
                            "45.69"
                        ],
                        [
                            "-106.80",
                            "46.41"
                        ],
                        [
                            "-110.49",
                            "48.81"
                        ],
                        [
                            "-108.02",
                            "48.92"
                        ]
                    ]
                ]
            },
            "properties": {
                "forecastId": null,
                "geometryId": null,
                "tag": "3C",
                "forecastHour": 3,
                "hazard": "ICE",
                "frequency": null,
                "severity": "MOD",
                "status": "NRML",
                "base": "FZL",
                "top": "160",
                "fzlBase": "080",
                "fzlTop": "110",
                "level": null,
                "product": "ZULU",
                "rawAirSigmet": "ICE",
                "validTimeTo": "2026-09-12T18:00:00.000",
                "validTimeFrom": [
                    "2026-09-12T14:45"
                ]
            }
        },
        {
            "type": "Feature",
            "geometry": {
                "type": "Polygon",
                "coordinates": [
                    [
                        [
                            "-123.23",
                            "48.99"
                        ],
                        [
                            "-121.36",
                            "47.88"
                        ],
                        [
                            "-122.52",
                            "46.98"
                        ],
                        [
                            "-125.21",
                            "43.79"
                        ],
                        [
                            "-125.89",
                            "43.93"
                        ],
                        [
                            "-126.74",
                            "43.44"
                        ],
                        [
                            "-126.53",
                            "45.03"
                        ],
                        [
                            "-127.99",
                            "48.31"
                        ],
                        [
                            "-123.23",
                            "48.99"
                        ]
                    ]
                ]
            },
            "properties": {
                "forecastId": null,
                "geometryId": null,
                "tag": "1C",
                "forecastHour": 3,
                "hazard": "ICE",
                "frequency": null,
                "severity": "MOD",
                "status": "NRML",
                "base": "FZL",
                "top": "190",
                "fzlBase": "080",
                "fzlTop": "100",
                "level": null,
                "product": "ZULU",
                "rawAirSigmet": "ICE",
                "validTimeTo": "2026-09-12T18:00:00.000",
                "validTimeFrom": [
                    "2026-09-12T14:45"
                ]
            }
        },
        {
            "type": "Feature",
            "geometry": {
                "type": "LineString",
                "coordinates": [
                    [
                        "-133.69",
                        "54.76"
                    ],
                    [
                        "-135.78",
                        "53.14"
                    ],
                    [
                        "-137.78",
                        "51.97"
                    ],
                    [
                        "-139.09",
                        "51.02"
                    ],
                    [
                        "-139.86",
                        "50.28"
                    ],
                    [
                        "-141.26",
                        "48.31"
                    ],
                    [
                        "-141.54",
                        "46.89"
                    ],
                    [
                        "-140.92",
                        "45.83"
                    ],
                    [
                        "-140.00",
                        "45.01"
                    ],
                    [
                        "-137.71",
                        "43.03"
                    ],
                    [
                        "-135.77",
                        "41.67"
                    ],
                    [
                        "-134.08",
                        "40.67"
                    ],
                    [
                        "-132.13",
                        "39.92"
                    ],
                    [
                        "-129.96",
                        "39.70"
                    ],
                    [
                        "-128.34",
                        "39.89"
                    ],
                    [
                        "-126.79",
                        "40.35"
                    ],
                    [
                        "-124.26",
                        "41.53"
                    ],
                    [
                        "-122.71",
                        "42.44"
                    ],
                    [
                        "-120.96",
                        "43.90"
                    ],
                    [
                        "-119.39",
                        "45.05"
                    ],
                    [
                        "-117.91",
                        "45.66"
                    ],
                    [
                        "-116.33",
                        "45.90"
                    ],
                    [
                        "-114.20",
                        "45.78"
                    ],
                    [
                        "-110.48",
                        "45.57"
                    ],
                    [
                        "-107.66",
                        "45.23"
                    ],
                    [
                        "-104.42",
                        "44.85"
                    ],
                    [
                        "-102.43",
                        "44.78"
                    ],
                    [
                        "-99.66",
                        "45.01"
                    ],
                    [
                        "-96.97",
                        "45.41"
                    ],
                    [
                        "-92.40",
                        "46.18"
                    ],
                    [
                        "-89.27",
                        "46.86"
                    ],
                    [
                        "-87.12",
                        "47.49"
                    ],
                    [
                        "-84.41",
                        "48.38"
                    ],
                    [
                        "-82.77",
                        "49.07"
                    ],
                    [
                        "-80.22",
                        "50.41"
                    ],
                    [
                        "-78.75",
                        "50.88"
                    ],
                    [
                        "-77.25",
                        "51.17"
                    ],
                    [
                        "-75.14",
                        "51.71"
                    ],
                    [
                        "-72.26",
                        "51.91"
                    ],
                    [
                        "-70.81",
                        "51.91"
                    ],
                    [
                        "-68.84",
                        "51.43"
                    ],
                    [
                        "-65.80",
                        "49.56"
                    ],
                    [
                        "-62.81",
                        "48.79"
                    ],
                    [
                        "-60.45",
                        "47.82"
                    ],
                    [
                        "-57.77",
                        "45.80"
                    ],
                    [
                        "-55.01",
                        "44.29"
                    ],
                    [
                        "-52.82",
                        "43.52"
                    ],
                    [
                        "-51.21",
                        "43.17"
                    ],
                    [
                        "-49.95",
                        "43.05"
                    ],
                    [
                        "-48.16",
                        "43.27"
                    ],
                    [
                        "-45.88",
                        "44.05"
                    ],
                    [
                        "-45.02",
                        "44.47"
                    ]
                ]
            },
            "properties": {
                "forecastId": null,
                "geometryId": null,
                "tag": "1C",
                "forecastHour": 3,
                "hazard": "FZLVL",
                "frequency": null,
                "severity": null,
                "status": "NRML",
                "base": null,
                "top": null,
                "fzlBase": null,
                "fzlTop": null,
                "level": "120",
                "product": "ZULU",
                "rawAirSigmet": null,
                "validTimeTo": "2026-09-12T18:00:00.000",
                "validTimeFrom": [
                    "2026-09-12T14:45"
                ]
            }
        },
        {
            "type": "Feature",
            "geometry": {
                "type": "Polygon",
                "coordinates": [
                    [
                        [
                            "-98.37",
                            "49.09"
                        ],
                        [
                            "-94.87",
                            "49.01"
                        ],
                        [
                            "-94.78",
                            "48.61"
                        ],
                        [
                            "-96.71",
                            "48.28"
                        ],
                        [
                            "-98.92",
                            "48.35"
                        ],
                        [
                            "-98.37",
                            "49.09"
                        ]
                    ]
                ]
            },
            "properties": {
                "forecastId": null,
                "geometryId": null,
                "tag": "2C",
                "forecastHour": 3,
                "hazard": "M_FZLVL",
                "frequency": null,
                "severity": null,
                "status": "NRML",
                "base": "050",
                "top": "090",
                "fzlBase": null,
                "fzlTop": null,
                "level": null,
                "product": "ZULU",
                "rawAirSigmet": null,
                "validTimeTo": "2026-09-12T18:00:00.000",
                "validTimeFrom": [
                    "2026-09-12T14:45"
                ]
            }
        },
        {
            "type": "Feature",
            "geometry": {
                "type": "Polygon",
                "coordinates": [
                    [
                        [
                            "-124.07",
                            "35.89"
                        ],
                        [
                            "-123.13",
                            "35.39"
                        ],
                        [
                            "-122.48",
                            "34.43"
                        ],
                        [
                            "-121.72",
                            "33.34"
                        ],
                        [
                            "-120.97",
                            "32.64"
                        ],
                        [
                            "-119.87",
                            "32.48"
                        ],
                        [
                            "-119.28",
                            "32.99"
                        ],
                        [
                            "-119.35",
                            "33.80"
                        ],
                        [
                            "-118.65",
                            "33.88"
                        ],
                        [
                            "-117.69",
                            "33.24"
                        ],
                        [
                            "-117.31",
                            "32.46"
                        ],
                        [
                            "-120.20",
                            "30.09"
                        ],
                        [
                            "-124.07",
                            "35.89"
                        ]
                    ]
                ]
            },
            "properties": {
                "forecastId": null,
                "geometryId": null,
                "tag": "1E",
                "forecastHour": 3,
                "hazard": "IFR",
                "frequency": null,
                "severity": null,
                "status": "NRML",
                "base": null,
                "top": null,
                "fzlBase": null,
                "fzlTop": null,
                "level": null,
                "product": "SIERRA",
                "rawAirSigmet": "CIG BLW 010 VIS BLW 3SM BR",
                "validTimeTo": "2026-09-12T18:00:00.000",
                "validTimeFrom": [
                    "2026-09-12T14:45"
                ]
            }
        },
        {
            "type": "Feature",
            "geometry": {
                "type": "LineString",
                "coordinates": [
                    [
                        "-108.72",
                        "60.43"
                    ],
                    [
                        "-109.10",
                        "59.60"
                    ],
                    [
                        "-109.22",
                        "57.97"
                    ],
                    [
                        "-108.68",
                        "56.88"
                    ],
                    [
                        "-107.14",
                        "55.91"
                    ],
                    [
                        "-105.70",
                        "55.27"
                    ],
                    [
                        "-104.31",
                        "54.66"
                    ],
                    [
                        "-102.49",
                        "54.02"
                    ],
                    [
                        "-100.31",
                        "53.78"
                    ],
                    [
                        "-98.95",
                        "53.87"
                    ],
                    [
                        "-96.23",
                        "53.93"
                    ],
                    [
                        "-93.48",
                        "54.01"
                    ],
                    [
                        "-91.96",
                        "54.36"
                    ],
                    [
                        "-90.19",
                        "55.17"
                    ],
                    [
                        "-89.45",
                        "56.07"
                    ],
                    [
                        "-89.68",
                        "56.94"
                    ],
                    [
                        "-91.25",
                        "57.99"
                    ],
                    [
                        "-92.73",
                        "59.00"
                    ],
                    [
                        "-93.26",
                        "59.89"
                    ],
                    [
                        "-93.02",
                        "60.70"
                    ]
                ]
            },
            "properties": {
                "forecastId": null,
                "geometryId": null,
                "tag": "1C",
                "forecastHour": 3,
                "hazard": "FZLVL",
                "frequency": null,
                "severity": null,
                "status": "NRML",
                "base": null,
                "top": null,
                "fzlBase": null,
                "fzlTop": null,
                "level": "040",
                "product": "ZULU",
                "rawAirSigmet": null,
                "validTimeTo": "2026-09-12T18:00:00.000",
                "validTimeFrom": [
                    "2026-09-12T14:45"
                ]
            }
        },
        {
            "type": "Feature",
            "geometry": {
                "type": "Polygon",
                "coordinates": [
                    [
                        [
                            "-114.44",
                            "48.94"
                        ],
                        [
                            "-112.44",
                            "48.92"
                        ],
                        [
                            "-112.37",
                            "48.04"
                        ],
                        [
                            "-111.91",
                            "47.26"
                        ],
                        [
                            "-112.23",
                            "46.71"
                        ],
                        [
                            "-113.23",
                            "47.15"
                        ],
                        [
                            "-113.70",
                            "48.11"
                        ],
                        [
                            "-114.44",
                            "48.94"
                        ]
                    ]
                ]
            },
            "properties": {
                "forecastId": null,
                "geometryId": null,
                "tag": "5E",
                "forecastHour": 3,
                "hazard": "IFR",
                "frequency": null,
                "severity": null,
                "status": "NRML",
                "base": null,
                "top": null,
                "fzlBase": null,
                "fzlTop": null,
                "level": null,
                "product": "SIERRA",
                "rawAirSigmet": "CIG BLW 010 VIS BLW 3SM PCPN BR",
                "validTimeTo": "2026-09-12T18:00:00.000",
                "validTimeFrom": [
                    "2026-09-12T14:45"
                ]
            }
        },
        {
            "type": "Feature",
            "geometry": {
                "type": "LineString",
                "coordinates": [
                    [
                        "-141.77",
                        "31.96"
                    ],
                    [
                        "-141.26",
                        "32.50"
                    ],
                    [
                        "-140.85",
                        "33.13"
                    ],
                    [
                        "-140.83",
                        "33.16"
                    ],
                    [
                        "-140.55",
                        "34.00"
                    ],
                    [
                        "-140.53",
                        "34.16"
                    ],
                    [
                        "-140.58",
                        "34.97"
                    ],
                    [
                        "-140.88",
                        "35.55"
                    ],
                    [
                        "-140.92",
                        "35.62"
                    ],
                    [
                        "-141.43",
                        "36.18"
                    ],
                    [
                        "-141.51",
                        "36.25"
                    ],
                    [
                        "-142.02",
                        "36.69"
                    ],
                    [
                        "-142.68",
                        "37.17"
                    ],
                    [
                        "-143.45",
                        "37.59"
                    ],
                    [
                        "-144.19",
                        "37.86"
                    ],
                    [
                        "-144.37",
                        "37.90"
                    ],
                    [
                        "-145.52",
                        "38.02"
                    ],
                    [
                        "-145.60",
                        "38.01"
                    ],
                    [
                        "-146.56",
                        "37.88"
                    ],
                    [
                        "-147.43",
                        "37.59"
                    ],
                    [
                        "-148.06",
                        "37.21"
                    ],
                    [
                        "-148.14",
                        "37.17"
                    ],
                    [
                        "-148.24",
                        "37.08"
                    ]
                ]
            },
            "properties": {
                "forecastId": null,
                "geometryId": null,
                "tag": "1C",
                "forecastHour": 3,
                "hazard": "FZLVL",
                "frequency": null,
                "severity": null,
                "status": "NRML",
                "base": null,
                "top": null,
                "fzlBase": null,
                "fzlTop": null,
                "level": "120",
                "product": "ZULU",
                "rawAirSigmet": null,
                "validTimeTo": "2026-09-12T18:00:00.000",
                "validTimeFrom": [
                    "2026-09-12T14:45"
                ]
            }
        },
        {
            "type": "Feature",
            "geometry": {
                "type": "Polygon",
                "coordinates": [
                    [
                        [
                            "-78.53",
                            "40.48"
                        ],
                        [
                            "-78.57",
                            "39.57"
                        ],
                        [
                            "-78.22",
                            "38.80"
                        ],
                        [
                            "-79.40",
                            "37.23"
                        ],
                        [
                            "-80.34",
                            "36.50"
                        ],
                        [
                            "-81.39",
                            "36.03"
                        ],
                        [
                            "-82.04",
                            "35.42"
                        ],
                        [
                            "-82.64",
                            "35.49"
                        ],
                        [
                            "-82.36",
                            "36.24"
                        ],
                        [
                            "-81.69",
                            "36.95"
                        ],
                        [
                            "-80.77",
                            "37.40"
                        ],
                        [
                            "-80.15",
                            "38.02"
                        ],
                        [
                            "-79.59",
                            "38.88"
                        ],
                        [
                            "-79.17",
                            "40.21"
                        ],
                        [
                            "-78.53",
                            "40.48"
                        ]
                    ]
                ]
            },
            "properties": {
                "forecastId": null,
                "geometryId": null,
                "tag": "3E",
                "forecastHour": 3,
                "hazard": "MT_OBSC",
                "frequency": null,
                "severity": null,
                "status": "NRML",
                "base": null,
                "top": null,
                "fzlBase": null,
                "fzlTop": null,
                "level": null,
                "product": "SIERRA",
                "rawAirSigmet": "MTNS OBSC BY CLDS PCPN BR",
                "validTimeTo": "2026-09-12T18:00:00.000",
                "validTimeFrom": [
                    "2026-09-12T14:45"
                ]
            }
        },
        {
            "type": "Feature",
            "geometry": {
                "type": "Polygon",
                "coordinates": [
                    [
                        [
                            "-114.50",
                            "49.01"
                        ],
                        [
                            "-113.11",
                            "49.00"
                        ],
                        [
                            "-112.42",
                            "48.43"
                        ],
                        [
                            "-112.45",
                            "48.09"
                        ],
                        [
                            "-111.89",
                            "47.25"
                        ],
                        [
                            "-112.21",
                            "46.72"
                        ],
                        [
                            "-113.23",
                            "47.10"
                        ],
                        [
                            "-113.59",
                            "48.19"
                        ],
                        [
                            "-114.50",
                            "49.01"
                        ]
                    ]
                ]
            },
            "properties": {
                "forecastId": null,
                "geometryId": null,
                "tag": "5E",
                "forecastHour": 3,
                "hazard": "MT_OBSC",
                "frequency": null,
                "severity": null,
                "status": "NRML",
                "base": null,
                "top": null,
                "fzlBase": null,
                "fzlTop": null,
                "level": null,
                "product": "SIERRA",
                "rawAirSigmet": "MTNS OBSC BY CLDS PCPN BR",
                "validTimeTo": "2026-09-12T18:00:00.000",
                "validTimeFrom": [
                    "2026-09-12T14:45"
                ]
            }
        }
    ],
    "metadata": {
        "creationTime": "2026-09-12T19:08"
    }
}