{
    "type": "FeatureCollection",
    "features": [
        {
            "type": "Feature",
            "geometry": {
                "type": "LineString",
                "coordinates": [
                    [
                        "-149.25",
                        "44.35"
                    ],
                    [
                        "-148.38",
                        "42.97"
                    ],
                    [
                        "-147.21",
                        "41.63"
                    ],
                    [
                        "-146.41",
                        "41.26"
                    ],
                    [
                        "-145.23",
                        "41.10"
                    ],
                    [
                        "-143.02",
                        "41.32"
                    ],
                    [
                        "-141.91",
                        "41.84"
                    ],
                    [
                        "-141.47",
                        "42.36"
                    ],
                    [
                        "-140.44",
                        "44.20"
                    ],
                    [
                        "-138.87",
                        "45.88"
                    ],
                    [
                        "-137.67",
                        "46.50"
                    ],
                    [
                        "-136.62",
                        "46.36"
                    ],
                    [
                        "-134.30",
                        "45.74"
                    ],
                    [
                        "-131.76",
                        "45.58"
                    ],
                    [
                        "-129.06",
                        "45.72"
                    ],
                    [
                        "-126.21",
                        "45.28"
                    ],
                    [
                        "-123.88",
                        "44.97"
                    ],
                    [
                        "-121.58",
                        "44.57"
                    ],
                    [
                        "-120.38",
                        "44.71"
                    ],
                    [
                        "-119.55",
                        "45.05"
                    ],
                    [
                        "-117.59",
                        "46.13"
                    ],
                    [
                        "-112.07",
                        "48.20"
                    ],
                    [
                        "-109.76",
                        "48.89"
                    ],
                    [
                        "-106.80",
                        "49.95"
                    ],
                    [
                        "-104.47",
                        "50.48"
                    ],
                    [
                        "-102.42",
                        "50.67"
                    ],
                    [
                        "-100.22",
                        "50.53"
                    ],
                    [
                        "-98.23",
                        "50.32"
                    ],
                    [
                        "-96.01",
                        "50.27"
                    ],
                    [
                        "-94.31",
                        "50.15"
                    ],
                    [
                        "-92.32",
                        "49.87"
                    ],
                    [
                        "-88.96",
                        "49.28"
                    ],
                    [
                        "-87.22",
                        "48.63"
                    ],
                    [
                        "-86.14",
                        "48.01"
                    ],
                    [
                        "-84.18",
                        "46.71"
                    ],
                    [
                        "-81.48",
                        "45.28"
                    ],
                    [
                        "-76.55",
                        "43.33"
                    ],
                    [
                        "-74.00",
                        "42.39"
                    ],
                    [
                        "-71.48",
                        "41.61"
                    ],
                    [
                        "-66.76",
                        "41.09"
                    ],
                    [
                        "-64.76",
                        "40.98"
                    ],
                    [
                        "-62.13",
                        "41.25"
                    ],
                    [
                        "-58.09",
                        "41.92"
                    ],
                    [
                        "-56.05",
                        "42.32"
                    ],
                    [
                        "-54.50",
                        "42.86"
                    ],
                    [
                        "-53.15",
                        "43.82"
                    ],
                    [
                        "-52.46",
                        "44.61"
                    ],
                    [
                        "-51.86",
                        "45.30"
                    ],
                    [
                        "-50.91",
                        "45.98"
                    ],
                    [
                        "-49.82",
                        "46.41"
                    ],
                    [
                        "-48.46",
                        "46.73"
                    ],
                    [
                        "-47.21",
                        "47.01"
                    ]
                ]
            },
            "properties": {
                "forecastId": null,
                "geometryId": null,
                "tag": "1C",
                "forecastHour": 0,
                "hazard": "FZLVL",
                "frequency": null,
                "severity": null,
                "status": "NRML",
                "base": null,
                "top": null,
                "fzlBase": null,
                "fzlTop": null,
                "level": "120",
                "product": "ZULU",
                "rawAirSigmet": null,
                "validTimeTo": "2026-08-14T15:00:00.000",
                "validTimeFrom": [
                    "2026-08-14T14:45"
                ]
            }
        },
        {
            "type": "Feature",
            "geometry": {
                "type": "Polygon",
                "coordinates": [
                    [
                        [
                            "-90.82",
                            "40.05"
                        ],
                        [
                            "-90.00",
                            "39.91"
                        ],
                        [
                            "-89.41",
                            "39.22"
                        ],
                        [
                            "-89.95",
                            "38.55"
                        ],
                        [
                            "-90.33",
                            "38.33"
                        ],
                        [
                            "-92.09",
                            "37.86"
                        ],
                        [
                            "-93.34",
                            "37.39"
                        ],
                        [
                            "-94.66",
                            "36.70"
                        ],
                        [
                            "-95.58",
                            "36.27"
                        ],
                        [
                            "-96.40",
                            "35.99"
                        ],
                        [
                            "-97.89",
                            "35.53"
                        ],
                        [
                            "-98.90",
                            "35.84"
                        ],
                        [
                            "-99.60",
                            "36.17"
                        ],
                        [
                            "-100.28",
                            "36.70"
                        ],
                        [
                            "-100.41",
                            "37.16"
                        ],
                        [
                            "-99.98",
                            "37.83"
                        ],
                        [
                            "-98.95",
                            "38.28"
                        ],
                        [
                            "-97.52",
                            "38.59"
                        ],
                        [
                            "-96.58",
                            "38.70"
                        ],
                        [
                            "-95.22",
                            "38.95"
                        ],
                        [
                            "-93.86",
                            "39.25"
                        ],
                        [
                            "-92.53",
                            "39.87"
                        ],
                        [
                            "-92.33",
                            "39.94"
                        ],
                        [
                            "-90.82",
                            "40.05"
                        ]
                    ]
                ]
            },
            "properties": {
                "forecastId": null,
                "geometryId": null,
                "tag": "6W",
                "forecastHour": 0,
                "hazard": "TURB-HI",
                "frequency": null,
                "severity": "MOD",
                "status": "NRML",
                "base": "300",
                "top": "390",
                "fzlBase": null,
                "fzlTop": null,
                "level": null,
                "product": "TANGO",
                "rawAirSigmet": null,
                "validTimeTo": "2026-08-14T15:00:00.000",
                "validTimeFrom": [
                    "2026-08-14T14:45"
                ]
            }
        },
        {
            "type": "Feature",
            "geometry": {
                "type": "LineString",
                "coordinates": [
                    [
                        "-139.14",
                        "29.29"
                    ],
                    [
                        "-135.43",
                        "28.27"
                    ],
                    [
                        "-133.79",
                        "27.69"
                    ],
                    [
                        "-132.21",
                        "27.29"
                    ],
                    [
                        "-131.25",
                        "27.29"
                    ],
                    [
                        "-129.32",
                        "27.56"
                    ],
                    [
                        "-128.29",
                        "27.56"
                    ],
                    [
                        "-127.33",
                        "27.00"
                    ],
                    [
                        "-126.00",
                        "24.03"
                    ],
                    [
                        "-125.85",
                        "21.97"
                    ],
                    [
                        "-124.98",
                        "20.98"
                    ],
                    [
                        "-124.16",
                        "20.67"
                    ],
                    [
                        "-122.78",
                        "21.70"
                    ],
                    [
                        "-121.29",
                        "22.62"
                    ],
                    [
                        "-119.37",
                        "23.37"
                    ],
                    [
                        "-116.91",
                        "24.54"
                    ],
                    [
                        "-114.48",
                        "25.48"
                    ],
                    [
                        "-113.21",
                        "26.44"
                    ],
                    [
                        "-110.72",
                        "29.88"
                    ],
                    [
                        "-109.86",
                        "30.52"
                    ],
                    [
                        "-108.77",
                        "30.84"
                    ],
                    [
                        "-108.26",
                        "30.63"
                    ],
                    [
                        "-108.62",
                        "29.99"
                    ],
                    [
                        "-109.61",
                        "28.43"
                    ],
                    [
                        "-109.96",
                        "27.55"
                    ],
                    [
                        "-109.66",
                        "26.60"
                    ],
                    [
                        "-108.78",
                        "25.87"
                    ],
                    [
                        "-107.64",
                        "25.48"
                    ],
                    [
                        "-106.64",
                        "25.53"
                    ],
                    [
                        "-105.71",
                        "26.12"
                    ],
                    [
                        "-105.36",
                        "26.61"
                    ],
                    [
                        "-104.77",
                        "26.20"
                    ],
                    [
                        "-104.37",
                        "25.37"
                    ],
                    [
                        "-103.71",
                        "23.38"
                    ],
                    [
                        "-103.15",
                        "22.57"
                    ],
                    [
                        "-102.32",
                        "22.29"
                    ],
                    [
                        "-100.52",
                        "22.36"
                    ],
                    [
                        "-99.39",
                        "22.70"
                    ],
                    [
                        "-98.65",
                        "23.26"
                    ],
                    [
                        "-97.57",
                        "25.04"
                    ],
                    [
                        "-96.88",
                        "26.36"
                    ],
                    [
                        "-96.29",
                        "26.91"
                    ],
                    [
                        "-97.84",
                        "28.12"
                    ],
                    [
                        "-98.88",
                        "27.62"
                    ],
                    [
                        "-99.70",
                        "26.76"
                    ],
                    [
                        "-100.54",
                        "26.57"
                    ],
                    [
                        "-101.54",
                        "26.93"
                    ],
                    [
                        "-103.17",
                        "28.11"
                    ],
                    [
                        "-105.37",
                        "28.50"
                    ],
                    [
                        "-106.89",
                        "30.06"
                    ],
                    [
                        "-107.66",
                        "30.79"
                    ],
                    [
                        "-108.16",
                        "31.87"
                    ],
                    [
                        "-108.16",
                        "33.43"
                    ],
                    [
                        "-107.91",
                        "34.60"
                    ],
                    [
                        "-107.59",
                        "36.62"
                    ],
                    [
                        "-107.28",
                        "38.27"
                    ],
                    [
                        "-106.86",
                        "39.22"
                    ],
                    [
                        "-105.79",
                        "41.55"
                    ],
                    [
                        "-104.55",
                        "43.44"
                    ],
                    [
                        "-103.60",
                        "44.11"
                    ],
                    [
                        "-102.40",
                        "44.38"
                    ],
                    [
                        "-98.59",
                        "44.09"
                    ],
                    [
                        "-96.79",
                        "43.84"
                    ],
                    [
                        "-95.50",
                        "43.39"
                    ],
                    [
                        "-94.78",
                        "42.72"
                    ],
                    [
                        "-94.59",
                        "42.10"
                    ],
                    [
                        "-94.81",
                        "40.90"
                    ],
                    [
                        "-95.04",
                        "40.43"
                    ],
                    [
                        "-94.25",
                        "39.64"
                    ],
                    [
                        "-92.40",
                        "39.27"
                    ],
                    [
                        "-90.90",
                        "39.50"
                    ],
                    [
                        "-88.45",
                        "40.34"
                    ],
                    [
                        "-87.62",
                        "40.96"
                    ],
                    [
                        "-86.26",
                        "41.63"
                    ],
                    [
                        "-85.23",
                        "41.69"
                    ],
                    [
                        "-83.63",
                        "41.50"
                    ],
                    [
                        "-82.41",
                        "40.74"
                    ],
                    [
                        "-82.17",
                        "39.85"
                    ],
                    [
                        "-81.66",
                        "38.43"
                    ],
                    [
                        "-80.88",
                        "37.63"
                    ],
                    [
                        "-79.29",
                        "36.82"
                    ],
                    [
                        "-77.75",
                        "36.68"
                    ],
                    [
                        "-75.59",
                        "36.61"
                    ],
                    [
                        "-72.48",
                        "36.43"
                    ],
                    [
                        "-69.78",
                        "36.55"
                    ],
                    [
                        "-67.33",
                        "36.78"
                    ],
                    [
                        "-65.43",
                        "36.86"
                    ],
                    [
                        "-64.05",
                        "36.80"
                    ],
                    [
                        "-62.61",
                        "36.53"
                    ],
                    [
                        "-61.66",
                        "36.05"
                    ],
                    [
                        "-61.03",
                        "35.05"
                    ],
                    [
                        "-61.50",
                        "34.08"
                    ],
                    [
                        "-62.85",
                        "33.20"
                    ],
                    [
                        "-64.81",
                        "32.23"
                    ],
                    [
                        "-66.94",
                        "31.64"
                    ],
                    [
                        "-69.45",
                        "31.22"
                    ],
                    [
                        "-71.43",
                        "30.65"
                    ],
                    [
                        "-73.15",
                        "29.80"
                    ],
                    [
                        "-75.52",
                        "28.98"
                    ],
                    [
                        "-77.39",
                        "28.12"
                    ],
                    [
                        "-81.10",
                        "26.43"
                    ],
                    [
                        "-77.20",
                        "21.09"
                    ],
                    [
                        "-73.77",
                        "19.97"
                    ],
                    [
                        "-73.31",
                        "18.30"
                    ],
                    [
                        "-72.63",
                        "17.85"
                    ],
                    [
                        "-71.96",
                        "18.03"
                    ],
                    [
                        "-71.08",
                        "18.39"
                    ],
                    [
                        "-69.88",
                        "18.24"
                    ],
                    [
                        "-69.16",
                        "18.01"
                    ],
                    [
                        "-68.07",
                        "18.03"
                    ],
                    [
                        "-66.43",
                        "18.21"
                    ],
                    [
                        "-64.99",
                        "17.73"
                    ]
                ]
            },
            "properties": {
                "forecastId": null,
                "geometryId": null,
                "tag": "1C",
                "forecastHour": 0,
                "hazard": "FZLVL",
                "frequency": null,
                "severity": null,
                "status": "NRML",
                "base": null,
                "top": null,
                "fzlBase": null,
                "fzlTop": null,
                "level": "160",
                "product": "ZULU",
                "rawAirSigmet": null,
                "validTimeTo": "2026-08-14T15:00:00.000",
                "validTimeFrom": [
                    "2026-08-14T14:45"
                ]
            }
        },
        {
            "type": "Feature",
            "geometry": {
                "type": "LineString",
                "coordinates": [
                    [
                        "-78.93",
                        "60.03"
                    ],
                    [
                        "-76.31",
                        "58.90"
                    ],
                    [
                        "-74.49",
                        "58.14"
                    ],
                    [
                        "-73.65",
                        "57.60"
                    ],
                    [
                        "-73.05",
                        "56.69"
                    ],
                    [
                        "-72.74",
                        "55.82"
                    ],
                    [
                        "-72.52",
                        "54.38"
                    ],
                    [
                        "-73.39",
                        "53.32"
                    ],
                    [
                        "-74.32",
                        "52.79"
                    ],
                    [
                        "-75.26",
                        "52.17"
                    ],
                    [
                        "-76.32",
                        "51.18"
                    ],
                    [
                        "-76.50",
                        "50.38"
                    ],
                    [
                        "-75.93",
                        "49.47"
                    ],
                    [
                        "-75.22",
                        "48.97"
                    ],
                    [
                        "-74.30",
                        "48.66"
                    ],
                    [
                        "-72.15",
                        "48.68"
                    ],
                    [
                        "-70.74",
                        "49.43"
                    ],
                    [
                        "-69.78",
                        "50.43"
                    ],
                    [
                        "-68.75",
                        "50.94"
                    ],
                    [
                        "-67.18",
                        "51.15"
                    ],
                    [
                        "-64.50",
                        "51.79"
                    ],
                    [
                        "-62.52",
                        "52.81"
                    ],
                    [
                        "-60.93",
                        "53.52"
                    ],
                    [
                        "-59.16",
                        "54.04"
                    ],
                    [
                        "-58.99",
                        "54.07"
                    ]
                ]
            },
            "properties": {
                "forecastId": null,
                "geometryId": null,
                "tag": "1C",
                "forecastHour": 0,
                "hazard": "FZLVL",
                "frequency": null,
                "severity": null,
                "status": "NRML",
                "base": null,
                "top": null,
                "fzlBase": null,
                "fzlTop": null,
                "level": "080",
                "product": "ZULU",
                "rawAirSigmet": null,
                "validTimeTo": "2026-08-14T15:00:00.000",
                "validTimeFrom": [
                    "2026-08-14T14:45"
                ]
            }
        },
        {
            "type": "Feature",
            "geometry": {
                "type": "Polygon",
                "coordinates": [
                    [
                        [
                            "-122.35",
                            "49.00"
                        ],
                        [
                            "-122.08",
                            "46.90"
                        ],
                        [
                            "-122.87",
                            "46.06"
                        ],
                        [
                            "-123.09",
                            "44.56"
                        ],
                        [
                            "-122.63",
                            "43.63"
                        ],
                        [
                            "-123.25",
                            "42.66"
                        ],
                        [
                            "-123.83",
                            "42.08"
                        ],
                        [
                            "-123.68",
                            "41.02"
                        ],
                        [
                            "-123.98",
                            "40.03"
                        ],
                        [
                            "-124.23",
                            "40.66"
                        ],
                        [
                            "-124.33",
                            "42.92"
                        ],
                        [
                            "-123.96",
                            "44.71"
                        ],
                        [
                            "-124.22",
                            "46.94"
                        ],
                        [
                            "-124.40",
                            "47.65"
                        ],
                        [
                            "-124.72",
                            "48.45"
                        ],
                        [
                            "-123.56",
                            "48.13"
                        ],
                        [
                            "-123.12",
                            "48.84"
                        ],
                        [
                            "-122.35",
                            "49.00"
                        ]
                    ]
                ]
            },
            "properties": {
                "forecastId": null,
                "geometryId": null,
                "tag": "5E",
                "forecastHour": 0,
                "hazard": "MT_OBSC",
                "frequency": null,
                "severity": null,
                "status": "NRML",
                "base": null,
                "top": null,
                "fzlBase": null,
                "fzlTop": null,
                "level": null,
                "product": "SIERRA",
                "rawAirSigmet": "MTNS OBSC BY CLDS BR",
                "validTimeTo": "2026-08-14T15:00:00.000",
                "validTimeFrom": [
                    "2026-08-14T14:45"
                ]
            }
        },
        {
            "type": "Feature",
            "geometry": {
                "type": "Polygon",
                "coordinates": [
                    [
                        [
                            "-101.52",
                            "45.58"
                        ],
                        [
                            "-100.41",
                            "45.44"
                        ],
                        [
                            "-99.44",
                            "44.48"
                        ],
                        [
                            "-98.02",
                            "43.85"
                        ],
                        [
                            "-96.30",
                            "44.17"
                        ],
                        [
                            "-94.84",
                            "43.89"
                        ],
                        [
                            "-93.08",
                            "44.44"
                        ],
                        [
                            "-91.01",
                            "44.41"
                        ],
                        [
                            "-89.21",
                            "43.68"
                        ],
                        [
                            "-88.03",
                            "42.47"
                        ],
                        [
                            "-87.72",
                            "41.47"
                        ],
                        [
                            "-87.89",
                            "40.60"
                        ],
                        [
                            "-88.93",
                            "40.22"
                        ],
                        [
                            "-90.26",
                            "40.51"
                        ],
                        [
                            "-91.30",
                            "40.26"
                        ],
                        [
                            "-92.77",
                            "40.95"
                        ],
                        [
                            "-94.68",
                            "41.30"
                        ],
                        [
                            "-95.64",
                            "42.11"
                        ],
                        [
                            "-96.62",
                            "42.06"
                        ],
                        [
                            "-97.33",
                            "40.71"
                        ],
                        [
                            "-98.61",
                            "40.47"
                        ],
                        [
                            "-100.53",
                            "41.34"
                        ],
                        [
                            "-100.93",
                            "42.17"
                        ],
                        [
                            "-101.93",
                            "43.27"
                        ],
                        [
                            "-102.10",
                            "44.44"
                        ],
                        [
                            "-101.52",
                            "45.58"
                        ]
                    ]
                ]
            },
            "properties": {
                "forecastId": null,
                "geometryId": null,
                "tag": "1E",
                "forecastHour": 0,
                "hazard": "IFR",
                "frequency": null,
                "severity": null,
                "status": "NRML",
                "base": null,
                "top": null,
                "fzlBase": null,
                "fzlTop": null,
                "level": null,
                "product": "SIERRA",
                "rawAirSigmet": "CIG BLW 010 VIS BLW 3SM PCPN BR",
                "validTimeTo": "2026-08-14T15:00:00.000",
                "validTimeFrom": [
                    "2026-08-14T14:45"
                ]
            }
        },
        {
            "type": "Feature",
            "geometry": {
                "type": "Polygon",
                "coordinates": [
                    [
                        [
                            "-122.42",
                            "48.87"
                        ],
                        [
                            "-122.03",
                            "47.89"
                        ],
                        [
                            "-122.22",
                            "46.76"
                        ],
                        [
                            "-122.82",
                            "46.32"
                        ],
                        [
                            "-123.06",
                            "45.58"
                        ],
                        [
                            "-123.46",
                            "45.07"
                        ],
                        [
                            "-122.96",
                            "43.78"
                        ],
                        [
                            "-123.32",
                            "42.86"
                        ],
                        [
                            "-124.05",
                            "42.17"
                        ],
                        [
                            "-123.84",
                            "40.54"
                        ],
                        [
                            "-123.30",
                            "39.35"
                        ],
                        [
                            "-122.30",
                            "38.21"
                        ],
                        [
                            "-122.29",
                            "37.30"
                        ],
                        [
                            "-123.25",
                            "37.19"
                        ],
                        [
                            "-124.51",
                            "38.44"
                        ],
                        [
                            "-125.28",
                            "39.64"
                        ],
                        [
                            "-125.67",
                            "40.95"
                        ],
                        [
                            "-125.85",
                            "42.58"
                        ],
                        [
                            "-126.69",
                            "43.61"
                        ],
                        [
                            "-126.60",
                            "45.26"
                        ],
                        [
                            "-127.91",
                            "48.24"
                        ],
                        [
                            "-124.97",
                            "48.69"
                        ],
                        [
                            "-123.60",
                            "48.11"
                        ],
                        [
                            "-123.39",
                            "48.84"
                        ],
                        [
                            "-122.42",
                            "48.87"
                        ]
                    ]
                ]
            },
            "properties": {
                "forecastId": null,
                "geometryId": null,
                "tag": "2E",
                "forecastHour": 0,
                "hazard": "IFR",
                "frequency": null,
                "severity": null,
                "status": "NRML",
                "base": null,
                "top": null,
                "fzlBase": null,
                "fzlTop": null,
                "level": null,
                "product": "SIERRA",
                "rawAirSigmet": "CIG BLW 010 VIS BLW 3SM BR",
                "validTimeTo": "2026-08-14T15:00:00.000",
                "validTimeFrom": [
                    "2026-08-14T14:45"
                ]
            }
        },
        {
            "type": "Feature",
            "geometry": {
                "type": "Polygon",
                "coordinates": [
                    [
                        [
                            "-81.53",
                            "32.08"
                        ],
                        [
                            "-81.89",
                            "31.99"
                        ],
                        [
                            "-82.49",
                            "31.70"
                        ],
                        [
                            "-82.96",
                            "31.14"
                        ],
                        [
                            "-82.57",
                            "30.62"
                        ],
                        [
                            "-81.85",
                            "30.39"
                        ],
                        [
                            "-81.08",
                            "30.27"
                        ],
                        [
                            "-80.68",
                            "30.30"
                        ],
                        [
                            "-80.11",
                            "30.52"
                        ],
                        [
                            "-79.84",
                            "30.70"
                        ],
                        [
                            "-79.77",
                            "31.13"
                        ],
                        [
                            "-79.86",
                            "31.44"
                        ],
                        [
                            "-80.28",
                            "31.78"
                        ],
                        [
                            "-81.01",
                            "32.05"
                        ],
                        [
                            "-81.53",
                            "32.08"
                        ]
                    ]
                ]
            },
            "properties": {
                "forecastId": null,
                "geometryId": null,
                "tag": "1C",
                "forecastHour": 0,
                "hazard": "FZLVL",
                "frequency": null,
                "severity": null,
                "status": "NRML",
                "base": null,
                "top": null,
                "fzlBase": null,
                "fzlTop": null,
                "level": "160",
                "product": "ZULU",
                "rawAirSigmet": null,
                "validTimeTo": "2026-08-14T15:00:00.000",
                "validTimeFrom": [
                    "2026-08-14T14:45"
                ]
            }
        },
        {
            "type": "Feature",
            "geometry": {
                "type": "Polygon",
                "coordinates": [
                    [
                        [
                            "-112.98",
                            "49.08"
                        ],
                        [
                            "-109.73",
                            "49.00"
                        ],
                        [
                            "-104.04",
                            "49.00"
                        ],
                        [
                            "-98.67",
                            "49.01"
                        ],
                        [
                            "-97.06",
                            "48.99"
                        ],
                        [
                            "-97.01",
                            "47.88"
                        ],
                        [
                            "-98.73",
                            "47.29"
                        ],
                        [
                            "-99.94",
                            "45.62"
                        ],
                        [
                            "-102.13",
                            "45.52"
                        ],
                        [
                            "-103.68",
                            "47.02"
                        ],
                        [
                            "-107.37",
                            "46.88"
                        ],
                        [
                            "-108.58",
                            "44.77"
                        ],
                        [
                            "-111.08",
                            "43.88"
                        ],
                        [
                            "-112.62",
                            "44.02"
                        ],
                        [
                            "-112.49",
                            "44.81"
                        ],
                        [
                            "-113.14",
                            "46.36"
                        ],
                        [
                            "-113.25",
                            "47.72"
                        ],
                        [
                            "-112.98",
                            "49.08"
                        ]
                    ]
                ]
            },
            "properties": {
                "forecastId": null,
                "geometryId": null,
                "tag": "2C",
                "forecastHour": 0,
                "hazard": "ICE",
                "frequency": null,
                "severity": "MOD",
                "status": "NRML",
                "base": "FZL",
                "top": "240",
                "fzlBase": "120",
                "fzlTop": "140",
                "level": null,
                "product": "ZULU",
                "rawAirSigmet": "ICE",
                "validTimeTo": "2026-08-14T15:00:00.000",
                "validTimeFrom": [
                    "2026-08-14T14:45"
                ]
            }
        },
        {
            "type": "Feature",
            "geometry": {
                "type": "Polygon",
                "coordinates": [
                    [
                        [
                            "-123.32",
                            "39.29"
                        ],
                        [
                            "-122.27",
                            "38.45"
                        ],
                        [
                            "-121.92",
                            "38.02"
                        ],
                        [
                            "-119.66",
                            "35.05"
                        ],
                        [
                            "-117.29",
                            "33.99"
                        ],
                        [
                            "-116.58",
                            "32.68"
                        ],
                        [
                            "-117.28",
                            "32.81"
                        ],
                        [
                            "-118.26",
                            "33.92"
                        ],
                        [
                            "-120.56",
                            "34.56"
                        ],
                        [
                            "-121.90",
                            "36.70"
                        ],
                        [
                            "-123.83",
                            "39.25"
                        ],
                        [
                            "-123.32",
                            "39.29"
                        ]
                    ]
                ]
            },
            "properties": {
                "forecastId": null,
                "geometryId": null,
                "tag": "3E",
                "forecastHour": 0,
                "hazard": "MT_OBSC",
                "frequency": null,
                "severity": null,
                "status": "NRML",
                "base": null,
                "top": null,
                "fzlBase": null,
                "fzlTop": null,
                "level": null,
                "product": "SIERRA",
                "rawAirSigmet": "MTNS OBSC BY CLDS BR",
                "validTimeTo": "2026-08-14T15:00:00.000",
                "validTimeFrom": [
                    "2026-08-14T14:45"
                ]
            }
        },
        {
            "type": "Feature",
            "geometry": {
                "type": "LineString",
                "coordinates": [
                    [
                        "-107.91",
                        "16.05"
                    ],
                    [
                        "-107.64",
                        "16.59"
                    ],
                    [
                        "-106.51",
                        "18.04"
                    ],
                    [
                        "-106.22",
                        "19.26"
                    ],
                    [
                        "-107.13",
                        "20.10"
                    ],
                    [
                        "-109.14",
                        "20.96"
                    ],
                    [
                        "-111.16",
                        "21.86"
                    ],
                    [
                        "-112.69",
                        "23.46"
                    ],
                    [
                        "-113.65",
                        "23.67"
                    ],
                    [
                        "-114.41",
                        "23.56"
                    ],
                    [
                        "-115.85",
                        "22.79"
                    ],
                    [
                        "-117.66",
                        "21.65"
                    ],
                    [
                        "-118.37",
                        "20.73"
                    ],
                    [
                        "-118.64",
                        "19.78"
                    ],
                    [
                        "-118.43",
                        "19.18"
                    ],
                    [
                        "-117.99",
                        "19.09"
                    ],
                    [
                        "-116.47",
                        "19.22"
                    ],
                    [
                        "-113.96",
                        "19.21"
                    ],
                    [
                        "-112.40",
                        "19.30"
                    ],
                    [
                        "-111.46",
                        "19.09"
                    ],
                    [
                        "-110.51",
                        "18.41"
                    ],
                    [
                        "-109.88",
                        "17.62"
                    ],
                    [
                        "-108.57",
                        "16.01"
                    ]
                ]
            },
            "properties": {
                "forecastId": null,
                "geometryId": null,
                "tag": "1C",
                "forecastHour": 0,
                "hazard": "FZLVL",
                "frequency": null,
                "severity": null,
                "status": "NRML",
                "base": null,
                "top": null,
                "fzlBase": null,
                "fzlTop": null,
                "level": "160",
                "product": "ZULU",
                "rawAirSigmet": null,
                "validTimeTo": "2026-08-14T15:00:00.000",
                "validTimeFrom": [
                    "2026-08-14T14:45"
                ]
            }
        },
        {
            "type": "Feature",
            "geometry": {
                "type": "Polygon",
                "coordinates": [
                    [
                        [
                            "-80.25",
                            "40.84"
                        ],
                        [
                            "-79.34",
                            "40.22"
                        ],
                        [
                            "-78.89",
                            "39.53"
                        ],
                        [
                            "-79.46",
                            "38.37"
                        ],
                        [
                            "-80.06",
                            "37.93"
                        ],
                        [
                            "-81.02",
                            "37.97"
                        ],
                        [
                            "-82.07",
                            "38.73"
                        ],
                        [
                            "-80.25",
                            "40.84"
                        ]
                    ]
                ]
            },
            "properties": {
                "forecastId": null,
                "geometryId": null,
                "tag": "1E",
                "forecastHour": 0,
                "hazard": "MT_OBSC",
                "frequency": null,
                "severity": null,
                "status": "NRML",
                "base": null,
                "top": null,
                "fzlBase": null,
                "fzlTop": null,
                "level": null,
                "product": "SIERRA",
                "rawAirSigmet": "MTNS OBSC BY CLDS PCPN BR",
                "validTimeTo": "2026-08-14T15:00:00.000",
                "validTimeFrom": [
                    "2026-08-14T14:45"
                ]
            }
        },
        {
            "type": "Feature",
            "geometry": {
                "type": "Polygon",
                "coordinates": [
                    [
                        [
                            "-113.18",
                            "49.01"
                        ],
                        [
                            "-111.46",
                            "47.45"
                        ],
                        [
                            "-109.71",
                            "48.53"
                        ],
                        [
                            "-106.62",
                            "43.87"
                        ],
                        [
                            "-107.52",
                            "43.45"
                        ],
                        [
                            "-109.46",
                            "43.94"
                        ],
                        [
                            "-109.39",
                            "42.53"
                        ],
                        [
                            "-110.22",
                            "42.25"
                        ],
                        [
                            "-111.20",
                            "43.02"
                        ],
                        [
                            "-111.56",
                            "44.42"
                        ],
                        [
                            "-112.94",
                            "45.14"
                        ],
                        [
                            "-114.18",
                            "44.90"
                        ],
                        [
                            "-115.32",
                            "45.98"
                        ],
                        [
                            "-115.22",
                            "47.14"
                        ],
                        [
                            "-114.27",
                            "48.01"
                        ],
                        [
                            "-114.97",
                            "48.94"
                        ],
                        [
                            "-113.18",
                            "49.01"
                        ]
                    ]
                ]
            },
            "properties": {
                "forecastId": null,
                "geometryId": null,
                "tag": "4E",
                "forecastHour": 0,
                "hazard": "MT_OBSC",
                "frequency": null,
                "severity": null,
                "status": "NRML",
                "base": null,
                "top": null,
                "fzlBase": null,
                "fzlTop": null,
                "level": null,
                "product": "SIERRA",
                "rawAirSigmet": "MTNS OBSC BY CLDS PCPN BR",
                "validTimeTo": "2026-08-14T15:00:00.000",
                "validTimeFrom": [
                    "2026-08-14T14:45"
                ]
            }
        },
        {
            "type": "Feature",
            "geometry": {
                "type": "Polygon",
                "coordinates": [
                    [
                        [
                            "-84.09",
                            "42.61"
                        ],
                        [
                            "-83.57",
                            "42.44"
                        ],
                        [
                            "-82.50",
                            "41.54"
                        ],
                        [
                            "-81.01",
                            "41.12"
                        ],
                        [
                            "-80.18",
                            "40.29"
                        ],
                        [
                            "-79.41",
                            "40.06"
                        ],
                        [
                            "-78.96",
                            "39.47"
                        ],
                        [
                            "-79.29",
                            "38.39"
                        ],
                        [
                            "-79.93",
                            "37.77"
                        ],
                        [
                            "-80.88",
                            "37.72"
                        ],
                        [
                            "-81.79",
                            "38.14"
                        ],
                        [
                            "-82.36",
                            "38.94"
                        ],
                        [
                            "-84.02",
                            "39.19"
                        ],
                        [
                            "-84.82",
                            "39.67"
                        ],
                        [
                            "-85.30",
                            "40.43"
                        ],
                        [
                            "-86.44",
                            "40.81"
                        ],
                        [
                            "-86.89",
                            "41.30"
                        ],
                        [
                            "-86.79",
                            "41.88"
                        ],
                        [
                            "-85.61",
                            "42.44"
                        ],
                        [
                            "-84.09",
                            "42.61"
                        ]
                    ]
                ]
            },
            "properties": {
                "forecastId": null,
                "geometryId": null,
                "tag": "6E",
                "forecastHour": 0,
                "hazard": "IFR",
                "frequency": null,
                "severity": null,
                "status": "NRML",
                "base": null,
                "top": null,
                "fzlBase": null,
                "fzlTop": null,
                "level": null,
                "product": "SIERRA",
                "rawAirSigmet": "CIG BLW 010 VIS BLW 3SM PCPN BR",
                "validTimeTo": "2026-08-14T15:00:00.000",
                "validTimeFrom": [
                    "2026-08-14T14:45"
                ]
            }
        },
        {
            "type": "Feature",
            "geometry": {
                "type": "Polygon",
                "coordinates": [
                    [
                        [
                            "-70.44",
                            "46.37"
                        ],
                        [
                            "-67.21",
                            "45.24"
                        ],
                        [
                            "-66.87",
                            "44.52"
                        ],
                        [
                            "-67.10",
                            "42.43"
                        ],
                        [
                            "-69.86",
                            "42.90"
                        ],
                        [
                            "-73.44",
                            "43.69"
                        ],
                        [
                            "-75.66",
                            "44.39"
                        ],
                        [
                            "-75.02",
                            "44.95"
                        ],
                        [
                            "-71.00",
                            "45.37"
                        ],
                        [
                            "-70.44",
                            "46.37"
                        ]
                    ]
                ]
            },
            "properties": {
                "forecastId": null,
                "geometryId": null,
                "tag": "2W",
                "forecastHour": 0,
                "hazard": "TURB-HI",
                "frequency": null,
                "severity": "MOD",
                "status": "NRML",
                "base": "260",
                "top": "380",
                "fzlBase": null,
                "fzlTop": null,
                "level": null,
                "product": "TANGO",
                "rawAirSigmet": null,
                "validTimeTo": "2026-08-14T15:00:00.000",
                "validTimeFrom": [
                    "2026-08-14T14:45"
                ]
            }
        },
        {
            "type": "Feature",
            "geometry": {
                "type": "Polygon",
                "coordinates": [
                    [
                        [
                            "-101.90",
                            "49.07"
                        ],
                        [
                            "-102.43",
                            "48.22"
                        ],
                        [
                            "-101.86",
                            "47.48"
                        ],
                        [
                            "-101.55",
                            "46.37"
                        ],
                        [
                            "-101.55",
                            "45.41"
                        ],
                        [
                            "-102.11",
                            "44.37"
                        ],
                        [
                            "-101.93",
                            "43.33"
                        ],
                        [
                            "-103.11",
                            "44.16"
                        ],
                        [
                            "-103.25",
                            "45.29"
                        ],
                        [
                            "-103.80",
                            "46.42"
                        ],
                        [
                            "-104.67",
                            "46.66"
                        ],
                        [
                            "-106.01",
                            "45.76"
                        ],
                        [
                            "-105.96",
                            "44.94"
                        ],
                        [
                            "-106.63",
                            "43.89"
                        ],
                        [
                            "-107.67",
                            "43.40"
                        ],
                        [
                            "-109.21",
                            "43.84"
                        ],
                        [
                            "-109.89",
                            "45.14"
                        ],
                        [
                            "-110.49",
                            "45.72"
                        ],
                        [
                            "-112.02",
                            "46.06"
                        ],
                        [
                            "-113.16",
                            "46.99"
                        ],
                        [
                            "-113.65",
                            "48.07"
                        ],
                        [
                            "-114.29",
                            "48.81"
                        ],
                        [
                            "-110.07",
                            "49.00"
                        ],
                        [
                            "-105.73",
                            "48.95"
                        ],
                        [
                            "-101.90",
                            "49.07"
                        ]
                    ]
                ]
            },
            "properties": {
                "forecastId": null,
                "geometryId": null,
                "tag": "4E",
                "forecastHour": 0,
                "hazard": "IFR",
                "frequency": null,
                "severity": null,
                "status": "NRML",
                "base": null,
                "top": null,
                "fzlBase": null,
                "fzlTop": null,
                "level": null,
                "product": "SIERRA",
                "rawAirSigmet": "CIG BLW 010 VIS BLW 3SM PCPN BR",
                "validTimeTo": "2026-08-14T15:00:00.000",
                "validTimeFrom": [
                    "2026-08-14T14:45"
                ]
            }
        },
        {
            "type": "Feature",
            "geometry": {
                "type": "Polygon",
                "coordinates": [
                    [
                        [
                            "-94.33",
                            "27.90"
                        ],
                        [
                            "-94.41",
                            "27.90"
                        ],
                        [
                            "-95.22",
                            "27.50"
                        ],
                        [
                            "-95.41",
                            "27.42"
                        ],
                        [
                            "-96.05",
                            "26.87"
                        ],
                        [
                            "-96.17",
                            "26.25"
                        ],
                        [
                            "-95.94",
                            "25.58"
                        ],
                        [
                            "-95.64",
                            "25.25"
                        ],
                        [
                            "-95.43",
                            "24.87"
                        ],
                        [
                            "-95.10",
                            "24.45"
                        ],
                        [
                            "-94.83",
                            "24.15"
                        ],
                        [
                            "-94.54",
                            "23.81"
                        ],
                        [
                            "-93.91",
                            "23.58"
                        ],
                        [
                            "-93.34",
                            "23.89"
                        ],
                        [
                            "-93.12",
                            "24.06"
                        ],
                        [
                            "-92.83",
                            "24.42"
                        ],
                        [
                            "-92.46",
                            "24.98"
                        ],
                        [
                            "-92.24",
                            "25.57"
                        ],
                        [
                            "-92.22",
                            "26.21"
                        ],
                        [
                            "-92.44",
                            "26.87"
                        ],
                        [
                            "-92.46",
                            "26.91"
                        ],
                        [
                            "-93.00",
                            "27.58"
                        ],
                        [
                            "-93.27",
                            "27.72"
                        ],
                        [
                            "-93.66",
                            "27.92"
                        ],
                        [
                            "-94.33",
                            "27.90"
                        ]
                    ]
                ]
            },
            "properties": {
                "forecastId": null,
                "geometryId": null,
                "tag": "1C",
                "forecastHour": 0,
                "hazard": "FZLVL",
                "frequency": null,
                "severity": null,
                "status": "NRML",
                "base": null,
                "top": null,
                "fzlBase": null,
                "fzlTop": null,
                "level": "160",
                "product": "ZULU",
                "rawAirSigmet": null,
                "validTimeTo": "2026-08-14T15:00:00.000",
                "validTimeFrom": [
                    "2026-08-14T14:45"
                ]
            }
        },
        {
            "type": "Feature",
            "geometry": {
                "type": "Polygon",
                "coordinates": [
                    [
                        [
                            "-119.33",
                            "49.01"
                        ],
                        [
                            "-119.13",
                            "48.34"
                        ],
                        [
                            "-119.79",
                            "47.33"
                        ],
                        [
                            "-119.34",
                            "46.60"
                        ],
                        [
                            "-118.11",
                            "46.70"
                        ],
                        [
                            "-117.02",
                            "47.42"
                        ],
                        [
                            "-115.49",
                            "48.05"
                        ],
                        [
                            "-114.28",
                            "48.01"
                        ],
                        [
                            "-115.22",
                            "47.14"
                        ],
                        [
                            "-115.32",
                            "45.98"
                        ],
                        [
                            "-117.05",
                            "45.83"
                        ],
                        [
                            "-118.61",
                            "45.18"
                        ],
                        [
                            "-119.76",
                            "43.97"
                        ],
                        [
                            "-121.14",
                            "43.47"
                        ],
                        [
                            "-122.62",
                            "43.63"
                        ],
                        [
                            "-123.07",
                            "44.53"
                        ],
                        [
                            "-122.87",
                            "46.08"
                        ],
                        [
                            "-122.07",
                            "46.92"
                        ],
                        [
                            "-121.63",
                            "49.00"
                        ],
                        [
                            "-119.33",
                            "49.01"
                        ]
                    ]
                ]
            },
            "properties": {
                "forecastId": null,
                "geometryId": null,
                "tag": "3E",
                "forecastHour": 0,
                "hazard": "MT_OBSC",
                "frequency": null,
                "severity": null,
                "status": "NRML",
                "base": null,
                "top": null,
                "fzlBase": null,
                "fzlTop": null,
                "level": null,
                "product": "SIERRA",
                "rawAirSigmet": "FU HZ",
                "validTimeTo": "2026-08-14T15:00:00.000",
                "validTimeFrom": [
                    "2026-08-14T14:45"
                ]
            }
        },
        {
            "type": "Feature",
            "geometry": {
                "type": "Polygon",
                "coordinates": [
                    [
                        [
                            "-111.14",
                            "43.66"
                        ],
                        [
                            "-110.42",
                            "43.62"
                        ],
                        [
                            "-109.88",
                            "43.17"
                        ],
                        [
                            "-110.24",
                            "42.26"
                        ],
                        [
                            "-111.35",
                            "41.27"
                        ],
                        [
                            "-112.37",
                            "39.81"
                        ],
                        [
                            "-112.71",
                            "38.43"
                        ],
                        [
                            "-112.79",
                            "37.67"
                        ],
                        [
                            "-113.27",
                            "37.17"
                        ],
                        [
                            "-113.98",
                            "37.12"
                        ],
                        [
                            "-114.95",
                            "37.50"
                        ],
                        [
                            "-115.30",
                            "39.00"
                        ],
                        [
                            "-114.97",
                            "40.25"
                        ],
                        [
                            "-113.81",
                            "42.06"
                        ],
                        [
                            "-112.29",
                            "43.18"
                        ],
                        [
                            "-111.14",
                            "43.66"
                        ]
                    ]
                ]
            },
            "properties": {
                "forecastId": null,
                "geometryId": null,
                "tag": "5W",
                "forecastHour": 0,
                "hazard": "TURB-HI",
                "frequency": null,
                "severity": "MOD",
                "status": "NRML",
                "base": "290",
                "top": "380",
                "fzlBase": null,
                "fzlTop": null,
                "level": null,
                "product": "TANGO",
                "rawAirSigmet": null,
                "validTimeTo": "2026-08-14T15:00:00.000",
                "validTimeFrom": [
                    "2026-08-14T14:45"
                ]
            }
        },
        {
            "type": "Feature",
            "geometry": {
                "type": "Polygon",
                "coordinates": [
                    [
                        [
                            "-95.73",
                            "47.70"
                        ],
                        [
                            "-92.48",
                            "47.28"
                        ],
                        [
                            "-91.06",
                            "46.53"
                        ],
                        [
                            "-90.64",
                            "45.69"
                        ],
                        [
                            "-90.69",
                            "44.36"
                        ],
                        [
                            "-91.85",
                            "43.93"
                        ],
                        [
                            "-94.24",
                            "44.23"
                        ],
                        [
                            "-96.30",
                            "43.89"
                        ],
                        [
                            "-97.97",
                            "42.67"
                        ],
                        [
                            "-97.71",
                            "41.89"
                        ],
                        [
                            "-97.58",
                            "40.76"
                        ],
                        [
                            "-98.11",
                            "40.25"
                        ],
                        [
                            "-99.14",
                            "40.24"
                        ],
                        [
                            "-100.27",
                            "40.54"
                        ],
                        [
                            "-101.26",
                            "41.32"
                        ],
                        [
                            "-101.98",
                            "42.24"
                        ],
                        [
                            "-101.97",
                            "43.45"
                        ],
                        [
                            "-101.69",
                            "44.10"
                        ],
                        [
                            "-101.07",
                            "45.33"
                        ],
                        [
                            "-100.27",
                            "46.02"
                        ],
                        [
                            "-99.01",
                            "46.84"
                        ],
                        [
                            "-97.26",
                            "47.46"
                        ],
                        [
                            "-95.73",
                            "47.70"
                        ]
                    ]
                ]
            },
            "properties": {
                "forecastId": null,
                "geometryId": null,
                "tag": "4W",
                "forecastHour": 0,
                "hazard": "TURB-HI",
                "frequency": null,
                "severity": "MOD",
                "status": "NRML",
                "base": "280",
                "top": "420",
                "fzlBase": null,
                "fzlTop": null,
                "level": null,
                "product": "TANGO",
                "rawAirSigmet": null,
                "validTimeTo": "2026-08-14T15:00:00.000",
                "validTimeFrom": [
                    "2026-08-14T14:45"
                ]
            }
        }
    ],
    "metadata": {
        "creationTime": "2026-08-14T14:59"
    }
}