{
    "type": "FeatureCollection",
    "features": [
        {
            "type": "Feature",
            "geometry": {
                "type": "LineString",
                "coordinates": [
                    [
                        "-92.10",
                        "61.23"
                    ],
                    [
                        "-90.59",
                        "60.78"
                    ],
                    [
                        "-89.11",
                        "60.32"
                    ],
                    [
                        "-88.00",
                        "60.06"
                    ],
                    [
                        "-87.61",
                        "59.97"
                    ],
                    [
                        "-87.13",
                        "59.92"
                    ],
                    [
                        "-85.97",
                        "59.86"
                    ],
                    [
                        "-84.09",
                        "60.25"
                    ],
                    [
                        "-83.87",
                        "60.35"
                    ]
                ]
            },
            "properties": {
                "forecastId": null,
                "geometryId": null,
                "tag": "1C",
                "forecastHour": 0,
                "hazard": "FZLVL",
                "frequency": null,
                "severity": null,
                "status": "NRML",
                "base": null,
                "top": null,
                "fzlBase": null,
                "fzlTop": null,
                "level": "040",
                "product": "ZULU",
                "rawAirSigmet": null,
                "validTimeTo": "2026-09-11T03:00:00.000",
                "validTimeFrom": [
                    "2026-09-11T02:45"
                ]
            }
        },
        {
            "type": "Feature",
            "geometry": {
                "type": "Polygon",
                "coordinates": [
                    [
                        [
                            "-82.26",
                            "44.29"
                        ],
                        [
                            "-81.86",
                            "43.35"
                        ],
                        [
                            "-82.97",
                            "42.52"
                        ],
                        [
                            "-86.35",
                            "41.38"
                        ],
                        [
                            "-89.90",
                            "40.36"
                        ],
                        [
                            "-92.41",
                            "38.93"
                        ],
                        [
                            "-93.97",
                            "38.32"
                        ],
                        [
                            "-95.66",
                            "37.56"
                        ],
                        [
                            "-97.04",
                            "37.12"
                        ],
                        [
                            "-96.88",
                            "37.57"
                        ],
                        [
                            "-96.01",
                            "38.54"
                        ],
                        [
                            "-95.04",
                            "39.54"
                        ],
                        [
                            "-91.86",
                            "41.20"
                        ],
                        [
                            "-89.05",
                            "42.21"
                        ],
                        [
                            "-84.24",
                            "43.89"
                        ],
                        [
                            "-82.26",
                            "44.29"
                        ]
                    ]
                ]
            },
            "properties": {
                "forecastId": null,
                "geometryId": null,
                "tag": "2W",
                "forecastHour": 0,
                "hazard": "TURB-HI",
                "frequency": null,
                "severity": "MOD",
                "status": "NRML",
                "base": "260",
                "top": "430",
                "fzlBase": null,
                "fzlTop": null,
                "level": null,
                "product": "TANGO",
                "rawAirSigmet": null,
                "validTimeTo": "2026-09-11T03:00:00.000",
                "validTimeFrom": [
                    "2026-09-11T02:45"
                ]
            }
        },
        {
            "type": "Feature",
            "geometry": {
                "type": "Polygon",
                "coordinates": [
                    [
                        [
                            "-110.87",
                            "44.96"
                        ],
                        [
                            "-110.29",
                            "44.89"
                        ],
                        [
                            "-109.61",
                            "44.75"
                        ],
                        [
                            "-109.78",
                            "44.06"
                        ],
                        [
                            "-109.32",
                            "43.68"
                        ],
                        [
                            "-108.73",
                            "43.11"
                        ],
                        [
                            "-109.33",
                            "42.91"
                        ],
                        [
                            "-110.44",
                            "42.97"
                        ],
                        [
                            "-111.61",
                            "43.18"
                        ],
                        [
                            "-113.20",
                            "43.17"
                        ],
                        [
                            "-113.43",
                            "43.62"
                        ],
                        [
                            "-113.00",
                            "44.03"
                        ],
                        [
                            "-111.86",
                            "44.01"
                        ],
                        [
                            "-111.33",
                            "44.71"
                        ],
                        [
                            "-110.87",
                            "44.96"
                        ]
                    ]
                ]
            },
            "properties": {
                "forecastId": null,
                "geometryId": null,
                "tag": "1W",
                "forecastHour": 0,
                "hazard": "TURB-LO",
                "frequency": null,
                "severity": "MOD",
                "status": "NRML",
                "base": "SFC",
                "top": "140",
                "fzlBase": null,
                "fzlTop": null,
                "level": null,
                "product": "TANGO",
                "rawAirSigmet": null,
                "validTimeTo": "2026-09-11T03:00:00.000",
                "validTimeFrom": [
                    "2026-09-11T02:45"
                ]
            }
        },
        {
            "type": "Feature",
            "geometry": {
                "type": "Polygon",
                "coordinates": [
                    [
                        [
                            "-90.19",
                            "32.15"
                        ],
                        [
                            "-90.63",
                            "31.38"
                        ],
                        [
                            "-90.11",
                            "30.49"
                        ],
                        [
                            "-88.63",
                            "29.57"
                        ],
                        [
                            "-88.33",
                            "28.66"
                        ],
                        [
                            "-88.65",
                            "27.48"
                        ],
                        [
                            "-89.41",
                            "26.74"
                        ],
                        [
                            "-90.31",
                            "26.64"
                        ],
                        [
                            "-91.54",
                            "26.81"
                        ],
                        [
                            "-92.90",
                            "27.44"
                        ],
                        [
                            "-93.18",
                            "29.02"
                        ],
                        [
                            "-93.38",
                            "29.67"
                        ],
                        [
                            "-93.77",
                            "30.14"
                        ],
                        [
                            "-94.51",
                            "30.31"
                        ],
                        [
                            "-95.60",
                            "29.42"
                        ],
                        [
                            "-95.81",
                            "28.42"
                        ],
                        [
                            "-95.52",
                            "27.56"
                        ],
                        [
                            "-94.72",
                            "26.36"
                        ],
                        [
                            "-94.81",
                            "25.78"
                        ],
                        [
                            "-95.57",
                            "25.02"
                        ],
                        [
                            "-96.55",
                            "24.00"
                        ],
                        [
                            "-96.62",
                            "23.60"
                        ],
                        [
                            "-96.15",
                            "22.86"
                        ],
                        [
                            "-95.10",
                            "22.50"
                        ],
                        [
                            "-94.32",
                            "22.82"
                        ],
                        [
                            "-92.65",
                            "23.67"
                        ],
                        [
                            "-91.09",
                            "24.05"
                        ],
                        [
                            "-89.57",
                            "24.70"
                        ],
                        [
                            "-87.48",
                            "24.21"
                        ],
                        [
                            "-86.31",
                            "25.33"
                        ],
                        [
                            "-85.22",
                            "27.03"
                        ],
                        [
                            "-84.26",
                            "29.33"
                        ],
                        [
                            "-84.43",
                            "30.20"
                        ],
                        [
                            "-85.02",
                            "30.67"
                        ],
                        [
                            "-86.27",
                            "31.09"
                        ],
                        [
                            "-87.53",
                            "31.79"
                        ],
                        [
                            "-89.28",
                            "32.44"
                        ],
                        [
                            "-90.19",
                            "32.15"
                        ]
                    ]
                ]
            },
            "properties": {
                "forecastId": null,
                "geometryId": null,
                "tag": "1C",
                "forecastHour": 0,
                "hazard": "FZLVL",
                "frequency": null,
                "severity": null,
                "status": "NRML",
                "base": null,
                "top": null,
                "fzlBase": null,
                "fzlTop": null,
                "level": "160",
                "product": "ZULU",
                "rawAirSigmet": null,
                "validTimeTo": "2026-09-11T03:00:00.000",
                "validTimeFrom": [
                    "2026-09-11T02:45"
                ]
            }
        },
        {
            "type": "Feature",
            "geometry": {
                "type": "Polygon",
                "coordinates": [
                    [
                        [
                            "-111.49",
                            "44.37"
                        ],
                        [
                            "-110.31",
                            "43.91"
                        ],
                        [
                            "-110.40",
                            "43.23"
                        ],
                        [
                            "-111.19",
                            "43.02"
                        ],
                        [
                            "-111.48",
                            "41.90"
                        ],
                        [
                            "-111.88",
                            "41.70"
                        ],
                        [
                            "-113.30",
                            "41.24"
                        ],
                        [
                            "-113.45",
                            "40.77"
                        ],
                        [
                            "-114.01",
                            "39.70"
                        ],
                        [
                            "-114.38",
                            "38.71"
                        ],
                        [
                            "-114.92",
                            "38.39"
                        ],
                        [
                            "-115.96",
                            "37.59"
                        ],
                        [
                            "-116.60",
                            "36.57"
                        ],
                        [
                            "-117.33",
                            "37.07"
                        ],
                        [
                            "-117.47",
                            "38.29"
                        ],
                        [
                            "-116.85",
                            "39.63"
                        ],
                        [
                            "-116.33",
                            "40.03"
                        ],
                        [
                            "-116.04",
                            "41.06"
                        ],
                        [
                            "-117.01",
                            "41.38"
                        ],
                        [
                            "-117.60",
                            "41.12"
                        ],
                        [
                            "-118.16",
                            "40.53"
                        ],
                        [
                            "-118.99",
                            "40.64"
                        ],
                        [
                            "-119.42",
                            "40.90"
                        ],
                        [
                            "-119.51",
                            "41.36"
                        ],
                        [
                            "-117.89",
                            "42.79"
                        ],
                        [
                            "-115.69",
                            "42.72"
                        ],
                        [
                            "-113.19",
                            "43.58"
                        ],
                        [
                            "-111.49",
                            "44.37"
                        ]
                    ]
                ]
            },
            "properties": {
                "forecastId": null,
                "geometryId": null,
                "tag": "2C",
                "forecastHour": 0,
                "hazard": "ICE",
                "frequency": null,
                "severity": "MOD",
                "status": "NRML",
                "base": "140",
                "top": "250",
                "fzlBase": null,
                "fzlTop": null,
                "level": null,
                "product": "ZULU",
                "rawAirSigmet": "ICE",
                "validTimeTo": "2026-09-11T03:00:00.000",
                "validTimeFrom": [
                    "2026-09-11T02:45"
                ]
            }
        },
        {
            "type": "Feature",
            "geometry": {
                "type": "Polygon",
                "coordinates": [
                    [
                        [
                            "-80.11",
                            "40.36"
                        ],
                        [
                            "-78.82",
                            "40.19"
                        ],
                        [
                            "-78.54",
                            "39.25"
                        ],
                        [
                            "-79.10",
                            "38.02"
                        ],
                        [
                            "-79.69",
                            "37.68"
                        ],
                        [
                            "-80.42",
                            "37.63"
                        ],
                        [
                            "-83.49",
                            "36.40"
                        ],
                        [
                            "-84.38",
                            "36.86"
                        ],
                        [
                            "-83.92",
                            "37.83"
                        ],
                        [
                            "-83.13",
                            "39.12"
                        ],
                        [
                            "-81.65",
                            "39.98"
                        ],
                        [
                            "-80.11",
                            "40.36"
                        ]
                    ]
                ]
            },
            "properties": {
                "forecastId": null,
                "geometryId": null,
                "tag": "7E",
                "forecastHour": 0,
                "hazard": "IFR",
                "frequency": null,
                "severity": null,
                "status": "NRML",
                "base": null,
                "top": null,
                "fzlBase": null,
                "fzlTop": null,
                "level": null,
                "product": "SIERRA",
                "rawAirSigmet": "CIG BLW 010 VIS BLW 3SM PCPN BR",
                "validTimeTo": "2026-09-11T03:00:00.000",
                "validTimeFrom": [
                    "2026-09-11T02:45"
                ]
            }
        },
        {
            "type": "Feature",
            "geometry": {
                "type": "Polygon",
                "coordinates": [
                    [
                        [
                            "-133.61",
                            "26.26"
                        ],
                        [
                            "-133.79",
                            "25.90"
                        ],
                        [
                            "-133.88",
                            "25.41"
                        ],
                        [
                            "-133.72",
                            "24.78"
                        ],
                        [
                            "-132.94",
                            "24.47"
                        ],
                        [
                            "-132.38",
                            "24.83"
                        ],
                        [
                            "-131.90",
                            "25.35"
                        ],
                        [
                            "-131.69",
                            "25.74"
                        ],
                        [
                            "-131.71",
                            "26.41"
                        ],
                        [
                            "-131.72",
                            "26.44"
                        ],
                        [
                            "-131.73",
                            "26.45"
                        ],
                        [
                            "-132.36",
                            "26.86"
                        ],
                        [
                            "-132.74",
                            "26.82"
                        ],
                        [
                            "-133.37",
                            "26.52"
                        ],
                        [
                            "-133.61",
                            "26.26"
                        ]
                    ]
                ]
            },
            "properties": {
                "forecastId": null,
                "geometryId": null,
                "tag": "1C",
                "forecastHour": 0,
                "hazard": "FZLVL",
                "frequency": null,
                "severity": null,
                "status": "NRML",
                "base": null,
                "top": null,
                "fzlBase": null,
                "fzlTop": null,
                "level": "160",
                "product": "ZULU",
                "rawAirSigmet": null,
                "validTimeTo": "2026-09-11T03:00:00.000",
                "validTimeFrom": [
                    "2026-09-11T02:45"
                ]
            }
        },
        {
            "type": "Feature",
            "geometry": {
                "type": "LineString",
                "coordinates": [
                    [
                        "-137.28",
                        "27.45"
                    ],
                    [
                        "-136.66",
                        "28.47"
                    ],
                    [
                        "-136.46",
                        "29.89"
                    ],
                    [
                        "-136.54",
                        "31.52"
                    ],
                    [
                        "-136.91",
                        "33.00"
                    ],
                    [
                        "-137.48",
                        "34.07"
                    ],
                    [
                        "-138.35",
                        "35.64"
                    ],
                    [
                        "-138.41",
                        "36.26"
                    ],
                    [
                        "-137.98",
                        "36.81"
                    ],
                    [
                        "-136.32",
                        "37.59"
                    ],
                    [
                        "-135.07",
                        "37.73"
                    ],
                    [
                        "-132.35",
                        "37.77"
                    ],
                    [
                        "-125.73",
                        "38.10"
                    ],
                    [
                        "-124.09",
                        "37.94"
                    ],
                    [
                        "-122.93",
                        "37.28"
                    ],
                    [
                        "-122.13",
                        "36.36"
                    ],
                    [
                        "-121.14",
                        "36.14"
                    ],
                    [
                        "-118.44",
                        "37.73"
                    ],
                    [
                        "-114.84",
                        "38.91"
                    ],
                    [
                        "-111.75",
                        "39.64"
                    ],
                    [
                        "-108.31",
                        "40.31"
                    ],
                    [
                        "-107.34",
                        "40.89"
                    ],
                    [
                        "-106.53",
                        "42.06"
                    ],
                    [
                        "-103.56",
                        "43.45"
                    ],
                    [
                        "-102.43",
                        "44.07"
                    ],
                    [
                        "-101.30",
                        "44.30"
                    ],
                    [
                        "-100.05",
                        "44.34"
                    ],
                    [
                        "-98.31",
                        "44.04"
                    ],
                    [
                        "-97.32",
                        "43.63"
                    ],
                    [
                        "-95.83",
                        "42.57"
                    ],
                    [
                        "-94.40",
                        "41.75"
                    ],
                    [
                        "-93.56",
                        "41.15"
                    ],
                    [
                        "-93.65",
                        "40.48"
                    ],
                    [
                        "-94.92",
                        "39.83"
                    ],
                    [
                        "-96.04",
                        "39.60"
                    ],
                    [
                        "-97.40",
                        "39.11"
                    ],
                    [
                        "-98.22",
                        "38.68"
                    ],
                    [
                        "-99.19",
                        "37.78"
                    ],
                    [
                        "-100.24",
                        "36.82"
                    ],
                    [
                        "-100.65",
                        "36.42"
                    ],
                    [
                        "-100.88",
                        "35.51"
                    ],
                    [
                        "-99.70",
                        "34.53"
                    ],
                    [
                        "-98.82",
                        "34.92"
                    ],
                    [
                        "-97.82",
                        "35.55"
                    ],
                    [
                        "-96.88",
                        "35.40"
                    ],
                    [
                        "-96.28",
                        "34.89"
                    ],
                    [
                        "-95.53",
                        "34.16"
                    ],
                    [
                        "-95.09",
                        "34.08"
                    ],
                    [
                        "-93.33",
                        "34.37"
                    ],
                    [
                        "-92.25",
                        "34.97"
                    ],
                    [
                        "-91.22",
                        "35.60"
                    ],
                    [
                        "-89.83",
                        "35.99"
                    ],
                    [
                        "-86.81",
                        "36.39"
                    ],
                    [
                        "-84.72",
                        "37.27"
                    ],
                    [
                        "-83.47",
                        "37.68"
                    ],
                    [
                        "-82.00",
                        "37.96"
                    ],
                    [
                        "-80.40",
                        "38.03"
                    ],
                    [
                        "-78.64",
                        "37.91"
                    ],
                    [
                        "-73.36",
                        "38.03"
                    ],
                    [
                        "-70.10",
                        "38.68"
                    ],
                    [
                        "-68.57",
                        "38.94"
                    ],
                    [
                        "-67.12",
                        "38.85"
                    ],
                    [
                        "-65.29",
                        "38.59"
                    ],
                    [
                        "-63.87",
                        "38.60"
                    ],
                    [
                        "-61.70",
                        "38.33"
                    ],
                    [
                        "-58.50",
                        "37.04"
                    ],
                    [
                        "-57.14",
                        "36.64"
                    ],
                    [
                        "-55.42",
                        "35.56"
                    ],
                    [
                        "-54.36",
                        "34.33"
                    ],
                    [
                        "-53.15",
                        "33.30"
                    ],
                    [
                        "-51.25",
                        "32.88"
                    ]
                ]
            },
            "properties": {
                "forecastId": null,
                "geometryId": null,
                "tag": "1C",
                "forecastHour": 0,
                "hazard": "FZLVL",
                "frequency": null,
                "severity": null,
                "status": "NRML",
                "base": null,
                "top": null,
                "fzlBase": null,
                "fzlTop": null,
                "level": "160",
                "product": "ZULU",
                "rawAirSigmet": null,
                "validTimeTo": "2026-09-11T03:00:00.000",
                "validTimeFrom": [
                    "2026-09-11T02:45"
                ]
            }
        },
        {
            "type": "Feature",
            "geometry": {
                "type": "Polygon",
                "coordinates": [
                    [
                        [
                            "-80.16",
                            "54.99"
                        ],
                        [
                            "-80.72",
                            "54.26"
                        ],
                        [
                            "-80.69",
                            "54.04"
                        ],
                        [
                            "-80.34",
                            "53.29"
                        ],
                        [
                            "-80.06",
                            "52.97"
                        ],
                        [
                            "-79.23",
                            "52.19"
                        ],
                        [
                            "-79.03",
                            "52.05"
                        ],
                        [
                            "-78.30",
                            "51.59"
                        ],
                        [
                            "-77.29",
                            "51.12"
                        ],
                        [
                            "-76.19",
                            "50.76"
                        ],
                        [
                            "-75.04",
                            "50.48"
                        ],
                        [
                            "-73.92",
                            "50.31"
                        ],
                        [
                            "-73.79",
                            "50.31"
                        ],
                        [
                            "-72.30",
                            "50.57"
                        ],
                        [
                            "-71.51",
                            "51.18"
                        ],
                        [
                            "-71.92",
                            "52.17"
                        ],
                        [
                            "-72.13",
                            "52.36"
                        ],
                        [
                            "-72.86",
                            "52.73"
                        ],
                        [
                            "-73.92",
                            "53.19"
                        ],
                        [
                            "-75.02",
                            "53.63"
                        ],
                        [
                            "-76.12",
                            "54.10"
                        ],
                        [
                            "-77.19",
                            "54.61"
                        ],
                        [
                            "-78.30",
                            "55.10"
                        ],
                        [
                            "-79.82",
                            "55.13"
                        ],
                        [
                            "-80.16",
                            "54.99"
                        ]
                    ]
                ]
            },
            "properties": {
                "forecastId": null,
                "geometryId": null,
                "tag": "1C",
                "forecastHour": 0,
                "hazard": "FZLVL",
                "frequency": null,
                "severity": null,
                "status": "NRML",
                "base": null,
                "top": null,
                "fzlBase": null,
                "fzlTop": null,
                "level": "040",
                "product": "ZULU",
                "rawAirSigmet": null,
                "validTimeTo": "2026-09-11T03:00:00.000",
                "validTimeFrom": [
                    "2026-09-11T02:45"
                ]
            }
        },
        {
            "type": "Feature",
            "geometry": {
                "type": "LineString",
                "coordinates": [
                    [
                        "-140.21",
                        "51.38"
                    ],
                    [
                        "-139.46",
                        "50.50"
                    ],
                    [
                        "-138.08",
                        "49.33"
                    ],
                    [
                        "-136.78",
                        "48.60"
                    ],
                    [
                        "-135.60",
                        "48.14"
                    ],
                    [
                        "-133.79",
                        "47.63"
                    ],
                    [
                        "-130.00",
                        "46.38"
                    ],
                    [
                        "-128.73",
                        "46.04"
                    ],
                    [
                        "-127.40",
                        "45.86"
                    ],
                    [
                        "-125.35",
                        "45.80"
                    ],
                    [
                        "-122.83",
                        "45.97"
                    ],
                    [
                        "-121.00",
                        "46.28"
                    ],
                    [
                        "-117.78",
                        "46.64"
                    ],
                    [
                        "-116.12",
                        "46.89"
                    ],
                    [
                        "-114.55",
                        "47.27"
                    ],
                    [
                        "-105.59",
                        "49.37"
                    ],
                    [
                        "-103.14",
                        "50.07"
                    ],
                    [
                        "-101.22",
                        "50.84"
                    ],
                    [
                        "-99.34",
                        "51.63"
                    ],
                    [
                        "-97.33",
                        "52.03"
                    ],
                    [
                        "-96.40",
                        "52.08"
                    ],
                    [
                        "-94.61",
                        "51.88"
                    ],
                    [
                        "-93.43",
                        "51.49"
                    ],
                    [
                        "-92.13",
                        "50.78"
                    ],
                    [
                        "-90.49",
                        "49.72"
                    ],
                    [
                        "-89.61",
                        "49.26"
                    ],
                    [
                        "-87.93",
                        "48.68"
                    ],
                    [
                        "-85.41",
                        "48.17"
                    ],
                    [
                        "-82.56",
                        "47.38"
                    ],
                    [
                        "-79.66",
                        "46.29"
                    ],
                    [
                        "-76.66",
                        "45.41"
                    ],
                    [
                        "-72.52",
                        "44.48"
                    ],
                    [
                        "-70.95",
                        "44.40"
                    ],
                    [
                        "-69.83",
                        "44.51"
                    ],
                    [
                        "-67.99",
                        "44.84"
                    ],
                    [
                        "-66.32",
                        "45.10"
                    ],
                    [
                        "-64.09",
                        "45.03"
                    ],
                    [
                        "-61.74",
                        "45.00"
                    ],
                    [
                        "-59.33",
                        "45.33"
                    ],
                    [
                        "-55.52",
                        "45.88"
                    ],
                    [
                        "-53.07",
                        "46.16"
                    ],
                    [
                        "-51.47",
                        "45.95"
                    ],
                    [
                        "-49.80",
                        "45.55"
                    ],
                    [
                        "-48.22",
                        "45.45"
                    ],
                    [
                        "-46.38",
                        "45.25"
                    ],
                    [
                        "-44.70",
                        "44.69"
                    ]
                ]
            },
            "properties": {
                "forecastId": null,
                "geometryId": null,
                "tag": "1C",
                "forecastHour": 0,
                "hazard": "FZLVL",
                "frequency": null,
                "severity": null,
                "status": "NRML",
                "base": null,
                "top": null,
                "fzlBase": null,
                "fzlTop": null,
                "level": "120",
                "product": "ZULU",
                "rawAirSigmet": null,
                "validTimeTo": "2026-09-11T03:00:00.000",
                "validTimeFrom": [
                    "2026-09-11T02:45"
                ]
            }
        },
        {
            "type": "Feature",
            "geometry": {
                "type": "Polygon",
                "coordinates": [
                    [
                        [
                            "-80.38",
                            "40.51"
                        ],
                        [
                            "-78.82",
                            "40.40"
                        ],
                        [
                            "-79.15",
                            "39.32"
                        ],
                        [
                            "-80.54",
                            "37.59"
                        ],
                        [
                            "-83.38",
                            "36.32"
                        ],
                        [
                            "-84.44",
                            "37.05"
                        ],
                        [
                            "-82.01",
                            "38.79"
                        ],
                        [
                            "-80.38",
                            "40.51"
                        ]
                    ]
                ]
            },
            "properties": {
                "forecastId": null,
                "geometryId": null,
                "tag": "3E",
                "forecastHour": 0,
                "hazard": "MT_OBSC",
                "frequency": null,
                "severity": null,
                "status": "NRML",
                "base": null,
                "top": null,
                "fzlBase": null,
                "fzlTop": null,
                "level": null,
                "product": "SIERRA",
                "rawAirSigmet": "MTNS OBSC BY CLDS PCPN BR",
                "validTimeTo": "2026-09-11T03:00:00.000",
                "validTimeFrom": [
                    "2026-09-11T02:45"
                ]
            }
        },
        {
            "type": "Feature",
            "geometry": {
                "type": "Polygon",
                "coordinates": [
                    [
                        [
                            "-114.73",
                            "23.59"
                        ],
                        [
                            "-114.32",
                            "23.04"
                        ],
                        [
                            "-113.91",
                            "22.74"
                        ],
                        [
                            "-113.60",
                            "22.53"
                        ],
                        [
                            "-113.18",
                            "22.33"
                        ],
                        [
                            "-112.53",
                            "22.06"
                        ],
                        [
                            "-112.48",
                            "22.04"
                        ],
                        [
                            "-111.81",
                            "21.90"
                        ],
                        [
                            "-111.15",
                            "21.81"
                        ],
                        [
                            "-110.51",
                            "21.87"
                        ],
                        [
                            "-109.90",
                            "22.30"
                        ],
                        [
                            "-109.88",
                            "22.33"
                        ],
                        [
                            "-109.90",
                            "22.39"
                        ],
                        [
                            "-110.15",
                            "22.91"
                        ],
                        [
                            "-110.67",
                            "23.41"
                        ],
                        [
                            "-110.74",
                            "23.47"
                        ],
                        [
                            "-111.39",
                            "23.83"
                        ],
                        [
                            "-111.71",
                            "23.99"
                        ],
                        [
                            "-112.10",
                            "24.11"
                        ],
                        [
                            "-112.81",
                            "24.28"
                        ],
                        [
                            "-113.51",
                            "24.35"
                        ],
                        [
                            "-114.17",
                            "24.25"
                        ],
                        [
                            "-114.73",
                            "23.59"
                        ]
                    ]
                ]
            },
            "properties": {
                "forecastId": null,
                "geometryId": null,
                "tag": "1C",
                "forecastHour": 0,
                "hazard": "FZLVL",
                "frequency": null,
                "severity": null,
                "status": "NRML",
                "base": null,
                "top": null,
                "fzlBase": null,
                "fzlTop": null,
                "level": "160",
                "product": "ZULU",
                "rawAirSigmet": null,
                "validTimeTo": "2026-09-11T03:00:00.000",
                "validTimeFrom": [
                    "2026-09-11T02:45"
                ]
            }
        },
        {
            "type": "Feature",
            "geometry": {
                "type": "Polygon",
                "coordinates": [
                    [
                        [
                            "-90.59",
                            "40.99"
                        ],
                        [
                            "-89.92",
                            "40.83"
                        ],
                        [
                            "-89.70",
                            "39.86"
                        ],
                        [
                            "-90.45",
                            "39.51"
                        ],
                        [
                            "-90.91",
                            "39.30"
                        ],
                        [
                            "-92.31",
                            "38.76"
                        ],
                        [
                            "-93.38",
                            "38.75"
                        ],
                        [
                            "-93.27",
                            "39.40"
                        ],
                        [
                            "-90.59",
                            "40.99"
                        ]
                    ]
                ]
            },
            "properties": {
                "forecastId": null,
                "geometryId": null,
                "tag": "7E",
                "forecastHour": 0,
                "hazard": "IFR",
                "frequency": null,
                "severity": null,
                "status": "NRML",
                "base": null,
                "top": null,
                "fzlBase": null,
                "fzlTop": null,
                "level": null,
                "product": "SIERRA",
                "rawAirSigmet": "CIG BLW 010 VIS BLW 3SM BR FG",
                "validTimeTo": "2026-09-11T03:00:00.000",
                "validTimeFrom": [
                    "2026-09-11T02:45"
                ]
            }
        },
        {
            "type": "Feature",
            "geometry": {
                "type": "Polygon",
                "coordinates": [
                    [
                        [
                            "-124.10",
                            "42.03"
                        ],
                        [
                            "-123.91",
                            "41.62"
                        ],
                        [
                            "-124.00",
                            "40.32"
                        ],
                        [
                            "-123.69",
                            "39.08"
                        ],
                        [
                            "-122.83",
                            "38.18"
                        ],
                        [
                            "-122.34",
                            "37.75"
                        ],
                        [
                            "-121.67",
                            "35.91"
                        ],
                        [
                            "-121.91",
                            "35.72"
                        ],
                        [
                            "-122.74",
                            "35.22"
                        ],
                        [
                            "-123.66",
                            "35.01"
                        ],
                        [
                            "-126.73",
                            "39.45"
                        ],
                        [
                            "-125.88",
                            "39.49"
                        ],
                        [
                            "-124.80",
                            "39.91"
                        ],
                        [
                            "-125.12",
                            "41.73"
                        ],
                        [
                            "-124.10",
                            "42.03"
                        ]
                    ]
                ]
            },
            "properties": {
                "forecastId": null,
                "geometryId": null,
                "tag": "3E",
                "forecastHour": 0,
                "hazard": "IFR",
                "frequency": null,
                "severity": null,
                "status": "NRML",
                "base": null,
                "top": null,
                "fzlBase": null,
                "fzlTop": null,
                "level": null,
                "product": "SIERRA",
                "rawAirSigmet": "CIG BLW 010 VIS BLW 3SM BR FG",
                "validTimeTo": "2026-09-11T03:00:00.000",
                "validTimeFrom": [
                    "2026-09-11T02:45"
                ]
            }
        },
        {
            "type": "Feature",
            "geometry": {
                "type": "Polygon",
                "coordinates": [
                    [
                        [
                            "-82.74",
                            "28.24"
                        ],
                        [
                            "-83.09",
                            "27.67"
                        ],
                        [
                            "-83.28",
                            "27.05"
                        ],
                        [
                            "-83.37",
                            "26.40"
                        ],
                        [
                            "-83.17",
                            "25.90"
                        ],
                        [
                            "-82.99",
                            "25.59"
                        ],
                        [
                            "-82.68",
                            "25.32"
                        ],
                        [
                            "-82.05",
                            "25.07"
                        ],
                        [
                            "-81.77",
                            "25.13"
                        ],
                        [
                            "-81.19",
                            "25.29"
                        ],
                        [
                            "-80.91",
                            "25.47"
                        ],
                        [
                            "-80.32",
                            "25.92"
                        ],
                        [
                            "-79.86",
                            "26.41"
                        ],
                        [
                            "-79.85",
                            "26.42"
                        ],
                        [
                            "-79.83",
                            "26.47"
                        ],
                        [
                            "-79.64",
                            "27.03"
                        ],
                        [
                            "-80.00",
                            "27.65"
                        ],
                        [
                            "-80.58",
                            "28.06"
                        ],
                        [
                            "-81.23",
                            "28.37"
                        ],
                        [
                            "-81.97",
                            "28.48"
                        ],
                        [
                            "-82.74",
                            "28.24"
                        ]
                    ]
                ]
            },
            "properties": {
                "forecastId": null,
                "geometryId": null,
                "tag": "1C",
                "forecastHour": 0,
                "hazard": "FZLVL",
                "frequency": null,
                "severity": null,
                "status": "NRML",
                "base": null,
                "top": null,
                "fzlBase": null,
                "fzlTop": null,
                "level": "160",
                "product": "ZULU",
                "rawAirSigmet": null,
                "validTimeTo": "2026-09-11T03:00:00.000",
                "validTimeFrom": [
                    "2026-09-11T02:45"
                ]
            }
        },
        {
            "type": "Feature",
            "geometry": {
                "type": "Polygon",
                "coordinates": [
                    [
                        [
                            "-69.11",
                            "47.55"
                        ],
                        [
                            "-68.89",
                            "47.21"
                        ],
                        [
                            "-68.22",
                            "47.33"
                        ],
                        [
                            "-67.86",
                            "47.08"
                        ],
                        [
                            "-67.80",
                            "45.72"
                        ],
                        [
                            "-67.31",
                            "45.26"
                        ],
                        [
                            "-68.38",
                            "44.89"
                        ],
                        [
                            "-69.38",
                            "44.65"
                        ],
                        [
                            "-71.40",
                            "44.30"
                        ],
                        [
                            "-74.27",
                            "43.69"
                        ],
                        [
                            "-76.28",
                            "42.96"
                        ],
                        [
                            "-78.58",
                            "42.21"
                        ],
                        [
                            "-80.46",
                            "41.35"
                        ],
                        [
                            "-81.07",
                            "42.18"
                        ],
                        [
                            "-79.02",
                            "42.74"
                        ],
                        [
                            "-78.95",
                            "43.75"
                        ],
                        [
                            "-77.08",
                            "43.77"
                        ],
                        [
                            "-74.99",
                            "45.09"
                        ],
                        [
                            "-70.90",
                            "45.32"
                        ],
                        [
                            "-70.28",
                            "45.95"
                        ],
                        [
                            "-70.01",
                            "46.76"
                        ],
                        [
                            "-69.11",
                            "47.55"
                        ]
                    ]
                ]
            },
            "properties": {
                "forecastId": null,
                "geometryId": null,
                "tag": "1W",
                "forecastHour": 0,
                "hazard": "TURB-HI",
                "frequency": null,
                "severity": "MOD",
                "status": "NRML",
                "base": "200",
                "top": "390",
                "fzlBase": null,
                "fzlTop": null,
                "level": null,
                "product": "TANGO",
                "rawAirSigmet": null,
                "validTimeTo": "2026-09-11T03:00:00.000",
                "validTimeFrom": [
                    "2026-09-11T02:45"
                ]
            }
        },
        {
            "type": "Feature",
            "geometry": {
                "type": "LineString",
                "coordinates": [
                    [
                        "-133.42",
                        "54.84"
                    ],
                    [
                        "-130.17",
                        "53.14"
                    ],
                    [
                        "-128.21",
                        "52.28"
                    ],
                    [
                        "-126.40",
                        "51.91"
                    ],
                    [
                        "-122.25",
                        "51.74"
                    ],
                    [
                        "-119.89",
                        "51.55"
                    ],
                    [
                        "-118.50",
                        "51.67"
                    ],
                    [
                        "-117.17",
                        "52.05"
                    ],
                    [
                        "-113.43",
                        "53.15"
                    ],
                    [
                        "-108.42",
                        "54.51"
                    ],
                    [
                        "-107.08",
                        "54.84"
                    ],
                    [
                        "-105.39",
                        "55.72"
                    ],
                    [
                        "-103.89",
                        "56.91"
                    ],
                    [
                        "-102.69",
                        "58.28"
                    ],
                    [
                        "-102.27",
                        "58.84"
                    ],
                    [
                        "-101.18",
                        "59.25"
                    ],
                    [
                        "-100.16",
                        "59.58"
                    ],
                    [
                        "-99.19",
                        "59.64"
                    ],
                    [
                        "-97.50",
                        "59.69"
                    ],
                    [
                        "-95.54",
                        "59.58"
                    ],
                    [
                        "-92.06",
                        "58.92"
                    ],
                    [
                        "-87.43",
                        "57.48"
                    ],
                    [
                        "-86.68",
                        "57.16"
                    ],
                    [
                        "-85.73",
                        "56.40"
                    ],
                    [
                        "-85.40",
                        "55.35"
                    ],
                    [
                        "-85.06",
                        "54.13"
                    ],
                    [
                        "-84.29",
                        "52.90"
                    ],
                    [
                        "-81.88",
                        "50.43"
                    ],
                    [
                        "-81.10",
                        "49.83"
                    ],
                    [
                        "-79.09",
                        "48.72"
                    ],
                    [
                        "-77.70",
                        "48.05"
                    ],
                    [
                        "-75.33",
                        "47.29"
                    ],
                    [
                        "-71.87",
                        "46.48"
                    ],
                    [
                        "-70.92",
                        "46.37"
                    ],
                    [
                        "-69.90",
                        "46.55"
                    ],
                    [
                        "-68.60",
                        "47.03"
                    ],
                    [
                        "-66.97",
                        "47.98"
                    ],
                    [
                        "-65.26",
                        "48.73"
                    ],
                    [
                        "-64.34",
                        "49.04"
                    ],
                    [
                        "-63.93",
                        "49.57"
                    ],
                    [
                        "-64.34",
                        "50.69"
                    ],
                    [
                        "-64.59",
                        "51.83"
                    ],
                    [
                        "-64.89",
                        "52.69"
                    ],
                    [
                        "-65.38",
                        "53.28"
                    ],
                    [
                        "-68.88",
                        "55.86"
                    ],
                    [
                        "-66.02",
                        "55.68"
                    ],
                    [
                        "-62.66",
                        "55.38"
                    ]
                ]
            },
            "properties": {
                "forecastId": null,
                "geometryId": null,
                "tag": "1C",
                "forecastHour": 0,
                "hazard": "FZLVL",
                "frequency": null,
                "severity": null,
                "status": "NRML",
                "base": null,
                "top": null,
                "fzlBase": null,
                "fzlTop": null,
                "level": "080",
                "product": "ZULU",
                "rawAirSigmet": null,
                "validTimeTo": "2026-09-11T03:00:00.000",
                "validTimeFrom": [
                    "2026-09-11T02:45"
                ]
            }
        },
        {
            "type": "Feature",
            "geometry": {
                "type": "Polygon",
                "coordinates": [
                    [
                        [
                            "-69.19",
                            "47.56"
                        ],
                        [
                            "-67.86",
                            "47.29"
                        ],
                        [
                            "-67.87",
                            "45.92"
                        ],
                        [
                            "-67.26",
                            "45.12"
                        ],
                        [
                            "-68.43",
                            "45.18"
                        ],
                        [
                            "-68.78",
                            "45.31"
                        ],
                        [
                            "-69.41",
                            "45.28"
                        ],
                        [
                            "-70.74",
                            "44.79"
                        ],
                        [
                            "-71.70",
                            "43.76"
                        ],
                        [
                            "-72.38",
                            "43.95"
                        ],
                        [
                            "-71.91",
                            "44.73"
                        ],
                        [
                            "-70.93",
                            "45.56"
                        ],
                        [
                            "-69.89",
                            "46.81"
                        ],
                        [
                            "-69.19",
                            "47.56"
                        ]
                    ]
                ]
            },
            "properties": {
                "forecastId": null,
                "geometryId": null,
                "tag": "2W",
                "forecastHour": 0,
                "hazard": "TURB-LO",
                "frequency": null,
                "severity": "MOD",
                "status": "NRML",
                "base": "SFC",
                "top": "080",
                "fzlBase": null,
                "fzlTop": null,
                "level": null,
                "product": "TANGO",
                "rawAirSigmet": null,
                "validTimeTo": "2026-09-11T03:00:00.000",
                "validTimeFrom": [
                    "2026-09-11T02:45"
                ]
            }
        },
        {
            "type": "Feature",
            "geometry": {
                "type": "LineString",
                "coordinates": [
                    [
                        "-53.88",
                        "31.03"
                    ],
                    [
                        "-55.16",
                        "31.13"
                    ],
                    [
                        "-57.18",
                        "31.12"
                    ],
                    [
                        "-58.88",
                        "30.93"
                    ],
                    [
                        "-60.30",
                        "30.92"
                    ],
                    [
                        "-62.01",
                        "30.74"
                    ],
                    [
                        "-63.71",
                        "30.21"
                    ],
                    [
                        "-65.11",
                        "30.00"
                    ],
                    [
                        "-66.58",
                        "29.57"
                    ],
                    [
                        "-68.12",
                        "28.38"
                    ],
                    [
                        "-71.05",
                        "27.07"
                    ],
                    [
                        "-71.46",
                        "25.59"
                    ],
                    [
                        "-72.29",
                        "24.79"
                    ],
                    [
                        "-72.89",
                        "24.05"
                    ],
                    [
                        "-73.10",
                        "23.28"
                    ],
                    [
                        "-72.37",
                        "22.16"
                    ],
                    [
                        "-71.35",
                        "21.13"
                    ],
                    [
                        "-70.91",
                        "19.91"
                    ],
                    [
                        "-69.56",
                        "17.69"
                    ],
                    [
                        "-68.59",
                        "15.27"
                    ],
                    [
                        "-68.38",
                        "14.26"
                    ],
                    [
                        "-67.94",
                        "13.27"
                    ]
                ]
            },
            "properties": {
                "forecastId": null,
                "geometryId": null,
                "tag": "1C",
                "forecastHour": 0,
                "hazard": "FZLVL",
                "frequency": null,
                "severity": null,
                "status": "NRML",
                "base": null,
                "top": null,
                "fzlBase": null,
                "fzlTop": null,
                "level": "160",
                "product": "ZULU",
                "rawAirSigmet": null,
                "validTimeTo": "2026-09-11T03:00:00.000",
                "validTimeFrom": [
                    "2026-09-11T02:45"
                ]
            }
        },
        {
            "type": "Feature",
            "geometry": {
                "type": "Polygon",
                "coordinates": [
                    [
                        [
                            "-80.44",
                            "42.26"
                        ],
                        [
                            "-79.59",
                            "42.23"
                        ],
                        [
                            "-79.73",
                            "41.18"
                        ],
                        [
                            "-77.72",
                            "40.96"
                        ],
                        [
                            "-75.28",
                            "40.90"
                        ],
                        [
                            "-73.30",
                            "41.41"
                        ],
                        [
                            "-73.03",
                            "40.00"
                        ],
                        [
                            "-74.98",
                            "39.86"
                        ],
                        [
                            "-78.15",
                            "39.74"
                        ],
                        [
                            "-79.68",
                            "39.88"
                        ],
                        [
                            "-80.53",
                            "39.70"
                        ],
                        [
                            "-82.96",
                            "39.91"
                        ],
                        [
                            "-84.67",
                            "39.56"
                        ],
                        [
                            "-85.16",
                            "39.47"
                        ],
                        [
                            "-88.51",
                            "38.67"
                        ],
                        [
                            "-88.86",
                            "39.46"
                        ],
                        [
                            "-84.81",
                            "41.56"
                        ],
                        [
                            "-82.26",
                            "41.60"
                        ],
                        [
                            "-80.44",
                            "42.26"
                        ]
                    ]
                ]
            },
            "properties": {
                "forecastId": null,
                "geometryId": null,
                "tag": "1C",
                "forecastHour": 0,
                "hazard": "ICE",
                "frequency": null,
                "severity": "MOD",
                "status": "NRML",
                "base": "FZL",
                "top": "270",
                "fzlBase": "130",
                "fzlTop": "140",
                "level": null,
                "product": "ZULU",
                "rawAirSigmet": "ICE",
                "validTimeTo": "2026-09-11T03:00:00.000",
                "validTimeFrom": [
                    "2026-09-11T02:45"
                ]
            }
        },
        {
            "type": "Feature",
            "geometry": {
                "type": "Polygon",
                "coordinates": [
                    [
                        [
                            "-113.53",
                            "48.27"
                        ],
                        [
                            "-112.71",
                            "47.51"
                        ],
                        [
                            "-113.21",
                            "46.76"
                        ],
                        [
                            "-115.03",
                            "46.34"
                        ],
                        [
                            "-118.46",
                            "45.48"
                        ],
                        [
                            "-119.88",
                            "44.87"
                        ],
                        [
                            "-120.38",
                            "44.75"
                        ],
                        [
                            "-120.95",
                            "45.29"
                        ],
                        [
                            "-118.49",
                            "46.72"
                        ],
                        [
                            "-116.06",
                            "47.83"
                        ],
                        [
                            "-113.53",
                            "48.27"
                        ]
                    ]
                ]
            },
            "properties": {
                "forecastId": null,
                "geometryId": null,
                "tag": "3C",
                "forecastHour": 0,
                "hazard": "ICE",
                "frequency": null,
                "severity": "MOD",
                "status": "NRML",
                "base": "120",
                "top": "230",
                "fzlBase": null,
                "fzlTop": null,
                "level": null,
                "product": "ZULU",
                "rawAirSigmet": "ICE",
                "validTimeTo": "2026-09-11T03:00:00.000",
                "validTimeFrom": [
                    "2026-09-11T02:45"
                ]
            }
        }
    ],
    "metadata": {
        "creationTime": "2026-09-11T04:22"
    }
}