{
    "type": "FeatureCollection",
    "features": [
        {
            "type": "Feature",
            "geometry": {
                "type": "LineString",
                "coordinates": [
                    [
                        "-133.09",
                        "39.64"
                    ],
                    [
                        "-130.71",
                        "38.28"
                    ],
                    [
                        "-125.98",
                        "36.47"
                    ],
                    [
                        "-125.00",
                        "36.66"
                    ],
                    [
                        "-123.60",
                        "37.30"
                    ],
                    [
                        "-122.24",
                        "37.83"
                    ],
                    [
                        "-121.44",
                        "38.37"
                    ],
                    [
                        "-120.77",
                        "39.43"
                    ],
                    [
                        "-120.32",
                        "40.51"
                    ],
                    [
                        "-119.94",
                        "41.41"
                    ],
                    [
                        "-120.04",
                        "42.48"
                    ],
                    [
                        "-120.13",
                        "43.83"
                    ],
                    [
                        "-119.82",
                        "45.01"
                    ],
                    [
                        "-119.93",
                        "47.31"
                    ],
                    [
                        "-119.00",
                        "47.86"
                    ],
                    [
                        "-117.48",
                        "47.96"
                    ],
                    [
                        "-117.03",
                        "48.71"
                    ],
                    [
                        "-116.80",
                        "49.75"
                    ],
                    [
                        "-117.22",
                        "52.44"
                    ],
                    [
                        "-116.02",
                        "54.07"
                    ],
                    [
                        "-115.52",
                        "54.94"
                    ],
                    [
                        "-114.77",
                        "55.74"
                    ],
                    [
                        "-113.85",
                        "56.29"
                    ],
                    [
                        "-112.89",
                        "56.51"
                    ],
                    [
                        "-111.61",
                        "56.31"
                    ],
                    [
                        "-110.44",
                        "55.74"
                    ],
                    [
                        "-109.38",
                        "55.01"
                    ],
                    [
                        "-108.29",
                        "54.95"
                    ],
                    [
                        "-107.03",
                        "55.46"
                    ],
                    [
                        "-105.92",
                        "56.07"
                    ],
                    [
                        "-104.56",
                        "56.33"
                    ],
                    [
                        "-103.27",
                        "56.05"
                    ],
                    [
                        "-101.06",
                        "56.05"
                    ],
                    [
                        "-100.03",
                        "56.73"
                    ],
                    [
                        "-99.18",
                        "57.61"
                    ],
                    [
                        "-96.18",
                        "58.36"
                    ]
                ]
            },
            "properties": {
                "forecastId": null,
                "geometryId": null,
                "tag": "1C",
                "forecastHour": 3,
                "hazard": "FZLVL",
                "frequency": null,
                "severity": null,
                "status": "NRML",
                "base": null,
                "top": null,
                "fzlBase": null,
                "fzlTop": null,
                "level": "120",
                "product": "ZULU",
                "rawAirSigmet": null,
                "validTimeTo": "2026-09-02T00:00:00.000",
                "validTimeFrom": [
                    "2026-09-01T20:45"
                ]
            }
        },
        {
            "type": "Feature",
            "geometry": {
                "type": "Polygon",
                "coordinates": [
                    [
                        [
                            "-124.14",
                            "43.84"
                        ],
                        [
                            "-124.43",
                            "42.71"
                        ],
                        [
                            "-124.05",
                            "42.05"
                        ],
                        [
                            "-123.92",
                            "40.90"
                        ],
                        [
                            "-124.26",
                            "40.56"
                        ],
                        [
                            "-123.74",
                            "38.59"
                        ],
                        [
                            "-124.57",
                            "39.02"
                        ],
                        [
                            "-125.31",
                            "40.95"
                        ],
                        [
                            "-125.23",
                            "43.51"
                        ],
                        [
                            "-124.14",
                            "43.84"
                        ]
                    ]
                ]
            },
            "properties": {
                "forecastId": null,
                "geometryId": null,
                "tag": "1E",
                "forecastHour": 3,
                "hazard": "IFR",
                "frequency": null,
                "severity": null,
                "status": "NRML",
                "base": null,
                "top": null,
                "fzlBase": null,
                "fzlTop": null,
                "level": null,
                "product": "SIERRA",
                "rawAirSigmet": "CIG BLW 010 VIS BLW 3SM PCPN BR",
                "validTimeTo": "2026-09-02T00:00:00.000",
                "validTimeFrom": [
                    "2026-09-01T20:45"
                ]
            }
        },
        {
            "type": "Feature",
            "geometry": {
                "type": "Polygon",
                "coordinates": [
                    [
                        [
                            "-121.03",
                            "46.89"
                        ],
                        [
                            "-118.47",
                            "44.72"
                        ],
                        [
                            "-116.81",
                            "42.56"
                        ],
                        [
                            "-116.93",
                            "41.28"
                        ],
                        [
                            "-118.57",
                            "39.58"
                        ],
                        [
                            "-120.77",
                            "37.94"
                        ],
                        [
                            "-122.58",
                            "36.85"
                        ],
                        [
                            "-124.03",
                            "35.63"
                        ],
                        [
                            "-127.06",
                            "39.88"
                        ],
                        [
                            "-126.58",
                            "44.83"
                        ],
                        [
                            "-125.33",
                            "46.26"
                        ],
                        [
                            "-123.61",
                            "46.70"
                        ],
                        [
                            "-121.03",
                            "46.89"
                        ]
                    ]
                ]
            },
            "properties": {
                "forecastId": null,
                "geometryId": null,
                "tag": "3W",
                "forecastHour": 3,
                "hazard": "TURB-HI",
                "frequency": null,
                "severity": "MOD",
                "status": "NRML",
                "base": "240",
                "top": "360",
                "fzlBase": null,
                "fzlTop": null,
                "level": null,
                "product": "TANGO",
                "rawAirSigmet": null,
                "validTimeTo": "2026-09-02T00:00:00.000",
                "validTimeFrom": [
                    "2026-09-01T20:45"
                ]
            }
        },
        {
            "type": "Feature",
            "geometry": {
                "type": "LineString",
                "coordinates": [
                    [
                        "-136.61",
                        "48.01"
                    ],
                    [
                        "-136.09",
                        "48.01"
                    ],
                    [
                        "-134.08",
                        "48.19"
                    ],
                    [
                        "-132.77",
                        "48.79"
                    ],
                    [
                        "-131.88",
                        "49.63"
                    ],
                    [
                        "-131.25",
                        "50.42"
                    ],
                    [
                        "-130.84",
                        "51.50"
                    ],
                    [
                        "-130.62",
                        "51.89"
                    ],
                    [
                        "-129.92",
                        "52.05"
                    ],
                    [
                        "-128.78",
                        "52.17"
                    ],
                    [
                        "-127.74",
                        "52.99"
                    ],
                    [
                        "-127.29",
                        "53.71"
                    ],
                    [
                        "-126.93",
                        "54.73"
                    ],
                    [
                        "-126.42",
                        "55.49"
                    ],
                    [
                        "-125.92",
                        "56.45"
                    ]
                ]
            },
            "properties": {
                "forecastId": null,
                "geometryId": null,
                "tag": "1C",
                "forecastHour": 3,
                "hazard": "FZLVL",
                "frequency": null,
                "severity": null,
                "status": "NRML",
                "base": null,
                "top": null,
                "fzlBase": null,
                "fzlTop": null,
                "level": "080",
                "product": "ZULU",
                "rawAirSigmet": null,
                "validTimeTo": "2026-09-02T00:00:00.000",
                "validTimeFrom": [
                    "2026-09-01T20:45"
                ]
            }
        },
        {
            "type": "Feature",
            "geometry": {
                "type": "Polygon",
                "coordinates": [
                    [
                        [
                            "-122.83",
                            "48.87"
                        ],
                        [
                            "-120.77",
                            "48.83"
                        ],
                        [
                            "-121.08",
                            "47.42"
                        ],
                        [
                            "-121.96",
                            "46.24"
                        ],
                        [
                            "-122.01",
                            "43.89"
                        ],
                        [
                            "-123.15",
                            "41.66"
                        ],
                        [
                            "-122.29",
                            "40.60"
                        ],
                        [
                            "-122.19",
                            "37.03"
                        ],
                        [
                            "-124.00",
                            "39.92"
                        ],
                        [
                            "-124.30",
                            "43.01"
                        ],
                        [
                            "-124.04",
                            "45.43"
                        ],
                        [
                            "-124.23",
                            "47.12"
                        ],
                        [
                            "-124.67",
                            "48.18"
                        ],
                        [
                            "-122.83",
                            "48.87"
                        ]
                    ]
                ]
            },
            "properties": {
                "forecastId": null,
                "geometryId": null,
                "tag": "1E",
                "forecastHour": 3,
                "hazard": "MT_OBSC",
                "frequency": null,
                "severity": null,
                "status": "NRML",
                "base": null,
                "top": null,
                "fzlBase": null,
                "fzlTop": null,
                "level": null,
                "product": "SIERRA",
                "rawAirSigmet": "MTNS OBSC BY CLDS PCPN",
                "validTimeTo": "2026-09-02T00:00:00.000",
                "validTimeFrom": [
                    "2026-09-01T20:45"
                ]
            }
        },
        {
            "type": "Feature",
            "geometry": {
                "type": "Polygon",
                "coordinates": [
                    [
                        [
                            "-71.62",
                            "45.41"
                        ],
                        [
                            "-70.04",
                            "44.31"
                        ],
                        [
                            "-71.45",
                            "43.30"
                        ],
                        [
                            "-75.89",
                            "40.87"
                        ],
                        [
                            "-77.60",
                            "39.31"
                        ],
                        [
                            "-80.66",
                            "40.20"
                        ],
                        [
                            "-79.21",
                            "42.11"
                        ],
                        [
                            "-76.43",
                            "43.07"
                        ],
                        [
                            "-74.85",
                            "44.71"
                        ],
                        [
                            "-71.62",
                            "45.41"
                        ]
                    ]
                ]
            },
            "properties": {
                "forecastId": null,
                "geometryId": null,
                "tag": "3E",
                "forecastHour": 3,
                "hazard": "MT_OBSC",
                "frequency": null,
                "severity": null,
                "status": "NRML",
                "base": null,
                "top": null,
                "fzlBase": null,
                "fzlTop": null,
                "level": null,
                "product": "SIERRA",
                "rawAirSigmet": "MTNS OBSC BY CLDS PCPN BR",
                "validTimeTo": "2026-09-02T00:00:00.000",
                "validTimeFrom": [
                    "2026-09-01T20:45"
                ]
            }
        },
        {
            "type": "Feature",
            "geometry": {
                "type": "LineString",
                "coordinates": [
                    [
                        "-135.55",
                        "45.69"
                    ],
                    [
                        "-135.06",
                        "45.73"
                    ],
                    [
                        "-134.54",
                        "45.70"
                    ],
                    [
                        "-134.35",
                        "45.66"
                    ],
                    [
                        "-133.91",
                        "45.42"
                    ],
                    [
                        "-133.88",
                        "45.40"
                    ],
                    [
                        "-133.71",
                        "45.08"
                    ],
                    [
                        "-133.70",
                        "44.92"
                    ],
                    [
                        "-133.70",
                        "44.73"
                    ],
                    [
                        "-133.88",
                        "44.33"
                    ],
                    [
                        "-133.93",
                        "44.25"
                    ],
                    [
                        "-134.29",
                        "43.92"
                    ],
                    [
                        "-134.47",
                        "43.85"
                    ],
                    [
                        "-134.70",
                        "43.72"
                    ]
                ]
            },
            "properties": {
                "forecastId": null,
                "geometryId": null,
                "tag": "1C",
                "forecastHour": 3,
                "hazard": "FZLVL",
                "frequency": null,
                "severity": null,
                "status": "NRML",
                "base": null,
                "top": null,
                "fzlBase": null,
                "fzlTop": null,
                "level": "120",
                "product": "ZULU",
                "rawAirSigmet": null,
                "validTimeTo": "2026-09-02T00:00:00.000",
                "validTimeFrom": [
                    "2026-09-01T20:45"
                ]
            }
        },
        {
            "type": "Feature",
            "geometry": {
                "type": "Polygon",
                "coordinates": [
                    [
                        [
                            "-77.98",
                            "33.58"
                        ],
                        [
                            "-75.65",
                            "33.23"
                        ],
                        [
                            "-76.59",
                            "32.42"
                        ],
                        [
                            "-76.81",
                            "32.33"
                        ],
                        [
                            "-77.73",
                            "32.32"
                        ],
                        [
                            "-78.37",
                            "32.21"
                        ],
                        [
                            "-79.57",
                            "31.95"
                        ],
                        [
                            "-80.92",
                            "31.43"
                        ],
                        [
                            "-81.62",
                            "31.22"
                        ],
                        [
                            "-82.19",
                            "31.55"
                        ],
                        [
                            "-82.19",
                            "32.10"
                        ],
                        [
                            "-81.43",
                            "32.65"
                        ],
                        [
                            "-79.67",
                            "33.27"
                        ],
                        [
                            "-77.98",
                            "33.58"
                        ]
                    ]
                ]
            },
            "properties": {
                "forecastId": null,
                "geometryId": null,
                "tag": "2W",
                "forecastHour": 3,
                "hazard": "TURB-HI",
                "frequency": null,
                "severity": "MOD",
                "status": "NRML",
                "base": "320",
                "top": "410",
                "fzlBase": null,
                "fzlTop": null,
                "level": null,
                "product": "TANGO",
                "rawAirSigmet": null,
                "validTimeTo": "2026-09-02T00:00:00.000",
                "validTimeFrom": [
                    "2026-09-01T20:45"
                ]
            }
        },
        {
            "type": "Feature",
            "geometry": {
                "type": "Polygon",
                "coordinates": [
                    [
                        [
                            "-94.65",
                            "49.28"
                        ],
                        [
                            "-93.58",
                            "48.61"
                        ],
                        [
                            "-89.87",
                            "48.00"
                        ],
                        [
                            "-88.47",
                            "48.28"
                        ],
                        [
                            "-84.67",
                            "46.81"
                        ],
                        [
                            "-88.15",
                            "45.32"
                        ],
                        [
                            "-93.37",
                            "43.82"
                        ],
                        [
                            "-96.89",
                            "41.58"
                        ],
                        [
                            "-98.06",
                            "39.74"
                        ],
                        [
                            "-99.00",
                            "37.50"
                        ],
                        [
                            "-100.26",
                            "37.57"
                        ],
                        [
                            "-100.62",
                            "38.35"
                        ],
                        [
                            "-100.98",
                            "39.82"
                        ],
                        [
                            "-101.04",
                            "42.24"
                        ],
                        [
                            "-100.70",
                            "43.54"
                        ],
                        [
                            "-100.47",
                            "46.36"
                        ],
                        [
                            "-99.97",
                            "48.85"
                        ],
                        [
                            "-96.96",
                            "48.96"
                        ],
                        [
                            "-94.65",
                            "49.28"
                        ]
                    ]
                ]
            },
            "properties": {
                "forecastId": null,
                "geometryId": null,
                "tag": "1W",
                "forecastHour": 3,
                "hazard": "TURB-HI",
                "frequency": null,
                "severity": "MOD",
                "status": "NRML",
                "base": "320",
                "top": "420",
                "fzlBase": null,
                "fzlTop": null,
                "level": null,
                "product": "TANGO",
                "rawAirSigmet": null,
                "validTimeTo": "2026-09-02T00:00:00.000",
                "validTimeFrom": [
                    "2026-09-01T20:45"
                ]
            }
        },
        {
            "type": "Feature",
            "geometry": {
                "type": "Polygon",
                "coordinates": [
                    [
                        [
                            "-68.00",
                            "44.16"
                        ],
                        [
                            "-70.05",
                            "43.07"
                        ],
                        [
                            "-70.02",
                            "40.50"
                        ],
                        [
                            "-72.34",
                            "38.88"
                        ],
                        [
                            "-74.36",
                            "40.54"
                        ],
                        [
                            "-75.22",
                            "43.06"
                        ],
                        [
                            "-72.55",
                            "43.77"
                        ],
                        [
                            "-68.00",
                            "44.16"
                        ]
                    ]
                ]
            },
            "properties": {
                "forecastId": null,
                "geometryId": null,
                "tag": "3E",
                "forecastHour": 3,
                "hazard": "IFR",
                "frequency": null,
                "severity": null,
                "status": "NRML",
                "base": null,
                "top": null,
                "fzlBase": null,
                "fzlTop": null,
                "level": null,
                "product": "SIERRA",
                "rawAirSigmet": "CIG BLW 010 VIS BLW 3SM PCPN BR",
                "validTimeTo": "2026-09-02T00:00:00.000",
                "validTimeFrom": [
                    "2026-09-01T20:45"
                ]
            }
        },
        {
            "type": "Feature",
            "geometry": {
                "type": "Polygon",
                "coordinates": [
                    [
                        [
                            "-91.01",
                            "34.49"
                        ],
                        [
                            "-89.87",
                            "34.38"
                        ],
                        [
                            "-88.42",
                            "33.56"
                        ],
                        [
                            "-86.94",
                            "31.62"
                        ],
                        [
                            "-86.41",
                            "30.00"
                        ],
                        [
                            "-88.14",
                            "29.45"
                        ],
                        [
                            "-89.76",
                            "31.09"
                        ],
                        [
                            "-91.15",
                            "32.77"
                        ],
                        [
                            "-91.90",
                            "33.96"
                        ],
                        [
                            "-91.01",
                            "34.49"
                        ]
                    ]
                ]
            },
            "properties": {
                "forecastId": null,
                "geometryId": null,
                "tag": "2W",
                "forecastHour": 3,
                "hazard": "TURB-HI",
                "frequency": null,
                "severity": "MOD",
                "status": "NRML",
                "base": "330",
                "top": "410",
                "fzlBase": null,
                "fzlTop": null,
                "level": null,
                "product": "TANGO",
                "rawAirSigmet": null,
                "validTimeTo": "2026-09-02T00:00:00.000",
                "validTimeFrom": [
                    "2026-09-01T20:45"
                ]
            }
        },
        {
            "type": "Feature",
            "geometry": {
                "type": "Polygon",
                "coordinates": [
                    [
                        [
                            "-125.21",
                            "42.00"
                        ],
                        [
                            "-124.60",
                            "41.72"
                        ],
                        [
                            "-124.44",
                            "41.10"
                        ],
                        [
                            "-124.37",
                            "40.01"
                        ],
                        [
                            "-124.56",
                            "39.13"
                        ],
                        [
                            "-124.83",
                            "38.52"
                        ],
                        [
                            "-125.71",
                            "38.42"
                        ],
                        [
                            "-126.37",
                            "39.04"
                        ],
                        [
                            "-126.48",
                            "40.47"
                        ],
                        [
                            "-126.03",
                            "41.66"
                        ],
                        [
                            "-125.21",
                            "42.00"
                        ]
                    ]
                ]
            },
            "properties": {
                "forecastId": null,
                "geometryId": null,
                "tag": "2C",
                "forecastHour": 3,
                "hazard": "ICE",
                "frequency": null,
                "severity": "MOD",
                "status": "NRML",
                "base": "FZL",
                "top": "200",
                "fzlBase": "090",
                "fzlTop": "100",
                "level": null,
                "product": "ZULU",
                "rawAirSigmet": "ICE",
                "validTimeTo": "2026-09-02T00:00:00.000",
                "validTimeFrom": [
                    "2026-09-01T20:45"
                ]
            }
        },
        {
            "type": "Feature",
            "geometry": {
                "type": "LineString",
                "coordinates": [
                    [
                        "-94.07",
                        "58.36"
                    ],
                    [
                        "-93.29",
                        "57.18"
                    ],
                    [
                        "-92.96",
                        "56.77"
                    ],
                    [
                        "-93.17",
                        "56.24"
                    ],
                    [
                        "-93.91",
                        "55.94"
                    ],
                    [
                        "-94.69",
                        "55.32"
                    ],
                    [
                        "-94.46",
                        "54.70"
                    ],
                    [
                        "-92.87",
                        "53.53"
                    ],
                    [
                        "-92.96",
                        "52.29"
                    ],
                    [
                        "-93.43",
                        "50.87"
                    ],
                    [
                        "-92.44",
                        "50.22"
                    ],
                    [
                        "-91.65",
                        "49.97"
                    ],
                    [
                        "-89.41",
                        "49.46"
                    ],
                    [
                        "-87.90",
                        "49.16"
                    ],
                    [
                        "-86.63",
                        "49.08"
                    ],
                    [
                        "-83.84",
                        "49.31"
                    ],
                    [
                        "-82.19",
                        "50.17"
                    ],
                    [
                        "-80.45",
                        "51.32"
                    ],
                    [
                        "-78.41",
                        "50.59"
                    ],
                    [
                        "-77.61",
                        "49.86"
                    ],
                    [
                        "-77.27",
                        "49.14"
                    ],
                    [
                        "-76.37",
                        "48.08"
                    ],
                    [
                        "-74.63",
                        "47.17"
                    ],
                    [
                        "-72.33",
                        "46.60"
                    ],
                    [
                        "-69.98",
                        "45.83"
                    ],
                    [
                        "-68.53",
                        "44.86"
                    ],
                    [
                        "-67.31",
                        "43.51"
                    ],
                    [
                        "-66.13",
                        "42.48"
                    ],
                    [
                        "-65.78",
                        "41.63"
                    ],
                    [
                        "-65.00",
                        "41.10"
                    ],
                    [
                        "-63.27",
                        "40.52"
                    ]
                ]
            },
            "properties": {
                "forecastId": null,
                "geometryId": null,
                "tag": "1C",
                "forecastHour": 3,
                "hazard": "FZLVL",
                "frequency": null,
                "severity": null,
                "status": "NRML",
                "base": null,
                "top": null,
                "fzlBase": null,
                "fzlTop": null,
                "level": "120",
                "product": "ZULU",
                "rawAirSigmet": null,
                "validTimeTo": "2026-09-02T00:00:00.000",
                "validTimeFrom": [
                    "2026-09-01T20:45"
                ]
            }
        },
        {
            "type": "Feature",
            "geometry": {
                "type": "Polygon",
                "coordinates": [
                    [
                        [
                            "-77.93",
                            "21.26"
                        ],
                        [
                            "-78.15",
                            "21.11"
                        ],
                        [
                            "-78.31",
                            "20.94"
                        ],
                        [
                            "-78.38",
                            "20.58"
                        ],
                        [
                            "-78.28",
                            "20.20"
                        ],
                        [
                            "-78.27",
                            "20.20"
                        ],
                        [
                            "-78.05",
                            "19.81"
                        ],
                        [
                            "-77.95",
                            "19.66"
                        ],
                        [
                            "-77.60",
                            "19.40"
                        ],
                        [
                            "-77.55",
                            "19.38"
                        ],
                        [
                            "-77.23",
                            "19.29"
                        ],
                        [
                            "-76.89",
                            "19.30"
                        ],
                        [
                            "-76.84",
                            "19.30"
                        ],
                        [
                            "-76.43",
                            "19.44"
                        ],
                        [
                            "-76.24",
                            "19.58"
                        ],
                        [
                            "-76.00",
                            "19.92"
                        ],
                        [
                            "-75.96",
                            "20.28"
                        ],
                        [
                            "-76.13",
                            "20.67"
                        ],
                        [
                            "-76.23",
                            "20.77"
                        ],
                        [
                            "-76.58",
                            "21.07"
                        ],
                        [
                            "-76.63",
                            "21.10"
                        ],
                        [
                            "-76.95",
                            "21.26"
                        ],
                        [
                            "-77.33",
                            "21.33"
                        ],
                        [
                            "-77.73",
                            "21.32"
                        ],
                        [
                            "-77.93",
                            "21.26"
                        ]
                    ]
                ]
            },
            "properties": {
                "forecastId": null,
                "geometryId": null,
                "tag": "1C",
                "forecastHour": 3,
                "hazard": "FZLVL",
                "frequency": null,
                "severity": null,
                "status": "NRML",
                "base": null,
                "top": null,
                "fzlBase": null,
                "fzlTop": null,
                "level": "160",
                "product": "ZULU",
                "rawAirSigmet": null,
                "validTimeTo": "2026-09-02T00:00:00.000",
                "validTimeFrom": [
                    "2026-09-01T20:45"
                ]
            }
        },
        {
            "type": "Feature",
            "geometry": {
                "type": "Polygon",
                "coordinates": [
                    [
                        [
                            "-85.95",
                            "46.13"
                        ],
                        [
                            "-83.65",
                            "45.95"
                        ],
                        [
                            "-82.60",
                            "45.15"
                        ],
                        [
                            "-82.38",
                            "44.28"
                        ],
                        [
                            "-83.95",
                            "45.61"
                        ],
                        [
                            "-86.08",
                            "45.83"
                        ],
                        [
                            "-85.95",
                            "46.13"
                        ]
                    ]
                ]
            },
            "properties": {
                "forecastId": null,
                "geometryId": null,
                "tag": "7E",
                "forecastHour": 3,
                "hazard": "IFR",
                "frequency": null,
                "severity": null,
                "status": "NRML",
                "base": null,
                "top": null,
                "fzlBase": null,
                "fzlTop": null,
                "level": null,
                "product": "SIERRA",
                "rawAirSigmet": "CIG BLW 010 VIS BLW 3SM BR",
                "validTimeTo": "2026-09-02T00:00:00.000",
                "validTimeFrom": [
                    "2026-09-01T20:45"
                ]
            }
        },
        {
            "type": "Feature",
            "geometry": {
                "type": "Polygon",
                "coordinates": [
                    [
                        [
                            "-108.94",
                            "47.65"
                        ],
                        [
                            "-107.64",
                            "47.63"
                        ],
                        [
                            "-105.28",
                            "46.84"
                        ],
                        [
                            "-103.29",
                            "46.60"
                        ],
                        [
                            "-100.93",
                            "46.87"
                        ],
                        [
                            "-96.50",
                            "46.55"
                        ],
                        [
                            "-93.89",
                            "46.12"
                        ],
                        [
                            "-91.70",
                            "45.50"
                        ],
                        [
                            "-90.82",
                            "45.16"
                        ],
                        [
                            "-90.74",
                            "44.19"
                        ],
                        [
                            "-92.65",
                            "44.19"
                        ],
                        [
                            "-97.23",
                            "44.99"
                        ],
                        [
                            "-103.84",
                            "45.52"
                        ],
                        [
                            "-104.54",
                            "45.20"
                        ],
                        [
                            "-105.33",
                            "44.47"
                        ],
                        [
                            "-105.83",
                            "44.38"
                        ],
                        [
                            "-106.92",
                            "44.50"
                        ],
                        [
                            "-107.95",
                            "45.06"
                        ],
                        [
                            "-109.21",
                            "45.52"
                        ],
                        [
                            "-110.55",
                            "45.69"
                        ],
                        [
                            "-111.16",
                            "46.10"
                        ],
                        [
                            "-111.31",
                            "47.01"
                        ],
                        [
                            "-110.23",
                            "47.61"
                        ],
                        [
                            "-108.94",
                            "47.65"
                        ]
                    ]
                ]
            },
            "properties": {
                "forecastId": null,
                "geometryId": null,
                "tag": "3C",
                "forecastHour": 3,
                "hazard": "ICE",
                "frequency": null,
                "severity": "MOD",
                "status": "NRML",
                "base": "140",
                "top": "240",
                "fzlBase": null,
                "fzlTop": null,
                "level": null,
                "product": "ZULU",
                "rawAirSigmet": "ICE",
                "validTimeTo": "2026-09-02T00:00:00.000",
                "validTimeFrom": [
                    "2026-09-01T20:45"
                ]
            }
        },
        {
            "type": "Feature",
            "geometry": {
                "type": "LineString",
                "coordinates": [
                    [
                        "-62.17",
                        "55.56"
                    ],
                    [
                        "-62.00",
                        "55.27"
                    ],
                    [
                        "-61.96",
                        "55.21"
                    ],
                    [
                        "-61.78",
                        "54.87"
                    ],
                    [
                        "-61.73",
                        "54.61"
                    ],
                    [
                        "-61.72",
                        "54.54"
                    ],
                    [
                        "-61.82",
                        "54.23"
                    ],
                    [
                        "-62.01",
                        "53.93"
                    ],
                    [
                        "-62.12",
                        "53.62"
                    ],
                    [
                        "-62.01",
                        "53.28"
                    ],
                    [
                        "-61.85",
                        "53.00"
                    ],
                    [
                        "-61.82",
                        "52.92"
                    ],
                    [
                        "-61.77",
                        "52.59"
                    ],
                    [
                        "-61.83",
                        "52.26"
                    ],
                    [
                        "-61.92",
                        "51.95"
                    ],
                    [
                        "-61.99",
                        "51.63"
                    ],
                    [
                        "-61.99",
                        "51.33"
                    ],
                    [
                        "-61.97",
                        "51.29"
                    ],
                    [
                        "-61.60",
                        "50.97"
                    ],
                    [
                        "-61.08",
                        "50.94"
                    ],
                    [
                        "-60.63",
                        "51.08"
                    ],
                    [
                        "-60.47",
                        "51.12"
                    ],
                    [
                        "-59.87",
                        "51.28"
                    ],
                    [
                        "-59.85",
                        "51.28"
                    ],
                    [
                        "-59.32",
                        "51.32"
                    ]
                ]
            },
            "properties": {
                "forecastId": null,
                "geometryId": null,
                "tag": "1C",
                "forecastHour": 3,
                "hazard": "FZLVL",
                "frequency": null,
                "severity": null,
                "status": "NRML",
                "base": null,
                "top": null,
                "fzlBase": null,
                "fzlTop": null,
                "level": "080",
                "product": "ZULU",
                "rawAirSigmet": null,
                "validTimeTo": "2026-09-02T00:00:00.000",
                "validTimeFrom": [
                    "2026-09-01T20:45"
                ]
            }
        },
        {
            "type": "Feature",
            "geometry": {
                "type": "LineString",
                "coordinates": [
                    [
                        "-129.82",
                        "29.91"
                    ],
                    [
                        "-128.63",
                        "29.62"
                    ],
                    [
                        "-127.18",
                        "29.52"
                    ],
                    [
                        "-124.19",
                        "29.86"
                    ],
                    [
                        "-122.87",
                        "27.69"
                    ],
                    [
                        "-121.68",
                        "27.25"
                    ],
                    [
                        "-120.19",
                        "26.92"
                    ],
                    [
                        "-119.12",
                        "26.92"
                    ],
                    [
                        "-118.30",
                        "27.59"
                    ],
                    [
                        "-115.94",
                        "29.07"
                    ],
                    [
                        "-114.53",
                        "29.60"
                    ],
                    [
                        "-113.51",
                        "29.86"
                    ],
                    [
                        "-112.90",
                        "30.37"
                    ],
                    [
                        "-111.63",
                        "30.89"
                    ],
                    [
                        "-110.01",
                        "30.69"
                    ],
                    [
                        "-108.98",
                        "30.34"
                    ],
                    [
                        "-108.03",
                        "29.72"
                    ],
                    [
                        "-107.03",
                        "29.11"
                    ],
                    [
                        "-106.09",
                        "28.07"
                    ],
                    [
                        "-105.27",
                        "27.00"
                    ],
                    [
                        "-104.23",
                        "26.37"
                    ],
                    [
                        "-103.80",
                        "25.84"
                    ],
                    [
                        "-103.57",
                        "24.90"
                    ],
                    [
                        "-103.86",
                        "24.21"
                    ],
                    [
                        "-103.77",
                        "23.39"
                    ],
                    [
                        "-103.11",
                        "22.64"
                    ],
                    [
                        "-102.28",
                        "22.59"
                    ],
                    [
                        "-101.78",
                        "22.88"
                    ],
                    [
                        "-100.60",
                        "23.35"
                    ],
                    [
                        "-100.20",
                        "23.98"
                    ],
                    [
                        "-100.23",
                        "24.63"
                    ],
                    [
                        "-100.88",
                        "25.90"
                    ],
                    [
                        "-101.95",
                        "26.94"
                    ],
                    [
                        "-102.62",
                        "27.91"
                    ],
                    [
                        "-102.79",
                        "29.69"
                    ],
                    [
                        "-101.85",
                        "31.67"
                    ],
                    [
                        "-101.83",
                        "33.01"
                    ],
                    [
                        "-102.16",
                        "34.48"
                    ],
                    [
                        "-102.29",
                        "35.35"
                    ],
                    [
                        "-102.08",
                        "36.17"
                    ],
                    [
                        "-101.53",
                        "37.61"
                    ],
                    [
                        "-100.93",
                        "38.81"
                    ],
                    [
                        "-100.09",
                        "39.80"
                    ],
                    [
                        "-98.88",
                        "41.58"
                    ],
                    [
                        "-97.88",
                        "42.22"
                    ],
                    [
                        "-95.95",
                        "42.65"
                    ],
                    [
                        "-93.91",
                        "42.20"
                    ],
                    [
                        "-91.41",
                        "42.31"
                    ],
                    [
                        "-89.38",
                        "42.25"
                    ],
                    [
                        "-87.50",
                        "41.94"
                    ],
                    [
                        "-86.17",
                        "41.44"
                    ],
                    [
                        "-85.14",
                        "40.81"
                    ],
                    [
                        "-82.96",
                        "39.22"
                    ],
                    [
                        "-82.04",
                        "38.16"
                    ],
                    [
                        "-81.91",
                        "37.67"
                    ],
                    [
                        "-82.27",
                        "37.02"
                    ],
                    [
                        "-82.13",
                        "36.28"
                    ],
                    [
                        "-81.72",
                        "35.84"
                    ],
                    [
                        "-81.20",
                        "36.04"
                    ],
                    [
                        "-80.73",
                        "36.75"
                    ],
                    [
                        "-79.43",
                        "36.84"
                    ],
                    [
                        "-78.50",
                        "36.35"
                    ],
                    [
                        "-77.32",
                        "35.71"
                    ],
                    [
                        "-76.09",
                        "34.83"
                    ],
                    [
                        "-73.31",
                        "33.32"
                    ],
                    [
                        "-72.39",
                        "33.26"
                    ],
                    [
                        "-71.65",
                        "32.88"
                    ],
                    [
                        "-71.47",
                        "32.21"
                    ],
                    [
                        "-70.64",
                        "31.72"
                    ],
                    [
                        "-69.81",
                        "31.20"
                    ],
                    [
                        "-68.30",
                        "30.83"
                    ],
                    [
                        "-67.74",
                        "30.52"
                    ],
                    [
                        "-68.22",
                        "30.32"
                    ],
                    [
                        "-69.67",
                        "29.84"
                    ],
                    [
                        "-70.67",
                        "29.09"
                    ],
                    [
                        "-72.14",
                        "29.61"
                    ],
                    [
                        "-73.19",
                        "30.56"
                    ],
                    [
                        "-73.95",
                        "30.91"
                    ],
                    [
                        "-74.90",
                        "30.85"
                    ],
                    [
                        "-76.56",
                        "29.60"
                    ],
                    [
                        "-78.37",
                        "27.57"
                    ],
                    [
                        "-78.05",
                        "26.81"
                    ],
                    [
                        "-77.01",
                        "26.84"
                    ],
                    [
                        "-76.21",
                        "27.02"
                    ],
                    [
                        "-75.23",
                        "26.84"
                    ],
                    [
                        "-74.60",
                        "26.57"
                    ],
                    [
                        "-73.69",
                        "26.58"
                    ],
                    [
                        "-72.24",
                        "25.71"
                    ],
                    [
                        "-70.02",
                        "24.87"
                    ],
                    [
                        "-68.70",
                        "24.88"
                    ],
                    [
                        "-67.34",
                        "25.24"
                    ]
                ]
            },
            "properties": {
                "forecastId": null,
                "geometryId": null,
                "tag": "1C",
                "forecastHour": 3,
                "hazard": "FZLVL",
                "frequency": null,
                "severity": null,
                "status": "NRML",
                "base": null,
                "top": null,
                "fzlBase": null,
                "fzlTop": null,
                "level": "160",
                "product": "ZULU",
                "rawAirSigmet": null,
                "validTimeTo": "2026-09-02T00:00:00.000",
                "validTimeFrom": [
                    "2026-09-01T20:45"
                ]
            }
        }
    ],
    "metadata": {
        "creationTime": "2026-09-01T23:13"
    }
}