{
    "type": "FeatureCollection",
    "features": [
        {
            "type": "Feature",
            "geometry": {
                "type": "Polygon",
                "coordinates": [
                    [
                        [
                            "-118.08",
                            "49.05"
                        ],
                        [
                            "-117.85",
                            "47.95"
                        ],
                        [
                            "-117.12",
                            "47.45"
                        ],
                        [
                            "-115.15",
                            "47.17"
                        ],
                        [
                            "-114.14",
                            "46.89"
                        ],
                        [
                            "-115.27",
                            "46.41"
                        ],
                        [
                            "-116.82",
                            "46.04"
                        ],
                        [
                            "-119.60",
                            "43.70"
                        ],
                        [
                            "-120.68",
                            "43.40"
                        ],
                        [
                            "-121.63",
                            "43.87"
                        ],
                        [
                            "-122.23",
                            "44.94"
                        ],
                        [
                            "-121.62",
                            "46.56"
                        ],
                        [
                            "-121.37",
                            "48.88"
                        ],
                        [
                            "-118.08",
                            "49.05"
                        ]
                    ]
                ]
            },
            "properties": {
                "forecastId": null,
                "geometryId": null,
                "tag": "3E",
                "forecastHour": 6,
                "hazard": "MT_OBSC",
                "frequency": null,
                "severity": null,
                "status": "NRML",
                "base": null,
                "top": null,
                "fzlBase": null,
                "fzlTop": null,
                "level": null,
                "product": "SIERRA",
                "rawAirSigmet": "FU HZ",
                "validTimeTo": "2026-08-15T09:00:00.000",
                "validTimeFrom": [
                    "2026-08-15T07:14"
                ]
            }
        },
        {
            "type": "Feature",
            "geometry": {
                "type": "Polygon",
                "coordinates": [
                    [
                        [
                            "-124.77",
                            "48.57"
                        ],
                        [
                            "-124.08",
                            "48.14"
                        ],
                        [
                            "-124.02",
                            "47.79"
                        ],
                        [
                            "-122.70",
                            "47.02"
                        ],
                        [
                            "-122.65",
                            "46.25"
                        ],
                        [
                            "-123.56",
                            "44.87"
                        ],
                        [
                            "-122.41",
                            "44.13"
                        ],
                        [
                            "-122.72",
                            "42.70"
                        ],
                        [
                            "-123.81",
                            "42.62"
                        ],
                        [
                            "-123.54",
                            "41.30"
                        ],
                        [
                            "-123.75",
                            "40.43"
                        ],
                        [
                            "-124.33",
                            "40.31"
                        ],
                        [
                            "-124.36",
                            "42.80"
                        ],
                        [
                            "-124.11",
                            "46.61"
                        ],
                        [
                            "-124.77",
                            "48.57"
                        ]
                    ]
                ]
            },
            "properties": {
                "forecastId": null,
                "geometryId": null,
                "tag": "2E",
                "forecastHour": 6,
                "hazard": "MT_OBSC",
                "frequency": null,
                "severity": null,
                "status": "NRML",
                "base": null,
                "top": null,
                "fzlBase": null,
                "fzlTop": null,
                "level": null,
                "product": "SIERRA",
                "rawAirSigmet": "MTNS OBSC BY CLDS BR",
                "validTimeTo": "2026-08-15T09:00:00.000",
                "validTimeFrom": [
                    "2026-08-15T07:14"
                ]
            }
        },
        {
            "type": "Feature",
            "geometry": {
                "type": "Polygon",
                "coordinates": [
                    [
                        [
                            "-70.13",
                            "46.65"
                        ],
                        [
                            "-68.15",
                            "45.21"
                        ],
                        [
                            "-66.99",
                            "43.31"
                        ],
                        [
                            "-67.06",
                            "38.85"
                        ],
                        [
                            "-70.27",
                            "37.81"
                        ],
                        [
                            "-71.22",
                            "38.64"
                        ],
                        [
                            "-72.44",
                            "39.88"
                        ],
                        [
                            "-72.28",
                            "41.46"
                        ],
                        [
                            "-72.33",
                            "43.44"
                        ],
                        [
                            "-72.67",
                            "45.16"
                        ],
                        [
                            "-71.10",
                            "45.16"
                        ],
                        [
                            "-70.13",
                            "46.65"
                        ]
                    ]
                ]
            },
            "properties": {
                "forecastId": null,
                "geometryId": null,
                "tag": "2W",
                "forecastHour": 6,
                "hazard": "TURB-HI",
                "frequency": null,
                "severity": "MOD",
                "status": "NRML",
                "base": "250",
                "top": "370",
                "fzlBase": null,
                "fzlTop": null,
                "level": null,
                "product": "TANGO",
                "rawAirSigmet": null,
                "validTimeTo": "2026-08-15T09:00:00.000",
                "validTimeFrom": [
                    "2026-08-15T02:45"
                ]
            }
        },
        {
            "type": "Feature",
            "geometry": {
                "type": "Polygon",
                "coordinates": [
                    [
                        [
                            "-115.22",
                            "22.59"
                        ],
                        [
                            "-115.86",
                            "22.17"
                        ],
                        [
                            "-115.63",
                            "21.35"
                        ],
                        [
                            "-114.89",
                            "20.52"
                        ],
                        [
                            "-114.42",
                            "19.99"
                        ],
                        [
                            "-113.86",
                            "19.49"
                        ],
                        [
                            "-113.00",
                            "19.02"
                        ],
                        [
                            "-112.03",
                            "18.67"
                        ],
                        [
                            "-111.30",
                            "19.22"
                        ],
                        [
                            "-110.95",
                            "20.04"
                        ],
                        [
                            "-111.02",
                            "20.71"
                        ],
                        [
                            "-111.50",
                            "21.57"
                        ],
                        [
                            "-112.01",
                            "22.12"
                        ],
                        [
                            "-112.59",
                            "22.79"
                        ],
                        [
                            "-113.34",
                            "23.33"
                        ],
                        [
                            "-114.63",
                            "23.00"
                        ],
                        [
                            "-115.22",
                            "22.59"
                        ]
                    ]
                ]
            },
            "properties": {
                "forecastId": null,
                "geometryId": null,
                "tag": "1C",
                "forecastHour": 6,
                "hazard": "FZLVL",
                "frequency": null,
                "severity": null,
                "status": "NRML",
                "base": null,
                "top": null,
                "fzlBase": null,
                "fzlTop": null,
                "level": "160",
                "product": "ZULU",
                "rawAirSigmet": null,
                "validTimeTo": "2026-08-15T09:00:00.000",
                "validTimeFrom": [
                    "2026-08-15T02:45"
                ]
            }
        },
        {
            "type": "Feature",
            "geometry": {
                "type": "Polygon",
                "coordinates": [
                    [
                        [
                            "-78.20",
                            "23.81"
                        ],
                        [
                            "-77.72",
                            "23.39"
                        ],
                        [
                            "-77.70",
                            "23.35"
                        ],
                        [
                            "-77.78",
                            "22.73"
                        ],
                        [
                            "-78.25",
                            "22.27"
                        ],
                        [
                            "-78.31",
                            "22.25"
                        ],
                        [
                            "-79.09",
                            "22.16"
                        ],
                        [
                            "-79.56",
                            "22.64"
                        ],
                        [
                            "-79.59",
                            "22.88"
                        ],
                        [
                            "-79.44",
                            "23.49"
                        ],
                        [
                            "-78.91",
                            "23.87"
                        ],
                        [
                            "-78.80",
                            "23.89"
                        ],
                        [
                            "-78.20",
                            "23.81"
                        ]
                    ]
                ]
            },
            "properties": {
                "forecastId": null,
                "geometryId": null,
                "tag": "1C",
                "forecastHour": 6,
                "hazard": "FZLVL",
                "frequency": null,
                "severity": null,
                "status": "NRML",
                "base": null,
                "top": null,
                "fzlBase": null,
                "fzlTop": null,
                "level": "160",
                "product": "ZULU",
                "rawAirSigmet": null,
                "validTimeTo": "2026-08-15T09:00:00.000",
                "validTimeFrom": [
                    "2026-08-15T02:45"
                ]
            }
        },
        {
            "type": "Feature",
            "geometry": {
                "type": "LineString",
                "coordinates": [
                    [
                        "-80.49",
                        "60.12"
                    ],
                    [
                        "-79.23",
                        "59.55"
                    ],
                    [
                        "-77.97",
                        "59.02"
                    ],
                    [
                        "-76.80",
                        "58.56"
                    ],
                    [
                        "-76.71",
                        "58.51"
                    ],
                    [
                        "-75.50",
                        "58.00"
                    ],
                    [
                        "-74.27",
                        "57.51"
                    ],
                    [
                        "-73.05",
                        "57.05"
                    ],
                    [
                        "-71.83",
                        "56.60"
                    ],
                    [
                        "-70.63",
                        "56.15"
                    ],
                    [
                        "-69.52",
                        "55.65"
                    ],
                    [
                        "-68.64",
                        "54.98"
                    ],
                    [
                        "-68.50",
                        "54.71"
                    ],
                    [
                        "-68.35",
                        "53.88"
                    ],
                    [
                        "-68.34",
                        "53.65"
                    ],
                    [
                        "-68.31",
                        "52.65"
                    ],
                    [
                        "-68.29",
                        "52.60"
                    ],
                    [
                        "-67.51",
                        "51.94"
                    ],
                    [
                        "-66.35",
                        "51.59"
                    ],
                    [
                        "-65.97",
                        "51.54"
                    ],
                    [
                        "-64.86",
                        "51.49"
                    ],
                    [
                        "-64.03",
                        "51.54"
                    ],
                    [
                        "-62.69",
                        "51.85"
                    ],
                    [
                        "-62.65",
                        "51.87"
                    ],
                    [
                        "-61.49",
                        "52.23"
                    ],
                    [
                        "-60.34",
                        "52.65"
                    ],
                    [
                        "-59.21",
                        "53.07"
                    ],
                    [
                        "-58.37",
                        "53.39"
                    ],
                    [
                        "-58.06",
                        "53.49"
                    ]
                ]
            },
            "properties": {
                "forecastId": null,
                "geometryId": null,
                "tag": "1C",
                "forecastHour": 6,
                "hazard": "FZLVL",
                "frequency": null,
                "severity": null,
                "status": "NRML",
                "base": null,
                "top": null,
                "fzlBase": null,
                "fzlTop": null,
                "level": "080",
                "product": "ZULU",
                "rawAirSigmet": null,
                "validTimeTo": "2026-08-15T09:00:00.000",
                "validTimeFrom": [
                    "2026-08-15T02:45"
                ]
            }
        },
        {
            "type": "Feature",
            "geometry": {
                "type": "Polygon",
                "coordinates": [
                    [
                        [
                            "-125.01",
                            "48.65"
                        ],
                        [
                            "-122.60",
                            "48.57"
                        ],
                        [
                            "-122.65",
                            "48.02"
                        ],
                        [
                            "-124.09",
                            "48.06"
                        ],
                        [
                            "-123.95",
                            "47.75"
                        ],
                        [
                            "-122.74",
                            "46.95"
                        ],
                        [
                            "-122.73",
                            "46.30"
                        ],
                        [
                            "-123.66",
                            "45.04"
                        ],
                        [
                            "-123.58",
                            "44.07"
                        ],
                        [
                            "-124.03",
                            "42.74"
                        ],
                        [
                            "-124.05",
                            "42.50"
                        ],
                        [
                            "-123.87",
                            "41.81"
                        ],
                        [
                            "-123.80",
                            "40.44"
                        ],
                        [
                            "-124.17",
                            "40.32"
                        ],
                        [
                            "-123.37",
                            "39.42"
                        ],
                        [
                            "-123.19",
                            "38.71"
                        ],
                        [
                            "-122.59",
                            "38.32"
                        ],
                        [
                            "-122.74",
                            "37.10"
                        ],
                        [
                            "-123.96",
                            "36.69"
                        ],
                        [
                            "-126.17",
                            "41.08"
                        ],
                        [
                            "-125.46",
                            "44.52"
                        ],
                        [
                            "-126.71",
                            "48.43"
                        ],
                        [
                            "-125.01",
                            "48.65"
                        ]
                    ]
                ]
            },
            "properties": {
                "forecastId": null,
                "geometryId": null,
                "tag": "2E",
                "forecastHour": 6,
                "hazard": "IFR",
                "frequency": null,
                "severity": null,
                "status": "NRML",
                "base": null,
                "top": null,
                "fzlBase": null,
                "fzlTop": null,
                "level": null,
                "product": "SIERRA",
                "rawAirSigmet": "CIG BLW 010 VIS BLW 3SM BR",
                "validTimeTo": "2026-08-15T09:00:00.000",
                "validTimeFrom": [
                    "2026-08-15T07:14"
                ]
            }
        },
        {
            "type": "Feature",
            "geometry": {
                "type": "Polygon",
                "coordinates": [
                    [
                        [
                            "-102.38",
                            "35.84"
                        ],
                        [
                            "-100.63",
                            "34.94"
                        ],
                        [
                            "-100.63",
                            "33.23"
                        ],
                        [
                            "-100.35",
                            "32.57"
                        ],
                        [
                            "-99.98",
                            "31.95"
                        ],
                        [
                            "-100.51",
                            "30.67"
                        ],
                        [
                            "-100.40",
                            "30.26"
                        ],
                        [
                            "-100.84",
                            "30.07"
                        ],
                        [
                            "-101.18",
                            "29.99"
                        ],
                        [
                            "-101.51",
                            "30.01"
                        ],
                        [
                            "-102.74",
                            "29.97"
                        ],
                        [
                            "-103.73",
                            "30.51"
                        ],
                        [
                            "-104.02",
                            "31.42"
                        ],
                        [
                            "-103.00",
                            "32.14"
                        ],
                        [
                            "-102.61",
                            "33.98"
                        ],
                        [
                            "-102.38",
                            "35.84"
                        ]
                    ]
                ]
            },
            "properties": {
                "forecastId": null,
                "geometryId": null,
                "tag": "1W",
                "forecastHour": 6,
                "hazard": "TURB-LO",
                "frequency": null,
                "severity": "MOD",
                "status": "NRML",
                "base": "SFC",
                "top": "070",
                "fzlBase": null,
                "fzlTop": null,
                "level": null,
                "product": "TANGO",
                "rawAirSigmet": null,
                "validTimeTo": "2026-08-15T09:00:00.000",
                "validTimeFrom": [
                    "2026-08-15T02:45"
                ]
            }
        },
        {
            "type": "Feature",
            "geometry": {
                "type": "Polygon",
                "coordinates": [
                    [
                        [
                            "-101.77",
                            "27.24"
                        ],
                        [
                            "-103.21",
                            "27.05"
                        ],
                        [
                            "-103.74",
                            "26.21"
                        ],
                        [
                            "-103.96",
                            "25.47"
                        ],
                        [
                            "-104.66",
                            "24.63"
                        ],
                        [
                            "-105.42",
                            "24.35"
                        ],
                        [
                            "-105.73",
                            "23.77"
                        ],
                        [
                            "-105.33",
                            "23.41"
                        ],
                        [
                            "-104.21",
                            "23.73"
                        ],
                        [
                            "-103.32",
                            "24.00"
                        ],
                        [
                            "-102.18",
                            "24.29"
                        ],
                        [
                            "-101.24",
                            "24.68"
                        ],
                        [
                            "-99.90",
                            "24.47"
                        ],
                        [
                            "-98.54",
                            "24.42"
                        ],
                        [
                            "-97.82",
                            "25.19"
                        ],
                        [
                            "-97.88",
                            "25.79"
                        ],
                        [
                            "-98.30",
                            "26.23"
                        ],
                        [
                            "-98.95",
                            "26.72"
                        ],
                        [
                            "-100.15",
                            "27.31"
                        ],
                        [
                            "-101.04",
                            "27.39"
                        ],
                        [
                            "-101.77",
                            "27.24"
                        ]
                    ]
                ]
            },
            "properties": {
                "forecastId": null,
                "geometryId": null,
                "tag": "1C",
                "forecastHour": 6,
                "hazard": "FZLVL",
                "frequency": null,
                "severity": null,
                "status": "NRML",
                "base": null,
                "top": null,
                "fzlBase": null,
                "fzlTop": null,
                "level": "160",
                "product": "ZULU",
                "rawAirSigmet": null,
                "validTimeTo": "2026-08-15T09:00:00.000",
                "validTimeFrom": [
                    "2026-08-15T02:45"
                ]
            }
        },
        {
            "type": "Feature",
            "geometry": {
                "type": "Polygon",
                "coordinates": [
                    [
                        [
                            "-121.34",
                            "35.78"
                        ],
                        [
                            "-120.34",
                            "35.44"
                        ],
                        [
                            "-119.94",
                            "34.16"
                        ],
                        [
                            "-120.83",
                            "34.34"
                        ],
                        [
                            "-121.34",
                            "35.78"
                        ]
                    ]
                ]
            },
            "properties": {
                "forecastId": null,
                "geometryId": null,
                "tag": "2E",
                "forecastHour": 6,
                "hazard": "IFR",
                "frequency": null,
                "severity": null,
                "status": "NRML",
                "base": null,
                "top": null,
                "fzlBase": null,
                "fzlTop": null,
                "level": null,
                "product": "SIERRA",
                "rawAirSigmet": "CIG BLW 010 VIS BLW 3SM BR",
                "validTimeTo": "2026-08-15T09:00:00.000",
                "validTimeFrom": [
                    "2026-08-15T07:14"
                ]
            }
        },
        {
            "type": "Feature",
            "geometry": {
                "type": "Polygon",
                "coordinates": [
                    [
                        [
                            "-110.36",
                            "48.25"
                        ],
                        [
                            "-107.10",
                            "47.71"
                        ],
                        [
                            "-108.62",
                            "46.38"
                        ],
                        [
                            "-110.71",
                            "46.45"
                        ],
                        [
                            "-112.34",
                            "46.92"
                        ],
                        [
                            "-113.13",
                            "48.23"
                        ],
                        [
                            "-110.36",
                            "48.25"
                        ]
                    ]
                ]
            },
            "properties": {
                "forecastId": null,
                "geometryId": null,
                "tag": "9E",
                "forecastHour": 6,
                "hazard": "IFR",
                "frequency": null,
                "severity": null,
                "status": "NRML",
                "base": null,
                "top": null,
                "fzlBase": null,
                "fzlTop": null,
                "level": null,
                "product": "SIERRA",
                "rawAirSigmet": "CIG BLW 010 VIS BLW 3SM PCPN BR",
                "validTimeTo": "2026-08-15T09:00:00.000",
                "validTimeFrom": [
                    "2026-08-15T07:14"
                ]
            }
        },
        {
            "type": "Feature",
            "geometry": {
                "type": "Polygon",
                "coordinates": [
                    [
                        [
                            "-98.97",
                            "49.07"
                        ],
                        [
                            "-100.29",
                            "47.30"
                        ],
                        [
                            "-102.17",
                            "46.80"
                        ],
                        [
                            "-106.16",
                            "46.69"
                        ],
                        [
                            "-106.38",
                            "49.01"
                        ],
                        [
                            "-98.97",
                            "49.07"
                        ]
                    ]
                ]
            },
            "properties": {
                "forecastId": null,
                "geometryId": null,
                "tag": "10E",
                "forecastHour": 6,
                "hazard": "IFR",
                "frequency": null,
                "severity": null,
                "status": "NRML",
                "base": null,
                "top": null,
                "fzlBase": null,
                "fzlTop": null,
                "level": null,
                "product": "SIERRA",
                "rawAirSigmet": "CIG BLW 010 VIS BLW 3SM PCPN BR FG",
                "validTimeTo": "2026-08-15T09:00:00.000",
                "validTimeFrom": [
                    "2026-08-15T07:14"
                ]
            }
        },
        {
            "type": "Feature",
            "geometry": {
                "type": "Polygon",
                "coordinates": [
                    [
                        [
                            "-94.81",
                            "46.51"
                        ],
                        [
                            "-94.28",
                            "45.81"
                        ],
                        [
                            "-93.97",
                            "44.78"
                        ],
                        [
                            "-92.25",
                            "44.08"
                        ],
                        [
                            "-91.40",
                            "43.30"
                        ],
                        [
                            "-88.77",
                            "41.69"
                        ],
                        [
                            "-88.39",
                            "40.74"
                        ],
                        [
                            "-88.94",
                            "40.04"
                        ],
                        [
                            "-90.37",
                            "40.04"
                        ],
                        [
                            "-92.82",
                            "40.85"
                        ],
                        [
                            "-95.44",
                            "41.18"
                        ],
                        [
                            "-96.31",
                            "40.85"
                        ],
                        [
                            "-97.99",
                            "40.99"
                        ],
                        [
                            "-98.42",
                            "41.66"
                        ],
                        [
                            "-98.32",
                            "42.51"
                        ],
                        [
                            "-98.52",
                            "43.91"
                        ],
                        [
                            "-99.56",
                            "46.50"
                        ],
                        [
                            "-94.81",
                            "46.51"
                        ]
                    ]
                ]
            },
            "properties": {
                "forecastId": null,
                "geometryId": null,
                "tag": "1E",
                "forecastHour": 6,
                "hazard": "IFR",
                "frequency": null,
                "severity": null,
                "status": "NRML",
                "base": null,
                "top": null,
                "fzlBase": null,
                "fzlTop": null,
                "level": null,
                "product": "SIERRA",
                "rawAirSigmet": "CIG BLW 010 VIS BLW 3SM PCPN BR FG",
                "validTimeTo": "2026-08-15T09:00:00.000",
                "validTimeFrom": [
                    "2026-08-15T07:14"
                ]
            }
        },
        {
            "type": "Feature",
            "geometry": {
                "type": "Polygon",
                "coordinates": [
                    [
                        [
                            "-103.66",
                            "42.35"
                        ],
                        [
                            "-101.74",
                            "42.13"
                        ],
                        [
                            "-101.00",
                            "40.40"
                        ],
                        [
                            "-102.09",
                            "39.26"
                        ],
                        [
                            "-104.59",
                            "39.18"
                        ],
                        [
                            "-105.36",
                            "41.12"
                        ],
                        [
                            "-103.66",
                            "42.35"
                        ]
                    ]
                ]
            },
            "properties": {
                "forecastId": null,
                "geometryId": null,
                "tag": "8E",
                "forecastHour": 6,
                "hazard": "IFR",
                "frequency": null,
                "severity": null,
                "status": "NRML",
                "base": null,
                "top": null,
                "fzlBase": null,
                "fzlTop": null,
                "level": null,
                "product": "SIERRA",
                "rawAirSigmet": "CIG BLW 010 VIS BLW 3SM PCPN BR",
                "validTimeTo": "2026-08-15T09:00:00.000",
                "validTimeFrom": [
                    "2026-08-15T07:14"
                ]
            }
        },
        {
            "type": "Feature",
            "geometry": {
                "type": "Polygon",
                "coordinates": [
                    [
                        [
                            "-70.53",
                            "45.68"
                        ],
                        [
                            "-70.78",
                            "44.14"
                        ],
                        [
                            "-72.62",
                            "42.53"
                        ],
                        [
                            "-73.31",
                            "42.31"
                        ],
                        [
                            "-74.07",
                            "42.53"
                        ],
                        [
                            "-75.82",
                            "41.43"
                        ],
                        [
                            "-78.15",
                            "41.16"
                        ],
                        [
                            "-79.66",
                            "41.95"
                        ],
                        [
                            "-79.69",
                            "42.32"
                        ],
                        [
                            "-76.19",
                            "43.11"
                        ],
                        [
                            "-75.94",
                            "44.41"
                        ],
                        [
                            "-75.12",
                            "44.97"
                        ],
                        [
                            "-71.66",
                            "45.34"
                        ],
                        [
                            "-70.53",
                            "45.68"
                        ]
                    ]
                ]
            },
            "properties": {
                "forecastId": null,
                "geometryId": null,
                "tag": "6E",
                "forecastHour": 6,
                "hazard": "IFR",
                "frequency": null,
                "severity": null,
                "status": "NRML",
                "base": null,
                "top": null,
                "fzlBase": null,
                "fzlTop": null,
                "level": null,
                "product": "SIERRA",
                "rawAirSigmet": "CIG BLW 010 VIS BLW 3SM BR FG",
                "validTimeTo": "2026-08-15T09:00:00.000",
                "validTimeFrom": [
                    "2026-08-15T07:14"
                ]
            }
        },
        {
            "type": "Feature",
            "geometry": {
                "type": "Polygon",
                "coordinates": [
                    [
                        [
                            "-95.64",
                            "39.35"
                        ],
                        [
                            "-93.83",
                            "38.88"
                        ],
                        [
                            "-93.01",
                            "38.13"
                        ],
                        [
                            "-93.67",
                            "37.42"
                        ],
                        [
                            "-94.49",
                            "35.94"
                        ],
                        [
                            "-94.65",
                            "34.97"
                        ],
                        [
                            "-95.50",
                            "35.71"
                        ],
                        [
                            "-98.20",
                            "35.77"
                        ],
                        [
                            "-100.02",
                            "34.20"
                        ],
                        [
                            "-100.96",
                            "34.35"
                        ],
                        [
                            "-101.89",
                            "35.61"
                        ],
                        [
                            "-101.31",
                            "37.05"
                        ],
                        [
                            "-100.49",
                            "37.39"
                        ],
                        [
                            "-99.11",
                            "37.12"
                        ],
                        [
                            "-97.54",
                            "37.62"
                        ],
                        [
                            "-96.41",
                            "38.20"
                        ],
                        [
                            "-96.72",
                            "38.74"
                        ],
                        [
                            "-95.64",
                            "39.35"
                        ]
                    ]
                ]
            },
            "properties": {
                "forecastId": null,
                "geometryId": null,
                "tag": "1W",
                "forecastHour": 6,
                "hazard": "LLWS",
                "frequency": null,
                "severity": null,
                "status": "NRML",
                "base": null,
                "top": null,
                "fzlBase": null,
                "fzlTop": null,
                "level": null,
                "product": "TANGO",
                "rawAirSigmet": "AIR SPEED LOSS OR GAIN OF 20KTS OR MORE BELOW 2000 FT AGL",
                "validTimeTo": "2026-08-15T09:00:00.000",
                "validTimeFrom": [
                    "2026-08-15T02:45"
                ]
            }
        },
        {
            "type": "Feature",
            "geometry": {
                "type": "Polygon",
                "coordinates": [
                    [
                        [
                            "-85.51",
                            "41.87"
                        ],
                        [
                            "-84.18",
                            "41.38"
                        ],
                        [
                            "-82.65",
                            "40.65"
                        ],
                        [
                            "-80.65",
                            "40.47"
                        ],
                        [
                            "-79.48",
                            "40.67"
                        ],
                        [
                            "-78.54",
                            "40.25"
                        ],
                        [
                            "-78.12",
                            "39.47"
                        ],
                        [
                            "-78.28",
                            "38.70"
                        ],
                        [
                            "-77.49",
                            "37.88"
                        ],
                        [
                            "-77.22",
                            "36.52"
                        ],
                        [
                            "-78.79",
                            "36.58"
                        ],
                        [
                            "-79.66",
                            "36.91"
                        ],
                        [
                            "-80.65",
                            "36.80"
                        ],
                        [
                            "-82.49",
                            "36.56"
                        ],
                        [
                            "-83.67",
                            "36.25"
                        ],
                        [
                            "-83.15",
                            "37.24"
                        ],
                        [
                            "-84.89",
                            "39.29"
                        ],
                        [
                            "-84.73",
                            "40.35"
                        ],
                        [
                            "-86.72",
                            "41.02"
                        ],
                        [
                            "-86.65",
                            "41.65"
                        ],
                        [
                            "-85.51",
                            "41.87"
                        ]
                    ]
                ]
            },
            "properties": {
                "forecastId": null,
                "geometryId": null,
                "tag": "7E",
                "forecastHour": 6,
                "hazard": "IFR",
                "frequency": null,
                "severity": null,
                "status": "NRML",
                "base": null,
                "top": null,
                "fzlBase": null,
                "fzlTop": null,
                "level": null,
                "product": "SIERRA",
                "rawAirSigmet": "CIG BLW 010 VIS BLW 3SM PCPN BR FG",
                "validTimeTo": "2026-08-15T09:00:00.000",
                "validTimeFrom": [
                    "2026-08-15T07:14"
                ]
            }
        },
        {
            "type": "Feature",
            "geometry": {
                "type": "LineString",
                "coordinates": [
                    [
                        "-136.35",
                        "26.30"
                    ],
                    [
                        "-132.71",
                        "26.26"
                    ],
                    [
                        "-130.87",
                        "26.46"
                    ],
                    [
                        "-128.28",
                        "27.37"
                    ],
                    [
                        "-124.39",
                        "28.80"
                    ],
                    [
                        "-123.51",
                        "28.55"
                    ],
                    [
                        "-123.47",
                        "27.46"
                    ],
                    [
                        "-123.71",
                        "25.90"
                    ],
                    [
                        "-123.94",
                        "24.52"
                    ],
                    [
                        "-124.81",
                        "23.22"
                    ],
                    [
                        "-124.96",
                        "22.62"
                    ],
                    [
                        "-124.24",
                        "22.15"
                    ],
                    [
                        "-123.63",
                        "22.09"
                    ],
                    [
                        "-122.57",
                        "22.36"
                    ],
                    [
                        "-121.42",
                        "22.81"
                    ],
                    [
                        "-120.27",
                        "23.75"
                    ],
                    [
                        "-118.89",
                        "26.55"
                    ],
                    [
                        "-117.94",
                        "27.55"
                    ],
                    [
                        "-116.59",
                        "28.56"
                    ],
                    [
                        "-115.42",
                        "29.18"
                    ],
                    [
                        "-114.01",
                        "29.00"
                    ],
                    [
                        "-113.27",
                        "28.63"
                    ],
                    [
                        "-112.00",
                        "28.48"
                    ],
                    [
                        "-110.23",
                        "29.16"
                    ],
                    [
                        "-109.12",
                        "29.93"
                    ],
                    [
                        "-108.77",
                        "34.21"
                    ],
                    [
                        "-108.55",
                        "35.90"
                    ],
                    [
                        "-107.62",
                        "37.37"
                    ],
                    [
                        "-106.14",
                        "38.77"
                    ],
                    [
                        "-104.83",
                        "40.42"
                    ],
                    [
                        "-103.67",
                        "41.81"
                    ],
                    [
                        "-101.98",
                        "42.49"
                    ],
                    [
                        "-100.44",
                        "43.34"
                    ],
                    [
                        "-99.84",
                        "44.29"
                    ],
                    [
                        "-99.02",
                        "45.02"
                    ],
                    [
                        "-97.99",
                        "45.62"
                    ],
                    [
                        "-96.94",
                        "45.98"
                    ],
                    [
                        "-95.42",
                        "46.01"
                    ],
                    [
                        "-93.91",
                        "45.70"
                    ],
                    [
                        "-87.63",
                        "44.24"
                    ],
                    [
                        "-85.63",
                        "43.98"
                    ],
                    [
                        "-83.62",
                        "43.43"
                    ],
                    [
                        "-79.34",
                        "41.07"
                    ],
                    [
                        "-76.84",
                        "40.25"
                    ],
                    [
                        "-74.50",
                        "39.63"
                    ],
                    [
                        "-72.89",
                        "39.16"
                    ],
                    [
                        "-71.34",
                        "38.49"
                    ],
                    [
                        "-70.35",
                        "37.50"
                    ],
                    [
                        "-70.55",
                        "36.46"
                    ],
                    [
                        "-72.24",
                        "35.72"
                    ],
                    [
                        "-73.87",
                        "35.21"
                    ],
                    [
                        "-74.47",
                        "34.32"
                    ],
                    [
                        "-74.13",
                        "33.50"
                    ],
                    [
                        "-73.67",
                        "33.05"
                    ],
                    [
                        "-72.49",
                        "32.51"
                    ],
                    [
                        "-70.50",
                        "32.20"
                    ],
                    [
                        "-68.85",
                        "32.05"
                    ],
                    [
                        "-66.75",
                        "31.91"
                    ],
                    [
                        "-66.07",
                        "31.07"
                    ],
                    [
                        "-67.03",
                        "30.72"
                    ],
                    [
                        "-67.95",
                        "30.68"
                    ],
                    [
                        "-69.70",
                        "30.85"
                    ],
                    [
                        "-71.46",
                        "30.75"
                    ],
                    [
                        "-73.00",
                        "30.37"
                    ],
                    [
                        "-79.62",
                        "28.36"
                    ],
                    [
                        "-80.84",
                        "26.87"
                    ],
                    [
                        "-82.06",
                        "26.57"
                    ],
                    [
                        "-83.00",
                        "26.41"
                    ],
                    [
                        "-83.64",
                        "25.88"
                    ],
                    [
                        "-84.59",
                        "24.07"
                    ],
                    [
                        "-85.76",
                        "22.90"
                    ],
                    [
                        "-86.58",
                        "21.73"
                    ],
                    [
                        "-86.64",
                        "20.82"
                    ],
                    [
                        "-86.23",
                        "20.18"
                    ],
                    [
                        "-85.21",
                        "19.24"
                    ],
                    [
                        "-84.31",
                        "18.22"
                    ],
                    [
                        "-83.27",
                        "18.48"
                    ],
                    [
                        "-82.01",
                        "19.04"
                    ],
                    [
                        "-80.47",
                        "18.99"
                    ],
                    [
                        "-79.34",
                        "18.04"
                    ],
                    [
                        "-78.65",
                        "17.59"
                    ],
                    [
                        "-77.94",
                        "17.50"
                    ],
                    [
                        "-77.08",
                        "17.69"
                    ],
                    [
                        "-76.39",
                        "18.39"
                    ],
                    [
                        "-75.72",
                        "20.34"
                    ],
                    [
                        "-75.19",
                        "20.87"
                    ],
                    [
                        "-74.44",
                        "20.97"
                    ],
                    [
                        "-72.94",
                        "20.63"
                    ],
                    [
                        "-71.36",
                        "20.50"
                    ],
                    [
                        "-69.85",
                        "20.00"
                    ],
                    [
                        "-68.31",
                        "19.53"
                    ],
                    [
                        "-66.88",
                        "19.39"
                    ],
                    [
                        "-65.81",
                        "18.86"
                    ],
                    [
                        "-65.19",
                        "17.50"
                    ]
                ]
            },
            "properties": {
                "forecastId": null,
                "geometryId": null,
                "tag": "1C",
                "forecastHour": 6,
                "hazard": "FZLVL",
                "frequency": null,
                "severity": null,
                "status": "NRML",
                "base": null,
                "top": null,
                "fzlBase": null,
                "fzlTop": null,
                "level": "160",
                "product": "ZULU",
                "rawAirSigmet": null,
                "validTimeTo": "2026-08-15T09:00:00.000",
                "validTimeFrom": [
                    "2026-08-15T02:45"
                ]
            }
        },
        {
            "type": "Feature",
            "geometry": {
                "type": "Polygon",
                "coordinates": [
                    [
                        [
                            "-98.74",
                            "49.01"
                        ],
                        [
                            "-96.79",
                            "48.93"
                        ],
                        [
                            "-95.14",
                            "48.94"
                        ],
                        [
                            "-94.47",
                            "48.67"
                        ],
                        [
                            "-92.90",
                            "48.48"
                        ],
                        [
                            "-92.15",
                            "48.25"
                        ],
                        [
                            "-91.00",
                            "47.99"
                        ],
                        [
                            "-90.45",
                            "47.85"
                        ],
                        [
                            "-90.65",
                            "47.48"
                        ],
                        [
                            "-91.48",
                            "47.26"
                        ],
                        [
                            "-92.28",
                            "47.21"
                        ],
                        [
                            "-93.39",
                            "47.36"
                        ],
                        [
                            "-94.31",
                            "47.55"
                        ],
                        [
                            "-95.48",
                            "47.71"
                        ],
                        [
                            "-96.42",
                            "47.66"
                        ],
                        [
                            "-97.55",
                            "47.66"
                        ],
                        [
                            "-98.74",
                            "47.96"
                        ],
                        [
                            "-99.23",
                            "48.33"
                        ],
                        [
                            "-99.21",
                            "48.74"
                        ],
                        [
                            "-98.74",
                            "49.01"
                        ]
                    ]
                ]
            },
            "properties": {
                "forecastId": null,
                "geometryId": null,
                "tag": "1C",
                "forecastHour": 6,
                "hazard": "ICE",
                "frequency": null,
                "severity": "MOD",
                "status": "NRML",
                "base": "FZL",
                "top": "220",
                "fzlBase": "130",
                "fzlTop": "150",
                "level": null,
                "product": "ZULU",
                "rawAirSigmet": "ICE",
                "validTimeTo": "2026-08-15T09:00:00.000",
                "validTimeFrom": [
                    "2026-08-15T02:45"
                ]
            }
        },
        {
            "type": "Feature",
            "geometry": {
                "type": "Polygon",
                "coordinates": [
                    [
                        [
                            "-114.22",
                            "49.02"
                        ],
                        [
                            "-112.97",
                            "48.86"
                        ],
                        [
                            "-111.20",
                            "47.55"
                        ],
                        [
                            "-109.74",
                            "48.41"
                        ],
                        [
                            "-106.05",
                            "42.98"
                        ],
                        [
                            "-107.68",
                            "42.68"
                        ],
                        [
                            "-108.47",
                            "43.23"
                        ],
                        [
                            "-108.16",
                            "44.63"
                        ],
                        [
                            "-109.43",
                            "45.85"
                        ],
                        [
                            "-110.97",
                            "46.15"
                        ],
                        [
                            "-112.08",
                            "45.99"
                        ],
                        [
                            "-113.54",
                            "46.98"
                        ],
                        [
                            "-114.22",
                            "49.02"
                        ]
                    ]
                ]
            },
            "properties": {
                "forecastId": null,
                "geometryId": null,
                "tag": "4E",
                "forecastHour": 6,
                "hazard": "MT_OBSC",
                "frequency": null,
                "severity": null,
                "status": "NRML",
                "base": null,
                "top": null,
                "fzlBase": null,
                "fzlTop": null,
                "level": null,
                "product": "SIERRA",
                "rawAirSigmet": "MTNS OBSC BY CLDS PCPN BR",
                "validTimeTo": "2026-08-15T09:00:00.000",
                "validTimeFrom": [
                    "2026-08-15T07:14"
                ]
            }
        },
        {
            "type": "Feature",
            "geometry": {
                "type": "Polygon",
                "coordinates": [
                    [
                        [
                            "-80.24",
                            "40.81"
                        ],
                        [
                            "-79.59",
                            "40.75"
                        ],
                        [
                            "-78.48",
                            "40.22"
                        ],
                        [
                            "-77.99",
                            "39.08"
                        ],
                        [
                            "-79.58",
                            "36.88"
                        ],
                        [
                            "-83.75",
                            "36.11"
                        ],
                        [
                            "-83.45",
                            "37.56"
                        ],
                        [
                            "-81.86",
                            "38.84"
                        ],
                        [
                            "-80.24",
                            "40.81"
                        ]
                    ]
                ]
            },
            "properties": {
                "forecastId": null,
                "geometryId": null,
                "tag": "1E",
                "forecastHour": 6,
                "hazard": "MT_OBSC",
                "frequency": null,
                "severity": null,
                "status": "NRML",
                "base": null,
                "top": null,
                "fzlBase": null,
                "fzlTop": null,
                "level": null,
                "product": "SIERRA",
                "rawAirSigmet": "MTNS OBSC BY CLDS PCPN BR FG",
                "validTimeTo": "2026-08-15T09:00:00.000",
                "validTimeFrom": [
                    "2026-08-15T07:14"
                ]
            }
        },
        {
            "type": "Feature",
            "geometry": {
                "type": "Polygon",
                "coordinates": [
                    [
                        [
                            "-70.46",
                            "45.61"
                        ],
                        [
                            "-70.34",
                            "44.31"
                        ],
                        [
                            "-72.00",
                            "42.90"
                        ],
                        [
                            "-73.35",
                            "42.21"
                        ],
                        [
                            "-74.04",
                            "42.50"
                        ],
                        [
                            "-75.75",
                            "41.40"
                        ],
                        [
                            "-78.18",
                            "41.04"
                        ],
                        [
                            "-79.54",
                            "41.63"
                        ],
                        [
                            "-79.17",
                            "42.20"
                        ],
                        [
                            "-76.68",
                            "42.93"
                        ],
                        [
                            "-74.72",
                            "44.84"
                        ],
                        [
                            "-71.82",
                            "45.45"
                        ],
                        [
                            "-70.46",
                            "45.61"
                        ]
                    ]
                ]
            },
            "properties": {
                "forecastId": null,
                "geometryId": null,
                "tag": "1E",
                "forecastHour": 6,
                "hazard": "MT_OBSC",
                "frequency": null,
                "severity": null,
                "status": "NRML",
                "base": null,
                "top": null,
                "fzlBase": null,
                "fzlTop": null,
                "level": null,
                "product": "SIERRA",
                "rawAirSigmet": "MTNS OBSC BY CLDS BR FG",
                "validTimeTo": "2026-08-15T09:00:00.000",
                "validTimeFrom": [
                    "2026-08-15T07:14"
                ]
            }
        },
        {
            "type": "Feature",
            "geometry": {
                "type": "LineString",
                "coordinates": [
                    [
                        "-140.93",
                        "51.06"
                    ],
                    [
                        "-140.60",
                        "50.27"
                    ],
                    [
                        "-140.28",
                        "48.78"
                    ],
                    [
                        "-140.84",
                        "48.20"
                    ],
                    [
                        "-142.25",
                        "47.45"
                    ],
                    [
                        "-145.11",
                        "45.56"
                    ],
                    [
                        "-145.85",
                        "44.67"
                    ],
                    [
                        "-146.02",
                        "43.99"
                    ],
                    [
                        "-145.57",
                        "42.91"
                    ],
                    [
                        "-144.09",
                        "41.88"
                    ],
                    [
                        "-141.88",
                        "40.89"
                    ],
                    [
                        "-139.94",
                        "39.81"
                    ],
                    [
                        "-138.80",
                        "39.26"
                    ],
                    [
                        "-137.59",
                        "39.21"
                    ],
                    [
                        "-136.76",
                        "39.42"
                    ],
                    [
                        "-135.16",
                        "40.13"
                    ],
                    [
                        "-133.38",
                        "41.39"
                    ],
                    [
                        "-132.66",
                        "42.14"
                    ],
                    [
                        "-132.28",
                        "42.99"
                    ],
                    [
                        "-132.19",
                        "44.81"
                    ],
                    [
                        "-132.11",
                        "45.31"
                    ],
                    [
                        "-131.41",
                        "45.84"
                    ],
                    [
                        "-129.39",
                        "46.47"
                    ],
                    [
                        "-127.64",
                        "46.89"
                    ],
                    [
                        "-125.67",
                        "46.98"
                    ],
                    [
                        "-122.47",
                        "46.82"
                    ],
                    [
                        "-120.53",
                        "47.17"
                    ],
                    [
                        "-119.39",
                        "47.57"
                    ],
                    [
                        "-117.21",
                        "48.13"
                    ],
                    [
                        "-115.37",
                        "48.32"
                    ],
                    [
                        "-113.23",
                        "48.38"
                    ],
                    [
                        "-111.09",
                        "48.58"
                    ],
                    [
                        "-109.13",
                        "49.01"
                    ],
                    [
                        "-108.06",
                        "49.36"
                    ],
                    [
                        "-106.80",
                        "50.01"
                    ],
                    [
                        "-104.48",
                        "51.33"
                    ],
                    [
                        "-103.24",
                        "51.73"
                    ],
                    [
                        "-101.34",
                        "52.07"
                    ],
                    [
                        "-99.20",
                        "52.21"
                    ],
                    [
                        "-96.98",
                        "52.05"
                    ],
                    [
                        "-94.88",
                        "51.62"
                    ],
                    [
                        "-93.17",
                        "51.02"
                    ],
                    [
                        "-92.14",
                        "50.68"
                    ],
                    [
                        "-90.03",
                        "50.44"
                    ],
                    [
                        "-87.23",
                        "50.79"
                    ],
                    [
                        "-85.67",
                        "50.60"
                    ],
                    [
                        "-84.64",
                        "50.17"
                    ],
                    [
                        "-82.97",
                        "48.74"
                    ],
                    [
                        "-82.26",
                        "47.89"
                    ],
                    [
                        "-80.69",
                        "46.72"
                    ],
                    [
                        "-78.95",
                        "46.05"
                    ],
                    [
                        "-77.59",
                        "45.73"
                    ],
                    [
                        "-75.67",
                        "45.44"
                    ],
                    [
                        "-73.22",
                        "45.11"
                    ],
                    [
                        "-71.60",
                        "44.33"
                    ],
                    [
                        "-70.11",
                        "43.24"
                    ],
                    [
                        "-68.41",
                        "41.87"
                    ],
                    [
                        "-67.26",
                        "41.02"
                    ],
                    [
                        "-65.83",
                        "40.34"
                    ],
                    [
                        "-63.69",
                        "39.81"
                    ],
                    [
                        "-61.26",
                        "39.63"
                    ],
                    [
                        "-58.70",
                        "39.64"
                    ],
                    [
                        "-56.75",
                        "40.02"
                    ],
                    [
                        "-54.17",
                        "41.24"
                    ],
                    [
                        "-49.79",
                        "44.03"
                    ],
                    [
                        "-46.26",
                        "45.95"
                    ]
                ]
            },
            "properties": {
                "forecastId": null,
                "geometryId": null,
                "tag": "1C",
                "forecastHour": 6,
                "hazard": "FZLVL",
                "frequency": null,
                "severity": null,
                "status": "NRML",
                "base": null,
                "top": null,
                "fzlBase": null,
                "fzlTop": null,
                "level": "120",
                "product": "ZULU",
                "rawAirSigmet": null,
                "validTimeTo": "2026-08-15T09:00:00.000",
                "validTimeFrom": [
                    "2026-08-15T02:45"
                ]
            }
        }
    ],
    "metadata": {
        "creationTime": "2026-08-15T08:37"
    }
}