{
    "type": "FeatureCollection",
    "features": [
        {
            "type": "Feature",
            "geometry": {
                "type": "LineString",
                "coordinates": [
                    [
                        "-147.22",
                        "36.36"
                    ],
                    [
                        "-141.71",
                        "37.76"
                    ],
                    [
                        "-139.88",
                        "38.10"
                    ],
                    [
                        "-138.33",
                        "38.18"
                    ],
                    [
                        "-137.12",
                        "38.36"
                    ],
                    [
                        "-135.07",
                        "38.94"
                    ],
                    [
                        "-133.40",
                        "39.31"
                    ],
                    [
                        "-130.75",
                        "39.70"
                    ],
                    [
                        "-128.75",
                        "40.46"
                    ],
                    [
                        "-126.98",
                        "41.67"
                    ],
                    [
                        "-124.83",
                        "43.22"
                    ],
                    [
                        "-123.14",
                        "44.24"
                    ],
                    [
                        "-121.41",
                        "44.95"
                    ],
                    [
                        "-120.16",
                        "45.26"
                    ],
                    [
                        "-118.69",
                        "45.42"
                    ],
                    [
                        "-116.43",
                        "45.46"
                    ],
                    [
                        "-113.99",
                        "45.61"
                    ],
                    [
                        "-112.45",
                        "45.60"
                    ],
                    [
                        "-110.88",
                        "45.42"
                    ],
                    [
                        "-107.55",
                        "44.80"
                    ],
                    [
                        "-105.81",
                        "44.49"
                    ],
                    [
                        "-104.27",
                        "44.01"
                    ],
                    [
                        "-102.52",
                        "43.00"
                    ],
                    [
                        "-101.00",
                        "41.87"
                    ],
                    [
                        "-99.92",
                        "40.94"
                    ],
                    [
                        "-98.94",
                        "39.63"
                    ],
                    [
                        "-97.91",
                        "37.33"
                    ],
                    [
                        "-96.82",
                        "35.52"
                    ],
                    [
                        "-96.56",
                        "34.66"
                    ],
                    [
                        "-97.13",
                        "34.01"
                    ],
                    [
                        "-98.60",
                        "33.21"
                    ],
                    [
                        "-99.67",
                        "32.51"
                    ],
                    [
                        "-100.47",
                        "31.26"
                    ],
                    [
                        "-99.05",
                        "30.74"
                    ],
                    [
                        "-97.47",
                        "30.66"
                    ],
                    [
                        "-96.11",
                        "30.18"
                    ],
                    [
                        "-95.50",
                        "29.30"
                    ],
                    [
                        "-94.77",
                        "28.05"
                    ],
                    [
                        "-94.26",
                        "27.63"
                    ],
                    [
                        "-93.21",
                        "27.36"
                    ],
                    [
                        "-91.55",
                        "27.05"
                    ],
                    [
                        "-90.72",
                        "27.11"
                    ],
                    [
                        "-90.10",
                        "27.71"
                    ],
                    [
                        "-89.62",
                        "28.91"
                    ],
                    [
                        "-88.91",
                        "29.80"
                    ],
                    [
                        "-87.06",
                        "31.70"
                    ],
                    [
                        "-86.04",
                        "32.22"
                    ],
                    [
                        "-84.30",
                        "32.72"
                    ],
                    [
                        "-83.01",
                        "33.02"
                    ],
                    [
                        "-81.29",
                        "33.17"
                    ],
                    [
                        "-80.12",
                        "33.11"
                    ],
                    [
                        "-79.03",
                        "32.50"
                    ],
                    [
                        "-79.38",
                        "31.18"
                    ],
                    [
                        "-80.08",
                        "29.96"
                    ],
                    [
                        "-80.23",
                        "28.69"
                    ],
                    [
                        "-79.52",
                        "27.82"
                    ],
                    [
                        "-78.69",
                        "27.43"
                    ],
                    [
                        "-77.00",
                        "27.23"
                    ],
                    [
                        "-75.96",
                        "27.61"
                    ],
                    [
                        "-73.60",
                        "28.83"
                    ],
                    [
                        "-72.79",
                        "29.39"
                    ],
                    [
                        "-71.51",
                        "30.57"
                    ],
                    [
                        "-70.42",
                        "31.39"
                    ],
                    [
                        "-69.61",
                        "32.08"
                    ],
                    [
                        "-69.10",
                        "32.92"
                    ],
                    [
                        "-67.72",
                        "35.66"
                    ],
                    [
                        "-66.25",
                        "37.87"
                    ],
                    [
                        "-64.93",
                        "38.75"
                    ],
                    [
                        "-63.52",
                        "39.44"
                    ],
                    [
                        "-61.90",
                        "41.01"
                    ],
                    [
                        "-59.99",
                        "41.71"
                    ],
                    [
                        "-58.35",
                        "41.60"
                    ],
                    [
                        "-56.39",
                        "41.28"
                    ],
                    [
                        "-54.91",
                        "40.88"
                    ],
                    [
                        "-53.89",
                        "40.66"
                    ],
                    [
                        "-53.04",
                        "40.79"
                    ],
                    [
                        "-51.59",
                        "41.99"
                    ],
                    [
                        "-50.65",
                        "42.63"
                    ],
                    [
                        "-49.46",
                        "42.66"
                    ],
                    [
                        "-48.73",
                        "41.85"
                    ],
                    [
                        "-47.87",
                        "40.02"
                    ],
                    [
                        "-46.66",
                        "38.61"
                    ],
                    [
                        "-45.30",
                        "37.73"
                    ]
                ]
            },
            "properties": {
                "forecastId": null,
                "geometryId": null,
                "tag": "1C",
                "forecastHour": 6,
                "hazard": "FZLVL",
                "frequency": null,
                "severity": null,
                "status": "NRML",
                "base": null,
                "top": null,
                "fzlBase": null,
                "fzlTop": null,
                "level": "160",
                "product": "ZULU",
                "rawAirSigmet": null,
                "validTimeTo": "2026-08-08T09:00:00.000",
                "validTimeFrom": [
                    "2026-08-08T02:45"
                ]
            }
        },
        {
            "type": "Feature",
            "geometry": {
                "type": "Polygon",
                "coordinates": [
                    [
                        [
                            "-70.43",
                            "45.79"
                        ],
                        [
                            "-70.02",
                            "45.59"
                        ],
                        [
                            "-69.94",
                            "44.91"
                        ],
                        [
                            "-70.51",
                            "43.94"
                        ],
                        [
                            "-71.36",
                            "43.79"
                        ],
                        [
                            "-71.78",
                            "43.52"
                        ],
                        [
                            "-72.12",
                            "42.87"
                        ],
                        [
                            "-73.20",
                            "42.08"
                        ],
                        [
                            "-73.13",
                            "41.74"
                        ],
                        [
                            "-72.72",
                            "41.56"
                        ],
                        [
                            "-73.18",
                            "41.24"
                        ],
                        [
                            "-73.66",
                            "41.03"
                        ],
                        [
                            "-74.26",
                            "40.96"
                        ],
                        [
                            "-74.78",
                            "40.26"
                        ],
                        [
                            "-75.42",
                            "40.33"
                        ],
                        [
                            "-75.84",
                            "39.80"
                        ],
                        [
                            "-76.45",
                            "39.96"
                        ],
                        [
                            "-79.73",
                            "41.36"
                        ],
                        [
                            "-79.83",
                            "42.07"
                        ],
                        [
                            "-78.86",
                            "42.85"
                        ],
                        [
                            "-79.08",
                            "43.30"
                        ],
                        [
                            "-76.49",
                            "43.28"
                        ],
                        [
                            "-76.37",
                            "44.11"
                        ],
                        [
                            "-74.89",
                            "45.01"
                        ],
                        [
                            "-73.90",
                            "44.98"
                        ],
                        [
                            "-73.46",
                            "44.30"
                        ],
                        [
                            "-73.09",
                            "44.30"
                        ],
                        [
                            "-73.02",
                            "44.68"
                        ],
                        [
                            "-72.70",
                            "45.01"
                        ],
                        [
                            "-71.50",
                            "45.02"
                        ],
                        [
                            "-71.38",
                            "45.30"
                        ],
                        [
                            "-70.90",
                            "45.31"
                        ],
                        [
                            "-70.43",
                            "45.79"
                        ]
                    ]
                ]
            },
            "properties": {
                "forecastId": null,
                "geometryId": null,
                "tag": "4E",
                "forecastHour": 6,
                "hazard": "IFR",
                "frequency": null,
                "severity": null,
                "status": "NRML",
                "base": null,
                "top": null,
                "fzlBase": null,
                "fzlTop": null,
                "level": null,
                "product": "SIERRA",
                "rawAirSigmet": "CIG BLW 010 VIS BLW 3SM PCPN BR FG",
                "validTimeTo": "2026-08-08T09:00:00.000",
                "validTimeFrom": [
                    "2026-08-08T03:36"
                ]
            }
        },
        {
            "type": "Feature",
            "geometry": {
                "type": "LineString",
                "coordinates": [
                    [
                        "-56.34",
                        "28.48"
                    ],
                    [
                        "-56.41",
                        "28.46"
                    ],
                    [
                        "-57.12",
                        "28.28"
                    ],
                    [
                        "-57.67",
                        "27.86"
                    ],
                    [
                        "-57.62",
                        "27.49"
                    ]
                ]
            },
            "properties": {
                "forecastId": null,
                "geometryId": null,
                "tag": "1C",
                "forecastHour": 6,
                "hazard": "FZLVL",
                "frequency": null,
                "severity": null,
                "status": "NRML",
                "base": null,
                "top": null,
                "fzlBase": null,
                "fzlTop": null,
                "level": "160",
                "product": "ZULU",
                "rawAirSigmet": null,
                "validTimeTo": "2026-08-08T09:00:00.000",
                "validTimeFrom": [
                    "2026-08-08T02:45"
                ]
            }
        },
        {
            "type": "Feature",
            "geometry": {
                "type": "LineString",
                "coordinates": [
                    [
                        "-129.83",
                        "18.65"
                    ],
                    [
                        "-129.03",
                        "18.36"
                    ],
                    [
                        "-127.90",
                        "18.41"
                    ],
                    [
                        "-126.12",
                        "19.28"
                    ],
                    [
                        "-124.52",
                        "19.81"
                    ],
                    [
                        "-123.43",
                        "20.93"
                    ],
                    [
                        "-123.12",
                        "21.85"
                    ],
                    [
                        "-123.12",
                        "23.58"
                    ],
                    [
                        "-123.47",
                        "24.28"
                    ],
                    [
                        "-124.13",
                        "24.94"
                    ],
                    [
                        "-125.21",
                        "25.59"
                    ],
                    [
                        "-126.44",
                        "26.38"
                    ],
                    [
                        "-127.12",
                        "27.21"
                    ],
                    [
                        "-127.32",
                        "28.22"
                    ],
                    [
                        "-126.84",
                        "31.13"
                    ],
                    [
                        "-126.65",
                        "32.34"
                    ],
                    [
                        "-126.23",
                        "33.58"
                    ],
                    [
                        "-125.85",
                        "35.06"
                    ],
                    [
                        "-125.89",
                        "36.22"
                    ],
                    [
                        "-126.14",
                        "36.62"
                    ],
                    [
                        "-126.89",
                        "36.73"
                    ],
                    [
                        "-127.86",
                        "36.33"
                    ],
                    [
                        "-128.65",
                        "35.77"
                    ],
                    [
                        "-130.06",
                        "34.45"
                    ],
                    [
                        "-131.25",
                        "33.32"
                    ],
                    [
                        "-132.35",
                        "32.00"
                    ],
                    [
                        "-133.41",
                        "31.03"
                    ],
                    [
                        "-134.78",
                        "30.08"
                    ],
                    [
                        "-137.45",
                        "27.68"
                    ]
                ]
            },
            "properties": {
                "forecastId": null,
                "geometryId": null,
                "tag": "1C",
                "forecastHour": 6,
                "hazard": "FZLVL",
                "frequency": null,
                "severity": null,
                "status": "NRML",
                "base": null,
                "top": null,
                "fzlBase": null,
                "fzlTop": null,
                "level": "160",
                "product": "ZULU",
                "rawAirSigmet": null,
                "validTimeTo": "2026-08-08T09:00:00.000",
                "validTimeFrom": [
                    "2026-08-08T02:45"
                ]
            }
        },
        {
            "type": "Feature",
            "geometry": {
                "type": "Polygon",
                "coordinates": [
                    [
                        [
                            "-124.71",
                            "48.57"
                        ],
                        [
                            "-123.82",
                            "48.33"
                        ],
                        [
                            "-123.59",
                            "46.96"
                        ],
                        [
                            "-123.80",
                            "42.70"
                        ],
                        [
                            "-123.84",
                            "41.17"
                        ],
                        [
                            "-123.92",
                            "40.27"
                        ],
                        [
                            "-123.52",
                            "39.48"
                        ],
                        [
                            "-123.22",
                            "38.81"
                        ],
                        [
                            "-122.90",
                            "38.56"
                        ],
                        [
                            "-122.17",
                            "37.85"
                        ],
                        [
                            "-121.96",
                            "37.10"
                        ],
                        [
                            "-121.50",
                            "36.92"
                        ],
                        [
                            "-121.39",
                            "36.58"
                        ],
                        [
                            "-121.60",
                            "36.33"
                        ],
                        [
                            "-119.96",
                            "34.61"
                        ],
                        [
                            "-117.44",
                            "33.58"
                        ],
                        [
                            "-117.10",
                            "32.88"
                        ],
                        [
                            "-117.10",
                            "32.34"
                        ],
                        [
                            "-120.81",
                            "30.71"
                        ],
                        [
                            "-124.22",
                            "35.96"
                        ],
                        [
                            "-125.86",
                            "35.48"
                        ],
                        [
                            "-126.92",
                            "36.39"
                        ],
                        [
                            "-127.03",
                            "39.79"
                        ],
                        [
                            "-126.51",
                            "45.06"
                        ],
                        [
                            "-128.01",
                            "48.30"
                        ],
                        [
                            "-127.25",
                            "48.38"
                        ],
                        [
                            "-125.47",
                            "47.27"
                        ],
                        [
                            "-124.99",
                            "47.49"
                        ],
                        [
                            "-125.23",
                            "48.42"
                        ],
                        [
                            "-124.71",
                            "48.57"
                        ]
                    ]
                ]
            },
            "properties": {
                "forecastId": null,
                "geometryId": null,
                "tag": "3E",
                "forecastHour": 6,
                "hazard": "IFR",
                "frequency": null,
                "severity": null,
                "status": "NRML",
                "base": null,
                "top": null,
                "fzlBase": null,
                "fzlTop": null,
                "level": null,
                "product": "SIERRA",
                "rawAirSigmet": "CIG BLW 010 VIS BLW 3SM BR",
                "validTimeTo": "2026-08-08T09:00:00.000",
                "validTimeFrom": [
                    "2026-08-08T03:36"
                ]
            }
        },
        {
            "type": "Feature",
            "geometry": {
                "type": "Polygon",
                "coordinates": [
                    [
                        [
                            "-79.27",
                            "35.20"
                        ],
                        [
                            "-78.29",
                            "34.80"
                        ],
                        [
                            "-78.75",
                            "34.16"
                        ],
                        [
                            "-80.63",
                            "33.24"
                        ],
                        [
                            "-81.32",
                            "33.60"
                        ],
                        [
                            "-80.05",
                            "34.74"
                        ],
                        [
                            "-79.27",
                            "35.20"
                        ]
                    ]
                ]
            },
            "properties": {
                "forecastId": null,
                "geometryId": null,
                "tag": "9E",
                "forecastHour": 6,
                "hazard": "IFR",
                "frequency": null,
                "severity": null,
                "status": "NRML",
                "base": null,
                "top": null,
                "fzlBase": null,
                "fzlTop": null,
                "level": null,
                "product": "SIERRA",
                "rawAirSigmet": "CIG BLW 010 VIS BLW 3SM BR FG",
                "validTimeTo": "2026-08-08T09:00:00.000",
                "validTimeFrom": [
                    "2026-08-08T03:36"
                ]
            }
        },
        {
            "type": "Feature",
            "geometry": {
                "type": "LineString",
                "coordinates": [
                    [
                        "-91.78",
                        "16.92"
                    ],
                    [
                        "-91.60",
                        "17.47"
                    ],
                    [
                        "-91.39",
                        "18.00"
                    ],
                    [
                        "-91.29",
                        "18.14"
                    ],
                    [
                        "-90.89",
                        "18.48"
                    ],
                    [
                        "-90.54",
                        "18.62"
                    ],
                    [
                        "-89.87",
                        "18.74"
                    ],
                    [
                        "-89.60",
                        "18.75"
                    ],
                    [
                        "-89.23",
                        "18.78"
                    ],
                    [
                        "-88.61",
                        "18.71"
                    ],
                    [
                        "-88.04",
                        "18.52"
                    ],
                    [
                        "-87.53",
                        "18.17"
                    ],
                    [
                        "-87.52",
                        "18.17"
                    ],
                    [
                        "-87.18",
                        "17.47"
                    ],
                    [
                        "-87.16",
                        "17.36"
                    ],
                    [
                        "-87.14",
                        "16.86"
                    ],
                    [
                        "-87.12",
                        "16.26"
                    ]
                ]
            },
            "properties": {
                "forecastId": null,
                "geometryId": null,
                "tag": "1C",
                "forecastHour": 6,
                "hazard": "FZLVL",
                "frequency": null,
                "severity": null,
                "status": "NRML",
                "base": null,
                "top": null,
                "fzlBase": null,
                "fzlTop": null,
                "level": "160",
                "product": "ZULU",
                "rawAirSigmet": null,
                "validTimeTo": "2026-08-08T09:00:00.000",
                "validTimeFrom": [
                    "2026-08-08T02:45"
                ]
            }
        },
        {
            "type": "Feature",
            "geometry": {
                "type": "LineString",
                "coordinates": [
                    [
                        "-42.12",
                        "42.34"
                    ],
                    [
                        "-42.30",
                        "42.40"
                    ],
                    [
                        "-43.40",
                        "42.38"
                    ],
                    [
                        "-44.12",
                        "41.82"
                    ],
                    [
                        "-44.25",
                        "41.49"
                    ],
                    [
                        "-44.13",
                        "40.71"
                    ],
                    [
                        "-43.32",
                        "40.22"
                    ],
                    [
                        "-42.92",
                        "40.15"
                    ],
                    [
                        "-42.02",
                        "40.40"
                    ],
                    [
                        "-41.49",
                        "40.95"
                    ],
                    [
                        "-41.44",
                        "41.13"
                    ]
                ]
            },
            "properties": {
                "forecastId": null,
                "geometryId": null,
                "tag": "1C",
                "forecastHour": 6,
                "hazard": "FZLVL",
                "frequency": null,
                "severity": null,
                "status": "NRML",
                "base": null,
                "top": null,
                "fzlBase": null,
                "fzlTop": null,
                "level": "120",
                "product": "ZULU",
                "rawAirSigmet": null,
                "validTimeTo": "2026-08-08T09:00:00.000",
                "validTimeFrom": [
                    "2026-08-08T02:45"
                ]
            }
        },
        {
            "type": "Feature",
            "geometry": {
                "type": "Polygon",
                "coordinates": [
                    [
                        [
                            "-68.33",
                            "46.87"
                        ],
                        [
                            "-67.55",
                            "45.33"
                        ],
                        [
                            "-68.50",
                            "44.14"
                        ],
                        [
                            "-68.50",
                            "42.94"
                        ],
                        [
                            "-69.59",
                            "42.14"
                        ],
                        [
                            "-70.59",
                            "42.69"
                        ],
                        [
                            "-70.60",
                            "43.52"
                        ],
                        [
                            "-72.22",
                            "43.47"
                        ],
                        [
                            "-73.15",
                            "43.73"
                        ],
                        [
                            "-72.75",
                            "45.04"
                        ],
                        [
                            "-70.19",
                            "46.01"
                        ],
                        [
                            "-68.33",
                            "46.87"
                        ]
                    ]
                ]
            },
            "properties": {
                "forecastId": null,
                "geometryId": null,
                "tag": "2C",
                "forecastHour": 6,
                "hazard": "ICE",
                "frequency": null,
                "severity": "MOD",
                "status": "NRML",
                "base": "FZL",
                "top": "250",
                "fzlBase": "130",
                "fzlTop": "150",
                "level": null,
                "product": "ZULU",
                "rawAirSigmet": "ICE",
                "validTimeTo": "2026-08-08T09:00:00.000",
                "validTimeFrom": [
                    "2026-08-08T02:45"
                ]
            }
        },
        {
            "type": "Feature",
            "geometry": {
                "type": "LineString",
                "coordinates": [
                    [
                        "-76.36",
                        "13.58"
                    ],
                    [
                        "-75.83",
                        "13.92"
                    ],
                    [
                        "-74.64",
                        "14.24"
                    ],
                    [
                        "-73.57",
                        "14.53"
                    ],
                    [
                        "-72.97",
                        "15.06"
                    ],
                    [
                        "-72.54",
                        "15.86"
                    ],
                    [
                        "-72.51",
                        "16.52"
                    ],
                    [
                        "-72.89",
                        "17.03"
                    ],
                    [
                        "-73.73",
                        "17.90"
                    ],
                    [
                        "-75.03",
                        "19.21"
                    ],
                    [
                        "-76.86",
                        "19.71"
                    ],
                    [
                        "-78.01",
                        "20.16"
                    ],
                    [
                        "-78.87",
                        "19.90"
                    ],
                    [
                        "-79.21",
                        "18.76"
                    ],
                    [
                        "-80.05",
                        "17.87"
                    ],
                    [
                        "-80.63",
                        "17.27"
                    ],
                    [
                        "-80.59",
                        "16.40"
                    ],
                    [
                        "-79.75",
                        "15.49"
                    ],
                    [
                        "-79.62",
                        "14.46"
                    ]
                ]
            },
            "properties": {
                "forecastId": null,
                "geometryId": null,
                "tag": "1C",
                "forecastHour": 6,
                "hazard": "FZLVL",
                "frequency": null,
                "severity": null,
                "status": "NRML",
                "base": null,
                "top": null,
                "fzlBase": null,
                "fzlTop": null,
                "level": "160",
                "product": "ZULU",
                "rawAirSigmet": null,
                "validTimeTo": "2026-08-08T09:00:00.000",
                "validTimeFrom": [
                    "2026-08-08T02:45"
                ]
            }
        },
        {
            "type": "Feature",
            "geometry": {
                "type": "Polygon",
                "coordinates": [
                    [
                        [
                            "-111.31",
                            "20.99"
                        ],
                        [
                            "-111.66",
                            "20.69"
                        ],
                        [
                            "-111.94",
                            "20.33"
                        ],
                        [
                            "-112.20",
                            "20.02"
                        ],
                        [
                            "-112.48",
                            "19.67"
                        ],
                        [
                            "-112.74",
                            "19.37"
                        ],
                        [
                            "-113.00",
                            "19.02"
                        ],
                        [
                            "-113.24",
                            "18.58"
                        ],
                        [
                            "-113.30",
                            "18.40"
                        ],
                        [
                            "-113.21",
                            "17.83"
                        ],
                        [
                            "-113.11",
                            "17.73"
                        ],
                        [
                            "-112.48",
                            "17.51"
                        ],
                        [
                            "-111.90",
                            "17.69"
                        ],
                        [
                            "-111.33",
                            "17.97"
                        ],
                        [
                            "-111.06",
                            "18.08"
                        ],
                        [
                            "-110.75",
                            "18.23"
                        ],
                        [
                            "-110.17",
                            "18.47"
                        ],
                        [
                            "-109.77",
                            "18.78"
                        ],
                        [
                            "-109.61",
                            "19.12"
                        ],
                        [
                            "-109.53",
                            "19.38"
                        ],
                        [
                            "-109.54",
                            "19.96"
                        ],
                        [
                            "-109.73",
                            "20.54"
                        ],
                        [
                            "-109.74",
                            "20.56"
                        ],
                        [
                            "-110.21",
                            "21.10"
                        ],
                        [
                            "-110.45",
                            "21.28"
                        ],
                        [
                            "-111.08",
                            "21.22"
                        ],
                        [
                            "-111.31",
                            "20.99"
                        ]
                    ]
                ]
            },
            "properties": {
                "forecastId": null,
                "geometryId": null,
                "tag": "1C",
                "forecastHour": 6,
                "hazard": "FZLVL",
                "frequency": null,
                "severity": null,
                "status": "NRML",
                "base": null,
                "top": null,
                "fzlBase": null,
                "fzlTop": null,
                "level": "160",
                "product": "ZULU",
                "rawAirSigmet": null,
                "validTimeTo": "2026-08-08T09:00:00.000",
                "validTimeFrom": [
                    "2026-08-08T02:45"
                ]
            }
        },
        {
            "type": "Feature",
            "geometry": {
                "type": "Polygon",
                "coordinates": [
                    [
                        [
                            "-70.41",
                            "45.82"
                        ],
                        [
                            "-70.05",
                            "45.56"
                        ],
                        [
                            "-69.95",
                            "44.89"
                        ],
                        [
                            "-70.38",
                            "44.12"
                        ],
                        [
                            "-71.60",
                            "43.19"
                        ],
                        [
                            "-72.93",
                            "42.44"
                        ],
                        [
                            "-76.22",
                            "40.62"
                        ],
                        [
                            "-76.97",
                            "40.21"
                        ],
                        [
                            "-79.85",
                            "36.71"
                        ],
                        [
                            "-80.45",
                            "35.83"
                        ],
                        [
                            "-83.24",
                            "34.64"
                        ],
                        [
                            "-84.26",
                            "34.40"
                        ],
                        [
                            "-85.02",
                            "35.46"
                        ],
                        [
                            "-84.77",
                            "36.69"
                        ],
                        [
                            "-82.57",
                            "38.37"
                        ],
                        [
                            "-81.81",
                            "39.08"
                        ],
                        [
                            "-80.50",
                            "40.47"
                        ],
                        [
                            "-79.12",
                            "42.18"
                        ],
                        [
                            "-77.60",
                            "42.67"
                        ],
                        [
                            "-76.18",
                            "43.14"
                        ],
                        [
                            "-74.71",
                            "44.88"
                        ],
                        [
                            "-74.13",
                            "44.98"
                        ],
                        [
                            "-71.50",
                            "44.98"
                        ],
                        [
                            "-71.41",
                            "45.26"
                        ],
                        [
                            "-70.89",
                            "45.29"
                        ],
                        [
                            "-70.41",
                            "45.82"
                        ]
                    ]
                ]
            },
            "properties": {
                "forecastId": null,
                "geometryId": null,
                "tag": "4E",
                "forecastHour": 6,
                "hazard": "MT_OBSC",
                "frequency": null,
                "severity": null,
                "status": "AMD",
                "base": null,
                "top": null,
                "fzlBase": null,
                "fzlTop": null,
                "level": null,
                "product": "SIERRA",
                "rawAirSigmet": "MTNS OBSC BY CLDS PCPN BR FG",
                "validTimeTo": "2026-08-08T09:00:00.000",
                "validTimeFrom": [
                    "2026-08-08T03:36"
                ]
            }
        },
        {
            "type": "Feature",
            "geometry": {
                "type": "Polygon",
                "coordinates": [
                    [
                        [
                            "-101.74",
                            "57.20"
                        ],
                        [
                            "-101.32",
                            "56.89"
                        ],
                        [
                            "-100.85",
                            "56.36"
                        ],
                        [
                            "-99.98",
                            "56.06"
                        ],
                        [
                            "-98.61",
                            "55.69"
                        ],
                        [
                            "-97.09",
                            "56.07"
                        ],
                        [
                            "-97.02",
                            "56.13"
                        ],
                        [
                            "-97.06",
                            "56.17"
                        ],
                        [
                            "-98.35",
                            "56.96"
                        ],
                        [
                            "-98.60",
                            "57.05"
                        ],
                        [
                            "-99.78",
                            "57.29"
                        ],
                        [
                            "-101.27",
                            "57.32"
                        ],
                        [
                            "-101.74",
                            "57.20"
                        ]
                    ]
                ]
            },
            "properties": {
                "forecastId": null,
                "geometryId": null,
                "tag": "1C",
                "forecastHour": 6,
                "hazard": "FZLVL",
                "frequency": null,
                "severity": null,
                "status": "NRML",
                "base": null,
                "top": null,
                "fzlBase": null,
                "fzlTop": null,
                "level": "080",
                "product": "ZULU",
                "rawAirSigmet": null,
                "validTimeTo": "2026-08-08T09:00:00.000",
                "validTimeFrom": [
                    "2026-08-08T02:45"
                ]
            }
        },
        {
            "type": "Feature",
            "geometry": {
                "type": "LineString",
                "coordinates": [
                    [
                        "-83.19",
                        "15.49"
                    ],
                    [
                        "-82.91",
                        "16.48"
                    ],
                    [
                        "-83.09",
                        "17.27"
                    ],
                    [
                        "-84.66",
                        "18.39"
                    ],
                    [
                        "-84.97",
                        "19.13"
                    ],
                    [
                        "-84.49",
                        "20.26"
                    ],
                    [
                        "-83.52",
                        "21.72"
                    ],
                    [
                        "-83.12",
                        "23.63"
                    ],
                    [
                        "-83.00",
                        "24.57"
                    ],
                    [
                        "-83.21",
                        "25.37"
                    ],
                    [
                        "-83.84",
                        "26.00"
                    ],
                    [
                        "-85.13",
                        "26.60"
                    ],
                    [
                        "-86.47",
                        "27.02"
                    ],
                    [
                        "-87.65",
                        "27.21"
                    ],
                    [
                        "-88.63",
                        "27.20"
                    ],
                    [
                        "-89.15",
                        "26.89"
                    ],
                    [
                        "-89.29",
                        "26.20"
                    ],
                    [
                        "-90.22",
                        "24.49"
                    ],
                    [
                        "-91.06",
                        "23.95"
                    ],
                    [
                        "-92.26",
                        "24.30"
                    ],
                    [
                        "-93.50",
                        "24.42"
                    ],
                    [
                        "-95.69",
                        "25.02"
                    ],
                    [
                        "-96.79",
                        "25.07"
                    ],
                    [
                        "-97.56",
                        "24.80"
                    ],
                    [
                        "-98.51",
                        "24.30"
                    ],
                    [
                        "-99.16",
                        "24.13"
                    ],
                    [
                        "-99.91",
                        "24.32"
                    ],
                    [
                        "-101.24",
                        "25.47"
                    ],
                    [
                        "-102.50",
                        "25.76"
                    ],
                    [
                        "-103.96",
                        "25.71"
                    ],
                    [
                        "-105.11",
                        "25.77"
                    ],
                    [
                        "-105.94",
                        "25.37"
                    ],
                    [
                        "-107.18",
                        "23.70"
                    ],
                    [
                        "-107.45",
                        "23.22"
                    ],
                    [
                        "-107.58",
                        "22.07"
                    ],
                    [
                        "-107.62",
                        "19.49"
                    ],
                    [
                        "-107.72",
                        "18.55"
                    ],
                    [
                        "-108.15",
                        "18.03"
                    ],
                    [
                        "-108.69",
                        "17.18"
                    ],
                    [
                        "-108.44",
                        "16.02"
                    ]
                ]
            },
            "properties": {
                "forecastId": null,
                "geometryId": null,
                "tag": "1C",
                "forecastHour": 6,
                "hazard": "FZLVL",
                "frequency": null,
                "severity": null,
                "status": "NRML",
                "base": null,
                "top": null,
                "fzlBase": null,
                "fzlTop": null,
                "level": "160",
                "product": "ZULU",
                "rawAirSigmet": null,
                "validTimeTo": "2026-08-08T09:00:00.000",
                "validTimeFrom": [
                    "2026-08-08T02:45"
                ]
            }
        },
        {
            "type": "Feature",
            "geometry": {
                "type": "Polygon",
                "coordinates": [
                    [
                        [
                            "-124.23",
                            "48.44"
                        ],
                        [
                            "-123.85",
                            "48.35"
                        ],
                        [
                            "-123.59",
                            "46.96"
                        ],
                        [
                            "-123.82",
                            "41.60"
                        ],
                        [
                            "-123.89",
                            "40.31"
                        ],
                        [
                            "-123.19",
                            "38.80"
                        ],
                        [
                            "-122.15",
                            "37.83"
                        ],
                        [
                            "-121.95",
                            "37.09"
                        ],
                        [
                            "-121.51",
                            "36.92"
                        ],
                        [
                            "-121.36",
                            "36.56"
                        ],
                        [
                            "-121.60",
                            "36.33"
                        ],
                        [
                            "-119.99",
                            "34.62"
                        ],
                        [
                            "-117.43",
                            "33.58"
                        ],
                        [
                            "-117.07",
                            "32.80"
                        ],
                        [
                            "-117.22",
                            "32.77"
                        ],
                        [
                            "-118.46",
                            "33.95"
                        ],
                        [
                            "-120.56",
                            "34.51"
                        ],
                        [
                            "-122.24",
                            "37.08"
                        ],
                        [
                            "-123.46",
                            "38.99"
                        ],
                        [
                            "-124.21",
                            "40.68"
                        ],
                        [
                            "-124.37",
                            "42.86"
                        ],
                        [
                            "-124.05",
                            "44.63"
                        ],
                        [
                            "-124.14",
                            "47.01"
                        ],
                        [
                            "-124.63",
                            "48.29"
                        ],
                        [
                            "-124.23",
                            "48.44"
                        ]
                    ]
                ]
            },
            "properties": {
                "forecastId": null,
                "geometryId": null,
                "tag": "6E",
                "forecastHour": 6,
                "hazard": "MT_OBSC",
                "frequency": null,
                "severity": null,
                "status": "NRML",
                "base": null,
                "top": null,
                "fzlBase": null,
                "fzlTop": null,
                "level": null,
                "product": "SIERRA",
                "rawAirSigmet": "MTNS OBSC BY CLDS BR",
                "validTimeTo": "2026-08-08T09:00:00.000",
                "validTimeFrom": [
                    "2026-08-08T03:36"
                ]
            }
        },
        {
            "type": "Feature",
            "geometry": {
                "type": "LineString",
                "coordinates": [
                    [
                        "-147.26",
                        "46.10"
                    ],
                    [
                        "-145.89",
                        "45.52"
                    ],
                    [
                        "-144.19",
                        "45.15"
                    ],
                    [
                        "-142.55",
                        "45.18"
                    ],
                    [
                        "-140.48",
                        "45.54"
                    ],
                    [
                        "-137.90",
                        "46.35"
                    ],
                    [
                        "-129.25",
                        "50.15"
                    ],
                    [
                        "-125.61",
                        "51.90"
                    ],
                    [
                        "-120.75",
                        "52.75"
                    ],
                    [
                        "-118.86",
                        "53.26"
                    ],
                    [
                        "-117.27",
                        "53.48"
                    ],
                    [
                        "-116.20",
                        "53.44"
                    ],
                    [
                        "-111.51",
                        "52.25"
                    ],
                    [
                        "-101.95",
                        "50.58"
                    ],
                    [
                        "-98.54",
                        "49.13"
                    ],
                    [
                        "-94.23",
                        "47.58"
                    ],
                    [
                        "-91.69",
                        "47.13"
                    ],
                    [
                        "-89.18",
                        "46.98"
                    ],
                    [
                        "-86.99",
                        "47.15"
                    ],
                    [
                        "-84.85",
                        "47.61"
                    ],
                    [
                        "-81.80",
                        "48.60"
                    ],
                    [
                        "-79.76",
                        "49.84"
                    ],
                    [
                        "-78.23",
                        "50.93"
                    ],
                    [
                        "-76.48",
                        "51.95"
                    ],
                    [
                        "-74.56",
                        "52.86"
                    ],
                    [
                        "-74.01",
                        "53.07"
                    ],
                    [
                        "-72.20",
                        "53.28"
                    ],
                    [
                        "-69.39",
                        "53.13"
                    ],
                    [
                        "-67.47",
                        "53.24"
                    ],
                    [
                        "-65.60",
                        "53.48"
                    ],
                    [
                        "-63.88",
                        "53.52"
                    ],
                    [
                        "-63.16",
                        "53.40"
                    ],
                    [
                        "-60.72",
                        "52.87"
                    ],
                    [
                        "-58.22",
                        "52.11"
                    ],
                    [
                        "-57.14",
                        "51.56"
                    ],
                    [
                        "-56.29",
                        "50.78"
                    ],
                    [
                        "-55.55",
                        "49.76"
                    ],
                    [
                        "-54.26",
                        "49.33"
                    ],
                    [
                        "-53.32",
                        "49.56"
                    ],
                    [
                        "-51.90",
                        "50.17"
                    ]
                ]
            },
            "properties": {
                "forecastId": null,
                "geometryId": null,
                "tag": "1C",
                "forecastHour": 6,
                "hazard": "FZLVL",
                "frequency": null,
                "severity": null,
                "status": "NRML",
                "base": null,
                "top": null,
                "fzlBase": null,
                "fzlTop": null,
                "level": "120",
                "product": "ZULU",
                "rawAirSigmet": null,
                "validTimeTo": "2026-08-08T09:00:00.000",
                "validTimeFrom": [
                    "2026-08-08T02:45"
                ]
            }
        },
        {
            "type": "Feature",
            "geometry": {
                "type": "Polygon",
                "coordinates": [
                    [
                        [
                            "-113.41",
                            "46.33"
                        ],
                        [
                            "-112.21",
                            "46.04"
                        ],
                        [
                            "-110.91",
                            "45.92"
                        ],
                        [
                            "-110.12",
                            "45.53"
                        ],
                        [
                            "-109.85",
                            "45.11"
                        ],
                        [
                            "-110.39",
                            "44.59"
                        ],
                        [
                            "-110.96",
                            "44.40"
                        ],
                        [
                            "-112.17",
                            "44.27"
                        ],
                        [
                            "-113.35",
                            "44.72"
                        ],
                        [
                            "-113.85",
                            "45.60"
                        ],
                        [
                            "-113.41",
                            "46.33"
                        ]
                    ]
                ]
            },
            "properties": {
                "forecastId": null,
                "geometryId": null,
                "tag": "6E",
                "forecastHour": 6,
                "hazard": "IFR",
                "frequency": null,
                "severity": null,
                "status": "NRML",
                "base": null,
                "top": null,
                "fzlBase": null,
                "fzlTop": null,
                "level": null,
                "product": "SIERRA",
                "rawAirSigmet": "CIG BLW 010 VIS BLW 3SM HZ FU",
                "validTimeTo": "2026-08-08T09:00:00.000",
                "validTimeFrom": [
                    "2026-08-08T03:36"
                ]
            }
        },
        {
            "type": "Feature",
            "geometry": {
                "type": "Polygon",
                "coordinates": [
                    [
                        [
                            "-118.03",
                            "48.98"
                        ],
                        [
                            "-117.08",
                            "48.50"
                        ],
                        [
                            "-116.89",
                            "47.87"
                        ],
                        [
                            "-117.60",
                            "47.28"
                        ],
                        [
                            "-118.78",
                            "47.28"
                        ],
                        [
                            "-120.42",
                            "48.34"
                        ],
                        [
                            "-120.70",
                            "48.94"
                        ],
                        [
                            "-118.03",
                            "48.98"
                        ]
                    ]
                ]
            },
            "properties": {
                "forecastId": null,
                "geometryId": null,
                "tag": "2E",
                "forecastHour": 6,
                "hazard": "IFR",
                "frequency": null,
                "severity": null,
                "status": "NRML",
                "base": null,
                "top": null,
                "fzlBase": null,
                "fzlTop": null,
                "level": null,
                "product": "SIERRA",
                "rawAirSigmet": "VIS BLW 3SM HZ FU",
                "validTimeTo": "2026-08-08T09:00:00.000",
                "validTimeFrom": [
                    "2026-08-08T03:36"
                ]
            }
        },
        {
            "type": "Feature",
            "geometry": {
                "type": "Polygon",
                "coordinates": [
                    [
                        [
                            "-102.36",
                            "44.50"
                        ],
                        [
                            "-101.83",
                            "42.28"
                        ],
                        [
                            "-102.03",
                            "40.18"
                        ],
                        [
                            "-102.76",
                            "39.43"
                        ],
                        [
                            "-103.57",
                            "39.13"
                        ],
                        [
                            "-104.84",
                            "39.12"
                        ],
                        [
                            "-104.25",
                            "43.85"
                        ],
                        [
                            "-102.36",
                            "44.50"
                        ]
                    ]
                ]
            },
            "properties": {
                "forecastId": null,
                "geometryId": null,
                "tag": "1W",
                "forecastHour": 6,
                "hazard": "LLWS",
                "frequency": null,
                "severity": null,
                "status": "NRML",
                "base": null,
                "top": null,
                "fzlBase": null,
                "fzlTop": null,
                "level": null,
                "product": "TANGO",
                "rawAirSigmet": "AIR SPEED LOSS OR GAIN OF 20KTS OR MORE BELOW 2000 FT AGL",
                "validTimeTo": "2026-08-08T09:00:00.000",
                "validTimeFrom": [
                    "2026-08-08T02:45"
                ]
            }
        },
        {
            "type": "Feature",
            "geometry": {
                "type": "Polygon",
                "coordinates": [
                    [
                        [
                            "-113.13",
                            "48.97"
                        ],
                        [
                            "-111.39",
                            "47.43"
                        ],
                        [
                            "-109.77",
                            "48.53"
                        ],
                        [
                            "-108.38",
                            "46.68"
                        ],
                        [
                            "-105.55",
                            "42.45"
                        ],
                        [
                            "-108.11",
                            "41.66"
                        ],
                        [
                            "-109.34",
                            "42.59"
                        ],
                        [
                            "-110.65",
                            "43.09"
                        ],
                        [
                            "-110.87",
                            "41.83"
                        ],
                        [
                            "-112.16",
                            "41.20"
                        ],
                        [
                            "-114.00",
                            "40.58"
                        ],
                        [
                            "-115.55",
                            "41.18"
                        ],
                        [
                            "-116.39",
                            "41.41"
                        ],
                        [
                            "-117.25",
                            "41.54"
                        ],
                        [
                            "-118.03",
                            "41.46"
                        ],
                        [
                            "-119.07",
                            "41.43"
                        ],
                        [
                            "-119.57",
                            "41.01"
                        ],
                        [
                            "-120.98",
                            "40.89"
                        ],
                        [
                            "-121.80",
                            "41.23"
                        ],
                        [
                            "-122.54",
                            "41.84"
                        ],
                        [
                            "-122.70",
                            "42.81"
                        ],
                        [
                            "-122.36",
                            "43.26"
                        ],
                        [
                            "-120.92",
                            "43.42"
                        ],
                        [
                            "-121.91",
                            "45.18"
                        ],
                        [
                            "-121.63",
                            "45.66"
                        ],
                        [
                            "-120.21",
                            "46.13"
                        ],
                        [
                            "-120.03",
                            "46.83"
                        ],
                        [
                            "-120.98",
                            "47.76"
                        ],
                        [
                            "-120.82",
                            "48.95"
                        ],
                        [
                            "-116.81",
                            "48.96"
                        ],
                        [
                            "-113.13",
                            "48.97"
                        ]
                    ]
                ]
            },
            "properties": {
                "forecastId": null,
                "geometryId": null,
                "tag": "1E",
                "forecastHour": 6,
                "hazard": "MT_OBSC",
                "frequency": null,
                "severity": null,
                "status": "NRML",
                "base": null,
                "top": null,
                "fzlBase": null,
                "fzlTop": null,
                "level": null,
                "product": "SIERRA",
                "rawAirSigmet": "FU HZ",
                "validTimeTo": "2026-08-08T09:00:00.000",
                "validTimeFrom": [
                    "2026-08-08T03:36"
                ]
            }
        },
        {
            "type": "Feature",
            "geometry": {
                "type": "Polygon",
                "coordinates": [
                    [
                        [
                            "-117.38",
                            "46.32"
                        ],
                        [
                            "-116.73",
                            "45.91"
                        ],
                        [
                            "-116.32",
                            "44.98"
                        ],
                        [
                            "-118.91",
                            "43.37"
                        ],
                        [
                            "-120.08",
                            "42.71"
                        ],
                        [
                            "-121.25",
                            "42.26"
                        ],
                        [
                            "-121.80",
                            "42.47"
                        ],
                        [
                            "-121.70",
                            "42.84"
                        ],
                        [
                            "-120.60",
                            "43.40"
                        ],
                        [
                            "-120.76",
                            "44.51"
                        ],
                        [
                            "-121.69",
                            "45.31"
                        ],
                        [
                            "-121.51",
                            "45.52"
                        ],
                        [
                            "-121.00",
                            "45.43"
                        ],
                        [
                            "-119.18",
                            "46.03"
                        ],
                        [
                            "-117.38",
                            "46.32"
                        ]
                    ]
                ]
            },
            "properties": {
                "forecastId": null,
                "geometryId": null,
                "tag": "7E",
                "forecastHour": 6,
                "hazard": "IFR",
                "frequency": null,
                "severity": null,
                "status": "NRML",
                "base": null,
                "top": null,
                "fzlBase": null,
                "fzlTop": null,
                "level": null,
                "product": "SIERRA",
                "rawAirSigmet": "VIS BLW 3SM HZ FU",
                "validTimeTo": "2026-08-08T09:00:00.000",
                "validTimeFrom": [
                    "2026-08-08T03:36"
                ]
            }
        },
        {
            "type": "Feature",
            "geometry": {
                "type": "Polygon",
                "coordinates": [
                    [
                        [
                            "-107.15",
                            "38.36"
                        ],
                        [
                            "-106.34",
                            "37.81"
                        ],
                        [
                            "-107.83",
                            "36.77"
                        ],
                        [
                            "-108.54",
                            "37.07"
                        ],
                        [
                            "-108.18",
                            "38.06"
                        ],
                        [
                            "-107.15",
                            "38.36"
                        ]
                    ]
                ]
            },
            "properties": {
                "forecastId": null,
                "geometryId": null,
                "tag": "3E",
                "forecastHour": 6,
                "hazard": "MT_OBSC",
                "frequency": null,
                "severity": null,
                "status": "NRML",
                "base": null,
                "top": null,
                "fzlBase": null,
                "fzlTop": null,
                "level": null,
                "product": "SIERRA",
                "rawAirSigmet": "FU HZ",
                "validTimeTo": "2026-08-08T09:00:00.000",
                "validTimeFrom": [
                    "2026-08-08T03:36"
                ]
            }
        },
        {
            "type": "Feature",
            "geometry": {
                "type": "Polygon",
                "coordinates": [
                    [
                        [
                            "-83.14",
                            "40.46"
                        ],
                        [
                            "-80.70",
                            "40.42"
                        ],
                        [
                            "-79.89",
                            "40.18"
                        ],
                        [
                            "-81.04",
                            "38.00"
                        ],
                        [
                            "-81.92",
                            "37.58"
                        ],
                        [
                            "-84.36",
                            "38.26"
                        ],
                        [
                            "-83.70",
                            "39.30"
                        ],
                        [
                            "-83.14",
                            "40.46"
                        ]
                    ]
                ]
            },
            "properties": {
                "forecastId": null,
                "geometryId": null,
                "tag": "2W",
                "forecastHour": 6,
                "hazard": "LLWS",
                "frequency": null,
                "severity": null,
                "status": "NRML",
                "base": null,
                "top": null,
                "fzlBase": null,
                "fzlTop": null,
                "level": null,
                "product": "TANGO",
                "rawAirSigmet": "AIR SPEED LOSS OR GAIN OF 20KTS OR MORE BELOW 2000 FT AGL",
                "validTimeTo": "2026-08-08T09:00:00.000",
                "validTimeFrom": [
                    "2026-08-08T02:45"
                ]
            }
        },
        {
            "type": "Feature",
            "geometry": {
                "type": "Polygon",
                "coordinates": [
                    [
                        [
                            "-67.00",
                            "44.79"
                        ],
                        [
                            "-66.91",
                            "42.07"
                        ],
                        [
                            "-67.03",
                            "39.40"
                        ],
                        [
                            "-67.76",
                            "39.44"
                        ],
                        [
                            "-70.12",
                            "39.23"
                        ],
                        [
                            "-71.27",
                            "39.51"
                        ],
                        [
                            "-71.92",
                            "40.05"
                        ],
                        [
                            "-72.50",
                            "40.59"
                        ],
                        [
                            "-72.16",
                            "41.40"
                        ],
                        [
                            "-70.07",
                            "41.81"
                        ],
                        [
                            "-69.27",
                            "41.99"
                        ],
                        [
                            "-68.63",
                            "42.25"
                        ],
                        [
                            "-68.78",
                            "42.52"
                        ],
                        [
                            "-69.56",
                            "43.04"
                        ],
                        [
                            "-70.01",
                            "43.37"
                        ],
                        [
                            "-69.80",
                            "43.70"
                        ],
                        [
                            "-69.07",
                            "44.00"
                        ],
                        [
                            "-68.46",
                            "44.46"
                        ],
                        [
                            "-67.00",
                            "44.79"
                        ]
                    ]
                ]
            },
            "properties": {
                "forecastId": null,
                "geometryId": null,
                "tag": "1E",
                "forecastHour": 6,
                "hazard": "IFR",
                "frequency": null,
                "severity": null,
                "status": "NRML",
                "base": null,
                "top": null,
                "fzlBase": null,
                "fzlTop": null,
                "level": null,
                "product": "SIERRA",
                "rawAirSigmet": "CIG BLW 010 VIS BLW 3SM BR",
                "validTimeTo": "2026-08-08T09:00:00.000",
                "validTimeFrom": [
                    "2026-08-08T03:36"
                ]
            }
        },
        {
            "type": "Feature",
            "geometry": {
                "type": "Polygon",
                "coordinates": [
                    [
                        [
                            "-111.82",
                            "40.24"
                        ],
                        [
                            "-111.05",
                            "39.87"
                        ],
                        [
                            "-110.40",
                            "38.67"
                        ],
                        [
                            "-109.94",
                            "37.40"
                        ],
                        [
                            "-111.23",
                            "36.94"
                        ],
                        [
                            "-112.28",
                            "37.35"
                        ],
                        [
                            "-112.87",
                            "39.03"
                        ],
                        [
                            "-113.03",
                            "39.89"
                        ],
                        [
                            "-111.82",
                            "40.24"
                        ]
                    ]
                ]
            },
            "properties": {
                "forecastId": null,
                "geometryId": null,
                "tag": "2E",
                "forecastHour": 6,
                "hazard": "MT_OBSC",
                "frequency": null,
                "severity": null,
                "status": "NRML",
                "base": null,
                "top": null,
                "fzlBase": null,
                "fzlTop": null,
                "level": null,
                "product": "SIERRA",
                "rawAirSigmet": "FU HZ",
                "validTimeTo": "2026-08-08T09:00:00.000",
                "validTimeFrom": [
                    "2026-08-08T03:36"
                ]
            }
        },
        {
            "type": "Feature",
            "geometry": {
                "type": "Polygon",
                "coordinates": [
                    [
                        [
                            "-82.20",
                            "36.59"
                        ],
                        [
                            "-81.32",
                            "36.57"
                        ],
                        [
                            "-81.28",
                            "35.51"
                        ],
                        [
                            "-83.37",
                            "34.61"
                        ],
                        [
                            "-83.97",
                            "34.76"
                        ],
                        [
                            "-84.31",
                            "35.39"
                        ],
                        [
                            "-82.82",
                            "36.42"
                        ],
                        [
                            "-82.20",
                            "36.59"
                        ]
                    ]
                ]
            },
            "properties": {
                "forecastId": null,
                "geometryId": null,
                "tag": "8E",
                "forecastHour": 6,
                "hazard": "IFR",
                "frequency": null,
                "severity": null,
                "status": "NRML",
                "base": null,
                "top": null,
                "fzlBase": null,
                "fzlTop": null,
                "level": null,
                "product": "SIERRA",
                "rawAirSigmet": "CIG BLW 010 VIS BLW 3SM BR FG",
                "validTimeTo": "2026-08-08T09:00:00.000",
                "validTimeFrom": [
                    "2026-08-08T03:36"
                ]
            }
        },
        {
            "type": "Feature",
            "geometry": {
                "type": "Polygon",
                "coordinates": [
                    [
                        [
                            "-64.32",
                            "32.51"
                        ],
                        [
                            "-65.24",
                            "31.41"
                        ],
                        [
                            "-65.56",
                            "30.56"
                        ],
                        [
                            "-65.42",
                            "29.68"
                        ],
                        [
                            "-64.37",
                            "28.74"
                        ],
                        [
                            "-63.60",
                            "28.54"
                        ],
                        [
                            "-62.25",
                            "28.26"
                        ],
                        [
                            "-61.06",
                            "28.16"
                        ],
                        [
                            "-60.25",
                            "28.36"
                        ],
                        [
                            "-59.90",
                            "29.14"
                        ],
                        [
                            "-60.21",
                            "30.17"
                        ],
                        [
                            "-60.94",
                            "31.04"
                        ],
                        [
                            "-62.01",
                            "32.01"
                        ],
                        [
                            "-63.25",
                            "32.86"
                        ],
                        [
                            "-64.32",
                            "32.51"
                        ]
                    ]
                ]
            },
            "properties": {
                "forecastId": null,
                "geometryId": null,
                "tag": "1C",
                "forecastHour": 6,
                "hazard": "FZLVL",
                "frequency": null,
                "severity": null,
                "status": "NRML",
                "base": null,
                "top": null,
                "fzlBase": null,
                "fzlTop": null,
                "level": "160",
                "product": "ZULU",
                "rawAirSigmet": null,
                "validTimeTo": "2026-08-08T09:00:00.000",
                "validTimeFrom": [
                    "2026-08-08T02:45"
                ]
            }
        },
        {
            "type": "Feature",
            "geometry": {
                "type": "Polygon",
                "coordinates": [
                    [
                        [
                            "-79.48",
                            "39.39"
                        ],
                        [
                            "-77.90",
                            "38.85"
                        ],
                        [
                            "-78.27",
                            "37.83"
                        ],
                        [
                            "-80.64",
                            "36.74"
                        ],
                        [
                            "-82.72",
                            "37.96"
                        ],
                        [
                            "-81.69",
                            "39.08"
                        ],
                        [
                            "-79.48",
                            "39.39"
                        ]
                    ]
                ]
            },
            "properties": {
                "forecastId": null,
                "geometryId": null,
                "tag": "5E",
                "forecastHour": 6,
                "hazard": "IFR",
                "frequency": null,
                "severity": null,
                "status": "AMD",
                "base": null,
                "top": null,
                "fzlBase": null,
                "fzlTop": null,
                "level": null,
                "product": "SIERRA",
                "rawAirSigmet": "CIG BLW 010 VIS BLW 3SM BR FG",
                "validTimeTo": "2026-08-08T09:00:00.000",
                "validTimeFrom": [
                    "2026-08-08T03:36"
                ]
            }
        }
    ],
    "metadata": {
        "creationTime": "2026-08-08T07:55"
    }
}