{
    "type": "FeatureCollection",
    "features": [
        {
            "type": "Feature",
            "geometry": {
                "type": "LineString",
                "coordinates": [
                    [
                        "-65.15",
                        "34.07"
                    ],
                    [
                        "-65.62",
                        "33.81"
                    ],
                    [
                        "-65.68",
                        "33.74"
                    ],
                    [
                        "-65.87",
                        "33.49"
                    ],
                    [
                        "-65.97",
                        "33.13"
                    ],
                    [
                        "-66.03",
                        "32.78"
                    ],
                    [
                        "-66.29",
                        "32.45"
                    ],
                    [
                        "-66.48",
                        "32.36"
                    ],
                    [
                        "-66.94",
                        "32.26"
                    ],
                    [
                        "-67.32",
                        "32.49"
                    ],
                    [
                        "-67.35",
                        "32.64"
                    ],
                    [
                        "-67.33",
                        "33.01"
                    ],
                    [
                        "-67.21",
                        "33.36"
                    ],
                    [
                        "-67.03",
                        "33.69"
                    ],
                    [
                        "-67.02",
                        "33.72"
                    ],
                    [
                        "-66.76",
                        "34.01"
                    ],
                    [
                        "-66.49",
                        "34.34"
                    ],
                    [
                        "-66.39",
                        "34.44"
                    ],
                    [
                        "-66.13",
                        "34.64"
                    ],
                    [
                        "-65.83",
                        "34.87"
                    ],
                    [
                        "-65.68",
                        "34.93"
                    ],
                    [
                        "-65.33",
                        "35.05"
                    ],
                    [
                        "-64.86",
                        "35.13"
                    ]
                ]
            },
            "properties": {
                "forecastId": null,
                "geometryId": null,
                "tag": "1C",
                "forecastHour": 6,
                "hazard": "FZLVL",
                "frequency": null,
                "severity": null,
                "status": "NRML",
                "base": null,
                "top": null,
                "fzlBase": null,
                "fzlTop": null,
                "level": "160",
                "product": "ZULU",
                "rawAirSigmet": null,
                "validTimeTo": "2026-07-26T15:00:00.000",
                "validTimeFrom": [
                    "2026-07-26T08:45"
                ]
            }
        },
        {
            "type": "Feature",
            "geometry": {
                "type": "Polygon",
                "coordinates": [
                    [
                        [
                            "-114.75",
                            "49.03"
                        ],
                        [
                            "-112.03",
                            "48.99"
                        ],
                        [
                            "-111.82",
                            "47.97"
                        ],
                        [
                            "-114.10",
                            "48.01"
                        ],
                        [
                            "-114.75",
                            "49.03"
                        ]
                    ]
                ]
            },
            "properties": {
                "forecastId": null,
                "geometryId": null,
                "tag": "2W",
                "forecastHour": 6,
                "hazard": "TURB-LO",
                "frequency": null,
                "severity": "MOD",
                "status": "NRML",
                "base": "SFC",
                "top": "140",
                "fzlBase": null,
                "fzlTop": null,
                "level": null,
                "product": "TANGO",
                "rawAirSigmet": "MTN WAVE",
                "validTimeTo": "2026-07-26T15:00:00.000",
                "validTimeFrom": [
                    "2026-07-26T11:39"
                ]
            }
        },
        {
            "type": "Feature",
            "geometry": {
                "type": "Polygon",
                "coordinates": [
                    [
                        [
                            "-80.08",
                            "35.95"
                        ],
                        [
                            "-79.30",
                            "35.41"
                        ],
                        [
                            "-79.03",
                            "34.36"
                        ],
                        [
                            "-80.77",
                            "33.43"
                        ],
                        [
                            "-81.63",
                            "34.62"
                        ],
                        [
                            "-81.28",
                            "35.79"
                        ],
                        [
                            "-80.08",
                            "35.95"
                        ]
                    ]
                ]
            },
            "properties": {
                "forecastId": null,
                "geometryId": null,
                "tag": "2E",
                "forecastHour": 6,
                "hazard": "IFR",
                "frequency": null,
                "severity": null,
                "status": "NRML",
                "base": null,
                "top": null,
                "fzlBase": null,
                "fzlTop": null,
                "level": null,
                "product": "SIERRA",
                "rawAirSigmet": "CIG BLW 010 VIS BLW 3SM PCPN BR",
                "validTimeTo": "2026-07-26T15:00:00.000",
                "validTimeFrom": [
                    "2026-07-26T13:44"
                ]
            }
        },
        {
            "type": "Feature",
            "geometry": {
                "type": "Polygon",
                "coordinates": [
                    [
                        [
                            "-118.02",
                            "33.65"
                        ],
                        [
                            "-117.21",
                            "33.43"
                        ],
                        [
                            "-116.94",
                            "32.78"
                        ],
                        [
                            "-119.57",
                            "30.70"
                        ],
                        [
                            "-120.19",
                            "32.03"
                        ],
                        [
                            "-119.61",
                            "32.45"
                        ],
                        [
                            "-119.23",
                            "32.91"
                        ],
                        [
                            "-118.76",
                            "33.53"
                        ],
                        [
                            "-118.02",
                            "33.65"
                        ]
                    ]
                ]
            },
            "properties": {
                "forecastId": null,
                "geometryId": null,
                "tag": "4E",
                "forecastHour": 6,
                "hazard": "IFR",
                "frequency": null,
                "severity": null,
                "status": "NRML",
                "base": null,
                "top": null,
                "fzlBase": null,
                "fzlTop": null,
                "level": null,
                "product": "SIERRA",
                "rawAirSigmet": "CIG BLW 010 VIS BLW 3SM BR",
                "validTimeTo": "2026-07-26T15:00:00.000",
                "validTimeFrom": [
                    "2026-07-26T13:44"
                ]
            }
        },
        {
            "type": "Feature",
            "geometry": {
                "type": "LineString",
                "coordinates": [
                    [
                        "-104.60",
                        "58.19"
                    ],
                    [
                        "-104.62",
                        "58.06"
                    ],
                    [
                        "-104.72",
                        "57.88"
                    ],
                    [
                        "-105.12",
                        "57.59"
                    ],
                    [
                        "-105.69",
                        "57.61"
                    ],
                    [
                        "-106.28",
                        "57.77"
                    ],
                    [
                        "-106.42",
                        "57.81"
                    ],
                    [
                        "-106.88",
                        "58.00"
                    ],
                    [
                        "-107.07",
                        "58.08"
                    ]
                ]
            },
            "properties": {
                "forecastId": null,
                "geometryId": null,
                "tag": "1C",
                "forecastHour": 6,
                "hazard": "FZLVL",
                "frequency": null,
                "severity": null,
                "status": "NRML",
                "base": null,
                "top": null,
                "fzlBase": null,
                "fzlTop": null,
                "level": "120",
                "product": "ZULU",
                "rawAirSigmet": null,
                "validTimeTo": "2026-07-26T15:00:00.000",
                "validTimeFrom": [
                    "2026-07-26T08:45"
                ]
            }
        },
        {
            "type": "Feature",
            "geometry": {
                "type": "Polygon",
                "coordinates": [
                    [
                        [
                            "-124.92",
                            "48.53"
                        ],
                        [
                            "-123.33",
                            "48.02"
                        ],
                        [
                            "-123.42",
                            "46.95"
                        ],
                        [
                            "-123.64",
                            "45.17"
                        ],
                        [
                            "-123.99",
                            "44.01"
                        ],
                        [
                            "-123.84",
                            "43.19"
                        ],
                        [
                            "-124.15",
                            "42.00"
                        ],
                        [
                            "-124.11",
                            "40.89"
                        ],
                        [
                            "-124.19",
                            "40.07"
                        ],
                        [
                            "-123.53",
                            "38.75"
                        ],
                        [
                            "-122.52",
                            "37.81"
                        ],
                        [
                            "-121.67",
                            "36.63"
                        ],
                        [
                            "-121.44",
                            "35.60"
                        ],
                        [
                            "-121.13",
                            "34.49"
                        ],
                        [
                            "-122.13",
                            "34.23"
                        ],
                        [
                            "-122.87",
                            "35.32"
                        ],
                        [
                            "-123.45",
                            "36.41"
                        ],
                        [
                            "-124.07",
                            "37.84"
                        ],
                        [
                            "-125.31",
                            "39.53"
                        ],
                        [
                            "-125.58",
                            "40.39"
                        ],
                        [
                            "-125.93",
                            "42.34"
                        ],
                        [
                            "-125.58",
                            "43.53"
                        ],
                        [
                            "-124.78",
                            "44.68"
                        ],
                        [
                            "-124.46",
                            "45.39"
                        ],
                        [
                            "-124.73",
                            "46.14"
                        ],
                        [
                            "-125.27",
                            "46.49"
                        ],
                        [
                            "-125.85",
                            "46.28"
                        ],
                        [
                            "-126.51",
                            "45.50"
                        ],
                        [
                            "-127.13",
                            "46.54"
                        ],
                        [
                            "-126.29",
                            "48.37"
                        ],
                        [
                            "-124.92",
                            "48.53"
                        ]
                    ]
                ]
            },
            "properties": {
                "forecastId": null,
                "geometryId": null,
                "tag": "5E",
                "forecastHour": 6,
                "hazard": "IFR",
                "frequency": null,
                "severity": null,
                "status": "NRML",
                "base": null,
                "top": null,
                "fzlBase": null,
                "fzlTop": null,
                "level": null,
                "product": "SIERRA",
                "rawAirSigmet": "CIG BLW 010 VIS BLW 3SM BR",
                "validTimeTo": "2026-07-26T15:00:00.000",
                "validTimeFrom": [
                    "2026-07-26T13:44"
                ]
            }
        },
        {
            "type": "Feature",
            "geometry": {
                "type": "Polygon",
                "coordinates": [
                    [
                        [
                            "-121.13",
                            "48.97"
                        ],
                        [
                            "-121.98",
                            "47.83"
                        ],
                        [
                            "-124.40",
                            "46.57"
                        ],
                        [
                            "-125.68",
                            "45.67"
                        ],
                        [
                            "-126.57",
                            "45.03"
                        ],
                        [
                            "-128.24",
                            "48.21"
                        ],
                        [
                            "-124.63",
                            "48.61"
                        ],
                        [
                            "-123.56",
                            "48.21"
                        ],
                        [
                            "-123.21",
                            "48.40"
                        ],
                        [
                            "-123.12",
                            "48.93"
                        ],
                        [
                            "-121.13",
                            "48.97"
                        ]
                    ]
                ]
            },
            "properties": {
                "forecastId": null,
                "geometryId": null,
                "tag": "1C",
                "forecastHour": 6,
                "hazard": "ICE",
                "frequency": null,
                "severity": "MOD",
                "status": "NRML",
                "base": "100",
                "top": "230",
                "fzlBase": null,
                "fzlTop": null,
                "level": null,
                "product": "ZULU",
                "rawAirSigmet": "ICE",
                "validTimeTo": "2026-07-26T15:00:00.000",
                "validTimeFrom": [
                    "2026-07-26T08:45"
                ]
            }
        },
        {
            "type": "Feature",
            "geometry": {
                "type": "LineString",
                "coordinates": [
                    [
                        "-92.14",
                        "58.35"
                    ],
                    [
                        "-91.78",
                        "58.05"
                    ],
                    [
                        "-91.61",
                        "57.97"
                    ],
                    [
                        "-91.06",
                        "57.78"
                    ],
                    [
                        "-90.76",
                        "57.73"
                    ],
                    [
                        "-90.50",
                        "57.70"
                    ],
                    [
                        "-90.14",
                        "57.72"
                    ],
                    [
                        "-89.93",
                        "57.74"
                    ],
                    [
                        "-89.45",
                        "58.01"
                    ],
                    [
                        "-89.33",
                        "58.29"
                    ],
                    [
                        "-89.32",
                        "58.30"
                    ]
                ]
            },
            "properties": {
                "forecastId": null,
                "geometryId": null,
                "tag": "1C",
                "forecastHour": 6,
                "hazard": "FZLVL",
                "frequency": null,
                "severity": null,
                "status": "NRML",
                "base": null,
                "top": null,
                "fzlBase": null,
                "fzlTop": null,
                "level": "040",
                "product": "ZULU",
                "rawAirSigmet": null,
                "validTimeTo": "2026-07-26T15:00:00.000",
                "validTimeFrom": [
                    "2026-07-26T08:45"
                ]
            }
        },
        {
            "type": "Feature",
            "geometry": {
                "type": "LineString",
                "coordinates": [
                    [
                        "-135.29",
                        "45.09"
                    ],
                    [
                        "-134.84",
                        "45.23"
                    ],
                    [
                        "-133.06",
                        "45.82"
                    ],
                    [
                        "-131.81",
                        "46.49"
                    ],
                    [
                        "-130.88",
                        "47.04"
                    ],
                    [
                        "-130.09",
                        "47.88"
                    ],
                    [
                        "-129.60",
                        "48.70"
                    ],
                    [
                        "-128.83",
                        "49.47"
                    ],
                    [
                        "-127.60",
                        "50.27"
                    ],
                    [
                        "-126.54",
                        "50.85"
                    ],
                    [
                        "-126.29",
                        "51.88"
                    ],
                    [
                        "-126.30",
                        "52.87"
                    ],
                    [
                        "-126.94",
                        "53.76"
                    ],
                    [
                        "-127.64",
                        "54.95"
                    ],
                    [
                        "-127.89",
                        "56.19"
                    ]
                ]
            },
            "properties": {
                "forecastId": null,
                "geometryId": null,
                "tag": "1C",
                "forecastHour": 6,
                "hazard": "FZLVL",
                "frequency": null,
                "severity": null,
                "status": "NRML",
                "base": null,
                "top": null,
                "fzlBase": null,
                "fzlTop": null,
                "level": "080",
                "product": "ZULU",
                "rawAirSigmet": null,
                "validTimeTo": "2026-07-26T15:00:00.000",
                "validTimeFrom": [
                    "2026-07-26T08:45"
                ]
            }
        },
        {
            "type": "Feature",
            "geometry": {
                "type": "LineString",
                "coordinates": [
                    [
                        "-95.39",
                        "58.37"
                    ],
                    [
                        "-95.01",
                        "56.56"
                    ],
                    [
                        "-93.81",
                        "55.63"
                    ],
                    [
                        "-92.30",
                        "54.59"
                    ],
                    [
                        "-90.21",
                        "53.71"
                    ],
                    [
                        "-88.09",
                        "53.33"
                    ],
                    [
                        "-86.54",
                        "53.19"
                    ],
                    [
                        "-84.91",
                        "53.20"
                    ],
                    [
                        "-82.37",
                        "53.41"
                    ],
                    [
                        "-81.15",
                        "53.57"
                    ],
                    [
                        "-80.18",
                        "53.91"
                    ],
                    [
                        "-78.54",
                        "54.75"
                    ],
                    [
                        "-76.87",
                        "55.69"
                    ],
                    [
                        "-75.46",
                        "56.88"
                    ],
                    [
                        "-74.87",
                        "57.57"
                    ]
                ]
            },
            "properties": {
                "forecastId": null,
                "geometryId": null,
                "tag": "1C",
                "forecastHour": 6,
                "hazard": "FZLVL",
                "frequency": null,
                "severity": null,
                "status": "NRML",
                "base": null,
                "top": null,
                "fzlBase": null,
                "fzlTop": null,
                "level": "080",
                "product": "ZULU",
                "rawAirSigmet": null,
                "validTimeTo": "2026-07-26T15:00:00.000",
                "validTimeFrom": [
                    "2026-07-26T08:45"
                ]
            }
        },
        {
            "type": "Feature",
            "geometry": {
                "type": "Polygon",
                "coordinates": [
                    [
                        [
                            "-113.17",
                            "48.98"
                        ],
                        [
                            "-111.30",
                            "47.44"
                        ],
                        [
                            "-109.73",
                            "48.56"
                        ],
                        [
                            "-107.59",
                            "45.46"
                        ],
                        [
                            "-108.72",
                            "45.36"
                        ],
                        [
                            "-109.96",
                            "45.90"
                        ],
                        [
                            "-111.94",
                            "46.25"
                        ],
                        [
                            "-114.07",
                            "45.85"
                        ],
                        [
                            "-115.39",
                            "44.84"
                        ],
                        [
                            "-115.54",
                            "44.09"
                        ],
                        [
                            "-115.31",
                            "43.36"
                        ],
                        [
                            "-113.67",
                            "42.97"
                        ],
                        [
                            "-113.91",
                            "42.28"
                        ],
                        [
                            "-114.65",
                            "42.03"
                        ],
                        [
                            "-117.44",
                            "42.43"
                        ],
                        [
                            "-119.15",
                            "42.43"
                        ],
                        [
                            "-120.69",
                            "42.84"
                        ],
                        [
                            "-121.40",
                            "43.87"
                        ],
                        [
                            "-121.55",
                            "44.69"
                        ],
                        [
                            "-120.94",
                            "45.77"
                        ],
                        [
                            "-119.42",
                            "46.20"
                        ],
                        [
                            "-117.83",
                            "46.84"
                        ],
                        [
                            "-115.61",
                            "47.97"
                        ],
                        [
                            "-115.52",
                            "48.39"
                        ],
                        [
                            "-116.05",
                            "48.44"
                        ],
                        [
                            "-119.52",
                            "47.73"
                        ],
                        [
                            "-120.12",
                            "48.04"
                        ],
                        [
                            "-120.08",
                            "48.95"
                        ],
                        [
                            "-113.17",
                            "48.98"
                        ]
                    ]
                ]
            },
            "properties": {
                "forecastId": null,
                "geometryId": null,
                "tag": "3E",
                "forecastHour": 6,
                "hazard": "MT_OBSC",
                "frequency": null,
                "severity": null,
                "status": "NRML",
                "base": null,
                "top": null,
                "fzlBase": null,
                "fzlTop": null,
                "level": null,
                "product": "SIERRA",
                "rawAirSigmet": "FU HZ",
                "validTimeTo": "2026-07-26T15:00:00.000",
                "validTimeFrom": [
                    "2026-07-26T13:44"
                ]
            }
        },
        {
            "type": "Feature",
            "geometry": {
                "type": "LineString",
                "coordinates": [
                    [
                        "-133.18",
                        "39.88"
                    ],
                    [
                        "-129.33",
                        "42.02"
                    ],
                    [
                        "-125.78",
                        "44.14"
                    ],
                    [
                        "-122.72",
                        "46.52"
                    ],
                    [
                        "-121.22",
                        "47.88"
                    ],
                    [
                        "-119.75",
                        "48.92"
                    ],
                    [
                        "-116.74",
                        "51.08"
                    ],
                    [
                        "-116.29",
                        "51.94"
                    ],
                    [
                        "-115.10",
                        "52.33"
                    ],
                    [
                        "-114.03",
                        "52.79"
                    ],
                    [
                        "-113.45",
                        "53.38"
                    ],
                    [
                        "-112.32",
                        "54.00"
                    ],
                    [
                        "-111.15",
                        "54.33"
                    ],
                    [
                        "-109.95",
                        "54.13"
                    ],
                    [
                        "-108.45",
                        "54.16"
                    ],
                    [
                        "-107.33",
                        "55.52"
                    ],
                    [
                        "-104.63",
                        "54.91"
                    ],
                    [
                        "-103.70",
                        "55.11"
                    ],
                    [
                        "-103.39",
                        "55.42"
                    ],
                    [
                        "-102.91",
                        "56.13"
                    ],
                    [
                        "-101.89",
                        "56.13"
                    ],
                    [
                        "-101.04",
                        "55.85"
                    ],
                    [
                        "-98.67",
                        "55.01"
                    ],
                    [
                        "-96.23",
                        "54.36"
                    ],
                    [
                        "-94.44",
                        "53.40"
                    ],
                    [
                        "-92.37",
                        "52.50"
                    ],
                    [
                        "-89.79",
                        "52.06"
                    ],
                    [
                        "-88.20",
                        "50.95"
                    ],
                    [
                        "-87.38",
                        "50.25"
                    ],
                    [
                        "-86.30",
                        "49.82"
                    ],
                    [
                        "-85.10",
                        "50.06"
                    ],
                    [
                        "-85.02",
                        "50.97"
                    ],
                    [
                        "-84.34",
                        "51.20"
                    ],
                    [
                        "-83.64",
                        "51.10"
                    ],
                    [
                        "-82.36",
                        "50.80"
                    ],
                    [
                        "-80.75",
                        "50.66"
                    ],
                    [
                        "-79.64",
                        "50.00"
                    ],
                    [
                        "-79.21",
                        "49.30"
                    ],
                    [
                        "-78.66",
                        "48.97"
                    ],
                    [
                        "-77.77",
                        "48.92"
                    ],
                    [
                        "-76.66",
                        "48.68"
                    ],
                    [
                        "-75.95",
                        "48.05"
                    ],
                    [
                        "-75.04",
                        "47.63"
                    ],
                    [
                        "-74.61",
                        "47.09"
                    ],
                    [
                        "-74.15",
                        "46.25"
                    ],
                    [
                        "-74.03",
                        "45.29"
                    ],
                    [
                        "-72.78",
                        "47.02"
                    ],
                    [
                        "-72.14",
                        "47.63"
                    ],
                    [
                        "-71.38",
                        "47.86"
                    ],
                    [
                        "-70.22",
                        "49.61"
                    ],
                    [
                        "-69.27",
                        "50.07"
                    ],
                    [
                        "-68.56",
                        "49.51"
                    ],
                    [
                        "-66.07",
                        "48.71"
                    ],
                    [
                        "-65.66",
                        "49.99"
                    ],
                    [
                        "-64.23",
                        "51.01"
                    ],
                    [
                        "-62.98",
                        "53.18"
                    ],
                    [
                        "-62.79",
                        "54.28"
                    ],
                    [
                        "-63.20",
                        "55.06"
                    ],
                    [
                        "-63.87",
                        "56.15"
                    ]
                ]
            },
            "properties": {
                "forecastId": null,
                "geometryId": null,
                "tag": "1C",
                "forecastHour": 6,
                "hazard": "FZLVL",
                "frequency": null,
                "severity": null,
                "status": "NRML",
                "base": null,
                "top": null,
                "fzlBase": null,
                "fzlTop": null,
                "level": "120",
                "product": "ZULU",
                "rawAirSigmet": null,
                "validTimeTo": "2026-07-26T15:00:00.000",
                "validTimeFrom": [
                    "2026-07-26T08:45"
                ]
            }
        },
        {
            "type": "Feature",
            "geometry": {
                "type": "Polygon",
                "coordinates": [
                    [
                        [
                            "-75.09",
                            "35.42"
                        ],
                        [
                            "-74.67",
                            "35.31"
                        ],
                        [
                            "-74.58",
                            "35.18"
                        ],
                        [
                            "-74.42",
                            "34.80"
                        ],
                        [
                            "-74.43",
                            "34.44"
                        ],
                        [
                            "-74.83",
                            "34.41"
                        ],
                        [
                            "-75.00",
                            "34.51"
                        ],
                        [
                            "-75.23",
                            "34.68"
                        ],
                        [
                            "-75.59",
                            "34.94"
                        ],
                        [
                            "-75.40",
                            "35.28"
                        ],
                        [
                            "-75.09",
                            "35.42"
                        ]
                    ]
                ]
            },
            "properties": {
                "forecastId": null,
                "geometryId": null,
                "tag": "1C",
                "forecastHour": 6,
                "hazard": "FZLVL",
                "frequency": null,
                "severity": null,
                "status": "NRML",
                "base": null,
                "top": null,
                "fzlBase": null,
                "fzlTop": null,
                "level": "160",
                "product": "ZULU",
                "rawAirSigmet": null,
                "validTimeTo": "2026-07-26T15:00:00.000",
                "validTimeFrom": [
                    "2026-07-26T08:45"
                ]
            }
        },
        {
            "type": "Feature",
            "geometry": {
                "type": "LineString",
                "coordinates": [
                    [
                        "-102.88",
                        "19.50"
                    ],
                    [
                        "-104.14",
                        "20.26"
                    ],
                    [
                        "-105.45",
                        "21.24"
                    ],
                    [
                        "-106.77",
                        "22.39"
                    ],
                    [
                        "-108.74",
                        "22.78"
                    ],
                    [
                        "-109.80",
                        "22.66"
                    ],
                    [
                        "-110.45",
                        "22.21"
                    ],
                    [
                        "-111.28",
                        "22.02"
                    ],
                    [
                        "-112.02",
                        "22.54"
                    ],
                    [
                        "-113.37",
                        "23.44"
                    ],
                    [
                        "-114.33",
                        "23.62"
                    ],
                    [
                        "-115.05",
                        "23.78"
                    ],
                    [
                        "-115.29",
                        "24.17"
                    ],
                    [
                        "-115.38",
                        "25.13"
                    ],
                    [
                        "-115.76",
                        "26.04"
                    ],
                    [
                        "-116.87",
                        "27.27"
                    ],
                    [
                        "-117.62",
                        "29.03"
                    ],
                    [
                        "-118.86",
                        "27.89"
                    ],
                    [
                        "-120.72",
                        "26.81"
                    ],
                    [
                        "-121.84",
                        "26.49"
                    ],
                    [
                        "-122.77",
                        "26.88"
                    ],
                    [
                        "-123.37",
                        "27.48"
                    ],
                    [
                        "-123.63",
                        "28.52"
                    ],
                    [
                        "-123.38",
                        "30.29"
                    ],
                    [
                        "-123.28",
                        "31.93"
                    ],
                    [
                        "-122.98",
                        "33.69"
                    ],
                    [
                        "-122.92",
                        "35.45"
                    ],
                    [
                        "-124.03",
                        "37.00"
                    ],
                    [
                        "-123.09",
                        "38.24"
                    ],
                    [
                        "-122.11",
                        "38.85"
                    ],
                    [
                        "-121.66",
                        "39.37"
                    ],
                    [
                        "-121.06",
                        "40.22"
                    ],
                    [
                        "-120.19",
                        "40.87"
                    ],
                    [
                        "-118.50",
                        "41.69"
                    ],
                    [
                        "-117.15",
                        "42.67"
                    ],
                    [
                        "-115.89",
                        "43.81"
                    ],
                    [
                        "-114.50",
                        "45.02"
                    ],
                    [
                        "-113.45",
                        "45.46"
                    ],
                    [
                        "-111.92",
                        "45.78"
                    ],
                    [
                        "-107.64",
                        "47.29"
                    ],
                    [
                        "-105.16",
                        "47.95"
                    ],
                    [
                        "-103.94",
                        "48.14"
                    ],
                    [
                        "-103.00",
                        "48.01"
                    ],
                    [
                        "-101.09",
                        "47.43"
                    ],
                    [
                        "-99.22",
                        "46.70"
                    ],
                    [
                        "-96.60",
                        "46.32"
                    ],
                    [
                        "-95.41",
                        "46.15"
                    ],
                    [
                        "-94.54",
                        "45.50"
                    ],
                    [
                        "-93.19",
                        "44.06"
                    ],
                    [
                        "-93.03",
                        "43.46"
                    ],
                    [
                        "-93.77",
                        "43.73"
                    ],
                    [
                        "-94.49",
                        "44.18"
                    ],
                    [
                        "-95.66",
                        "44.33"
                    ],
                    [
                        "-96.56",
                        "43.86"
                    ],
                    [
                        "-96.35",
                        "43.13"
                    ],
                    [
                        "-95.30",
                        "41.92"
                    ],
                    [
                        "-93.51",
                        "41.12"
                    ],
                    [
                        "-91.70",
                        "40.32"
                    ],
                    [
                        "-90.49",
                        "39.93"
                    ],
                    [
                        "-89.26",
                        "39.78"
                    ],
                    [
                        "-88.13",
                        "40.19"
                    ],
                    [
                        "-87.49",
                        "40.82"
                    ],
                    [
                        "-86.65",
                        "40.85"
                    ],
                    [
                        "-86.06",
                        "40.28"
                    ],
                    [
                        "-85.91",
                        "39.22"
                    ],
                    [
                        "-85.52",
                        "38.64"
                    ],
                    [
                        "-83.75",
                        "37.54"
                    ],
                    [
                        "-82.67",
                        "36.64"
                    ],
                    [
                        "-82.35",
                        "35.81"
                    ],
                    [
                        "-82.70",
                        "35.07"
                    ],
                    [
                        "-82.60",
                        "34.31"
                    ],
                    [
                        "-81.99",
                        "33.44"
                    ],
                    [
                        "-81.25",
                        "32.93"
                    ],
                    [
                        "-80.82",
                        "32.25"
                    ],
                    [
                        "-81.82",
                        "30.75"
                    ],
                    [
                        "-81.16",
                        "29.91"
                    ],
                    [
                        "-80.31",
                        "29.26"
                    ],
                    [
                        "-78.99",
                        "28.33"
                    ],
                    [
                        "-77.85",
                        "29.14"
                    ],
                    [
                        "-76.48",
                        "29.93"
                    ],
                    [
                        "-75.82",
                        "29.79"
                    ],
                    [
                        "-75.12",
                        "29.27"
                    ],
                    [
                        "-74.30",
                        "28.67"
                    ],
                    [
                        "-72.87",
                        "28.70"
                    ],
                    [
                        "-71.17",
                        "29.26"
                    ],
                    [
                        "-70.80",
                        "29.12"
                    ],
                    [
                        "-71.16",
                        "28.56"
                    ],
                    [
                        "-71.57",
                        "28.01"
                    ],
                    [
                        "-72.04",
                        "27.18"
                    ],
                    [
                        "-72.84",
                        "26.72"
                    ],
                    [
                        "-74.65",
                        "26.23"
                    ],
                    [
                        "-77.04",
                        "26.15"
                    ],
                    [
                        "-78.01",
                        "26.37"
                    ],
                    [
                        "-78.75",
                        "26.78"
                    ],
                    [
                        "-79.74",
                        "26.38"
                    ],
                    [
                        "-80.29",
                        "25.88"
                    ],
                    [
                        "-81.09",
                        "26.07"
                    ],
                    [
                        "-81.75",
                        "26.71"
                    ],
                    [
                        "-82.43",
                        "26.66"
                    ],
                    [
                        "-82.74",
                        "26.28"
                    ],
                    [
                        "-82.76",
                        "25.53"
                    ],
                    [
                        "-82.62",
                        "25.02"
                    ],
                    [
                        "-83.19",
                        "25.00"
                    ],
                    [
                        "-83.71",
                        "25.46"
                    ],
                    [
                        "-85.12",
                        "26.34"
                    ],
                    [
                        "-86.15",
                        "26.40"
                    ],
                    [
                        "-87.32",
                        "26.12"
                    ],
                    [
                        "-88.94",
                        "25.24"
                    ],
                    [
                        "-90.37",
                        "24.68"
                    ],
                    [
                        "-91.55",
                        "24.55"
                    ],
                    [
                        "-92.25",
                        "25.09"
                    ],
                    [
                        "-93.23",
                        "25.28"
                    ],
                    [
                        "-94.21",
                        "25.06"
                    ],
                    [
                        "-95.16",
                        "24.54"
                    ],
                    [
                        "-95.91",
                        "24.41"
                    ],
                    [
                        "-96.87",
                        "24.55"
                    ],
                    [
                        "-97.78",
                        "24.06"
                    ],
                    [
                        "-99.27",
                        "22.85"
                    ],
                    [
                        "-99.84",
                        "22.24"
                    ],
                    [
                        "-100.54",
                        "22.15"
                    ],
                    [
                        "-101.75",
                        "23.10"
                    ],
                    [
                        "-102.57",
                        "22.67"
                    ],
                    [
                        "-102.87",
                        "22.06"
                    ],
                    [
                        "-102.64",
                        "21.38"
                    ],
                    [
                        "-102.00",
                        "20.64"
                    ],
                    [
                        "-101.72",
                        "19.55"
                    ]
                ]
            },
            "properties": {
                "forecastId": null,
                "geometryId": null,
                "tag": "1C",
                "forecastHour": 6,
                "hazard": "FZLVL",
                "frequency": null,
                "severity": null,
                "status": "NRML",
                "base": null,
                "top": null,
                "fzlBase": null,
                "fzlTop": null,
                "level": "160",
                "product": "ZULU",
                "rawAirSigmet": null,
                "validTimeTo": "2026-07-26T15:00:00.000",
                "validTimeFrom": [
                    "2026-07-26T08:45"
                ]
            }
        },
        {
            "type": "Feature",
            "geometry": {
                "type": "Polygon",
                "coordinates": [
                    [
                        [
                            "-66.80",
                            "44.24"
                        ],
                        [
                            "-66.80",
                            "40.54"
                        ],
                        [
                            "-68.37",
                            "39.94"
                        ],
                        [
                            "-69.78",
                            "39.23"
                        ],
                        [
                            "-71.18",
                            "37.83"
                        ],
                        [
                            "-72.52",
                            "37.42"
                        ],
                        [
                            "-72.35",
                            "39.14"
                        ],
                        [
                            "-71.08",
                            "41.81"
                        ],
                        [
                            "-69.71",
                            "43.22"
                        ],
                        [
                            "-66.80",
                            "44.24"
                        ]
                    ]
                ]
            },
            "properties": {
                "forecastId": null,
                "geometryId": null,
                "tag": "5W",
                "forecastHour": 6,
                "hazard": "TURB-HI",
                "frequency": null,
                "severity": "MOD",
                "status": "NRML",
                "base": "280",
                "top": "430",
                "fzlBase": null,
                "fzlTop": null,
                "level": null,
                "product": "TANGO",
                "rawAirSigmet": null,
                "validTimeTo": "2026-07-26T15:00:00.000",
                "validTimeFrom": [
                    "2026-07-26T11:39"
                ]
            }
        },
        {
            "type": "Feature",
            "geometry": {
                "type": "Polygon",
                "coordinates": [
                    [
                        [
                            "-120.25",
                            "48.97"
                        ],
                        [
                            "-121.01",
                            "47.37"
                        ],
                        [
                            "-121.36",
                            "46.30"
                        ],
                        [
                            "-121.82",
                            "45.09"
                        ],
                        [
                            "-122.52",
                            "43.73"
                        ],
                        [
                            "-122.99",
                            "43.08"
                        ],
                        [
                            "-123.58",
                            "42.07"
                        ],
                        [
                            "-123.71",
                            "40.78"
                        ],
                        [
                            "-124.24",
                            "40.70"
                        ],
                        [
                            "-124.42",
                            "42.89"
                        ],
                        [
                            "-124.03",
                            "44.56"
                        ],
                        [
                            "-124.20",
                            "46.85"
                        ],
                        [
                            "-124.61",
                            "48.27"
                        ],
                        [
                            "-122.91",
                            "48.89"
                        ],
                        [
                            "-120.25",
                            "48.97"
                        ]
                    ]
                ]
            },
            "properties": {
                "forecastId": null,
                "geometryId": null,
                "tag": "1E",
                "forecastHour": 6,
                "hazard": "MT_OBSC",
                "frequency": null,
                "severity": null,
                "status": "NRML",
                "base": null,
                "top": null,
                "fzlBase": null,
                "fzlTop": null,
                "level": null,
                "product": "SIERRA",
                "rawAirSigmet": "MTNS OBSC BY CLDS PCPN",
                "validTimeTo": "2026-07-26T15:00:00.000",
                "validTimeFrom": [
                    "2026-07-26T13:44"
                ]
            }
        },
        {
            "type": "Feature",
            "geometry": {
                "type": "LineString",
                "coordinates": [
                    [
                        "-126.91",
                        "19.39"
                    ],
                    [
                        "-126.16",
                        "19.26"
                    ],
                    [
                        "-125.34",
                        "19.43"
                    ],
                    [
                        "-124.66",
                        "19.90"
                    ],
                    [
                        "-124.29",
                        "20.40"
                    ],
                    [
                        "-123.91",
                        "21.22"
                    ],
                    [
                        "-123.64",
                        "22.02"
                    ],
                    [
                        "-123.02",
                        "22.15"
                    ],
                    [
                        "-122.55",
                        "21.49"
                    ],
                    [
                        "-121.97",
                        "20.86"
                    ],
                    [
                        "-121.40",
                        "20.22"
                    ],
                    [
                        "-121.00",
                        "19.44"
                    ],
                    [
                        "-120.48",
                        "18.77"
                    ],
                    [
                        "-119.89",
                        "18.27"
                    ],
                    [
                        "-119.40",
                        "17.62"
                    ]
                ]
            },
            "properties": {
                "forecastId": null,
                "geometryId": null,
                "tag": "1C",
                "forecastHour": 6,
                "hazard": "FZLVL",
                "frequency": null,
                "severity": null,
                "status": "NRML",
                "base": null,
                "top": null,
                "fzlBase": null,
                "fzlTop": null,
                "level": "160",
                "product": "ZULU",
                "rawAirSigmet": null,
                "validTimeTo": "2026-07-26T15:00:00.000",
                "validTimeFrom": [
                    "2026-07-26T08:45"
                ]
            }
        },
        {
            "type": "Feature",
            "geometry": {
                "type": "LineString",
                "coordinates": [
                    [
                        "-66.61",
                        "28.35"
                    ],
                    [
                        "-66.78",
                        "28.45"
                    ],
                    [
                        "-66.96",
                        "28.64"
                    ],
                    [
                        "-67.02",
                        "28.87"
                    ],
                    [
                        "-66.93",
                        "29.22"
                    ],
                    [
                        "-66.78",
                        "29.41"
                    ],
                    [
                        "-66.63",
                        "29.54"
                    ],
                    [
                        "-66.27",
                        "29.72"
                    ]
                ]
            },
            "properties": {
                "forecastId": null,
                "geometryId": null,
                "tag": "1C",
                "forecastHour": 6,
                "hazard": "FZLVL",
                "frequency": null,
                "severity": null,
                "status": "NRML",
                "base": null,
                "top": null,
                "fzlBase": null,
                "fzlTop": null,
                "level": "160",
                "product": "ZULU",
                "rawAirSigmet": null,
                "validTimeTo": "2026-07-26T15:00:00.000",
                "validTimeFrom": [
                    "2026-07-26T08:45"
                ]
            }
        },
        {
            "type": "Feature",
            "geometry": {
                "type": "LineString",
                "coordinates": [
                    [
                        "-128.12",
                        "23.98"
                    ],
                    [
                        "-127.70",
                        "23.79"
                    ],
                    [
                        "-127.65",
                        "23.76"
                    ],
                    [
                        "-127.37",
                        "23.49"
                    ],
                    [
                        "-127.12",
                        "23.16"
                    ],
                    [
                        "-127.05",
                        "23.04"
                    ],
                    [
                        "-126.94",
                        "22.83"
                    ],
                    [
                        "-126.79",
                        "22.49"
                    ],
                    [
                        "-126.63",
                        "22.15"
                    ],
                    [
                        "-126.48",
                        "21.80"
                    ],
                    [
                        "-126.39",
                        "21.45"
                    ],
                    [
                        "-126.40",
                        "21.07"
                    ],
                    [
                        "-126.46",
                        "20.77"
                    ],
                    [
                        "-126.51",
                        "20.67"
                    ],
                    [
                        "-126.74",
                        "20.27"
                    ],
                    [
                        "-126.80",
                        "20.23"
                    ],
                    [
                        "-127.06",
                        "19.97"
                    ]
                ]
            },
            "properties": {
                "forecastId": null,
                "geometryId": null,
                "tag": "1C",
                "forecastHour": 6,
                "hazard": "FZLVL",
                "frequency": null,
                "severity": null,
                "status": "NRML",
                "base": null,
                "top": null,
                "fzlBase": null,
                "fzlTop": null,
                "level": "160",
                "product": "ZULU",
                "rawAirSigmet": null,
                "validTimeTo": "2026-07-26T15:00:00.000",
                "validTimeFrom": [
                    "2026-07-26T08:45"
                ]
            }
        },
        {
            "type": "Feature",
            "geometry": {
                "type": "Polygon",
                "coordinates": [
                    [
                        [
                            "-83.43",
                            "37.82"
                        ],
                        [
                            "-80.63",
                            "37.17"
                        ],
                        [
                            "-79.95",
                            "36.55"
                        ],
                        [
                            "-80.85",
                            "35.23"
                        ],
                        [
                            "-84.38",
                            "33.62"
                        ],
                        [
                            "-85.02",
                            "34.93"
                        ],
                        [
                            "-85.06",
                            "36.62"
                        ],
                        [
                            "-83.43",
                            "37.82"
                        ]
                    ]
                ]
            },
            "properties": {
                "forecastId": null,
                "geometryId": null,
                "tag": "2E",
                "forecastHour": 6,
                "hazard": "MT_OBSC",
                "frequency": null,
                "severity": null,
                "status": "NRML",
                "base": null,
                "top": null,
                "fzlBase": null,
                "fzlTop": null,
                "level": null,
                "product": "SIERRA",
                "rawAirSigmet": "MTNS OBSC BY CLDS PCPN BR",
                "validTimeTo": "2026-07-26T15:00:00.000",
                "validTimeFrom": [
                    "2026-07-26T13:44"
                ]
            }
        },
        {
            "type": "Feature",
            "geometry": {
                "type": "Polygon",
                "coordinates": [
                    [
                        [
                            "-80.05",
                            "42.46"
                        ],
                        [
                            "-79.29",
                            "39.84"
                        ],
                        [
                            "-79.94",
                            "37.22"
                        ],
                        [
                            "-81.61",
                            "35.28"
                        ],
                        [
                            "-83.40",
                            "34.66"
                        ],
                        [
                            "-85.22",
                            "34.93"
                        ],
                        [
                            "-82.92",
                            "37.94"
                        ],
                        [
                            "-82.31",
                            "39.77"
                        ],
                        [
                            "-82.27",
                            "41.57"
                        ],
                        [
                            "-81.38",
                            "42.14"
                        ],
                        [
                            "-80.05",
                            "42.46"
                        ]
                    ]
                ]
            },
            "properties": {
                "forecastId": null,
                "geometryId": null,
                "tag": "3W",
                "forecastHour": 6,
                "hazard": "TURB-HI",
                "frequency": null,
                "severity": "MOD",
                "status": "NRML",
                "base": "290",
                "top": "410",
                "fzlBase": null,
                "fzlTop": null,
                "level": null,
                "product": "TANGO",
                "rawAirSigmet": null,
                "validTimeTo": "2026-07-26T15:00:00.000",
                "validTimeFrom": [
                    "2026-07-26T11:39"
                ]
            }
        },
        {
            "type": "Feature",
            "geometry": {
                "type": "Polygon",
                "coordinates": [
                    [
                        [
                            "-84.54",
                            "33.74"
                        ],
                        [
                            "-81.39",
                            "32.76"
                        ],
                        [
                            "-78.26",
                            "33.51"
                        ],
                        [
                            "-79.42",
                            "31.24"
                        ],
                        [
                            "-82.07",
                            "30.98"
                        ],
                        [
                            "-84.65",
                            "31.75"
                        ],
                        [
                            "-85.49",
                            "32.84"
                        ],
                        [
                            "-84.54",
                            "33.74"
                        ]
                    ]
                ]
            },
            "properties": {
                "forecastId": null,
                "geometryId": null,
                "tag": "1W",
                "forecastHour": 6,
                "hazard": "TURB-HI",
                "frequency": null,
                "severity": "MOD",
                "status": "NRML",
                "base": "250",
                "top": "410",
                "fzlBase": null,
                "fzlTop": null,
                "level": null,
                "product": "TANGO",
                "rawAirSigmet": null,
                "validTimeTo": "2026-07-26T15:00:00.000",
                "validTimeFrom": [
                    "2026-07-26T11:39"
                ]
            }
        },
        {
            "type": "Feature",
            "geometry": {
                "type": "Polygon",
                "coordinates": [
                    [
                        [
                            "-87.43",
                            "57.35"
                        ],
                        [
                            "-87.54",
                            "57.05"
                        ],
                        [
                            "-87.38",
                            "56.74"
                        ],
                        [
                            "-87.23",
                            "56.62"
                        ],
                        [
                            "-86.82",
                            "56.42"
                        ],
                        [
                            "-86.71",
                            "56.37"
                        ],
                        [
                            "-86.16",
                            "56.32"
                        ],
                        [
                            "-85.69",
                            "56.38"
                        ],
                        [
                            "-85.59",
                            "56.42"
                        ],
                        [
                            "-85.09",
                            "56.66"
                        ],
                        [
                            "-84.98",
                            "56.84"
                        ],
                        [
                            "-84.83",
                            "56.96"
                        ],
                        [
                            "-84.95",
                            "57.09"
                        ],
                        [
                            "-85.31",
                            "57.28"
                        ],
                        [
                            "-85.48",
                            "57.30"
                        ],
                        [
                            "-86.02",
                            "57.44"
                        ],
                        [
                            "-86.57",
                            "57.57"
                        ],
                        [
                            "-87.14",
                            "57.55"
                        ],
                        [
                            "-87.43",
                            "57.35"
                        ]
                    ]
                ]
            },
            "properties": {
                "forecastId": null,
                "geometryId": null,
                "tag": "1C",
                "forecastHour": 6,
                "hazard": "FZLVL",
                "frequency": null,
                "severity": null,
                "status": "NRML",
                "base": null,
                "top": null,
                "fzlBase": null,
                "fzlTop": null,
                "level": "040",
                "product": "ZULU",
                "rawAirSigmet": null,
                "validTimeTo": "2026-07-26T15:00:00.000",
                "validTimeFrom": [
                    "2026-07-26T08:45"
                ]
            }
        },
        {
            "type": "Feature",
            "geometry": {
                "type": "Polygon",
                "coordinates": [
                    [
                        [
                            "-117.00",
                            "45.29"
                        ],
                        [
                            "-117.13",
                            "44.68"
                        ],
                        [
                            "-116.79",
                            "44.18"
                        ],
                        [
                            "-116.35",
                            "43.97"
                        ],
                        [
                            "-116.00",
                            "43.68"
                        ],
                        [
                            "-115.37",
                            "43.16"
                        ],
                        [
                            "-115.39",
                            "42.80"
                        ],
                        [
                            "-115.74",
                            "42.69"
                        ],
                        [
                            "-116.69",
                            "42.86"
                        ],
                        [
                            "-118.02",
                            "42.46"
                        ],
                        [
                            "-118.38",
                            "42.90"
                        ],
                        [
                            "-118.77",
                            "42.81"
                        ],
                        [
                            "-119.64",
                            "42.55"
                        ],
                        [
                            "-119.96",
                            "42.94"
                        ],
                        [
                            "-119.90",
                            "43.49"
                        ],
                        [
                            "-119.66",
                            "44.14"
                        ],
                        [
                            "-119.50",
                            "44.73"
                        ],
                        [
                            "-117.73",
                            "45.23"
                        ],
                        [
                            "-117.00",
                            "45.29"
                        ]
                    ]
                ]
            },
            "properties": {
                "forecastId": null,
                "geometryId": null,
                "tag": "7E",
                "forecastHour": 6,
                "hazard": "IFR",
                "frequency": null,
                "severity": null,
                "status": "NEW",
                "base": null,
                "top": null,
                "fzlBase": null,
                "fzlTop": null,
                "level": null,
                "product": "SIERRA",
                "rawAirSigmet": "CIG BLW 010 VIS BLW 3SM HZ FU",
                "validTimeTo": "2026-07-26T15:00:00.000",
                "validTimeFrom": [
                    "2026-07-26T13:44"
                ]
            }
        },
        {
            "type": "Feature",
            "geometry": {
                "type": "Polygon",
                "coordinates": [
                    [
                        [
                            "-88.28",
                            "48.31"
                        ],
                        [
                            "-84.75",
                            "46.86"
                        ],
                        [
                            "-82.40",
                            "45.29"
                        ],
                        [
                            "-82.01",
                            "43.49"
                        ],
                        [
                            "-82.61",
                            "42.65"
                        ],
                        [
                            "-84.26",
                            "45.23"
                        ],
                        [
                            "-88.28",
                            "48.31"
                        ]
                    ]
                ]
            },
            "properties": {
                "forecastId": null,
                "geometryId": null,
                "tag": "4W",
                "forecastHour": 6,
                "hazard": "TURB-HI",
                "frequency": null,
                "severity": "MOD",
                "status": "NRML",
                "base": "290",
                "top": "390",
                "fzlBase": null,
                "fzlTop": null,
                "level": null,
                "product": "TANGO",
                "rawAirSigmet": null,
                "validTimeTo": "2026-07-26T15:00:00.000",
                "validTimeFrom": [
                    "2026-07-26T11:39"
                ]
            }
        },
        {
            "type": "Feature",
            "geometry": {
                "type": "Polygon",
                "coordinates": [
                    [
                        [
                            "-67.13",
                            "42.91"
                        ],
                        [
                            "-67.09",
                            "42.14"
                        ],
                        [
                            "-67.05",
                            "41.16"
                        ],
                        [
                            "-67.05",
                            "39.95"
                        ],
                        [
                            "-67.94",
                            "39.47"
                        ],
                        [
                            "-68.68",
                            "39.08"
                        ],
                        [
                            "-69.49",
                            "38.57"
                        ],
                        [
                            "-70.27",
                            "38.39"
                        ],
                        [
                            "-71.01",
                            "38.32"
                        ],
                        [
                            "-71.43",
                            "38.69"
                        ],
                        [
                            "-71.59",
                            "39.29"
                        ],
                        [
                            "-71.24",
                            "39.83"
                        ],
                        [
                            "-70.62",
                            "40.19"
                        ],
                        [
                            "-69.57",
                            "40.80"
                        ],
                        [
                            "-68.68",
                            "41.82"
                        ],
                        [
                            "-68.10",
                            "42.68"
                        ],
                        [
                            "-67.13",
                            "42.91"
                        ]
                    ]
                ]
            },
            "properties": {
                "forecastId": null,
                "geometryId": null,
                "tag": "7E",
                "forecastHour": 6,
                "hazard": "IFR",
                "frequency": null,
                "severity": null,
                "status": "NRML",
                "base": null,
                "top": null,
                "fzlBase": null,
                "fzlTop": null,
                "level": null,
                "product": "SIERRA",
                "rawAirSigmet": "CIG BLW 010 VIS BLW 3SM BR FG",
                "validTimeTo": "2026-07-26T15:00:00.000",
                "validTimeFrom": [
                    "2026-07-26T13:44"
                ]
            }
        }
    ],
    "metadata": {
        "creationTime": "2026-07-26T14:41"
    }
}