{
    "type": "FeatureCollection",
    "features": [
        {
            "type": "Feature",
            "geometry": {
                "type": "Polygon",
                "coordinates": [
                    [
                        [
                            "-77.63",
                            "41.10"
                        ],
                        [
                            "-76.27",
                            "39.87"
                        ],
                        [
                            "-76.85",
                            "38.41"
                        ],
                        [
                            "-77.70",
                            "37.67"
                        ],
                        [
                            "-78.44",
                            "37.44"
                        ],
                        [
                            "-79.16",
                            "37.97"
                        ],
                        [
                            "-79.60",
                            "37.43"
                        ],
                        [
                            "-80.33",
                            "36.54"
                        ],
                        [
                            "-79.50",
                            "36.14"
                        ],
                        [
                            "-78.62",
                            "35.73"
                        ],
                        [
                            "-76.67",
                            "35.34"
                        ],
                        [
                            "-77.16",
                            "34.86"
                        ],
                        [
                            "-78.20",
                            "34.08"
                        ],
                        [
                            "-80.36",
                            "33.53"
                        ],
                        [
                            "-81.42",
                            "33.12"
                        ],
                        [
                            "-82.45",
                            "32.51"
                        ],
                        [
                            "-83.19",
                            "31.30"
                        ],
                        [
                            "-84.27",
                            "31.07"
                        ],
                        [
                            "-84.62",
                            "31.69"
                        ],
                        [
                            "-83.74",
                            "32.51"
                        ],
                        [
                            "-82.60",
                            "33.40"
                        ],
                        [
                            "-81.50",
                            "34.38"
                        ],
                        [
                            "-81.85",
                            "34.76"
                        ],
                        [
                            "-83.73",
                            "35.16"
                        ],
                        [
                            "-83.71",
                            "35.77"
                        ],
                        [
                            "-82.62",
                            "36.50"
                        ],
                        [
                            "-83.22",
                            "36.50"
                        ],
                        [
                            "-84.66",
                            "35.67"
                        ],
                        [
                            "-85.70",
                            "36.08"
                        ],
                        [
                            "-85.22",
                            "37.11"
                        ],
                        [
                            "-83.83",
                            "37.58"
                        ],
                        [
                            "-81.58",
                            "38.30"
                        ],
                        [
                            "-80.74",
                            "39.48"
                        ],
                        [
                            "-80.96",
                            "40.22"
                        ],
                        [
                            "-81.09",
                            "40.73"
                        ],
                        [
                            "-78.59",
                            "40.33"
                        ],
                        [
                            "-77.63",
                            "41.10"
                        ]
                    ]
                ]
            },
            "properties": {
                "forecastId": null,
                "geometryId": null,
                "tag": "4E",
                "forecastHour": 3,
                "hazard": "IFR",
                "frequency": null,
                "severity": null,
                "status": "AMD",
                "base": null,
                "top": null,
                "fzlBase": null,
                "fzlTop": null,
                "level": null,
                "product": "SIERRA",
                "rawAirSigmet": "CIG BLW 010 VIS BLW 3SM BR FG",
                "validTimeTo": "2026-08-23T12:00:00.000",
                "validTimeFrom": [
                    "2026-08-23T12:28"
                ]
            }
        },
        {
            "type": "Feature",
            "geometry": {
                "type": "Polygon",
                "coordinates": [
                    [
                        [
                            "-72.21",
                            "45.23"
                        ],
                        [
                            "-72.88",
                            "40.74"
                        ],
                        [
                            "-75.60",
                            "40.56"
                        ],
                        [
                            "-75.64",
                            "42.07"
                        ],
                        [
                            "-76.88",
                            "43.72"
                        ],
                        [
                            "-75.81",
                            "44.45"
                        ],
                        [
                            "-75.09",
                            "44.99"
                        ],
                        [
                            "-72.21",
                            "45.23"
                        ]
                    ]
                ]
            },
            "properties": {
                "forecastId": null,
                "geometryId": null,
                "tag": "1W",
                "forecastHour": 3,
                "hazard": "TURB-HI",
                "frequency": null,
                "severity": "MOD",
                "status": "NRML",
                "base": "300",
                "top": "430",
                "fzlBase": null,
                "fzlTop": null,
                "level": null,
                "product": "TANGO",
                "rawAirSigmet": null,
                "validTimeTo": "2026-08-23T12:00:00.000",
                "validTimeFrom": [
                    "2026-08-23T12:40"
                ]
            }
        },
        {
            "type": "Feature",
            "geometry": {
                "type": "LineString",
                "coordinates": [
                    [
                        "-99.82",
                        "58.32"
                    ],
                    [
                        "-100.78",
                        "57.48"
                    ],
                    [
                        "-101.11",
                        "56.80"
                    ],
                    [
                        "-100.58",
                        "56.15"
                    ],
                    [
                        "-100.01",
                        "55.55"
                    ],
                    [
                        "-99.87",
                        "54.94"
                    ],
                    [
                        "-99.31",
                        "54.35"
                    ],
                    [
                        "-98.22",
                        "54.07"
                    ],
                    [
                        "-96.73",
                        "53.69"
                    ],
                    [
                        "-95.51",
                        "52.85"
                    ],
                    [
                        "-93.45",
                        "50.83"
                    ],
                    [
                        "-92.38",
                        "48.44"
                    ],
                    [
                        "-91.76",
                        "47.04"
                    ],
                    [
                        "-90.61",
                        "45.89"
                    ],
                    [
                        "-89.96",
                        "44.94"
                    ],
                    [
                        "-89.39",
                        "43.67"
                    ],
                    [
                        "-87.53",
                        "41.49"
                    ],
                    [
                        "-86.71",
                        "40.46"
                    ],
                    [
                        "-85.48",
                        "39.71"
                    ],
                    [
                        "-83.95",
                        "39.09"
                    ],
                    [
                        "-81.81",
                        "38.61"
                    ],
                    [
                        "-80.25",
                        "38.96"
                    ],
                    [
                        "-78.89",
                        "39.58"
                    ],
                    [
                        "-77.43",
                        "40.07"
                    ],
                    [
                        "-76.85",
                        "40.61"
                    ],
                    [
                        "-76.38",
                        "41.49"
                    ],
                    [
                        "-75.59",
                        "42.44"
                    ],
                    [
                        "-74.31",
                        "43.08"
                    ],
                    [
                        "-73.76",
                        "43.52"
                    ],
                    [
                        "-73.70",
                        "44.38"
                    ],
                    [
                        "-74.49",
                        "45.57"
                    ],
                    [
                        "-74.88",
                        "46.74"
                    ],
                    [
                        "-74.46",
                        "48.26"
                    ],
                    [
                        "-73.37",
                        "49.15"
                    ],
                    [
                        "-71.91",
                        "49.99"
                    ],
                    [
                        "-71.16",
                        "50.21"
                    ],
                    [
                        "-70.28",
                        "50.10"
                    ],
                    [
                        "-71.09",
                        "49.22"
                    ],
                    [
                        "-71.42",
                        "48.53"
                    ],
                    [
                        "-70.28",
                        "48.22"
                    ],
                    [
                        "-68.68",
                        "48.63"
                    ],
                    [
                        "-68.26",
                        "49.20"
                    ],
                    [
                        "-68.76",
                        "49.70"
                    ],
                    [
                        "-68.81",
                        "50.17"
                    ],
                    [
                        "-68.16",
                        "50.51"
                    ],
                    [
                        "-66.60",
                        "51.05"
                    ],
                    [
                        "-65.63",
                        "51.23"
                    ],
                    [
                        "-64.19",
                        "51.17"
                    ],
                    [
                        "-61.94",
                        "50.94"
                    ],
                    [
                        "-59.54",
                        "50.80"
                    ]
                ]
            },
            "properties": {
                "forecastId": null,
                "geometryId": null,
                "tag": "1C",
                "forecastHour": 3,
                "hazard": "FZLVL",
                "frequency": null,
                "severity": null,
                "status": "NRML",
                "base": null,
                "top": null,
                "fzlBase": null,
                "fzlTop": null,
                "level": "120",
                "product": "ZULU",
                "rawAirSigmet": null,
                "validTimeTo": "2026-08-23T12:00:00.000",
                "validTimeFrom": [
                    "2026-08-23T08:45"
                ]
            }
        },
        {
            "type": "Feature",
            "geometry": {
                "type": "Polygon",
                "coordinates": [
                    [
                        [
                            "-88.36",
                            "48.32"
                        ],
                        [
                            "-88.01",
                            "48.12"
                        ],
                        [
                            "-87.67",
                            "47.72"
                        ],
                        [
                            "-87.63",
                            "47.30"
                        ],
                        [
                            "-88.20",
                            "47.13"
                        ],
                        [
                            "-88.80",
                            "47.42"
                        ],
                        [
                            "-89.29",
                            "48.05"
                        ],
                        [
                            "-88.36",
                            "48.32"
                        ]
                    ]
                ]
            },
            "properties": {
                "forecastId": null,
                "geometryId": null,
                "tag": "1C",
                "forecastHour": 3,
                "hazard": "M_FZLVL",
                "frequency": null,
                "severity": null,
                "status": "NRML",
                "base": "070",
                "top": "090",
                "fzlBase": null,
                "fzlTop": null,
                "level": null,
                "product": "ZULU",
                "rawAirSigmet": null,
                "validTimeTo": "2026-08-23T12:00:00.000",
                "validTimeFrom": [
                    "2026-08-23T08:45"
                ]
            }
        },
        {
            "type": "Feature",
            "geometry": {
                "type": "Polygon",
                "coordinates": [
                    [
                        [
                            "-72.85",
                            "40.73"
                        ],
                        [
                            "-72.99",
                            "39.30"
                        ],
                        [
                            "-73.17",
                            "36.95"
                        ],
                        [
                            "-74.94",
                            "33.69"
                        ],
                        [
                            "-76.91",
                            "32.30"
                        ],
                        [
                            "-76.82",
                            "31.69"
                        ],
                        [
                            "-77.48",
                            "31.03"
                        ],
                        [
                            "-80.55",
                            "29.90"
                        ],
                        [
                            "-83.56",
                            "28.80"
                        ],
                        [
                            "-84.84",
                            "29.25"
                        ],
                        [
                            "-84.66",
                            "31.78"
                        ],
                        [
                            "-81.94",
                            "33.50"
                        ],
                        [
                            "-79.27",
                            "35.98"
                        ],
                        [
                            "-75.62",
                            "40.53"
                        ],
                        [
                            "-72.85",
                            "40.73"
                        ]
                    ]
                ]
            },
            "properties": {
                "forecastId": null,
                "geometryId": null,
                "tag": "2W",
                "forecastHour": 3,
                "hazard": "TURB-HI",
                "frequency": null,
                "severity": "MOD",
                "status": "NRML",
                "base": "280",
                "top": "420",
                "fzlBase": null,
                "fzlTop": null,
                "level": null,
                "product": "TANGO",
                "rawAirSigmet": null,
                "validTimeTo": "2026-08-23T12:00:00.000",
                "validTimeFrom": [
                    "2026-08-23T12:40"
                ]
            }
        },
        {
            "type": "Feature",
            "geometry": {
                "type": "Polygon",
                "coordinates": [
                    [
                        [
                            "-85.88",
                            "28.30"
                        ],
                        [
                            "-85.64",
                            "28.19"
                        ],
                        [
                            "-85.82",
                            "27.83"
                        ],
                        [
                            "-85.92",
                            "27.78"
                        ],
                        [
                            "-86.34",
                            "27.59"
                        ],
                        [
                            "-86.54",
                            "27.87"
                        ],
                        [
                            "-86.31",
                            "28.05"
                        ],
                        [
                            "-86.03",
                            "28.21"
                        ],
                        [
                            "-85.88",
                            "28.30"
                        ]
                    ]
                ]
            },
            "properties": {
                "forecastId": null,
                "geometryId": null,
                "tag": "1C",
                "forecastHour": 3,
                "hazard": "FZLVL",
                "frequency": null,
                "severity": null,
                "status": "NRML",
                "base": null,
                "top": null,
                "fzlBase": null,
                "fzlTop": null,
                "level": "160",
                "product": "ZULU",
                "rawAirSigmet": null,
                "validTimeTo": "2026-08-23T12:00:00.000",
                "validTimeFrom": [
                    "2026-08-23T08:45"
                ]
            }
        },
        {
            "type": "Feature",
            "geometry": {
                "type": "LineString",
                "coordinates": [
                    [
                        "-130.09",
                        "30.77"
                    ],
                    [
                        "-128.80",
                        "30.69"
                    ],
                    [
                        "-128.15",
                        "30.11"
                    ],
                    [
                        "-127.64",
                        "29.44"
                    ],
                    [
                        "-127.31",
                        "28.38"
                    ],
                    [
                        "-126.96",
                        "27.71"
                    ],
                    [
                        "-125.77",
                        "27.69"
                    ],
                    [
                        "-125.17",
                        "27.33"
                    ],
                    [
                        "-124.82",
                        "26.28"
                    ],
                    [
                        "-124.83",
                        "25.52"
                    ],
                    [
                        "-125.01",
                        "24.72"
                    ],
                    [
                        "-125.36",
                        "23.92"
                    ],
                    [
                        "-125.85",
                        "23.13"
                    ],
                    [
                        "-126.27",
                        "22.60"
                    ],
                    [
                        "-126.79",
                        "22.03"
                    ],
                    [
                        "-127.47",
                        "21.56"
                    ]
                ]
            },
            "properties": {
                "forecastId": null,
                "geometryId": null,
                "tag": "1C",
                "forecastHour": 3,
                "hazard": "FZLVL",
                "frequency": null,
                "severity": null,
                "status": "NRML",
                "base": null,
                "top": null,
                "fzlBase": null,
                "fzlTop": null,
                "level": "160",
                "product": "ZULU",
                "rawAirSigmet": null,
                "validTimeTo": "2026-08-23T12:00:00.000",
                "validTimeFrom": [
                    "2026-08-23T08:45"
                ]
            }
        },
        {
            "type": "Feature",
            "geometry": {
                "type": "Polygon",
                "coordinates": [
                    [
                        [
                            "-94.69",
                            "48.80"
                        ],
                        [
                            "-93.01",
                            "48.52"
                        ],
                        [
                            "-90.46",
                            "47.92"
                        ],
                        [
                            "-92.06",
                            "46.60"
                        ],
                        [
                            "-91.13",
                            "46.83"
                        ],
                        [
                            "-91.08",
                            "45.48"
                        ],
                        [
                            "-92.19",
                            "45.23"
                        ],
                        [
                            "-93.52",
                            "45.72"
                        ],
                        [
                            "-94.46",
                            "46.00"
                        ],
                        [
                            "-94.71",
                            "44.76"
                        ],
                        [
                            "-95.24",
                            "44.41"
                        ],
                        [
                            "-96.12",
                            "45.11"
                        ],
                        [
                            "-95.94",
                            "45.55"
                        ],
                        [
                            "-95.08",
                            "46.51"
                        ],
                        [
                            "-94.76",
                            "46.86"
                        ],
                        [
                            "-93.40",
                            "47.73"
                        ],
                        [
                            "-94.69",
                            "48.80"
                        ]
                    ]
                ]
            },
            "properties": {
                "forecastId": null,
                "geometryId": null,
                "tag": "7E",
                "forecastHour": 3,
                "hazard": "IFR",
                "frequency": null,
                "severity": null,
                "status": "AMD",
                "base": null,
                "top": null,
                "fzlBase": null,
                "fzlTop": null,
                "level": null,
                "product": "SIERRA",
                "rawAirSigmet": "CIG BLW 010 VIS BLW 3SM BR",
                "validTimeTo": "2026-08-23T12:00:00.000",
                "validTimeFrom": [
                    "2026-08-23T12:28"
                ]
            }
        },
        {
            "type": "Feature",
            "geometry": {
                "type": "Polygon",
                "coordinates": [
                    [
                        [
                            "-90.86",
                            "51.14"
                        ],
                        [
                            "-90.34",
                            "49.84"
                        ],
                        [
                            "-89.53",
                            "48.50"
                        ],
                        [
                            "-88.53",
                            "47.65"
                        ],
                        [
                            "-87.73",
                            "47.31"
                        ],
                        [
                            "-86.57",
                            "47.31"
                        ],
                        [
                            "-85.25",
                            "47.29"
                        ],
                        [
                            "-84.67",
                            "47.64"
                        ],
                        [
                            "-84.28",
                            "48.95"
                        ],
                        [
                            "-84.64",
                            "50.29"
                        ],
                        [
                            "-84.67",
                            "50.93"
                        ],
                        [
                            "-85.12",
                            "51.45"
                        ],
                        [
                            "-86.50",
                            "51.58"
                        ],
                        [
                            "-87.42",
                            "51.39"
                        ],
                        [
                            "-88.53",
                            "51.40"
                        ],
                        [
                            "-89.05",
                            "51.76"
                        ],
                        [
                            "-89.62",
                            "52.20"
                        ],
                        [
                            "-90.81",
                            "52.19"
                        ],
                        [
                            "-90.86",
                            "51.14"
                        ]
                    ]
                ]
            },
            "properties": {
                "forecastId": null,
                "geometryId": null,
                "tag": "1C",
                "forecastHour": 3,
                "hazard": "FZLVL",
                "frequency": null,
                "severity": null,
                "status": "NRML",
                "base": null,
                "top": null,
                "fzlBase": null,
                "fzlTop": null,
                "level": "080",
                "product": "ZULU",
                "rawAirSigmet": null,
                "validTimeTo": "2026-08-23T12:00:00.000",
                "validTimeFrom": [
                    "2026-08-23T08:45"
                ]
            }
        },
        {
            "type": "Feature",
            "geometry": {
                "type": "LineString",
                "coordinates": [
                    [
                        "-125.75",
                        "16.37"
                    ],
                    [
                        "-125.39",
                        "17.96"
                    ],
                    [
                        "-124.94",
                        "17.64"
                    ],
                    [
                        "-124.19",
                        "17.89"
                    ],
                    [
                        "-123.70",
                        "18.56"
                    ],
                    [
                        "-123.55",
                        "19.29"
                    ],
                    [
                        "-123.51",
                        "20.14"
                    ],
                    [
                        "-123.13",
                        "21.01"
                    ],
                    [
                        "-122.29",
                        "22.22"
                    ],
                    [
                        "-121.75",
                        "22.81"
                    ],
                    [
                        "-120.87",
                        "22.64"
                    ],
                    [
                        "-120.39",
                        "22.20"
                    ],
                    [
                        "-120.03",
                        "21.36"
                    ],
                    [
                        "-120.09",
                        "20.57"
                    ],
                    [
                        "-119.86",
                        "19.64"
                    ],
                    [
                        "-119.14",
                        "19.44"
                    ],
                    [
                        "-118.48",
                        "19.79"
                    ],
                    [
                        "-116.94",
                        "20.84"
                    ],
                    [
                        "-115.55",
                        "21.59"
                    ],
                    [
                        "-114.46",
                        "21.90"
                    ],
                    [
                        "-113.61",
                        "22.35"
                    ],
                    [
                        "-113.69",
                        "23.09"
                    ],
                    [
                        "-114.28",
                        "23.54"
                    ],
                    [
                        "-115.03",
                        "24.03"
                    ],
                    [
                        "-114.82",
                        "24.98"
                    ],
                    [
                        "-113.91",
                        "26.32"
                    ],
                    [
                        "-113.39",
                        "26.55"
                    ],
                    [
                        "-113.11",
                        "26.04"
                    ],
                    [
                        "-113.00",
                        "24.83"
                    ],
                    [
                        "-111.75",
                        "23.91"
                    ],
                    [
                        "-109.98",
                        "23.33"
                    ],
                    [
                        "-108.43",
                        "22.78"
                    ],
                    [
                        "-107.18",
                        "21.62"
                    ],
                    [
                        "-106.86",
                        "21.03"
                    ],
                    [
                        "-107.13",
                        "20.51"
                    ],
                    [
                        "-107.45",
                        "20.03"
                    ],
                    [
                        "-107.41",
                        "19.18"
                    ]
                ]
            },
            "properties": {
                "forecastId": null,
                "geometryId": null,
                "tag": "1C",
                "forecastHour": 3,
                "hazard": "FZLVL",
                "frequency": null,
                "severity": null,
                "status": "NRML",
                "base": null,
                "top": null,
                "fzlBase": null,
                "fzlTop": null,
                "level": "160",
                "product": "ZULU",
                "rawAirSigmet": null,
                "validTimeTo": "2026-08-23T12:00:00.000",
                "validTimeFrom": [
                    "2026-08-23T08:45"
                ]
            }
        },
        {
            "type": "Feature",
            "geometry": {
                "type": "LineString",
                "coordinates": [
                    [
                        "-79.81",
                        "18.91"
                    ],
                    [
                        "-79.58",
                        "19.25"
                    ],
                    [
                        "-78.80",
                        "19.89"
                    ],
                    [
                        "-78.39",
                        "20.95"
                    ],
                    [
                        "-78.47",
                        "22.06"
                    ],
                    [
                        "-77.66",
                        "21.86"
                    ],
                    [
                        "-76.84",
                        "21.64"
                    ],
                    [
                        "-76.18",
                        "21.78"
                    ],
                    [
                        "-75.28",
                        "22.40"
                    ],
                    [
                        "-74.58",
                        "23.04"
                    ],
                    [
                        "-74.58",
                        "24.15"
                    ],
                    [
                        "-73.96",
                        "24.80"
                    ],
                    [
                        "-72.68",
                        "25.22"
                    ],
                    [
                        "-71.49",
                        "25.54"
                    ],
                    [
                        "-70.29",
                        "25.72"
                    ],
                    [
                        "-68.92",
                        "25.55"
                    ],
                    [
                        "-67.29",
                        "25.43"
                    ]
                ]
            },
            "properties": {
                "forecastId": null,
                "geometryId": null,
                "tag": "1C",
                "forecastHour": 3,
                "hazard": "FZLVL",
                "frequency": null,
                "severity": null,
                "status": "NRML",
                "base": null,
                "top": null,
                "fzlBase": null,
                "fzlTop": null,
                "level": "160",
                "product": "ZULU",
                "rawAirSigmet": null,
                "validTimeTo": "2026-08-23T12:00:00.000",
                "validTimeFrom": [
                    "2026-08-23T08:45"
                ]
            }
        },
        {
            "type": "Feature",
            "geometry": {
                "type": "Polygon",
                "coordinates": [
                    [
                        [
                            "-125.00",
                            "48.66"
                        ],
                        [
                            "-123.86",
                            "48.05"
                        ],
                        [
                            "-123.17",
                            "47.07"
                        ],
                        [
                            "-123.09",
                            "45.02"
                        ],
                        [
                            "-124.17",
                            "44.38"
                        ],
                        [
                            "-124.24",
                            "43.66"
                        ],
                        [
                            "-124.52",
                            "42.76"
                        ],
                        [
                            "-123.97",
                            "41.78"
                        ],
                        [
                            "-123.65",
                            "41.06"
                        ],
                        [
                            "-123.87",
                            "40.45"
                        ],
                        [
                            "-124.17",
                            "40.19"
                        ],
                        [
                            "-123.47",
                            "38.90"
                        ],
                        [
                            "-123.04",
                            "38.53"
                        ],
                        [
                            "-122.09",
                            "37.66"
                        ],
                        [
                            "-122.13",
                            "37.09"
                        ],
                        [
                            "-121.70",
                            "36.58"
                        ],
                        [
                            "-121.80",
                            "36.16"
                        ],
                        [
                            "-121.45",
                            "35.76"
                        ],
                        [
                            "-120.64",
                            "35.20"
                        ],
                        [
                            "-120.36",
                            "34.75"
                        ],
                        [
                            "-119.98",
                            "34.60"
                        ],
                        [
                            "-119.81",
                            "33.92"
                        ],
                        [
                            "-119.59",
                            "33.23"
                        ],
                        [
                            "-118.43",
                            "33.18"
                        ],
                        [
                            "-117.91",
                            "33.39"
                        ],
                        [
                            "-117.47",
                            "33.51"
                        ],
                        [
                            "-117.15",
                            "33.51"
                        ],
                        [
                            "-116.64",
                            "32.56"
                        ],
                        [
                            "-120.84",
                            "30.72"
                        ],
                        [
                            "-124.21",
                            "35.96"
                        ],
                        [
                            "-126.82",
                            "39.73"
                        ],
                        [
                            "-125.72",
                            "40.79"
                        ],
                        [
                            "-126.18",
                            "42.61"
                        ],
                        [
                            "-125.10",
                            "44.44"
                        ],
                        [
                            "-124.91",
                            "46.05"
                        ],
                        [
                            "-125.99",
                            "46.94"
                        ],
                        [
                            "-126.19",
                            "48.41"
                        ],
                        [
                            "-125.00",
                            "48.66"
                        ]
                    ]
                ]
            },
            "properties": {
                "forecastId": null,
                "geometryId": null,
                "tag": "3E",
                "forecastHour": 3,
                "hazard": "IFR",
                "frequency": null,
                "severity": null,
                "status": "AMD",
                "base": null,
                "top": null,
                "fzlBase": null,
                "fzlTop": null,
                "level": null,
                "product": "SIERRA",
                "rawAirSigmet": "CIG BLW 010 VIS BLW 3SM BR",
                "validTimeTo": "2026-08-23T12:00:00.000",
                "validTimeFrom": [
                    "2026-08-23T12:28"
                ]
            }
        },
        {
            "type": "Feature",
            "geometry": {
                "type": "Polygon",
                "coordinates": [
                    [
                        [
                            "-69.33",
                            "47.57"
                        ],
                        [
                            "-68.52",
                            "45.60"
                        ],
                        [
                            "-71.58",
                            "43.21"
                        ],
                        [
                            "-77.02",
                            "40.20"
                        ],
                        [
                            "-81.04",
                            "35.24"
                        ],
                        [
                            "-83.06",
                            "34.35"
                        ],
                        [
                            "-85.13",
                            "35.01"
                        ],
                        [
                            "-85.07",
                            "36.92"
                        ],
                        [
                            "-82.06",
                            "38.73"
                        ],
                        [
                            "-80.82",
                            "40.07"
                        ],
                        [
                            "-79.14",
                            "42.17"
                        ],
                        [
                            "-76.21",
                            "43.16"
                        ],
                        [
                            "-74.63",
                            "44.92"
                        ],
                        [
                            "-71.30",
                            "45.16"
                        ],
                        [
                            "-69.33",
                            "47.57"
                        ]
                    ]
                ]
            },
            "properties": {
                "forecastId": null,
                "geometryId": null,
                "tag": "1E",
                "forecastHour": 3,
                "hazard": "MT_OBSC",
                "frequency": null,
                "severity": null,
                "status": "NRML",
                "base": null,
                "top": null,
                "fzlBase": null,
                "fzlTop": null,
                "level": null,
                "product": "SIERRA",
                "rawAirSigmet": "MTNS OBSC BY CLDS PCPN BR FG",
                "validTimeTo": "2026-08-23T12:00:00.000",
                "validTimeFrom": [
                    "2026-08-23T12:28"
                ]
            }
        },
        {
            "type": "Feature",
            "geometry": {
                "type": "Polygon",
                "coordinates": [
                    [
                        [
                            "-106.97",
                            "43.92"
                        ],
                        [
                            "-104.21",
                            "43.93"
                        ],
                        [
                            "-103.32",
                            "43.27"
                        ],
                        [
                            "-102.89",
                            "42.43"
                        ],
                        [
                            "-101.68",
                            "40.26"
                        ],
                        [
                            "-101.54",
                            "39.05"
                        ],
                        [
                            "-101.07",
                            "38.11"
                        ],
                        [
                            "-97.76",
                            "35.89"
                        ],
                        [
                            "-97.08",
                            "35.17"
                        ],
                        [
                            "-95.87",
                            "34.78"
                        ],
                        [
                            "-95.40",
                            "34.61"
                        ],
                        [
                            "-95.26",
                            "33.83"
                        ],
                        [
                            "-95.86",
                            "33.14"
                        ],
                        [
                            "-96.81",
                            "32.73"
                        ],
                        [
                            "-98.28",
                            "32.57"
                        ],
                        [
                            "-100.07",
                            "31.64"
                        ],
                        [
                            "-100.54",
                            "31.30"
                        ],
                        [
                            "-100.58",
                            "30.73"
                        ],
                        [
                            "-100.23",
                            "29.52"
                        ],
                        [
                            "-100.52",
                            "28.65"
                        ],
                        [
                            "-100.02",
                            "27.66"
                        ],
                        [
                            "-100.84",
                            "25.94"
                        ],
                        [
                            "-99.83",
                            "25.57"
                        ],
                        [
                            "-98.59",
                            "25.55"
                        ],
                        [
                            "-97.64",
                            "24.89"
                        ],
                        [
                            "-96.59",
                            "24.45"
                        ],
                        [
                            "-95.62",
                            "23.95"
                        ],
                        [
                            "-94.97",
                            "23.36"
                        ],
                        [
                            "-94.25",
                            "22.61"
                        ],
                        [
                            "-94.00",
                            "21.67"
                        ],
                        [
                            "-94.31",
                            "20.82"
                        ],
                        [
                            "-95.53",
                            "20.77"
                        ],
                        [
                            "-97.35",
                            "21.85"
                        ],
                        [
                            "-98.93",
                            "21.79"
                        ],
                        [
                            "-99.79",
                            "22.18"
                        ],
                        [
                            "-100.93",
                            "23.79"
                        ],
                        [
                            "-101.44",
                            "24.63"
                        ],
                        [
                            "-102.16",
                            "25.09"
                        ],
                        [
                            "-103.12",
                            "25.69"
                        ],
                        [
                            "-103.36",
                            "26.23"
                        ],
                        [
                            "-102.82",
                            "26.67"
                        ],
                        [
                            "-102.82",
                            "27.55"
                        ],
                        [
                            "-103.68",
                            "27.95"
                        ],
                        [
                            "-105.28",
                            "29.15"
                        ],
                        [
                            "-106.71",
                            "28.94"
                        ],
                        [
                            "-107.91",
                            "29.04"
                        ],
                        [
                            "-109.41",
                            "29.17"
                        ],
                        [
                            "-110.52",
                            "29.84"
                        ],
                        [
                            "-111.08",
                            "30.57"
                        ],
                        [
                            "-112.01",
                            "31.08"
                        ],
                        [
                            "-113.22",
                            "32.39"
                        ],
                        [
                            "-113.68",
                            "33.38"
                        ],
                        [
                            "-114.46",
                            "34.01"
                        ],
                        [
                            "-116.16",
                            "33.72"
                        ],
                        [
                            "-117.55",
                            "33.34"
                        ],
                        [
                            "-118.71",
                            "33.49"
                        ],
                        [
                            "-119.74",
                            "33.06"
                        ],
                        [
                            "-120.64",
                            "33.39"
                        ],
                        [
                            "-120.86",
                            "34.08"
                        ],
                        [
                            "-120.59",
                            "34.85"
                        ],
                        [
                            "-119.93",
                            "35.70"
                        ],
                        [
                            "-119.30",
                            "36.45"
                        ],
                        [
                            "-118.38",
                            "37.03"
                        ],
                        [
                            "-117.06",
                            "37.12"
                        ],
                        [
                            "-115.98",
                            "36.35"
                        ],
                        [
                            "-113.57",
                            "37.05"
                        ],
                        [
                            "-112.54",
                            "37.43"
                        ],
                        [
                            "-112.09",
                            "38.28"
                        ],
                        [
                            "-111.22",
                            "39.13"
                        ],
                        [
                            "-109.74",
                            "39.52"
                        ],
                        [
                            "-108.54",
                            "39.38"
                        ],
                        [
                            "-107.75",
                            "39.29"
                        ],
                        [
                            "-107.25",
                            "39.56"
                        ],
                        [
                            "-106.66",
                            "41.71"
                        ],
                        [
                            "-107.20",
                            "42.84"
                        ],
                        [
                            "-106.97",
                            "43.92"
                        ]
                    ]
                ]
            },
            "properties": {
                "forecastId": null,
                "geometryId": null,
                "tag": "1C",
                "forecastHour": 3,
                "hazard": "FZLVL",
                "frequency": null,
                "severity": null,
                "status": "NRML",
                "base": null,
                "top": null,
                "fzlBase": null,
                "fzlTop": null,
                "level": "160",
                "product": "ZULU",
                "rawAirSigmet": null,
                "validTimeTo": "2026-08-23T12:00:00.000",
                "validTimeFrom": [
                    "2026-08-23T08:45"
                ]
            }
        },
        {
            "type": "Feature",
            "geometry": {
                "type": "Polygon",
                "coordinates": [
                    [
                        [
                            "-83.40",
                            "38.30"
                        ],
                        [
                            "-82.44",
                            "37.93"
                        ],
                        [
                            "-81.79",
                            "37.34"
                        ],
                        [
                            "-81.74",
                            "36.72"
                        ],
                        [
                            "-81.66",
                            "35.98"
                        ],
                        [
                            "-82.79",
                            "34.74"
                        ],
                        [
                            "-83.42",
                            "34.31"
                        ],
                        [
                            "-84.35",
                            "33.87"
                        ],
                        [
                            "-85.08",
                            "33.49"
                        ],
                        [
                            "-85.90",
                            "33.08"
                        ],
                        [
                            "-87.42",
                            "32.65"
                        ],
                        [
                            "-88.65",
                            "32.36"
                        ],
                        [
                            "-88.97",
                            "32.23"
                        ],
                        [
                            "-90.51",
                            "31.92"
                        ],
                        [
                            "-90.91",
                            "31.88"
                        ],
                        [
                            "-91.83",
                            "32.23"
                        ],
                        [
                            "-92.38",
                            "32.72"
                        ],
                        [
                            "-92.76",
                            "33.74"
                        ],
                        [
                            "-92.24",
                            "34.87"
                        ],
                        [
                            "-91.66",
                            "35.35"
                        ],
                        [
                            "-89.32",
                            "36.21"
                        ],
                        [
                            "-88.37",
                            "36.63"
                        ],
                        [
                            "-86.82",
                            "37.49"
                        ],
                        [
                            "-86.57",
                            "37.75"
                        ],
                        [
                            "-86.02",
                            "37.97"
                        ],
                        [
                            "-84.46",
                            "38.25"
                        ],
                        [
                            "-83.40",
                            "38.30"
                        ]
                    ]
                ]
            },
            "properties": {
                "forecastId": null,
                "geometryId": null,
                "tag": "4W",
                "forecastHour": 3,
                "hazard": "TURB-HI",
                "frequency": null,
                "severity": "MOD",
                "status": "NEW",
                "base": "280",
                "top": "420",
                "fzlBase": null,
                "fzlTop": null,
                "level": null,
                "product": "TANGO",
                "rawAirSigmet": null,
                "validTimeTo": "2026-08-23T12:00:00.000",
                "validTimeFrom": [
                    "2026-08-23T12:40"
                ]
            }
        },
        {
            "type": "Feature",
            "geometry": {
                "type": "Polygon",
                "coordinates": [
                    [
                        [
                            "-106.17",
                            "23.48"
                        ],
                        [
                            "-105.96",
                            "23.32"
                        ],
                        [
                            "-105.89",
                            "22.96"
                        ],
                        [
                            "-106.10",
                            "22.80"
                        ],
                        [
                            "-106.35",
                            "22.92"
                        ],
                        [
                            "-106.42",
                            "23.28"
                        ],
                        [
                            "-106.17",
                            "23.48"
                        ]
                    ]
                ]
            },
            "properties": {
                "forecastId": null,
                "geometryId": null,
                "tag": "1C",
                "forecastHour": 3,
                "hazard": "FZLVL",
                "frequency": null,
                "severity": null,
                "status": "NRML",
                "base": null,
                "top": null,
                "fzlBase": null,
                "fzlTop": null,
                "level": "160",
                "product": "ZULU",
                "rawAirSigmet": null,
                "validTimeTo": "2026-08-23T12:00:00.000",
                "validTimeFrom": [
                    "2026-08-23T08:45"
                ]
            }
        },
        {
            "type": "Feature",
            "geometry": {
                "type": "Polygon",
                "coordinates": [
                    [
                        [
                            "-123.26",
                            "49.02"
                        ],
                        [
                            "-120.06",
                            "48.96"
                        ],
                        [
                            "-120.75",
                            "47.38"
                        ],
                        [
                            "-121.12",
                            "45.78"
                        ],
                        [
                            "-121.40",
                            "43.96"
                        ],
                        [
                            "-122.47",
                            "42.78"
                        ],
                        [
                            "-123.69",
                            "42.41"
                        ],
                        [
                            "-123.55",
                            "40.97"
                        ],
                        [
                            "-123.65",
                            "40.53"
                        ],
                        [
                            "-124.44",
                            "40.25"
                        ],
                        [
                            "-124.42",
                            "41.84"
                        ],
                        [
                            "-124.63",
                            "43.25"
                        ],
                        [
                            "-123.94",
                            "45.64"
                        ],
                        [
                            "-124.14",
                            "46.97"
                        ],
                        [
                            "-124.84",
                            "48.66"
                        ],
                        [
                            "-123.27",
                            "48.23"
                        ],
                        [
                            "-123.26",
                            "49.02"
                        ]
                    ]
                ]
            },
            "properties": {
                "forecastId": null,
                "geometryId": null,
                "tag": "2E",
                "forecastHour": 3,
                "hazard": "MT_OBSC",
                "frequency": null,
                "severity": null,
                "status": "NRML",
                "base": null,
                "top": null,
                "fzlBase": null,
                "fzlTop": null,
                "level": null,
                "product": "SIERRA",
                "rawAirSigmet": "MTNS OBSC BY CLDS BR",
                "validTimeTo": "2026-08-23T12:00:00.000",
                "validTimeFrom": [
                    "2026-08-23T12:28"
                ]
            }
        },
        {
            "type": "Feature",
            "geometry": {
                "type": "Polygon",
                "coordinates": [
                    [
                        [
                            "-68.94",
                            "47.47"
                        ],
                        [
                            "-67.76",
                            "47.40"
                        ],
                        [
                            "-67.70",
                            "45.82"
                        ],
                        [
                            "-66.82",
                            "44.82"
                        ],
                        [
                            "-66.97",
                            "40.61"
                        ],
                        [
                            "-68.05",
                            "40.23"
                        ],
                        [
                            "-69.00",
                            "40.71"
                        ],
                        [
                            "-70.17",
                            "40.97"
                        ],
                        [
                            "-71.35",
                            "41.00"
                        ],
                        [
                            "-73.37",
                            "40.60"
                        ],
                        [
                            "-74.55",
                            "40.51"
                        ],
                        [
                            "-75.36",
                            "40.29"
                        ],
                        [
                            "-76.25",
                            "39.84"
                        ],
                        [
                            "-77.61",
                            "41.15"
                        ],
                        [
                            "-78.65",
                            "40.32"
                        ],
                        [
                            "-81.47",
                            "40.83"
                        ],
                        [
                            "-80.30",
                            "42.39"
                        ],
                        [
                            "-78.97",
                            "42.71"
                        ],
                        [
                            "-77.60",
                            "42.40"
                        ],
                        [
                            "-73.44",
                            "41.93"
                        ],
                        [
                            "-71.09",
                            "44.57"
                        ],
                        [
                            "-69.79",
                            "46.99"
                        ],
                        [
                            "-68.94",
                            "47.47"
                        ]
                    ]
                ]
            },
            "properties": {
                "forecastId": null,
                "geometryId": null,
                "tag": "1E",
                "forecastHour": 3,
                "hazard": "IFR",
                "frequency": null,
                "severity": null,
                "status": "AMD",
                "base": null,
                "top": null,
                "fzlBase": null,
                "fzlTop": null,
                "level": null,
                "product": "SIERRA",
                "rawAirSigmet": "CIG BLW 010 VIS BLW 3SM PCPN BR FG",
                "validTimeTo": "2026-08-23T12:00:00.000",
                "validTimeFrom": [
                    "2026-08-23T12:28"
                ]
            }
        },
        {
            "type": "Feature",
            "geometry": {
                "type": "Polygon",
                "coordinates": [
                    [
                        [
                            "-95.46",
                            "40.07"
                        ],
                        [
                            "-94.54",
                            "39.18"
                        ],
                        [
                            "-93.68",
                            "37.86"
                        ],
                        [
                            "-92.88",
                            "36.78"
                        ],
                        [
                            "-91.90",
                            "36.03"
                        ],
                        [
                            "-90.74",
                            "34.95"
                        ],
                        [
                            "-90.60",
                            "34.57"
                        ],
                        [
                            "-91.08",
                            "34.03"
                        ],
                        [
                            "-91.67",
                            "33.79"
                        ],
                        [
                            "-92.39",
                            "33.99"
                        ],
                        [
                            "-93.95",
                            "34.64"
                        ],
                        [
                            "-94.56",
                            "35.84"
                        ],
                        [
                            "-95.82",
                            "36.79"
                        ],
                        [
                            "-95.90",
                            "37.86"
                        ],
                        [
                            "-95.70",
                            "39.63"
                        ],
                        [
                            "-95.46",
                            "40.07"
                        ]
                    ]
                ]
            },
            "properties": {
                "forecastId": null,
                "geometryId": null,
                "tag": "1C",
                "forecastHour": 3,
                "hazard": "FZLVL",
                "frequency": null,
                "severity": null,
                "status": "NRML",
                "base": null,
                "top": null,
                "fzlBase": null,
                "fzlTop": null,
                "level": "160",
                "product": "ZULU",
                "rawAirSigmet": null,
                "validTimeTo": "2026-08-23T12:00:00.000",
                "validTimeFrom": [
                    "2026-08-23T08:45"
                ]
            }
        },
        {
            "type": "Feature",
            "geometry": {
                "type": "LineString",
                "coordinates": [
                    [
                        "-135.87",
                        "46.41"
                    ],
                    [
                        "-134.50",
                        "47.02"
                    ],
                    [
                        "-133.53",
                        "47.24"
                    ],
                    [
                        "-132.06",
                        "47.30"
                    ],
                    [
                        "-130.99",
                        "47.00"
                    ],
                    [
                        "-128.23",
                        "46.42"
                    ],
                    [
                        "-126.55",
                        "46.21"
                    ],
                    [
                        "-125.49",
                        "45.79"
                    ],
                    [
                        "-123.86",
                        "45.47"
                    ],
                    [
                        "-122.39",
                        "45.42"
                    ],
                    [
                        "-120.38",
                        "45.77"
                    ],
                    [
                        "-119.17",
                        "46.37"
                    ],
                    [
                        "-118.83",
                        "47.25"
                    ],
                    [
                        "-118.72",
                        "48.48"
                    ],
                    [
                        "-118.69",
                        "50.54"
                    ],
                    [
                        "-118.08",
                        "52.58"
                    ],
                    [
                        "-117.33",
                        "53.46"
                    ],
                    [
                        "-116.38",
                        "54.03"
                    ],
                    [
                        "-116.20",
                        "55.03"
                    ],
                    [
                        "-117.03",
                        "55.86"
                    ],
                    [
                        "-117.11",
                        "56.56"
                    ],
                    [
                        "-116.85",
                        "57.43"
                    ]
                ]
            },
            "properties": {
                "forecastId": null,
                "geometryId": null,
                "tag": "1C",
                "forecastHour": 3,
                "hazard": "FZLVL",
                "frequency": null,
                "severity": null,
                "status": "NRML",
                "base": null,
                "top": null,
                "fzlBase": null,
                "fzlTop": null,
                "level": "120",
                "product": "ZULU",
                "rawAirSigmet": null,
                "validTimeTo": "2026-08-23T12:00:00.000",
                "validTimeFrom": [
                    "2026-08-23T08:45"
                ]
            }
        }
    ],
    "metadata": {
        "creationTime": "2026-08-23T12:54"
    }
}