{
    "type": "FeatureCollection",
    "features": [
        {
            "type": "Feature",
            "geometry": {
                "type": "LineString",
                "coordinates": [
                    [
                        "-91.14",
                        "58.34"
                    ],
                    [
                        "-91.03",
                        "58.22"
                    ],
                    [
                        "-90.88",
                        "58.03"
                    ],
                    [
                        "-90.49",
                        "57.81"
                    ],
                    [
                        "-90.01",
                        "57.72"
                    ],
                    [
                        "-89.94",
                        "57.71"
                    ],
                    [
                        "-89.88",
                        "57.72"
                    ],
                    [
                        "-89.36",
                        "57.89"
                    ],
                    [
                        "-89.22",
                        "58.00"
                    ],
                    [
                        "-89.08",
                        "58.30"
                    ]
                ]
            },
            "properties": {
                "forecastId": null,
                "geometryId": null,
                "tag": "1C",
                "forecastHour": 3,
                "hazard": "FZLVL",
                "frequency": null,
                "severity": null,
                "status": "NRML",
                "base": null,
                "top": null,
                "fzlBase": null,
                "fzlTop": null,
                "level": "040",
                "product": "ZULU",
                "rawAirSigmet": null,
                "validTimeTo": "2026-07-26T18:00:00.000",
                "validTimeFrom": [
                    "2026-07-26T14:45"
                ]
            }
        },
        {
            "type": "Feature",
            "geometry": {
                "type": "Polygon",
                "coordinates": [
                    [
                        [
                            "-88.37",
                            "48.34"
                        ],
                        [
                            "-84.83",
                            "46.89"
                        ],
                        [
                            "-82.48",
                            "45.32"
                        ],
                        [
                            "-82.12",
                            "43.53"
                        ],
                        [
                            "-82.61",
                            "42.64"
                        ],
                        [
                            "-83.26",
                            "42.29"
                        ],
                        [
                            "-84.72",
                            "42.94"
                        ],
                        [
                            "-85.93",
                            "43.85"
                        ],
                        [
                            "-86.52",
                            "44.43"
                        ],
                        [
                            "-86.62",
                            "45.07"
                        ],
                        [
                            "-86.88",
                            "46.00"
                        ],
                        [
                            "-88.30",
                            "47.43"
                        ],
                        [
                            "-89.17",
                            "48.16"
                        ],
                        [
                            "-88.37",
                            "48.34"
                        ]
                    ]
                ]
            },
            "properties": {
                "forecastId": null,
                "geometryId": null,
                "tag": "3W",
                "forecastHour": 3,
                "hazard": "TURB-HI",
                "frequency": null,
                "severity": "MOD",
                "status": "NRML",
                "base": "290",
                "top": "390",
                "fzlBase": null,
                "fzlTop": null,
                "level": null,
                "product": "TANGO",
                "rawAirSigmet": null,
                "validTimeTo": "2026-07-26T18:00:00.000",
                "validTimeFrom": [
                    "2026-07-26T16:57"
                ]
            }
        },
        {
            "type": "Feature",
            "geometry": {
                "type": "LineString",
                "coordinates": [
                    [
                        "-103.77",
                        "19.44"
                    ],
                    [
                        "-105.42",
                        "20.08"
                    ],
                    [
                        "-106.73",
                        "20.79"
                    ],
                    [
                        "-107.90",
                        "21.96"
                    ],
                    [
                        "-109.66",
                        "22.00"
                    ],
                    [
                        "-111.33",
                        "22.10"
                    ],
                    [
                        "-113.21",
                        "22.54"
                    ],
                    [
                        "-114.35",
                        "22.82"
                    ],
                    [
                        "-115.60",
                        "23.39"
                    ],
                    [
                        "-117.17",
                        "24.24"
                    ],
                    [
                        "-117.70",
                        "24.64"
                    ],
                    [
                        "-118.10",
                        "25.63"
                    ],
                    [
                        "-119.16",
                        "26.61"
                    ],
                    [
                        "-120.12",
                        "26.49"
                    ],
                    [
                        "-120.87",
                        "26.14"
                    ],
                    [
                        "-121.53",
                        "25.76"
                    ],
                    [
                        "-121.78",
                        "25.00"
                    ],
                    [
                        "-121.80",
                        "23.79"
                    ],
                    [
                        "-122.16",
                        "23.22"
                    ],
                    [
                        "-122.73",
                        "23.76"
                    ],
                    [
                        "-123.49",
                        "25.04"
                    ],
                    [
                        "-124.37",
                        "27.25"
                    ],
                    [
                        "-124.43",
                        "29.12"
                    ],
                    [
                        "-124.53",
                        "31.02"
                    ],
                    [
                        "-123.97",
                        "32.40"
                    ],
                    [
                        "-123.62",
                        "33.63"
                    ],
                    [
                        "-123.55",
                        "34.33"
                    ],
                    [
                        "-124.15",
                        "34.91"
                    ],
                    [
                        "-125.62",
                        "35.01"
                    ],
                    [
                        "-125.77",
                        "35.62"
                    ],
                    [
                        "-125.47",
                        "36.19"
                    ],
                    [
                        "-120.87",
                        "40.62"
                    ],
                    [
                        "-119.49",
                        "41.68"
                    ],
                    [
                        "-117.86",
                        "42.29"
                    ],
                    [
                        "-116.96",
                        "43.23"
                    ],
                    [
                        "-115.85",
                        "44.05"
                    ],
                    [
                        "-109.39",
                        "47.52"
                    ],
                    [
                        "-109.01",
                        "48.12"
                    ],
                    [
                        "-108.15",
                        "48.70"
                    ],
                    [
                        "-106.72",
                        "49.26"
                    ],
                    [
                        "-104.83",
                        "49.74"
                    ],
                    [
                        "-103.15",
                        "49.72"
                    ],
                    [
                        "-102.22",
                        "48.94"
                    ],
                    [
                        "-101.35",
                        "48.48"
                    ],
                    [
                        "-99.99",
                        "48.55"
                    ],
                    [
                        "-99.00",
                        "48.27"
                    ],
                    [
                        "-97.57",
                        "47.53"
                    ],
                    [
                        "-96.06",
                        "46.54"
                    ],
                    [
                        "-95.45",
                        "46.23"
                    ],
                    [
                        "-95.48",
                        "45.63"
                    ],
                    [
                        "-95.74",
                        "45.11"
                    ],
                    [
                        "-95.43",
                        "44.70"
                    ],
                    [
                        "-95.04",
                        "43.92"
                    ],
                    [
                        "-95.15",
                        "43.11"
                    ],
                    [
                        "-95.03",
                        "42.23"
                    ],
                    [
                        "-94.59",
                        "41.39"
                    ],
                    [
                        "-94.09",
                        "40.67"
                    ],
                    [
                        "-93.41",
                        "40.28"
                    ],
                    [
                        "-91.76",
                        "39.55"
                    ],
                    [
                        "-90.20",
                        "38.57"
                    ],
                    [
                        "-88.59",
                        "38.05"
                    ],
                    [
                        "-84.29",
                        "37.52"
                    ],
                    [
                        "-83.01",
                        "36.98"
                    ],
                    [
                        "-81.67",
                        "36.13"
                    ],
                    [
                        "-81.36",
                        "34.29"
                    ],
                    [
                        "-79.84",
                        "33.23"
                    ],
                    [
                        "-79.78",
                        "32.53"
                    ],
                    [
                        "-80.39",
                        "32.14"
                    ],
                    [
                        "-81.86",
                        "31.50"
                    ],
                    [
                        "-82.41",
                        "31.08"
                    ],
                    [
                        "-82.59",
                        "30.11"
                    ],
                    [
                        "-82.45",
                        "29.41"
                    ],
                    [
                        "-81.86",
                        "28.98"
                    ],
                    [
                        "-81.23",
                        "28.60"
                    ],
                    [
                        "-81.50",
                        "28.13"
                    ],
                    [
                        "-83.01",
                        "27.85"
                    ],
                    [
                        "-84.21",
                        "28.10"
                    ],
                    [
                        "-85.00",
                        "28.52"
                    ],
                    [
                        "-85.10",
                        "30.36"
                    ],
                    [
                        "-85.72",
                        "30.82"
                    ],
                    [
                        "-86.52",
                        "30.78"
                    ],
                    [
                        "-87.12",
                        "30.32"
                    ],
                    [
                        "-87.43",
                        "29.32"
                    ],
                    [
                        "-86.88",
                        "28.73"
                    ],
                    [
                        "-86.32",
                        "28.55"
                    ],
                    [
                        "-85.89",
                        "28.06"
                    ],
                    [
                        "-86.18",
                        "27.46"
                    ],
                    [
                        "-88.89",
                        "26.19"
                    ],
                    [
                        "-91.48",
                        "26.33"
                    ],
                    [
                        "-93.40",
                        "26.18"
                    ],
                    [
                        "-94.91",
                        "25.31"
                    ],
                    [
                        "-95.51",
                        "24.85"
                    ],
                    [
                        "-96.24",
                        "24.78"
                    ],
                    [
                        "-97.48",
                        "24.70"
                    ],
                    [
                        "-99.09",
                        "24.11"
                    ],
                    [
                        "-100.27",
                        "23.50"
                    ],
                    [
                        "-102.13",
                        "23.19"
                    ],
                    [
                        "-103.05",
                        "22.70"
                    ],
                    [
                        "-103.18",
                        "21.91"
                    ],
                    [
                        "-102.84",
                        "21.36"
                    ],
                    [
                        "-102.32",
                        "20.75"
                    ],
                    [
                        "-102.08",
                        "19.54"
                    ]
                ]
            },
            "properties": {
                "forecastId": null,
                "geometryId": null,
                "tag": "1C",
                "forecastHour": 3,
                "hazard": "FZLVL",
                "frequency": null,
                "severity": null,
                "status": "NRML",
                "base": null,
                "top": null,
                "fzlBase": null,
                "fzlTop": null,
                "level": "160",
                "product": "ZULU",
                "rawAirSigmet": null,
                "validTimeTo": "2026-07-26T18:00:00.000",
                "validTimeFrom": [
                    "2026-07-26T14:45"
                ]
            }
        },
        {
            "type": "Feature",
            "geometry": {
                "type": "Polygon",
                "coordinates": [
                    [
                        [
                            "-91.71",
                            "42.27"
                        ],
                        [
                            "-91.24",
                            "42.27"
                        ],
                        [
                            "-90.77",
                            "42.23"
                        ],
                        [
                            "-90.30",
                            "42.15"
                        ],
                        [
                            "-89.84",
                            "42.02"
                        ],
                        [
                            "-89.83",
                            "42.02"
                        ],
                        [
                            "-89.38",
                            "41.73"
                        ],
                        [
                            "-89.31",
                            "41.65"
                        ],
                        [
                            "-89.20",
                            "41.30"
                        ],
                        [
                            "-89.42",
                            "41.12"
                        ],
                        [
                            "-89.89",
                            "41.01"
                        ],
                        [
                            "-90.35",
                            "41.02"
                        ],
                        [
                            "-90.82",
                            "41.08"
                        ],
                        [
                            "-91.28",
                            "41.22"
                        ],
                        [
                            "-91.54",
                            "41.36"
                        ],
                        [
                            "-91.73",
                            "41.54"
                        ],
                        [
                            "-91.89",
                            "41.72"
                        ],
                        [
                            "-92.01",
                            "42.07"
                        ],
                        [
                            "-91.71",
                            "42.27"
                        ]
                    ]
                ]
            },
            "properties": {
                "forecastId": null,
                "geometryId": null,
                "tag": "1C",
                "forecastHour": 3,
                "hazard": "FZLVL",
                "frequency": null,
                "severity": null,
                "status": "NRML",
                "base": null,
                "top": null,
                "fzlBase": null,
                "fzlTop": null,
                "level": "160",
                "product": "ZULU",
                "rawAirSigmet": null,
                "validTimeTo": "2026-07-26T18:00:00.000",
                "validTimeFrom": [
                    "2026-07-26T14:45"
                ]
            }
        },
        {
            "type": "Feature",
            "geometry": {
                "type": "Polygon",
                "coordinates": [
                    [
                        [
                            "-117.03",
                            "48.98"
                        ],
                        [
                            "-117.16",
                            "48.48"
                        ],
                        [
                            "-117.82",
                            "48.21"
                        ],
                        [
                            "-119.21",
                            "47.91"
                        ],
                        [
                            "-120.67",
                            "47.66"
                        ],
                        [
                            "-119.82",
                            "48.94"
                        ],
                        [
                            "-117.03",
                            "48.98"
                        ]
                    ]
                ]
            },
            "properties": {
                "forecastId": null,
                "geometryId": null,
                "tag": "4E",
                "forecastHour": 3,
                "hazard": "MT_OBSC",
                "frequency": null,
                "severity": null,
                "status": "NRML",
                "base": null,
                "top": null,
                "fzlBase": null,
                "fzlTop": null,
                "level": null,
                "product": "SIERRA",
                "rawAirSigmet": "FU HZ",
                "validTimeTo": "2026-07-26T18:00:00.000",
                "validTimeFrom": [
                    "2026-07-26T17:05"
                ]
            }
        },
        {
            "type": "Feature",
            "geometry": {
                "type": "Polygon",
                "coordinates": [
                    [
                        [
                            "-114.51",
                            "49.00"
                        ],
                        [
                            "-113.15",
                            "48.95"
                        ],
                        [
                            "-111.29",
                            "47.41"
                        ],
                        [
                            "-109.72",
                            "48.53"
                        ],
                        [
                            "-107.58",
                            "45.43"
                        ],
                        [
                            "-108.71",
                            "45.33"
                        ],
                        [
                            "-110.09",
                            "45.54"
                        ],
                        [
                            "-111.87",
                            "45.68"
                        ],
                        [
                            "-113.46",
                            "45.27"
                        ],
                        [
                            "-114.50",
                            "44.49"
                        ],
                        [
                            "-114.62",
                            "43.99"
                        ],
                        [
                            "-114.69",
                            "43.33"
                        ],
                        [
                            "-113.66",
                            "42.94"
                        ],
                        [
                            "-113.89",
                            "42.24"
                        ],
                        [
                            "-114.64",
                            "41.99"
                        ],
                        [
                            "-117.43",
                            "42.40"
                        ],
                        [
                            "-119.13",
                            "42.40"
                        ],
                        [
                            "-120.67",
                            "42.81"
                        ],
                        [
                            "-121.38",
                            "43.84"
                        ],
                        [
                            "-121.72",
                            "44.74"
                        ],
                        [
                            "-121.29",
                            "45.67"
                        ],
                        [
                            "-119.65",
                            "46.30"
                        ],
                        [
                            "-117.82",
                            "46.81"
                        ],
                        [
                            "-116.08",
                            "47.77"
                        ],
                        [
                            "-114.51",
                            "49.00"
                        ]
                    ]
                ]
            },
            "properties": {
                "forecastId": null,
                "geometryId": null,
                "tag": "3E",
                "forecastHour": 3,
                "hazard": "MT_OBSC",
                "frequency": null,
                "severity": null,
                "status": "NRML",
                "base": null,
                "top": null,
                "fzlBase": null,
                "fzlTop": null,
                "level": null,
                "product": "SIERRA",
                "rawAirSigmet": "FU HZ",
                "validTimeTo": "2026-07-26T18:00:00.000",
                "validTimeFrom": [
                    "2026-07-26T17:05"
                ]
            }
        },
        {
            "type": "Feature",
            "geometry": {
                "type": "Polygon",
                "coordinates": [
                    [
                        [
                            "-72.75",
                            "35.98"
                        ],
                        [
                            "-72.34",
                            "35.80"
                        ],
                        [
                            "-72.13",
                            "35.59"
                        ],
                        [
                            "-71.98",
                            "35.36"
                        ],
                        [
                            "-71.86",
                            "35.19"
                        ],
                        [
                            "-71.79",
                            "34.81"
                        ],
                        [
                            "-71.97",
                            "34.47"
                        ],
                        [
                            "-72.20",
                            "34.33"
                        ],
                        [
                            "-72.51",
                            "34.18"
                        ],
                        [
                            "-72.68",
                            "34.14"
                        ],
                        [
                            "-73.11",
                            "34.18"
                        ],
                        [
                            "-73.28",
                            "34.29"
                        ],
                        [
                            "-73.48",
                            "34.53"
                        ],
                        [
                            "-73.54",
                            "34.69"
                        ],
                        [
                            "-73.53",
                            "35.05"
                        ],
                        [
                            "-73.43",
                            "35.40"
                        ],
                        [
                            "-73.25",
                            "35.70"
                        ],
                        [
                            "-73.22",
                            "35.74"
                        ],
                        [
                            "-72.75",
                            "35.98"
                        ]
                    ]
                ]
            },
            "properties": {
                "forecastId": null,
                "geometryId": null,
                "tag": "1C",
                "forecastHour": 3,
                "hazard": "FZLVL",
                "frequency": null,
                "severity": null,
                "status": "NRML",
                "base": null,
                "top": null,
                "fzlBase": null,
                "fzlTop": null,
                "level": "160",
                "product": "ZULU",
                "rawAirSigmet": null,
                "validTimeTo": "2026-07-26T18:00:00.000",
                "validTimeFrom": [
                    "2026-07-26T14:45"
                ]
            }
        },
        {
            "type": "Feature",
            "geometry": {
                "type": "LineString",
                "coordinates": [
                    [
                        "-102.15",
                        "58.27"
                    ],
                    [
                        "-100.05",
                        "56.76"
                    ],
                    [
                        "-98.58",
                        "56.27"
                    ],
                    [
                        "-97.20",
                        "56.00"
                    ],
                    [
                        "-94.99",
                        "54.71"
                    ],
                    [
                        "-92.87",
                        "53.63"
                    ],
                    [
                        "-91.64",
                        "52.88"
                    ],
                    [
                        "-90.34",
                        "52.40"
                    ],
                    [
                        "-87.61",
                        "51.72"
                    ],
                    [
                        "-85.45",
                        "50.16"
                    ],
                    [
                        "-84.04",
                        "49.65"
                    ],
                    [
                        "-82.74",
                        "49.86"
                    ],
                    [
                        "-81.48",
                        "50.70"
                    ],
                    [
                        "-80.17",
                        "51.06"
                    ],
                    [
                        "-78.67",
                        "50.88"
                    ],
                    [
                        "-77.62",
                        "50.16"
                    ],
                    [
                        "-76.95",
                        "49.28"
                    ],
                    [
                        "-77.27",
                        "47.92"
                    ],
                    [
                        "-77.29",
                        "45.75"
                    ],
                    [
                        "-75.36",
                        "45.32"
                    ],
                    [
                        "-75.64",
                        "43.99"
                    ],
                    [
                        "-75.28",
                        "43.11"
                    ],
                    [
                        "-74.42",
                        "43.38"
                    ],
                    [
                        "-73.75",
                        "44.76"
                    ],
                    [
                        "-72.78",
                        "45.50"
                    ],
                    [
                        "-72.01",
                        "46.30"
                    ],
                    [
                        "-70.73",
                        "46.75"
                    ],
                    [
                        "-68.95",
                        "48.38"
                    ],
                    [
                        "-67.63",
                        "48.78"
                    ],
                    [
                        "-66.86",
                        "49.65"
                    ],
                    [
                        "-64.47",
                        "50.87"
                    ],
                    [
                        "-62.68",
                        "52.30"
                    ],
                    [
                        "-60.87",
                        "53.26"
                    ],
                    [
                        "-59.94",
                        "54.59"
                    ]
                ]
            },
            "properties": {
                "forecastId": null,
                "geometryId": null,
                "tag": "1C",
                "forecastHour": 3,
                "hazard": "FZLVL",
                "frequency": null,
                "severity": null,
                "status": "NRML",
                "base": null,
                "top": null,
                "fzlBase": null,
                "fzlTop": null,
                "level": "120",
                "product": "ZULU",
                "rawAirSigmet": null,
                "validTimeTo": "2026-07-26T18:00:00.000",
                "validTimeFrom": [
                    "2026-07-26T14:45"
                ]
            }
        },
        {
            "type": "Feature",
            "geometry": {
                "type": "LineString",
                "coordinates": [
                    [
                        "-94.66",
                        "58.37"
                    ],
                    [
                        "-93.88",
                        "57.11"
                    ],
                    [
                        "-92.29",
                        "55.93"
                    ],
                    [
                        "-91.04",
                        "55.73"
                    ],
                    [
                        "-89.51",
                        "55.83"
                    ],
                    [
                        "-88.65",
                        "55.17"
                    ],
                    [
                        "-89.19",
                        "54.63"
                    ],
                    [
                        "-89.52",
                        "54.11"
                    ],
                    [
                        "-89.09",
                        "53.74"
                    ],
                    [
                        "-88.08",
                        "53.45"
                    ],
                    [
                        "-85.45",
                        "53.09"
                    ],
                    [
                        "-83.75",
                        "52.97"
                    ],
                    [
                        "-82.27",
                        "53.06"
                    ],
                    [
                        "-80.20",
                        "53.60"
                    ],
                    [
                        "-78.28",
                        "54.30"
                    ],
                    [
                        "-76.61",
                        "55.24"
                    ],
                    [
                        "-75.16",
                        "56.37"
                    ],
                    [
                        "-74.25",
                        "57.52"
                    ]
                ]
            },
            "properties": {
                "forecastId": null,
                "geometryId": null,
                "tag": "1C",
                "forecastHour": 3,
                "hazard": "FZLVL",
                "frequency": null,
                "severity": null,
                "status": "NRML",
                "base": null,
                "top": null,
                "fzlBase": null,
                "fzlTop": null,
                "level": "080",
                "product": "ZULU",
                "rawAirSigmet": null,
                "validTimeTo": "2026-07-26T18:00:00.000",
                "validTimeFrom": [
                    "2026-07-26T14:45"
                ]
            }
        },
        {
            "type": "Feature",
            "geometry": {
                "type": "LineString",
                "coordinates": [
                    [
                        "-66.54",
                        "28.62"
                    ],
                    [
                        "-66.97",
                        "28.59"
                    ],
                    [
                        "-67.24",
                        "28.54"
                    ],
                    [
                        "-67.42",
                        "28.49"
                    ],
                    [
                        "-67.82",
                        "28.60"
                    ],
                    [
                        "-67.84",
                        "28.65"
                    ],
                    [
                        "-67.78",
                        "29.01"
                    ],
                    [
                        "-67.70",
                        "29.10"
                    ],
                    [
                        "-67.51",
                        "29.33"
                    ],
                    [
                        "-67.20",
                        "29.65"
                    ],
                    [
                        "-67.13",
                        "29.71"
                    ],
                    [
                        "-66.86",
                        "29.96"
                    ],
                    [
                        "-66.58",
                        "30.21"
                    ],
                    [
                        "-66.48",
                        "30.26"
                    ],
                    [
                        "-66.09",
                        "30.45"
                    ]
                ]
            },
            "properties": {
                "forecastId": null,
                "geometryId": null,
                "tag": "1C",
                "forecastHour": 3,
                "hazard": "FZLVL",
                "frequency": null,
                "severity": null,
                "status": "NRML",
                "base": null,
                "top": null,
                "fzlBase": null,
                "fzlTop": null,
                "level": "160",
                "product": "ZULU",
                "rawAirSigmet": null,
                "validTimeTo": "2026-07-26T18:00:00.000",
                "validTimeFrom": [
                    "2026-07-26T14:45"
                ]
            }
        },
        {
            "type": "Feature",
            "geometry": {
                "type": "Polygon",
                "coordinates": [
                    [
                        [
                            "-118.53",
                            "33.36"
                        ],
                        [
                            "-117.95",
                            "33.23"
                        ],
                        [
                            "-117.52",
                            "32.97"
                        ],
                        [
                            "-117.33",
                            "32.39"
                        ],
                        [
                            "-119.65",
                            "30.64"
                        ],
                        [
                            "-120.16",
                            "31.89"
                        ],
                        [
                            "-119.30",
                            "32.35"
                        ],
                        [
                            "-118.95",
                            "33.23"
                        ],
                        [
                            "-118.53",
                            "33.36"
                        ]
                    ]
                ]
            },
            "properties": {
                "forecastId": null,
                "geometryId": null,
                "tag": "4E",
                "forecastHour": 3,
                "hazard": "IFR",
                "frequency": null,
                "severity": null,
                "status": "NRML",
                "base": null,
                "top": null,
                "fzlBase": null,
                "fzlTop": null,
                "level": null,
                "product": "SIERRA",
                "rawAirSigmet": "CIG BLW 010 VIS BLW 3SM BR",
                "validTimeTo": "2026-07-26T18:00:00.000",
                "validTimeFrom": [
                    "2026-07-26T17:05"
                ]
            }
        },
        {
            "type": "Feature",
            "geometry": {
                "type": "Polygon",
                "coordinates": [
                    [
                        [
                            "-83.34",
                            "36.25"
                        ],
                        [
                            "-82.75",
                            "36.19"
                        ],
                        [
                            "-82.25",
                            "36.20"
                        ],
                        [
                            "-81.66",
                            "36.00"
                        ],
                        [
                            "-81.42",
                            "35.55"
                        ],
                        [
                            "-81.31",
                            "35.30"
                        ],
                        [
                            "-81.54",
                            "34.88"
                        ],
                        [
                            "-82.44",
                            "34.47"
                        ],
                        [
                            "-82.97",
                            "34.10"
                        ],
                        [
                            "-83.63",
                            "33.91"
                        ],
                        [
                            "-84.29",
                            "33.96"
                        ],
                        [
                            "-84.75",
                            "34.09"
                        ],
                        [
                            "-84.84",
                            "34.37"
                        ],
                        [
                            "-84.84",
                            "34.74"
                        ],
                        [
                            "-84.75",
                            "35.07"
                        ],
                        [
                            "-84.49",
                            "35.52"
                        ],
                        [
                            "-84.22",
                            "35.83"
                        ],
                        [
                            "-83.79",
                            "36.14"
                        ],
                        [
                            "-83.34",
                            "36.25"
                        ]
                    ]
                ]
            },
            "properties": {
                "forecastId": null,
                "geometryId": null,
                "tag": "3W",
                "forecastHour": 3,
                "hazard": "TURB-LO",
                "frequency": null,
                "severity": "MOD",
                "status": "NEW",
                "base": "SFC",
                "top": "130",
                "fzlBase": null,
                "fzlTop": null,
                "level": null,
                "product": "TANGO",
                "rawAirSigmet": null,
                "validTimeTo": "2026-07-26T18:00:00.000",
                "validTimeFrom": [
                    "2026-07-26T16:57"
                ]
            }
        },
        {
            "type": "Feature",
            "geometry": {
                "type": "LineString",
                "coordinates": [
                    [
                        "-133.28",
                        "40.14"
                    ],
                    [
                        "-131.30",
                        "40.77"
                    ],
                    [
                        "-129.76",
                        "41.57"
                    ],
                    [
                        "-126.90",
                        "43.53"
                    ],
                    [
                        "-125.50",
                        "44.35"
                    ],
                    [
                        "-124.07",
                        "45.41"
                    ],
                    [
                        "-121.88",
                        "47.45"
                    ],
                    [
                        "-120.52",
                        "48.32"
                    ],
                    [
                        "-119.28",
                        "49.47"
                    ],
                    [
                        "-118.13",
                        "50.28"
                    ],
                    [
                        "-116.32",
                        "51.17"
                    ],
                    [
                        "-113.75",
                        "53.30"
                    ],
                    [
                        "-112.78",
                        "54.22"
                    ],
                    [
                        "-111.84",
                        "54.65"
                    ],
                    [
                        "-110.16",
                        "54.62"
                    ],
                    [
                        "-105.35",
                        "54.47"
                    ],
                    [
                        "-104.04",
                        "55.17"
                    ],
                    [
                        "-103.88",
                        "55.58"
                    ],
                    [
                        "-104.33",
                        "56.04"
                    ],
                    [
                        "-105.11",
                        "56.35"
                    ],
                    [
                        "-106.70",
                        "57.20"
                    ],
                    [
                        "-108.50",
                        "58.01"
                    ]
                ]
            },
            "properties": {
                "forecastId": null,
                "geometryId": null,
                "tag": "1C",
                "forecastHour": 3,
                "hazard": "FZLVL",
                "frequency": null,
                "severity": null,
                "status": "NRML",
                "base": null,
                "top": null,
                "fzlBase": null,
                "fzlTop": null,
                "level": "120",
                "product": "ZULU",
                "rawAirSigmet": null,
                "validTimeTo": "2026-07-26T18:00:00.000",
                "validTimeFrom": [
                    "2026-07-26T14:45"
                ]
            }
        },
        {
            "type": "Feature",
            "geometry": {
                "type": "Polygon",
                "coordinates": [
                    [
                        [
                            "-121.87",
                            "48.99"
                        ],
                        [
                            "-122.74",
                            "48.10"
                        ],
                        [
                            "-125.15",
                            "45.85"
                        ],
                        [
                            "-126.50",
                            "44.02"
                        ],
                        [
                            "-126.55",
                            "45.00"
                        ],
                        [
                            "-127.14",
                            "46.45"
                        ],
                        [
                            "-126.61",
                            "47.36"
                        ],
                        [
                            "-126.35",
                            "48.49"
                        ],
                        [
                            "-124.61",
                            "48.58"
                        ],
                        [
                            "-123.54",
                            "48.18"
                        ],
                        [
                            "-123.19",
                            "48.37"
                        ],
                        [
                            "-123.10",
                            "48.91"
                        ],
                        [
                            "-121.87",
                            "48.99"
                        ]
                    ]
                ]
            },
            "properties": {
                "forecastId": null,
                "geometryId": null,
                "tag": "1C",
                "forecastHour": 3,
                "hazard": "ICE",
                "frequency": null,
                "severity": "MOD",
                "status": "NRML",
                "base": "110",
                "top": "230",
                "fzlBase": null,
                "fzlTop": null,
                "level": null,
                "product": "ZULU",
                "rawAirSigmet": "ICE",
                "validTimeTo": "2026-07-26T18:00:00.000",
                "validTimeFrom": [
                    "2026-07-26T14:45"
                ]
            }
        },
        {
            "type": "Feature",
            "geometry": {
                "type": "LineString",
                "coordinates": [
                    [
                        "-128.75",
                        "26.24"
                    ],
                    [
                        "-127.98",
                        "26.51"
                    ],
                    [
                        "-127.71",
                        "25.66"
                    ],
                    [
                        "-127.74",
                        "24.91"
                    ],
                    [
                        "-127.78",
                        "24.15"
                    ],
                    [
                        "-127.54",
                        "23.45"
                    ],
                    [
                        "-126.72",
                        "22.88"
                    ],
                    [
                        "-126.11",
                        "22.55"
                    ],
                    [
                        "-125.26",
                        "22.39"
                    ],
                    [
                        "-124.37",
                        "22.07"
                    ],
                    [
                        "-123.77",
                        "21.63"
                    ],
                    [
                        "-123.28",
                        "20.98"
                    ],
                    [
                        "-122.84",
                        "19.95"
                    ],
                    [
                        "-122.21",
                        "19.32"
                    ],
                    [
                        "-121.68",
                        "18.94"
                    ],
                    [
                        "-121.17",
                        "18.41"
                    ],
                    [
                        "-120.63",
                        "17.40"
                    ]
                ]
            },
            "properties": {
                "forecastId": null,
                "geometryId": null,
                "tag": "1C",
                "forecastHour": 3,
                "hazard": "FZLVL",
                "frequency": null,
                "severity": null,
                "status": "NRML",
                "base": null,
                "top": null,
                "fzlBase": null,
                "fzlTop": null,
                "level": "160",
                "product": "ZULU",
                "rawAirSigmet": null,
                "validTimeTo": "2026-07-26T18:00:00.000",
                "validTimeFrom": [
                    "2026-07-26T14:45"
                ]
            }
        },
        {
            "type": "Feature",
            "geometry": {
                "type": "Polygon",
                "coordinates": [
                    [
                        [
                            "-122.66",
                            "48.90"
                        ],
                        [
                            "-120.81",
                            "48.85"
                        ],
                        [
                            "-121.39",
                            "47.70"
                        ],
                        [
                            "-121.89",
                            "46.51"
                        ],
                        [
                            "-122.17",
                            "45.30"
                        ],
                        [
                            "-122.83",
                            "43.90"
                        ],
                        [
                            "-123.20",
                            "43.14"
                        ],
                        [
                            "-124.29",
                            "42.86"
                        ],
                        [
                            "-124.02",
                            "44.62"
                        ],
                        [
                            "-124.20",
                            "46.82"
                        ],
                        [
                            "-124.61",
                            "48.25"
                        ],
                        [
                            "-122.66",
                            "48.90"
                        ]
                    ]
                ]
            },
            "properties": {
                "forecastId": null,
                "geometryId": null,
                "tag": "1E",
                "forecastHour": 3,
                "hazard": "MT_OBSC",
                "frequency": null,
                "severity": null,
                "status": "NRML",
                "base": null,
                "top": null,
                "fzlBase": null,
                "fzlTop": null,
                "level": null,
                "product": "SIERRA",
                "rawAirSigmet": "MTNS OBSC BY CLDS PCPN",
                "validTimeTo": "2026-07-26T18:00:00.000",
                "validTimeFrom": [
                    "2026-07-26T17:05"
                ]
            }
        },
        {
            "type": "Feature",
            "geometry": {
                "type": "Polygon",
                "coordinates": [
                    [
                        [
                            "-114.79",
                            "49.02"
                        ],
                        [
                            "-112.08",
                            "48.98"
                        ],
                        [
                            "-111.92",
                            "48.21"
                        ],
                        [
                            "-112.89",
                            "47.41"
                        ],
                        [
                            "-114.79",
                            "49.02"
                        ]
                    ]
                ]
            },
            "properties": {
                "forecastId": null,
                "geometryId": null,
                "tag": "2W",
                "forecastHour": 3,
                "hazard": "TURB-LO",
                "frequency": null,
                "severity": "MOD",
                "status": "NRML",
                "base": "SFC",
                "top": "140",
                "fzlBase": null,
                "fzlTop": null,
                "level": null,
                "product": "TANGO",
                "rawAirSigmet": "MTN WAVE",
                "validTimeTo": "2026-07-26T18:00:00.000",
                "validTimeFrom": [
                    "2026-07-26T16:57"
                ]
            }
        },
        {
            "type": "Feature",
            "geometry": {
                "type": "LineString",
                "coordinates": [
                    [
                        "-65.55",
                        "32.55"
                    ],
                    [
                        "-66.02",
                        "32.45"
                    ],
                    [
                        "-67.19",
                        "32.23"
                    ],
                    [
                        "-68.45",
                        "31.35"
                    ],
                    [
                        "-69.40",
                        "30.71"
                    ],
                    [
                        "-70.07",
                        "29.40"
                    ],
                    [
                        "-70.84",
                        "28.74"
                    ],
                    [
                        "-72.18",
                        "27.91"
                    ],
                    [
                        "-73.14",
                        "27.57"
                    ],
                    [
                        "-73.90",
                        "27.35"
                    ],
                    [
                        "-74.76",
                        "27.47"
                    ],
                    [
                        "-75.11",
                        "27.77"
                    ],
                    [
                        "-76.01",
                        "27.87"
                    ],
                    [
                        "-77.22",
                        "28.54"
                    ],
                    [
                        "-76.51",
                        "29.22"
                    ],
                    [
                        "-75.53",
                        "29.21"
                    ],
                    [
                        "-74.95",
                        "28.86"
                    ],
                    [
                        "-73.75",
                        "28.44"
                    ],
                    [
                        "-72.42",
                        "28.84"
                    ],
                    [
                        "-71.43",
                        "29.39"
                    ],
                    [
                        "-70.45",
                        "30.20"
                    ],
                    [
                        "-69.39",
                        "31.15"
                    ],
                    [
                        "-68.71",
                        "32.19"
                    ],
                    [
                        "-67.60",
                        "32.74"
                    ],
                    [
                        "-66.51",
                        "33.97"
                    ],
                    [
                        "-65.81",
                        "34.93"
                    ],
                    [
                        "-64.70",
                        "35.69"
                    ]
                ]
            },
            "properties": {
                "forecastId": null,
                "geometryId": null,
                "tag": "1C",
                "forecastHour": 3,
                "hazard": "FZLVL",
                "frequency": null,
                "severity": null,
                "status": "NRML",
                "base": null,
                "top": null,
                "fzlBase": null,
                "fzlTop": null,
                "level": "160",
                "product": "ZULU",
                "rawAirSigmet": null,
                "validTimeTo": "2026-07-26T18:00:00.000",
                "validTimeFrom": [
                    "2026-07-26T14:45"
                ]
            }
        },
        {
            "type": "Feature",
            "geometry": {
                "type": "Polygon",
                "coordinates": [
                    [
                        [
                            "-104.34",
                            "41.44"
                        ],
                        [
                            "-104.22",
                            "38.41"
                        ],
                        [
                            "-107.94",
                            "37.40"
                        ],
                        [
                            "-106.84",
                            "40.79"
                        ],
                        [
                            "-104.34",
                            "41.44"
                        ]
                    ]
                ]
            },
            "properties": {
                "forecastId": null,
                "geometryId": null,
                "tag": "1W",
                "forecastHour": 3,
                "hazard": "TURB-LO",
                "frequency": null,
                "severity": "MOD",
                "status": "NRML",
                "base": "SFC",
                "top": "220",
                "fzlBase": null,
                "fzlTop": null,
                "level": null,
                "product": "TANGO",
                "rawAirSigmet": null,
                "validTimeTo": "2026-07-26T18:00:00.000",
                "validTimeFrom": [
                    "2026-07-26T16:57"
                ]
            }
        },
        {
            "type": "Feature",
            "geometry": {
                "type": "LineString",
                "coordinates": [
                    [
                        "-134.39",
                        "42.96"
                    ],
                    [
                        "-133.88",
                        "42.91"
                    ],
                    [
                        "-133.84",
                        "42.90"
                    ],
                    [
                        "-133.36",
                        "42.64"
                    ],
                    [
                        "-133.26",
                        "42.30"
                    ],
                    [
                        "-133.37",
                        "41.92"
                    ],
                    [
                        "-133.44",
                        "41.80"
                    ],
                    [
                        "-133.80",
                        "41.49"
                    ]
                ]
            },
            "properties": {
                "forecastId": null,
                "geometryId": null,
                "tag": "1C",
                "forecastHour": 3,
                "hazard": "FZLVL",
                "frequency": null,
                "severity": null,
                "status": "NRML",
                "base": null,
                "top": null,
                "fzlBase": null,
                "fzlTop": null,
                "level": "120",
                "product": "ZULU",
                "rawAirSigmet": null,
                "validTimeTo": "2026-07-26T18:00:00.000",
                "validTimeFrom": [
                    "2026-07-26T14:45"
                ]
            }
        },
        {
            "type": "Feature",
            "geometry": {
                "type": "Polygon",
                "coordinates": [
                    [
                        [
                            "-79.56",
                            "42.51"
                        ],
                        [
                            "-78.91",
                            "41.14"
                        ],
                        [
                            "-79.29",
                            "35.65"
                        ],
                        [
                            "-78.53",
                            "34.15"
                        ],
                        [
                            "-79.81",
                            "32.25"
                        ],
                        [
                            "-84.77",
                            "31.74"
                        ],
                        [
                            "-83.50",
                            "33.33"
                        ],
                        [
                            "-82.21",
                            "36.25"
                        ],
                        [
                            "-82.08",
                            "38.71"
                        ],
                        [
                            "-82.29",
                            "41.63"
                        ],
                        [
                            "-81.45",
                            "42.19"
                        ],
                        [
                            "-79.56",
                            "42.51"
                        ]
                    ]
                ]
            },
            "properties": {
                "forecastId": null,
                "geometryId": null,
                "tag": "1W",
                "forecastHour": 3,
                "hazard": "TURB-HI",
                "frequency": null,
                "severity": "MOD",
                "status": "NRML",
                "base": "290",
                "top": "410",
                "fzlBase": null,
                "fzlTop": null,
                "level": null,
                "product": "TANGO",
                "rawAirSigmet": null,
                "validTimeTo": "2026-07-26T18:00:00.000",
                "validTimeFrom": [
                    "2026-07-26T16:57"
                ]
            }
        },
        {
            "type": "Feature",
            "geometry": {
                "type": "Polygon",
                "coordinates": [
                    [
                        [
                            "-124.89",
                            "48.58"
                        ],
                        [
                            "-123.30",
                            "48.02"
                        ],
                        [
                            "-123.49",
                            "47.05"
                        ],
                        [
                            "-124.19",
                            "45.24"
                        ],
                        [
                            "-124.54",
                            "44.08"
                        ],
                        [
                            "-124.42",
                            "43.28"
                        ],
                        [
                            "-124.19",
                            "41.88"
                        ],
                        [
                            "-124.07",
                            "40.95"
                        ],
                        [
                            "-124.15",
                            "40.13"
                        ],
                        [
                            "-123.63",
                            "39.07"
                        ],
                        [
                            "-122.51",
                            "37.86"
                        ],
                        [
                            "-121.94",
                            "36.54"
                        ],
                        [
                            "-121.97",
                            "35.60"
                        ],
                        [
                            "-122.47",
                            "35.35"
                        ],
                        [
                            "-122.93",
                            "35.95"
                        ],
                        [
                            "-123.36",
                            "36.82"
                        ],
                        [
                            "-124.25",
                            "38.29"
                        ],
                        [
                            "-124.96",
                            "39.50"
                        ],
                        [
                            "-125.54",
                            "40.39"
                        ],
                        [
                            "-126.13",
                            "42.48"
                        ],
                        [
                            "-125.74",
                            "43.84"
                        ],
                        [
                            "-125.16",
                            "44.81"
                        ],
                        [
                            "-124.69",
                            "45.50"
                        ],
                        [
                            "-124.15",
                            "46.44"
                        ],
                        [
                            "-124.94",
                            "46.94"
                        ],
                        [
                            "-125.87",
                            "46.46"
                        ],
                        [
                            "-126.75",
                            "45.85"
                        ],
                        [
                            "-127.02",
                            "46.65"
                        ],
                        [
                            "-125.85",
                            "48.48"
                        ],
                        [
                            "-124.89",
                            "48.58"
                        ]
                    ]
                ]
            },
            "properties": {
                "forecastId": null,
                "geometryId": null,
                "tag": "5E",
                "forecastHour": 3,
                "hazard": "IFR",
                "frequency": null,
                "severity": null,
                "status": "NRML",
                "base": null,
                "top": null,
                "fzlBase": null,
                "fzlTop": null,
                "level": null,
                "product": "SIERRA",
                "rawAirSigmet": "CIG BLW 010 VIS BLW 3SM BR",
                "validTimeTo": "2026-07-26T18:00:00.000",
                "validTimeFrom": [
                    "2026-07-26T17:05"
                ]
            }
        },
        {
            "type": "Feature",
            "geometry": {
                "type": "LineString",
                "coordinates": [
                    [
                        "-135.35",
                        "45.24"
                    ],
                    [
                        "-134.80",
                        "45.14"
                    ],
                    [
                        "-133.28",
                        "45.11"
                    ],
                    [
                        "-132.11",
                        "45.76"
                    ],
                    [
                        "-131.31",
                        "46.52"
                    ],
                    [
                        "-130.17",
                        "47.18"
                    ],
                    [
                        "-129.26",
                        "47.80"
                    ],
                    [
                        "-128.52",
                        "48.59"
                    ],
                    [
                        "-127.83",
                        "49.49"
                    ],
                    [
                        "-127.11",
                        "50.38"
                    ],
                    [
                        "-126.58",
                        "51.17"
                    ],
                    [
                        "-126.27",
                        "52.22"
                    ],
                    [
                        "-126.04",
                        "53.17"
                    ],
                    [
                        "-126.02",
                        "54.21"
                    ],
                    [
                        "-126.47",
                        "55.43"
                    ],
                    [
                        "-126.72",
                        "56.35"
                    ]
                ]
            },
            "properties": {
                "forecastId": null,
                "geometryId": null,
                "tag": "1C",
                "forecastHour": 3,
                "hazard": "FZLVL",
                "frequency": null,
                "severity": null,
                "status": "NRML",
                "base": null,
                "top": null,
                "fzlBase": null,
                "fzlTop": null,
                "level": "080",
                "product": "ZULU",
                "rawAirSigmet": null,
                "validTimeTo": "2026-07-26T18:00:00.000",
                "validTimeFrom": [
                    "2026-07-26T14:45"
                ]
            }
        },
        {
            "type": "Feature",
            "geometry": {
                "type": "Polygon",
                "coordinates": [
                    [
                        [
                            "-79.82",
                            "32.22"
                        ],
                        [
                            "-79.48",
                            "31.72"
                        ],
                        [
                            "-79.17",
                            "31.11"
                        ],
                        [
                            "-80.68",
                            "29.76"
                        ],
                        [
                            "-82.66",
                            "29.14"
                        ],
                        [
                            "-85.09",
                            "29.21"
                        ],
                        [
                            "-87.81",
                            "29.88"
                        ],
                        [
                            "-88.32",
                            "30.61"
                        ],
                        [
                            "-87.52",
                            "31.03"
                        ],
                        [
                            "-85.88",
                            "31.48"
                        ],
                        [
                            "-84.01",
                            "31.88"
                        ],
                        [
                            "-79.82",
                            "32.22"
                        ]
                    ]
                ]
            },
            "properties": {
                "forecastId": null,
                "geometryId": null,
                "tag": "1W",
                "forecastHour": 3,
                "hazard": "TURB-HI",
                "frequency": null,
                "severity": "MOD",
                "status": "NRML",
                "base": "270",
                "top": "430",
                "fzlBase": null,
                "fzlTop": null,
                "level": null,
                "product": "TANGO",
                "rawAirSigmet": null,
                "validTimeTo": "2026-07-26T18:00:00.000",
                "validTimeFrom": [
                    "2026-07-26T16:57"
                ]
            }
        },
        {
            "type": "Feature",
            "geometry": {
                "type": "LineString",
                "coordinates": [
                    [
                        "-61.41",
                        "55.32"
                    ],
                    [
                        "-61.79",
                        "55.19"
                    ],
                    [
                        "-62.05",
                        "55.14"
                    ],
                    [
                        "-62.64",
                        "54.99"
                    ],
                    [
                        "-62.68",
                        "54.98"
                    ],
                    [
                        "-63.24",
                        "54.97"
                    ],
                    [
                        "-63.48",
                        "55.10"
                    ],
                    [
                        "-63.69",
                        "55.25"
                    ],
                    [
                        "-63.79",
                        "55.46"
                    ],
                    [
                        "-63.78",
                        "55.78"
                    ],
                    [
                        "-63.62",
                        "56.08"
                    ]
                ]
            },
            "properties": {
                "forecastId": null,
                "geometryId": null,
                "tag": "1C",
                "forecastHour": 3,
                "hazard": "FZLVL",
                "frequency": null,
                "severity": null,
                "status": "NRML",
                "base": null,
                "top": null,
                "fzlBase": null,
                "fzlTop": null,
                "level": "120",
                "product": "ZULU",
                "rawAirSigmet": null,
                "validTimeTo": "2026-07-26T18:00:00.000",
                "validTimeFrom": [
                    "2026-07-26T14:45"
                ]
            }
        },
        {
            "type": "Feature",
            "geometry": {
                "type": "Polygon",
                "coordinates": [
                    [
                        [
                            "-66.93",
                            "44.33"
                        ],
                        [
                            "-67.01",
                            "40.63"
                        ],
                        [
                            "-68.15",
                            "39.88"
                        ],
                        [
                            "-69.19",
                            "38.63"
                        ],
                        [
                            "-71.26",
                            "37.70"
                        ],
                        [
                            "-72.53",
                            "37.30"
                        ],
                        [
                            "-72.65",
                            "36.38"
                        ],
                        [
                            "-73.05",
                            "35.60"
                        ],
                        [
                            "-74.10",
                            "35.29"
                        ],
                        [
                            "-74.65",
                            "35.57"
                        ],
                        [
                            "-74.70",
                            "36.30"
                        ],
                        [
                            "-74.22",
                            "36.93"
                        ],
                        [
                            "-73.56",
                            "37.56"
                        ],
                        [
                            "-72.75",
                            "38.86"
                        ],
                        [
                            "-70.94",
                            "41.59"
                        ],
                        [
                            "-69.70",
                            "43.04"
                        ],
                        [
                            "-66.93",
                            "44.33"
                        ]
                    ]
                ]
            },
            "properties": {
                "forecastId": null,
                "geometryId": null,
                "tag": "2W",
                "forecastHour": 3,
                "hazard": "TURB-HI",
                "frequency": null,
                "severity": "MOD",
                "status": "NRML",
                "base": "260",
                "top": "430",
                "fzlBase": null,
                "fzlTop": null,
                "level": null,
                "product": "TANGO",
                "rawAirSigmet": null,
                "validTimeTo": "2026-07-26T18:00:00.000",
                "validTimeFrom": [
                    "2026-07-26T16:57"
                ]
            }
        },
        {
            "type": "Feature",
            "geometry": {
                "type": "Polygon",
                "coordinates": [
                    [
                        [
                            "-67.16",
                            "43.14"
                        ],
                        [
                            "-67.21",
                            "42.14"
                        ],
                        [
                            "-67.13",
                            "41.42"
                        ],
                        [
                            "-67.13",
                            "39.68"
                        ],
                        [
                            "-68.05",
                            "39.64"
                        ],
                        [
                            "-68.87",
                            "38.96"
                        ],
                        [
                            "-69.71",
                            "38.83"
                        ],
                        [
                            "-70.56",
                            "38.74"
                        ],
                        [
                            "-70.83",
                            "39.31"
                        ],
                        [
                            "-70.74",
                            "39.86"
                        ],
                        [
                            "-70.23",
                            "40.30"
                        ],
                        [
                            "-69.71",
                            "41.28"
                        ],
                        [
                            "-68.82",
                            "42.35"
                        ],
                        [
                            "-67.16",
                            "43.14"
                        ]
                    ]
                ]
            },
            "properties": {
                "forecastId": null,
                "geometryId": null,
                "tag": "7E",
                "forecastHour": 3,
                "hazard": "IFR",
                "frequency": null,
                "severity": null,
                "status": "NRML",
                "base": null,
                "top": null,
                "fzlBase": null,
                "fzlTop": null,
                "level": null,
                "product": "SIERRA",
                "rawAirSigmet": "CIG BLW 010 VIS BLW 3SM BR FG",
                "validTimeTo": "2026-07-26T18:00:00.000",
                "validTimeFrom": [
                    "2026-07-26T17:05"
                ]
            }
        },
        {
            "type": "Feature",
            "geometry": {
                "type": "Polygon",
                "coordinates": [
                    [
                        [
                            "-117.74",
                            "44.99"
                        ],
                        [
                            "-116.69",
                            "44.66"
                        ],
                        [
                            "-116.40",
                            "44.22"
                        ],
                        [
                            "-116.04",
                            "43.79"
                        ],
                        [
                            "-116.18",
                            "43.55"
                        ],
                        [
                            "-115.65",
                            "43.19"
                        ],
                        [
                            "-115.62",
                            "42.95"
                        ],
                        [
                            "-115.82",
                            "42.81"
                        ],
                        [
                            "-116.22",
                            "42.84"
                        ],
                        [
                            "-116.48",
                            "42.93"
                        ],
                        [
                            "-117.24",
                            "42.72"
                        ],
                        [
                            "-117.94",
                            "42.85"
                        ],
                        [
                            "-118.61",
                            "42.96"
                        ],
                        [
                            "-119.04",
                            "42.55"
                        ],
                        [
                            "-119.29",
                            "42.80"
                        ],
                        [
                            "-119.52",
                            "43.20"
                        ],
                        [
                            "-119.35",
                            "43.52"
                        ],
                        [
                            "-118.61",
                            "43.62"
                        ],
                        [
                            "-118.24",
                            "43.61"
                        ],
                        [
                            "-117.88",
                            "44.20"
                        ],
                        [
                            "-118.22",
                            "44.75"
                        ],
                        [
                            "-117.74",
                            "44.99"
                        ]
                    ]
                ]
            },
            "properties": {
                "forecastId": null,
                "geometryId": null,
                "tag": "10E",
                "forecastHour": 3,
                "hazard": "IFR",
                "frequency": null,
                "severity": null,
                "status": "NEW",
                "base": null,
                "top": null,
                "fzlBase": null,
                "fzlTop": null,
                "level": null,
                "product": "SIERRA",
                "rawAirSigmet": "CIG BLW 010 VIS BLW 3SM BR",
                "validTimeTo": "2026-07-26T18:00:00.000",
                "validTimeFrom": [
                    "2026-07-26T17:05"
                ]
            }
        }
    ],
    "metadata": {
        "creationTime": "2026-07-26T18:06"
    }
}