{
    "type": "FeatureCollection",
    "features": [
        {
            "type": "Feature",
            "geometry": {
                "type": "Polygon",
                "coordinates": [
                    [
                        [
                            "-121.87",
                            "48.33"
                        ],
                        [
                            "-120.08",
                            "48.26"
                        ],
                        [
                            "-120.16",
                            "47.82"
                        ],
                        [
                            "-120.11",
                            "47.40"
                        ],
                        [
                            "-119.69",
                            "47.52"
                        ],
                        [
                            "-118.80",
                            "47.72"
                        ],
                        [
                            "-118.00",
                            "47.79"
                        ],
                        [
                            "-117.30",
                            "47.74"
                        ],
                        [
                            "-117.11",
                            "47.38"
                        ],
                        [
                            "-118.09",
                            "46.98"
                        ],
                        [
                            "-118.30",
                            "46.77"
                        ],
                        [
                            "-117.86",
                            "46.07"
                        ],
                        [
                            "-117.60",
                            "45.70"
                        ],
                        [
                            "-117.10",
                            "45.64"
                        ],
                        [
                            "-116.36",
                            "46.05"
                        ],
                        [
                            "-115.44",
                            "46.56"
                        ],
                        [
                            "-114.56",
                            "46.72"
                        ],
                        [
                            "-114.21",
                            "46.76"
                        ],
                        [
                            "-113.75",
                            "46.92"
                        ],
                        [
                            "-113.62",
                            "47.35"
                        ],
                        [
                            "-113.19",
                            "47.47"
                        ],
                        [
                            "-111.48",
                            "47.47"
                        ],
                        [
                            "-110.55",
                            "47.30"
                        ],
                        [
                            "-108.74",
                            "47.16"
                        ],
                        [
                            "-107.70",
                            "45.79"
                        ],
                        [
                            "-108.44",
                            "45.22"
                        ],
                        [
                            "-108.44",
                            "44.74"
                        ],
                        [
                            "-109.19",
                            "44.41"
                        ],
                        [
                            "-109.48",
                            "45.06"
                        ],
                        [
                            "-110.12",
                            "45.37"
                        ],
                        [
                            "-110.79",
                            "45.61"
                        ],
                        [
                            "-111.70",
                            "45.60"
                        ],
                        [
                            "-112.91",
                            "45.29"
                        ],
                        [
                            "-114.16",
                            "45.25"
                        ],
                        [
                            "-115.03",
                            "45.34"
                        ],
                        [
                            "-115.90",
                            "44.92"
                        ],
                        [
                            "-116.31",
                            "44.60"
                        ],
                        [
                            "-116.59",
                            "43.73"
                        ],
                        [
                            "-117.75",
                            "43.17"
                        ],
                        [
                            "-118.54",
                            "43.17"
                        ],
                        [
                            "-119.52",
                            "43.37"
                        ],
                        [
                            "-119.16",
                            "44.04"
                        ],
                        [
                            "-119.22",
                            "44.63"
                        ],
                        [
                            "-120.21",
                            "44.87"
                        ],
                        [
                            "-121.23",
                            "45.02"
                        ],
                        [
                            "-122.07",
                            "45.24"
                        ],
                        [
                            "-122.83",
                            "45.32"
                        ],
                        [
                            "-123.04",
                            "45.71"
                        ],
                        [
                            "-123.02",
                            "46.24"
                        ],
                        [
                            "-122.26",
                            "47.05"
                        ],
                        [
                            "-121.87",
                            "48.33"
                        ]
                    ]
                ]
            },
            "properties": {
                "forecastId": null,
                "geometryId": null,
                "tag": "2E",
                "forecastHour": 3,
                "hazard": "MT_OBSC",
                "frequency": null,
                "severity": null,
                "status": "NRML",
                "base": null,
                "top": null,
                "fzlBase": null,
                "fzlTop": null,
                "level": null,
                "product": "SIERRA",
                "rawAirSigmet": "FU HZ",
                "validTimeTo": "2026-08-24T18:00:00.000",
                "validTimeFrom": [
                    "2026-08-24T18:27"
                ]
            }
        },
        {
            "type": "Feature",
            "geometry": {
                "type": "Polygon",
                "coordinates": [
                    [
                        [
                            "-89.75",
                            "34.43"
                        ],
                        [
                            "-89.39",
                            "34.91"
                        ],
                        [
                            "-88.84",
                            "35.05"
                        ],
                        [
                            "-88.78",
                            "34.38"
                        ],
                        [
                            "-89.33",
                            "33.75"
                        ],
                        [
                            "-89.88",
                            "34.01"
                        ],
                        [
                            "-89.75",
                            "34.43"
                        ]
                    ]
                ]
            },
            "properties": {
                "forecastId": null,
                "geometryId": null,
                "tag": "1C",
                "forecastHour": 3,
                "hazard": "FZLVL",
                "frequency": null,
                "severity": null,
                "status": "NRML",
                "base": null,
                "top": null,
                "fzlBase": null,
                "fzlTop": null,
                "level": "160",
                "product": "ZULU",
                "rawAirSigmet": null,
                "validTimeTo": "2026-08-24T18:00:00.000",
                "validTimeFrom": [
                    "2026-08-24T18:06"
                ]
            }
        },
        {
            "type": "Feature",
            "geometry": {
                "type": "LineString",
                "coordinates": [
                    [
                        "-133.49",
                        "40.69"
                    ],
                    [
                        "-132.83",
                        "41.30"
                    ],
                    [
                        "-132.11",
                        "42.64"
                    ],
                    [
                        "-131.77",
                        "44.41"
                    ],
                    [
                        "-130.99",
                        "45.85"
                    ],
                    [
                        "-129.95",
                        "47.22"
                    ],
                    [
                        "-127.99",
                        "49.95"
                    ],
                    [
                        "-126.97",
                        "50.51"
                    ],
                    [
                        "-125.56",
                        "50.87"
                    ],
                    [
                        "-124.38",
                        "51.27"
                    ],
                    [
                        "-122.72",
                        "51.38"
                    ],
                    [
                        "-120.46",
                        "51.01"
                    ],
                    [
                        "-119.36",
                        "50.79"
                    ],
                    [
                        "-118.19",
                        "50.35"
                    ],
                    [
                        "-116.38",
                        "49.55"
                    ],
                    [
                        "-114.23",
                        "48.88"
                    ],
                    [
                        "-112.77",
                        "48.80"
                    ],
                    [
                        "-111.68",
                        "48.89"
                    ],
                    [
                        "-110.45",
                        "49.28"
                    ],
                    [
                        "-109.82",
                        "49.85"
                    ],
                    [
                        "-109.20",
                        "51.42"
                    ],
                    [
                        "-108.62",
                        "51.61"
                    ],
                    [
                        "-107.62",
                        "51.55"
                    ],
                    [
                        "-106.42",
                        "51.27"
                    ],
                    [
                        "-105.18",
                        "51.09"
                    ],
                    [
                        "-104.09",
                        "51.38"
                    ],
                    [
                        "-103.24",
                        "51.98"
                    ],
                    [
                        "-103.25",
                        "52.98"
                    ],
                    [
                        "-104.35",
                        "54.27"
                    ],
                    [
                        "-106.43",
                        "55.10"
                    ],
                    [
                        "-107.61",
                        "55.59"
                    ],
                    [
                        "-107.81",
                        "56.30"
                    ],
                    [
                        "-107.47",
                        "57.09"
                    ],
                    [
                        "-107.71",
                        "58.05"
                    ]
                ]
            },
            "properties": {
                "forecastId": null,
                "geometryId": null,
                "tag": "1C",
                "forecastHour": 3,
                "hazard": "FZLVL",
                "frequency": null,
                "severity": null,
                "status": "NRML",
                "base": null,
                "top": null,
                "fzlBase": null,
                "fzlTop": null,
                "level": "120",
                "product": "ZULU",
                "rawAirSigmet": null,
                "validTimeTo": "2026-08-24T18:00:00.000",
                "validTimeFrom": [
                    "2026-08-24T18:06"
                ]
            }
        },
        {
            "type": "Feature",
            "geometry": {
                "type": "Polygon",
                "coordinates": [
                    [
                        [
                            "-76.28",
                            "44.08"
                        ],
                        [
                            "-75.76",
                            "42.76"
                        ],
                        [
                            "-75.74",
                            "41.80"
                        ],
                        [
                            "-75.87",
                            "40.99"
                        ],
                        [
                            "-77.43",
                            "40.85"
                        ],
                        [
                            "-78.55",
                            "41.19"
                        ],
                        [
                            "-79.14",
                            "42.68"
                        ],
                        [
                            "-79.03",
                            "43.64"
                        ],
                        [
                            "-76.99",
                            "43.68"
                        ],
                        [
                            "-76.28",
                            "44.08"
                        ]
                    ]
                ]
            },
            "properties": {
                "forecastId": null,
                "geometryId": null,
                "tag": "1C",
                "forecastHour": 3,
                "hazard": "ICE",
                "frequency": null,
                "severity": "MOD",
                "status": "AMD",
                "base": "090",
                "top": "180",
                "fzlBase": null,
                "fzlTop": null,
                "level": null,
                "product": "ZULU",
                "rawAirSigmet": "ICE",
                "validTimeTo": "2026-08-24T18:00:00.000",
                "validTimeFrom": [
                    "2026-08-24T18:06"
                ]
            }
        },
        {
            "type": "Feature",
            "geometry": {
                "type": "LineString",
                "coordinates": [
                    [
                        "-137.58",
                        "50.00"
                    ],
                    [
                        "-137.10",
                        "50.10"
                    ],
                    [
                        "-136.62",
                        "50.22"
                    ],
                    [
                        "-136.17",
                        "50.40"
                    ],
                    [
                        "-135.92",
                        "50.57"
                    ],
                    [
                        "-135.77",
                        "50.68"
                    ],
                    [
                        "-135.49",
                        "51.00"
                    ],
                    [
                        "-135.43",
                        "51.08"
                    ],
                    [
                        "-135.22",
                        "51.39"
                    ],
                    [
                        "-135.13",
                        "51.57"
                    ],
                    [
                        "-135.02",
                        "51.77"
                    ],
                    [
                        "-134.86",
                        "52.13"
                    ],
                    [
                        "-134.86",
                        "52.14"
                    ],
                    [
                        "-134.70",
                        "52.50"
                    ],
                    [
                        "-134.61",
                        "52.75"
                    ],
                    [
                        "-134.57",
                        "52.86"
                    ],
                    [
                        "-134.49",
                        "53.20"
                    ],
                    [
                        "-134.51",
                        "53.53"
                    ],
                    [
                        "-134.60",
                        "53.83"
                    ],
                    [
                        "-134.60",
                        "53.84"
                    ],
                    [
                        "-134.75",
                        "54.15"
                    ],
                    [
                        "-134.82",
                        "54.26"
                    ]
                ]
            },
            "properties": {
                "forecastId": null,
                "geometryId": null,
                "tag": "1C",
                "forecastHour": 3,
                "hazard": "FZLVL",
                "frequency": null,
                "severity": null,
                "status": "NRML",
                "base": null,
                "top": null,
                "fzlBase": null,
                "fzlTop": null,
                "level": "080",
                "product": "ZULU",
                "rawAirSigmet": null,
                "validTimeTo": "2026-08-24T18:00:00.000",
                "validTimeFrom": [
                    "2026-08-24T18:06"
                ]
            }
        },
        {
            "type": "Feature",
            "geometry": {
                "type": "LineString",
                "coordinates": [
                    [
                        "-129.93",
                        "30.27"
                    ],
                    [
                        "-129.13",
                        "30.51"
                    ],
                    [
                        "-128.33",
                        "30.74"
                    ],
                    [
                        "-127.51",
                        "30.93"
                    ],
                    [
                        "-126.61",
                        "30.78"
                    ],
                    [
                        "-126.41",
                        "30.45"
                    ],
                    [
                        "-126.28",
                        "29.72"
                    ],
                    [
                        "-126.30",
                        "29.35"
                    ],
                    [
                        "-126.44",
                        "28.62"
                    ],
                    [
                        "-126.60",
                        "28.16"
                    ],
                    [
                        "-126.78",
                        "27.75"
                    ],
                    [
                        "-126.97",
                        "27.33"
                    ],
                    [
                        "-127.23",
                        "26.83"
                    ],
                    [
                        "-127.52",
                        "26.35"
                    ],
                    [
                        "-127.83",
                        "25.97"
                    ],
                    [
                        "-128.55",
                        "25.52"
                    ]
                ]
            },
            "properties": {
                "forecastId": null,
                "geometryId": null,
                "tag": "1C",
                "forecastHour": 3,
                "hazard": "FZLVL",
                "frequency": null,
                "severity": null,
                "status": "NRML",
                "base": null,
                "top": null,
                "fzlBase": null,
                "fzlTop": null,
                "level": "160",
                "product": "ZULU",
                "rawAirSigmet": null,
                "validTimeTo": "2026-08-24T18:00:00.000",
                "validTimeFrom": [
                    "2026-08-24T18:06"
                ]
            }
        },
        {
            "type": "Feature",
            "geometry": {
                "type": "Polygon",
                "coordinates": [
                    [
                        [
                            "-90.49",
                            "41.99"
                        ],
                        [
                            "-88.91",
                            "41.67"
                        ],
                        [
                            "-88.54",
                            "40.82"
                        ],
                        [
                            "-88.80",
                            "40.14"
                        ],
                        [
                            "-89.88",
                            "39.69"
                        ],
                        [
                            "-92.14",
                            "38.75"
                        ],
                        [
                            "-93.67",
                            "39.03"
                        ],
                        [
                            "-94.24",
                            "40.04"
                        ],
                        [
                            "-93.69",
                            "41.12"
                        ],
                        [
                            "-90.49",
                            "41.99"
                        ]
                    ]
                ]
            },
            "properties": {
                "forecastId": null,
                "geometryId": null,
                "tag": "1W",
                "forecastHour": 3,
                "hazard": "TURB-HI",
                "frequency": null,
                "severity": "MOD",
                "status": "NRML",
                "base": "300",
                "top": "420",
                "fzlBase": null,
                "fzlTop": null,
                "level": null,
                "product": "TANGO",
                "rawAirSigmet": null,
                "validTimeTo": "2026-08-24T18:00:00.000",
                "validTimeFrom": [
                    "2026-08-24T14:45"
                ]
            }
        },
        {
            "type": "Feature",
            "geometry": {
                "type": "LineString",
                "coordinates": [
                    [
                        "-106.65",
                        "19.24"
                    ],
                    [
                        "-106.58",
                        "19.35"
                    ],
                    [
                        "-106.40",
                        "19.62"
                    ],
                    [
                        "-106.23",
                        "19.80"
                    ],
                    [
                        "-105.90",
                        "20.03"
                    ],
                    [
                        "-105.86",
                        "20.05"
                    ],
                    [
                        "-105.48",
                        "20.13"
                    ],
                    [
                        "-105.30",
                        "20.07"
                    ],
                    [
                        "-105.08",
                        "19.99"
                    ],
                    [
                        "-104.85",
                        "19.74"
                    ],
                    [
                        "-104.68",
                        "19.39"
                    ]
                ]
            },
            "properties": {
                "forecastId": null,
                "geometryId": null,
                "tag": "1C",
                "forecastHour": 3,
                "hazard": "FZLVL",
                "frequency": null,
                "severity": null,
                "status": "NRML",
                "base": null,
                "top": null,
                "fzlBase": null,
                "fzlTop": null,
                "level": "160",
                "product": "ZULU",
                "rawAirSigmet": null,
                "validTimeTo": "2026-08-24T18:00:00.000",
                "validTimeFrom": [
                    "2026-08-24T18:06"
                ]
            }
        },
        {
            "type": "Feature",
            "geometry": {
                "type": "LineString",
                "coordinates": [
                    [
                        "-127.77",
                        "22.68"
                    ],
                    [
                        "-126.63",
                        "23.30"
                    ],
                    [
                        "-124.95",
                        "23.92"
                    ],
                    [
                        "-121.75",
                        "24.82"
                    ],
                    [
                        "-119.01",
                        "25.09"
                    ],
                    [
                        "-118.06",
                        "25.69"
                    ],
                    [
                        "-117.31",
                        "26.97"
                    ],
                    [
                        "-117.48",
                        "28.37"
                    ],
                    [
                        "-116.91",
                        "28.98"
                    ],
                    [
                        "-116.14",
                        "28.85"
                    ],
                    [
                        "-114.93",
                        "29.09"
                    ],
                    [
                        "-114.24",
                        "29.11"
                    ],
                    [
                        "-113.78",
                        "28.77"
                    ],
                    [
                        "-112.56",
                        "26.73"
                    ],
                    [
                        "-111.70",
                        "25.71"
                    ],
                    [
                        "-110.95",
                        "25.59"
                    ],
                    [
                        "-110.28",
                        "25.96"
                    ],
                    [
                        "-109.91",
                        "26.46"
                    ],
                    [
                        "-110.01",
                        "27.38"
                    ],
                    [
                        "-110.89",
                        "28.41"
                    ],
                    [
                        "-111.43",
                        "28.84"
                    ],
                    [
                        "-111.53",
                        "29.57"
                    ],
                    [
                        "-111.61",
                        "30.49"
                    ],
                    [
                        "-111.75",
                        "31.37"
                    ],
                    [
                        "-111.83",
                        "32.07"
                    ],
                    [
                        "-111.94",
                        "32.85"
                    ],
                    [
                        "-111.65",
                        "33.35"
                    ],
                    [
                        "-111.06",
                        "33.74"
                    ],
                    [
                        "-110.40",
                        "34.11"
                    ],
                    [
                        "-109.76",
                        "34.50"
                    ],
                    [
                        "-109.58",
                        "35.00"
                    ],
                    [
                        "-109.78",
                        "35.73"
                    ],
                    [
                        "-109.81",
                        "36.23"
                    ],
                    [
                        "-109.79",
                        "36.95"
                    ],
                    [
                        "-109.14",
                        "37.60"
                    ],
                    [
                        "-108.78",
                        "38.38"
                    ],
                    [
                        "-108.04",
                        "38.65"
                    ],
                    [
                        "-107.04",
                        "38.79"
                    ],
                    [
                        "-106.48",
                        "39.44"
                    ],
                    [
                        "-105.97",
                        "39.99"
                    ],
                    [
                        "-104.92",
                        "39.90"
                    ],
                    [
                        "-103.50",
                        "40.09"
                    ],
                    [
                        "-102.71",
                        "40.07"
                    ],
                    [
                        "-101.11",
                        "39.75"
                    ],
                    [
                        "-100.20",
                        "39.53"
                    ],
                    [
                        "-99.22",
                        "39.30"
                    ],
                    [
                        "-98.22",
                        "39.47"
                    ],
                    [
                        "-97.26",
                        "39.69"
                    ],
                    [
                        "-96.21",
                        "39.86"
                    ],
                    [
                        "-95.63",
                        "39.77"
                    ],
                    [
                        "-95.18",
                        "39.31"
                    ],
                    [
                        "-95.24",
                        "38.80"
                    ],
                    [
                        "-95.34",
                        "38.07"
                    ],
                    [
                        "-95.53",
                        "37.02"
                    ],
                    [
                        "-95.98",
                        "36.41"
                    ],
                    [
                        "-96.95",
                        "35.67"
                    ],
                    [
                        "-98.32",
                        "35.22"
                    ],
                    [
                        "-98.54",
                        "34.22"
                    ],
                    [
                        "-98.15",
                        "33.74"
                    ],
                    [
                        "-97.87",
                        "33.24"
                    ],
                    [
                        "-97.85",
                        "32.42"
                    ],
                    [
                        "-97.28",
                        "31.45"
                    ],
                    [
                        "-96.16",
                        "30.59"
                    ],
                    [
                        "-95.35",
                        "30.00"
                    ],
                    [
                        "-94.31",
                        "29.40"
                    ],
                    [
                        "-92.89",
                        "29.13"
                    ],
                    [
                        "-91.41",
                        "29.08"
                    ],
                    [
                        "-90.43",
                        "29.61"
                    ],
                    [
                        "-88.70",
                        "30.13"
                    ],
                    [
                        "-87.62",
                        "30.29"
                    ],
                    [
                        "-86.90",
                        "30.66"
                    ],
                    [
                        "-85.74",
                        "31.32"
                    ],
                    [
                        "-83.98",
                        "31.56"
                    ],
                    [
                        "-82.92",
                        "31.77"
                    ],
                    [
                        "-81.83",
                        "32.10"
                    ],
                    [
                        "-80.55",
                        "32.03"
                    ],
                    [
                        "-79.71",
                        "31.99"
                    ],
                    [
                        "-78.83",
                        "32.48"
                    ],
                    [
                        "-77.84",
                        "32.76"
                    ],
                    [
                        "-76.98",
                        "32.95"
                    ],
                    [
                        "-76.36",
                        "32.67"
                    ],
                    [
                        "-76.59",
                        "32.38"
                    ],
                    [
                        "-77.34",
                        "31.93"
                    ],
                    [
                        "-77.97",
                        "31.42"
                    ],
                    [
                        "-79.14",
                        "30.59"
                    ],
                    [
                        "-80.30",
                        "30.24"
                    ],
                    [
                        "-81.07",
                        "29.81"
                    ],
                    [
                        "-81.97",
                        "29.34"
                    ],
                    [
                        "-82.94",
                        "29.31"
                    ],
                    [
                        "-83.82",
                        "29.36"
                    ],
                    [
                        "-84.83",
                        "29.56"
                    ],
                    [
                        "-85.60",
                        "29.69"
                    ],
                    [
                        "-86.40",
                        "29.50"
                    ],
                    [
                        "-87.06",
                        "29.11"
                    ],
                    [
                        "-87.59",
                        "28.61"
                    ],
                    [
                        "-88.04",
                        "28.35"
                    ],
                    [
                        "-88.41",
                        "27.83"
                    ],
                    [
                        "-87.98",
                        "27.31"
                    ],
                    [
                        "-87.18",
                        "26.74"
                    ],
                    [
                        "-87.12",
                        "25.93"
                    ],
                    [
                        "-87.72",
                        "25.45"
                    ],
                    [
                        "-88.87",
                        "25.15"
                    ],
                    [
                        "-90.30",
                        "25.01"
                    ],
                    [
                        "-91.18",
                        "24.84"
                    ],
                    [
                        "-91.61",
                        "24.47"
                    ],
                    [
                        "-92.43",
                        "23.32"
                    ],
                    [
                        "-93.43",
                        "21.64"
                    ],
                    [
                        "-96.19",
                        "21.57"
                    ],
                    [
                        "-97.29",
                        "22.04"
                    ],
                    [
                        "-98.21",
                        "22.82"
                    ],
                    [
                        "-98.92",
                        "24.05"
                    ],
                    [
                        "-100.64",
                        "24.19"
                    ],
                    [
                        "-102.29",
                        "24.24"
                    ],
                    [
                        "-103.45",
                        "24.61"
                    ],
                    [
                        "-105.07",
                        "24.50"
                    ],
                    [
                        "-105.42",
                        "24.09"
                    ],
                    [
                        "-105.51",
                        "23.34"
                    ],
                    [
                        "-106.04",
                        "22.99"
                    ],
                    [
                        "-106.87",
                        "23.20"
                    ],
                    [
                        "-107.86",
                        "23.59"
                    ],
                    [
                        "-108.57",
                        "22.65"
                    ],
                    [
                        "-108.28",
                        "21.26"
                    ],
                    [
                        "-108.55",
                        "20.09"
                    ],
                    [
                        "-108.32",
                        "19.09"
                    ]
                ]
            },
            "properties": {
                "forecastId": null,
                "geometryId": null,
                "tag": "1C",
                "forecastHour": 3,
                "hazard": "FZLVL",
                "frequency": null,
                "severity": null,
                "status": "NRML",
                "base": null,
                "top": null,
                "fzlBase": null,
                "fzlTop": null,
                "level": "160",
                "product": "ZULU",
                "rawAirSigmet": null,
                "validTimeTo": "2026-08-24T18:00:00.000",
                "validTimeFrom": [
                    "2026-08-24T18:06"
                ]
            }
        },
        {
            "type": "Feature",
            "geometry": {
                "type": "Polygon",
                "coordinates": [
                    [
                        [
                            "-92.13",
                            "38.34"
                        ],
                        [
                            "-91.48",
                            "38.11"
                        ],
                        [
                            "-91.07",
                            "37.52"
                        ],
                        [
                            "-90.99",
                            "36.98"
                        ],
                        [
                            "-91.23",
                            "36.80"
                        ],
                        [
                            "-91.56",
                            "36.83"
                        ],
                        [
                            "-92.12",
                            "37.01"
                        ],
                        [
                            "-92.31",
                            "37.35"
                        ],
                        [
                            "-92.46",
                            "37.68"
                        ],
                        [
                            "-92.41",
                            "38.18"
                        ],
                        [
                            "-92.13",
                            "38.34"
                        ]
                    ]
                ]
            },
            "properties": {
                "forecastId": null,
                "geometryId": null,
                "tag": "1C",
                "forecastHour": 3,
                "hazard": "FZLVL",
                "frequency": null,
                "severity": null,
                "status": "NRML",
                "base": null,
                "top": null,
                "fzlBase": null,
                "fzlTop": null,
                "level": "160",
                "product": "ZULU",
                "rawAirSigmet": null,
                "validTimeTo": "2026-08-24T18:00:00.000",
                "validTimeFrom": [
                    "2026-08-24T18:06"
                ]
            }
        },
        {
            "type": "Feature",
            "geometry": {
                "type": "Polygon",
                "coordinates": [
                    [
                        [
                            "-102.18",
                            "48.90"
                        ],
                        [
                            "-103.89",
                            "47.42"
                        ],
                        [
                            "-105.82",
                            "46.47"
                        ],
                        [
                            "-106.59",
                            "46.93"
                        ],
                        [
                            "-106.67",
                            "47.63"
                        ],
                        [
                            "-105.75",
                            "48.88"
                        ],
                        [
                            "-102.18",
                            "48.90"
                        ]
                    ]
                ]
            },
            "properties": {
                "forecastId": null,
                "geometryId": null,
                "tag": "2W",
                "forecastHour": 3,
                "hazard": "TURB-LO",
                "frequency": null,
                "severity": "MOD",
                "status": "NRML",
                "base": "SFC",
                "top": "090",
                "fzlBase": null,
                "fzlTop": null,
                "level": null,
                "product": "TANGO",
                "rawAirSigmet": null,
                "validTimeTo": "2026-08-24T18:00:00.000",
                "validTimeFrom": [
                    "2026-08-24T14:45"
                ]
            }
        },
        {
            "type": "Feature",
            "geometry": {
                "type": "LineString",
                "coordinates": [
                    [
                        "-86.62",
                        "58.23"
                    ],
                    [
                        "-86.00",
                        "57.37"
                    ],
                    [
                        "-86.12",
                        "56.89"
                    ],
                    [
                        "-86.86",
                        "56.59"
                    ],
                    [
                        "-90.03",
                        "55.58"
                    ],
                    [
                        "-91.03",
                        "54.84"
                    ],
                    [
                        "-91.40",
                        "54.33"
                    ],
                    [
                        "-91.27",
                        "53.73"
                    ],
                    [
                        "-90.46",
                        "53.46"
                    ],
                    [
                        "-89.36",
                        "53.48"
                    ],
                    [
                        "-88.02",
                        "54.11"
                    ],
                    [
                        "-87.30",
                        "54.32"
                    ],
                    [
                        "-86.66",
                        "54.09"
                    ],
                    [
                        "-86.99",
                        "52.56"
                    ],
                    [
                        "-87.12",
                        "51.19"
                    ],
                    [
                        "-86.43",
                        "50.05"
                    ],
                    [
                        "-85.81",
                        "49.21"
                    ],
                    [
                        "-85.53",
                        "47.71"
                    ],
                    [
                        "-84.94",
                        "45.28"
                    ],
                    [
                        "-83.26",
                        "41.54"
                    ],
                    [
                        "-81.88",
                        "40.06"
                    ],
                    [
                        "-81.18",
                        "39.64"
                    ],
                    [
                        "-80.19",
                        "39.41"
                    ],
                    [
                        "-78.45",
                        "39.01"
                    ],
                    [
                        "-77.48",
                        "38.65"
                    ],
                    [
                        "-76.28",
                        "38.88"
                    ],
                    [
                        "-73.75",
                        "39.72"
                    ],
                    [
                        "-72.40",
                        "40.15"
                    ],
                    [
                        "-71.22",
                        "40.86"
                    ],
                    [
                        "-70.41",
                        "41.64"
                    ],
                    [
                        "-69.61",
                        "42.90"
                    ],
                    [
                        "-69.08",
                        "44.24"
                    ],
                    [
                        "-68.36",
                        "45.41"
                    ],
                    [
                        "-67.88",
                        "46.89"
                    ],
                    [
                        "-67.84",
                        "48.23"
                    ],
                    [
                        "-68.51",
                        "50.54"
                    ],
                    [
                        "-68.82",
                        "52.99"
                    ],
                    [
                        "-68.90",
                        "54.12"
                    ],
                    [
                        "-67.28",
                        "54.56"
                    ],
                    [
                        "-66.08",
                        "54.82"
                    ],
                    [
                        "-64.19",
                        "54.99"
                    ],
                    [
                        "-60.94",
                        "55.11"
                    ]
                ]
            },
            "properties": {
                "forecastId": null,
                "geometryId": null,
                "tag": "1C",
                "forecastHour": 3,
                "hazard": "FZLVL",
                "frequency": null,
                "severity": null,
                "status": "NRML",
                "base": null,
                "top": null,
                "fzlBase": null,
                "fzlTop": null,
                "level": "120",
                "product": "ZULU",
                "rawAirSigmet": null,
                "validTimeTo": "2026-08-24T18:00:00.000",
                "validTimeFrom": [
                    "2026-08-24T18:06"
                ]
            }
        },
        {
            "type": "Feature",
            "geometry": {
                "type": "Polygon",
                "coordinates": [
                    [
                        [
                            "-125.14",
                            "48.59"
                        ],
                        [
                            "-124.28",
                            "47.62"
                        ],
                        [
                            "-124.01",
                            "46.83"
                        ],
                        [
                            "-123.93",
                            "45.39"
                        ],
                        [
                            "-124.01",
                            "44.20"
                        ],
                        [
                            "-124.24",
                            "43.30"
                        ],
                        [
                            "-124.44",
                            "42.55"
                        ],
                        [
                            "-124.16",
                            "41.85"
                        ],
                        [
                            "-124.03",
                            "40.92"
                        ],
                        [
                            "-124.12",
                            "40.18"
                        ],
                        [
                            "-123.38",
                            "38.77"
                        ],
                        [
                            "-122.64",
                            "38.28"
                        ],
                        [
                            "-122.33",
                            "37.17"
                        ],
                        [
                            "-121.70",
                            "36.95"
                        ],
                        [
                            "-121.66",
                            "36.26"
                        ],
                        [
                            "-120.75",
                            "35.03"
                        ],
                        [
                            "-120.31",
                            "34.19"
                        ],
                        [
                            "-119.05",
                            "33.47"
                        ],
                        [
                            "-117.50",
                            "33.14"
                        ],
                        [
                            "-117.21",
                            "32.42"
                        ],
                        [
                            "-120.57",
                            "30.69"
                        ],
                        [
                            "-127.09",
                            "39.79"
                        ],
                        [
                            "-126.58",
                            "45.20"
                        ],
                        [
                            "-128.14",
                            "48.09"
                        ],
                        [
                            "-125.14",
                            "48.59"
                        ]
                    ]
                ]
            },
            "properties": {
                "forecastId": null,
                "geometryId": null,
                "tag": "2E",
                "forecastHour": 3,
                "hazard": "IFR",
                "frequency": null,
                "severity": null,
                "status": "NRML",
                "base": null,
                "top": null,
                "fzlBase": null,
                "fzlTop": null,
                "level": null,
                "product": "SIERRA",
                "rawAirSigmet": "CIG BLW 010 VIS BLW 3SM BR FG",
                "validTimeTo": "2026-08-24T18:00:00.000",
                "validTimeFrom": [
                    "2026-08-24T18:27"
                ]
            }
        },
        {
            "type": "Feature",
            "geometry": {
                "type": "LineString",
                "coordinates": [
                    [
                        "-67.04",
                        "26.54"
                    ],
                    [
                        "-68.41",
                        "25.97"
                    ],
                    [
                        "-70.10",
                        "25.82"
                    ],
                    [
                        "-71.75",
                        "25.84"
                    ],
                    [
                        "-73.41",
                        "25.73"
                    ],
                    [
                        "-75.10",
                        "25.44"
                    ],
                    [
                        "-76.05",
                        "24.58"
                    ],
                    [
                        "-76.99",
                        "23.73"
                    ],
                    [
                        "-78.31",
                        "22.89"
                    ],
                    [
                        "-79.56",
                        "22.48"
                    ],
                    [
                        "-80.82",
                        "21.87"
                    ],
                    [
                        "-82.09",
                        "21.33"
                    ],
                    [
                        "-83.31",
                        "20.58"
                    ],
                    [
                        "-84.60",
                        "20.07"
                    ],
                    [
                        "-85.27",
                        "19.38"
                    ]
                ]
            },
            "properties": {
                "forecastId": null,
                "geometryId": null,
                "tag": "1C",
                "forecastHour": 3,
                "hazard": "FZLVL",
                "frequency": null,
                "severity": null,
                "status": "NRML",
                "base": null,
                "top": null,
                "fzlBase": null,
                "fzlTop": null,
                "level": "160",
                "product": "ZULU",
                "rawAirSigmet": null,
                "validTimeTo": "2026-08-24T18:00:00.000",
                "validTimeFrom": [
                    "2026-08-24T18:06"
                ]
            }
        },
        {
            "type": "Feature",
            "geometry": {
                "type": "Polygon",
                "coordinates": [
                    [
                        [
                            "-92.99",
                            "37.27"
                        ],
                        [
                            "-92.05",
                            "36.53"
                        ],
                        [
                            "-91.42",
                            "35.46"
                        ],
                        [
                            "-90.31",
                            "33.62"
                        ],
                        [
                            "-90.35",
                            "32.59"
                        ],
                        [
                            "-90.80",
                            "32.20"
                        ],
                        [
                            "-91.31",
                            "32.24"
                        ],
                        [
                            "-91.84",
                            "32.78"
                        ],
                        [
                            "-92.80",
                            "33.66"
                        ],
                        [
                            "-92.90",
                            "34.23"
                        ],
                        [
                            "-93.19",
                            "34.75"
                        ],
                        [
                            "-93.10",
                            "35.34"
                        ],
                        [
                            "-93.23",
                            "35.84"
                        ],
                        [
                            "-93.78",
                            "36.50"
                        ],
                        [
                            "-93.66",
                            "36.94"
                        ],
                        [
                            "-93.28",
                            "37.23"
                        ],
                        [
                            "-92.99",
                            "37.27"
                        ]
                    ]
                ]
            },
            "properties": {
                "forecastId": null,
                "geometryId": null,
                "tag": "3E",
                "forecastHour": 3,
                "hazard": "IFR",
                "frequency": null,
                "severity": null,
                "status": "AMD",
                "base": null,
                "top": null,
                "fzlBase": null,
                "fzlTop": null,
                "level": null,
                "product": "SIERRA",
                "rawAirSigmet": "CIG BLW 010 VIS BLW 3SM PCPN BR",
                "validTimeTo": "2026-08-24T18:00:00.000",
                "validTimeFrom": [
                    "2026-08-24T18:27"
                ]
            }
        },
        {
            "type": "Feature",
            "geometry": {
                "type": "LineString",
                "coordinates": [
                    [
                        "-99.29",
                        "58.33"
                    ],
                    [
                        "-98.93",
                        "57.55"
                    ],
                    [
                        "-98.08",
                        "57.15"
                    ],
                    [
                        "-97.22",
                        "56.60"
                    ],
                    [
                        "-96.65",
                        "56.13"
                    ],
                    [
                        "-96.02",
                        "55.63"
                    ],
                    [
                        "-95.00",
                        "55.18"
                    ],
                    [
                        "-93.37",
                        "55.18"
                    ],
                    [
                        "-92.50",
                        "55.62"
                    ],
                    [
                        "-92.79",
                        "56.31"
                    ],
                    [
                        "-93.89",
                        "56.85"
                    ],
                    [
                        "-94.79",
                        "57.16"
                    ],
                    [
                        "-95.63",
                        "57.47"
                    ],
                    [
                        "-96.69",
                        "57.91"
                    ],
                    [
                        "-97.27",
                        "58.36"
                    ]
                ]
            },
            "properties": {
                "forecastId": null,
                "geometryId": null,
                "tag": "1C",
                "forecastHour": 3,
                "hazard": "FZLVL",
                "frequency": null,
                "severity": null,
                "status": "NRML",
                "base": null,
                "top": null,
                "fzlBase": null,
                "fzlTop": null,
                "level": "120",
                "product": "ZULU",
                "rawAirSigmet": null,
                "validTimeTo": "2026-08-24T18:00:00.000",
                "validTimeFrom": [
                    "2026-08-24T18:06"
                ]
            }
        },
        {
            "type": "Feature",
            "geometry": {
                "type": "Polygon",
                "coordinates": [
                    [
                        [
                            "-76.82",
                            "42.96"
                        ],
                        [
                            "-76.92",
                            "42.27"
                        ],
                        [
                            "-77.04",
                            "41.63"
                        ],
                        [
                            "-77.40",
                            "41.09"
                        ],
                        [
                            "-78.04",
                            "40.69"
                        ],
                        [
                            "-78.75",
                            "40.66"
                        ],
                        [
                            "-79.29",
                            "40.80"
                        ],
                        [
                            "-79.69",
                            "40.96"
                        ],
                        [
                            "-79.90",
                            "41.22"
                        ],
                        [
                            "-79.47",
                            "41.82"
                        ],
                        [
                            "-79.15",
                            "42.12"
                        ],
                        [
                            "-77.79",
                            "42.67"
                        ],
                        [
                            "-76.82",
                            "42.96"
                        ]
                    ]
                ]
            },
            "properties": {
                "forecastId": null,
                "geometryId": null,
                "tag": "3E",
                "forecastHour": 3,
                "hazard": "MT_OBSC",
                "frequency": null,
                "severity": null,
                "status": "NRML",
                "base": null,
                "top": null,
                "fzlBase": null,
                "fzlTop": null,
                "level": null,
                "product": "SIERRA",
                "rawAirSigmet": "MTNS OBSC BY CLDS PCPN",
                "validTimeTo": "2026-08-24T18:00:00.000",
                "validTimeFrom": [
                    "2026-08-24T18:27"
                ]
            }
        },
        {
            "type": "Feature",
            "geometry": {
                "type": "Polygon",
                "coordinates": [
                    [
                        [
                            "-96.52",
                            "49.13"
                        ],
                        [
                            "-94.48",
                            "49.01"
                        ],
                        [
                            "-92.45",
                            "48.30"
                        ],
                        [
                            "-90.94",
                            "46.51"
                        ],
                        [
                            "-89.92",
                            "45.42"
                        ],
                        [
                            "-89.71",
                            "44.03"
                        ],
                        [
                            "-90.03",
                            "43.55"
                        ],
                        [
                            "-92.85",
                            "44.43"
                        ],
                        [
                            "-94.34",
                            "45.66"
                        ],
                        [
                            "-95.71",
                            "47.10"
                        ],
                        [
                            "-97.27",
                            "49.05"
                        ],
                        [
                            "-96.52",
                            "49.13"
                        ]
                    ]
                ]
            },
            "properties": {
                "forecastId": null,
                "geometryId": null,
                "tag": "4C",
                "forecastHour": 3,
                "hazard": "ICE",
                "frequency": null,
                "severity": "MOD",
                "status": "AMD",
                "base": "150",
                "top": "250",
                "fzlBase": null,
                "fzlTop": null,
                "level": null,
                "product": "ZULU",
                "rawAirSigmet": "ICE",
                "validTimeTo": "2026-08-24T18:00:00.000",
                "validTimeFrom": [
                    "2026-08-24T18:06"
                ]
            }
        },
        {
            "type": "Feature",
            "geometry": {
                "type": "Polygon",
                "coordinates": [
                    [
                        [
                            "-67.05",
                            "44.62"
                        ],
                        [
                            "-67.09",
                            "43.47"
                        ],
                        [
                            "-67.13",
                            "41.74"
                        ],
                        [
                            "-67.72",
                            "42.26"
                        ],
                        [
                            "-68.80",
                            "42.69"
                        ],
                        [
                            "-68.93",
                            "43.44"
                        ],
                        [
                            "-68.87",
                            "44.03"
                        ],
                        [
                            "-68.33",
                            "44.32"
                        ],
                        [
                            "-67.64",
                            "44.59"
                        ],
                        [
                            "-67.05",
                            "44.62"
                        ]
                    ]
                ]
            },
            "properties": {
                "forecastId": null,
                "geometryId": null,
                "tag": "1E",
                "forecastHour": 3,
                "hazard": "IFR",
                "frequency": null,
                "severity": null,
                "status": "NRML",
                "base": null,
                "top": null,
                "fzlBase": null,
                "fzlTop": null,
                "level": null,
                "product": "SIERRA",
                "rawAirSigmet": "CIG BLW 010 VIS BLW 3SM BR",
                "validTimeTo": "2026-08-24T18:00:00.000",
                "validTimeFrom": [
                    "2026-08-24T18:27"
                ]
            }
        }
    ],
    "metadata": {
        "creationTime": "2026-08-24T18:51"
    }
}