{
    "type": "FeatureCollection",
    "features": [
        {
            "type": "Feature",
            "geometry": {
                "type": "Polygon",
                "coordinates": [
                    [
                        [
                            "-71.22",
                            "40.22"
                        ],
                        [
                            "-68.44",
                            "39.49"
                        ],
                        [
                            "-67.12",
                            "38.89"
                        ],
                        [
                            "-72.48",
                            "37.25"
                        ],
                        [
                            "-72.64",
                            "35.01"
                        ],
                        [
                            "-74.95",
                            "35.64"
                        ],
                        [
                            "-75.76",
                            "36.27"
                        ],
                        [
                            "-76.12",
                            "37.47"
                        ],
                        [
                            "-75.69",
                            "38.67"
                        ],
                        [
                            "-74.18",
                            "39.73"
                        ],
                        [
                            "-71.22",
                            "40.22"
                        ]
                    ]
                ]
            },
            "properties": {
                "forecastId": null,
                "geometryId": null,
                "tag": "3W",
                "forecastHour": 0,
                "hazard": "TURB-HI",
                "frequency": null,
                "severity": "MOD",
                "status": "NRML",
                "base": "340",
                "top": "400",
                "fzlBase": null,
                "fzlTop": null,
                "level": null,
                "product": "TANGO",
                "rawAirSigmet": null,
                "validTimeTo": "2026-09-05T21:00:00.000",
                "validTimeFrom": [
                    "2026-09-05T20:45"
                ]
            }
        },
        {
            "type": "Feature",
            "geometry": {
                "type": "Polygon",
                "coordinates": [
                    [
                        [
                            "-114.05",
                            "49.02"
                        ],
                        [
                            "-112.83",
                            "48.93"
                        ],
                        [
                            "-112.46",
                            "48.45"
                        ],
                        [
                            "-112.24",
                            "47.11"
                        ],
                        [
                            "-112.27",
                            "45.74"
                        ],
                        [
                            "-113.25",
                            "45.26"
                        ],
                        [
                            "-113.61",
                            "45.62"
                        ],
                        [
                            "-113.40",
                            "46.24"
                        ],
                        [
                            "-113.09",
                            "46.88"
                        ],
                        [
                            "-113.03",
                            "48.12"
                        ],
                        [
                            "-114.05",
                            "49.02"
                        ]
                    ]
                ]
            },
            "properties": {
                "forecastId": null,
                "geometryId": null,
                "tag": "1C",
                "forecastHour": 0,
                "hazard": "ICE",
                "frequency": null,
                "severity": "MOD",
                "status": "NRML",
                "base": "FZL",
                "top": "180",
                "fzlBase": "100",
                "fzlTop": "130",
                "level": null,
                "product": "ZULU",
                "rawAirSigmet": "ICE",
                "validTimeTo": "2026-09-05T21:00:00.000",
                "validTimeFrom": [
                    "2026-09-05T20:45"
                ]
            }
        },
        {
            "type": "Feature",
            "geometry": {
                "type": "Polygon",
                "coordinates": [
                    [
                        [
                            "-102.86",
                            "34.27"
                        ],
                        [
                            "-103.25",
                            "33.72"
                        ],
                        [
                            "-103.47",
                            "33.34"
                        ],
                        [
                            "-103.75",
                            "32.96"
                        ],
                        [
                            "-104.03",
                            "32.49"
                        ],
                        [
                            "-104.00",
                            "31.86"
                        ],
                        [
                            "-103.73",
                            "31.51"
                        ],
                        [
                            "-103.27",
                            "31.17"
                        ],
                        [
                            "-102.74",
                            "31.20"
                        ],
                        [
                            "-102.25",
                            "31.55"
                        ],
                        [
                            "-102.07",
                            "31.95"
                        ],
                        [
                            "-102.10",
                            "32.68"
                        ],
                        [
                            "-102.04",
                            "33.41"
                        ],
                        [
                            "-101.93",
                            "33.77"
                        ],
                        [
                            "-101.98",
                            "34.19"
                        ],
                        [
                            "-102.44",
                            "34.49"
                        ],
                        [
                            "-102.86",
                            "34.27"
                        ]
                    ]
                ]
            },
            "properties": {
                "forecastId": null,
                "geometryId": null,
                "tag": "1C",
                "forecastHour": 0,
                "hazard": "FZLVL",
                "frequency": null,
                "severity": null,
                "status": "NRML",
                "base": null,
                "top": null,
                "fzlBase": null,
                "fzlTop": null,
                "level": "160",
                "product": "ZULU",
                "rawAirSigmet": null,
                "validTimeTo": "2026-09-05T21:00:00.000",
                "validTimeFrom": [
                    "2026-09-05T20:45"
                ]
            }
        },
        {
            "type": "Feature",
            "geometry": {
                "type": "LineString",
                "coordinates": [
                    [
                        "-130.62",
                        "32.48"
                    ],
                    [
                        "-125.82",
                        "32.74"
                    ],
                    [
                        "-124.57",
                        "32.54"
                    ],
                    [
                        "-123.06",
                        "32.50"
                    ],
                    [
                        "-120.63",
                        "32.97"
                    ],
                    [
                        "-118.29",
                        "32.21"
                    ],
                    [
                        "-117.12",
                        "30.85"
                    ],
                    [
                        "-114.72",
                        "31.92"
                    ],
                    [
                        "-113.39",
                        "33.53"
                    ],
                    [
                        "-112.36",
                        "33.91"
                    ],
                    [
                        "-110.58",
                        "34.20"
                    ],
                    [
                        "-110.14",
                        "35.01"
                    ],
                    [
                        "-110.42",
                        "36.09"
                    ],
                    [
                        "-111.51",
                        "37.83"
                    ],
                    [
                        "-111.12",
                        "38.22"
                    ],
                    [
                        "-110.08",
                        "38.52"
                    ],
                    [
                        "-108.77",
                        "38.05"
                    ],
                    [
                        "-107.80",
                        "38.15"
                    ],
                    [
                        "-107.12",
                        "38.99"
                    ],
                    [
                        "-106.13",
                        "40.67"
                    ],
                    [
                        "-104.39",
                        "42.11"
                    ],
                    [
                        "-103.70",
                        "42.72"
                    ],
                    [
                        "-102.20",
                        "42.56"
                    ],
                    [
                        "-101.09",
                        "42.04"
                    ],
                    [
                        "-100.38",
                        "41.25"
                    ],
                    [
                        "-98.93",
                        "41.34"
                    ],
                    [
                        "-97.81",
                        "41.63"
                    ],
                    [
                        "-96.83",
                        "40.93"
                    ],
                    [
                        "-96.38",
                        "39.67"
                    ],
                    [
                        "-95.91",
                        "38.93"
                    ],
                    [
                        "-94.96",
                        "38.23"
                    ],
                    [
                        "-94.24",
                        "37.43"
                    ],
                    [
                        "-94.27",
                        "35.95"
                    ],
                    [
                        "-93.37",
                        "35.36"
                    ],
                    [
                        "-92.36",
                        "35.28"
                    ],
                    [
                        "-91.45",
                        "34.61"
                    ],
                    [
                        "-90.16",
                        "34.14"
                    ],
                    [
                        "-87.30",
                        "33.53"
                    ],
                    [
                        "-85.82",
                        "33.39"
                    ],
                    [
                        "-84.63",
                        "32.88"
                    ],
                    [
                        "-83.86",
                        "32.28"
                    ],
                    [
                        "-83.02",
                        "31.96"
                    ],
                    [
                        "-81.74",
                        "31.50"
                    ],
                    [
                        "-81.05",
                        "32.25"
                    ],
                    [
                        "-79.71",
                        "32.31"
                    ],
                    [
                        "-77.95",
                        "32.07"
                    ],
                    [
                        "-76.52",
                        "31.83"
                    ],
                    [
                        "-76.35",
                        "31.14"
                    ],
                    [
                        "-77.57",
                        "30.86"
                    ],
                    [
                        "-78.38",
                        "31.29"
                    ],
                    [
                        "-79.24",
                        "31.37"
                    ],
                    [
                        "-79.71",
                        "31.03"
                    ],
                    [
                        "-80.66",
                        "30.54"
                    ],
                    [
                        "-81.50",
                        "29.86"
                    ],
                    [
                        "-81.34",
                        "28.38"
                    ],
                    [
                        "-81.12",
                        "27.40"
                    ],
                    [
                        "-82.23",
                        "26.79"
                    ],
                    [
                        "-82.38",
                        "26.06"
                    ],
                    [
                        "-81.88",
                        "25.34"
                    ],
                    [
                        "-79.62",
                        "24.63"
                    ],
                    [
                        "-77.08",
                        "24.86"
                    ],
                    [
                        "-75.84",
                        "24.47"
                    ],
                    [
                        "-74.65",
                        "24.79"
                    ],
                    [
                        "-72.69",
                        "25.18"
                    ],
                    [
                        "-71.47",
                        "25.17"
                    ],
                    [
                        "-70.57",
                        "25.78"
                    ],
                    [
                        "-69.60",
                        "26.66"
                    ],
                    [
                        "-68.96",
                        "27.63"
                    ],
                    [
                        "-67.66",
                        "29.39"
                    ],
                    [
                        "-67.06",
                        "30.01"
                    ],
                    [
                        "-66.15",
                        "30.23"
                    ]
                ]
            },
            "properties": {
                "forecastId": null,
                "geometryId": null,
                "tag": "1C",
                "forecastHour": 0,
                "hazard": "FZLVL",
                "frequency": null,
                "severity": null,
                "status": "NRML",
                "base": null,
                "top": null,
                "fzlBase": null,
                "fzlTop": null,
                "level": "160",
                "product": "ZULU",
                "rawAirSigmet": null,
                "validTimeTo": "2026-09-05T21:00:00.000",
                "validTimeFrom": [
                    "2026-09-05T20:45"
                ]
            }
        },
        {
            "type": "Feature",
            "geometry": {
                "type": "Polygon",
                "coordinates": [
                    [
                        [
                            "-124.80",
                            "44.28"
                        ],
                        [
                            "-124.23",
                            "44.11"
                        ],
                        [
                            "-124.41",
                            "43.55"
                        ],
                        [
                            "-124.71",
                            "42.70"
                        ],
                        [
                            "-124.55",
                            "42.07"
                        ],
                        [
                            "-124.46",
                            "41.62"
                        ],
                        [
                            "-124.46",
                            "40.82"
                        ],
                        [
                            "-124.38",
                            "40.31"
                        ],
                        [
                            "-125.23",
                            "40.17"
                        ],
                        [
                            "-125.85",
                            "40.47"
                        ],
                        [
                            "-125.25",
                            "41.62"
                        ],
                        [
                            "-125.16",
                            "42.21"
                        ],
                        [
                            "-125.25",
                            "43.05"
                        ],
                        [
                            "-125.40",
                            "43.84"
                        ],
                        [
                            "-124.80",
                            "44.28"
                        ]
                    ]
                ]
            },
            "properties": {
                "forecastId": null,
                "geometryId": null,
                "tag": "7E",
                "forecastHour": 0,
                "hazard": "IFR",
                "frequency": null,
                "severity": null,
                "status": "NRML",
                "base": null,
                "top": null,
                "fzlBase": null,
                "fzlTop": null,
                "level": null,
                "product": "SIERRA",
                "rawAirSigmet": "CIG BLW 010 VIS BLW 3SM BR",
                "validTimeTo": "2026-09-05T21:00:00.000",
                "validTimeFrom": [
                    "2026-09-05T20:45"
                ]
            }
        },
        {
            "type": "Feature",
            "geometry": {
                "type": "Polygon",
                "coordinates": [
                    [
                        [
                            "-119.34",
                            "49.01"
                        ],
                        [
                            "-114.88",
                            "48.93"
                        ],
                        [
                            "-116.23",
                            "46.09"
                        ],
                        [
                            "-117.23",
                            "44.71"
                        ],
                        [
                            "-118.77",
                            "43.79"
                        ],
                        [
                            "-120.33",
                            "43.75"
                        ],
                        [
                            "-121.80",
                            "43.78"
                        ],
                        [
                            "-122.30",
                            "44.55"
                        ],
                        [
                            "-120.09",
                            "46.62"
                        ],
                        [
                            "-119.34",
                            "49.01"
                        ]
                    ]
                ]
            },
            "properties": {
                "forecastId": null,
                "geometryId": null,
                "tag": "1W",
                "forecastHour": 0,
                "hazard": "TURB-HI",
                "frequency": null,
                "severity": "MOD",
                "status": "NRML",
                "base": "180",
                "top": "300",
                "fzlBase": null,
                "fzlTop": null,
                "level": null,
                "product": "TANGO",
                "rawAirSigmet": null,
                "validTimeTo": "2026-09-05T21:00:00.000",
                "validTimeFrom": [
                    "2026-09-05T20:45"
                ]
            }
        },
        {
            "type": "Feature",
            "geometry": {
                "type": "Polygon",
                "coordinates": [
                    [
                        [
                            "-121.94",
                            "41.99"
                        ],
                        [
                            "-120.94",
                            "41.76"
                        ],
                        [
                            "-120.48",
                            "40.89"
                        ],
                        [
                            "-120.99",
                            "39.77"
                        ],
                        [
                            "-122.90",
                            "37.90"
                        ],
                        [
                            "-124.22",
                            "37.18"
                        ],
                        [
                            "-124.91",
                            "36.79"
                        ],
                        [
                            "-126.47",
                            "38.79"
                        ],
                        [
                            "-125.19",
                            "39.58"
                        ],
                        [
                            "-123.39",
                            "41.10"
                        ],
                        [
                            "-121.94",
                            "41.99"
                        ]
                    ]
                ]
            },
            "properties": {
                "forecastId": null,
                "geometryId": null,
                "tag": "4W",
                "forecastHour": 0,
                "hazard": "TURB-HI",
                "frequency": null,
                "severity": "MOD",
                "status": "NRML",
                "base": "240",
                "top": "320",
                "fzlBase": null,
                "fzlTop": null,
                "level": null,
                "product": "TANGO",
                "rawAirSigmet": null,
                "validTimeTo": "2026-09-05T21:00:00.000",
                "validTimeFrom": [
                    "2026-09-05T20:45"
                ]
            }
        },
        {
            "type": "Feature",
            "geometry": {
                "type": "Polygon",
                "coordinates": [
                    [
                        [
                            "-91.89",
                            "36.24"
                        ],
                        [
                            "-91.45",
                            "36.17"
                        ],
                        [
                            "-91.37",
                            "36.04"
                        ],
                        [
                            "-91.46",
                            "35.93"
                        ],
                        [
                            "-91.91",
                            "35.75"
                        ],
                        [
                            "-92.06",
                            "36.05"
                        ],
                        [
                            "-91.89",
                            "36.24"
                        ]
                    ]
                ]
            },
            "properties": {
                "forecastId": null,
                "geometryId": null,
                "tag": "1C",
                "forecastHour": 0,
                "hazard": "FZLVL",
                "frequency": null,
                "severity": null,
                "status": "NRML",
                "base": null,
                "top": null,
                "fzlBase": null,
                "fzlTop": null,
                "level": "160",
                "product": "ZULU",
                "rawAirSigmet": null,
                "validTimeTo": "2026-09-05T21:00:00.000",
                "validTimeFrom": [
                    "2026-09-05T20:45"
                ]
            }
        },
        {
            "type": "Feature",
            "geometry": {
                "type": "Polygon",
                "coordinates": [
                    [
                        [
                            "-116.61",
                            "28.79"
                        ],
                        [
                            "-116.72",
                            "28.72"
                        ],
                        [
                            "-116.96",
                            "28.37"
                        ],
                        [
                            "-116.91",
                            "28.01"
                        ],
                        [
                            "-116.66",
                            "27.67"
                        ],
                        [
                            "-116.49",
                            "27.51"
                        ],
                        [
                            "-116.30",
                            "27.35"
                        ],
                        [
                            "-116.00",
                            "27.04"
                        ],
                        [
                            "-115.97",
                            "27.03"
                        ],
                        [
                            "-115.53",
                            "26.73"
                        ],
                        [
                            "-115.51",
                            "26.73"
                        ],
                        [
                            "-115.11",
                            "26.68"
                        ],
                        [
                            "-114.73",
                            "26.83"
                        ],
                        [
                            "-114.72",
                            "26.84"
                        ],
                        [
                            "-114.60",
                            "27.22"
                        ],
                        [
                            "-114.67",
                            "27.58"
                        ],
                        [
                            "-114.77",
                            "27.93"
                        ],
                        [
                            "-114.88",
                            "28.29"
                        ],
                        [
                            "-114.99",
                            "28.50"
                        ],
                        [
                            "-115.07",
                            "28.63"
                        ],
                        [
                            "-115.48",
                            "28.94"
                        ],
                        [
                            "-115.49",
                            "28.95"
                        ],
                        [
                            "-115.93",
                            "29.02"
                        ],
                        [
                            "-116.33",
                            "28.93"
                        ],
                        [
                            "-116.61",
                            "28.79"
                        ]
                    ]
                ]
            },
            "properties": {
                "forecastId": null,
                "geometryId": null,
                "tag": "1C",
                "forecastHour": 0,
                "hazard": "FZLVL",
                "frequency": null,
                "severity": null,
                "status": "NRML",
                "base": null,
                "top": null,
                "fzlBase": null,
                "fzlTop": null,
                "level": "160",
                "product": "ZULU",
                "rawAirSigmet": null,
                "validTimeTo": "2026-09-05T21:00:00.000",
                "validTimeFrom": [
                    "2026-09-05T20:45"
                ]
            }
        },
        {
            "type": "Feature",
            "geometry": {
                "type": "LineString",
                "coordinates": [
                    [
                        "-62.96",
                        "41.49"
                    ],
                    [
                        "-63.38",
                        "41.69"
                    ],
                    [
                        "-63.51",
                        "41.82"
                    ],
                    [
                        "-63.77",
                        "41.98"
                    ],
                    [
                        "-64.16",
                        "42.27"
                    ],
                    [
                        "-64.20",
                        "42.30"
                    ],
                    [
                        "-64.49",
                        "42.70"
                    ],
                    [
                        "-64.34",
                        "43.03"
                    ],
                    [
                        "-63.87",
                        "43.20"
                    ],
                    [
                        "-63.68",
                        "43.28"
                    ],
                    [
                        "-63.33",
                        "43.36"
                    ],
                    [
                        "-62.88",
                        "43.49"
                    ],
                    [
                        "-62.78",
                        "43.52"
                    ],
                    [
                        "-62.27",
                        "43.60"
                    ]
                ]
            },
            "properties": {
                "forecastId": null,
                "geometryId": null,
                "tag": "1C",
                "forecastHour": 0,
                "hazard": "FZLVL",
                "frequency": null,
                "severity": null,
                "status": "NRML",
                "base": null,
                "top": null,
                "fzlBase": null,
                "fzlTop": null,
                "level": "120",
                "product": "ZULU",
                "rawAirSigmet": null,
                "validTimeTo": "2026-09-05T21:00:00.000",
                "validTimeFrom": [
                    "2026-09-05T20:45"
                ]
            }
        },
        {
            "type": "Feature",
            "geometry": {
                "type": "LineString",
                "coordinates": [
                    [
                        "-59.34",
                        "51.27"
                    ],
                    [
                        "-61.83",
                        "51.60"
                    ],
                    [
                        "-63.78",
                        "52.25"
                    ],
                    [
                        "-65.16",
                        "52.56"
                    ],
                    [
                        "-66.42",
                        "52.37"
                    ],
                    [
                        "-67.99",
                        "51.47"
                    ],
                    [
                        "-68.52",
                        "50.75"
                    ],
                    [
                        "-69.36",
                        "50.31"
                    ],
                    [
                        "-69.44",
                        "49.61"
                    ],
                    [
                        "-68.56",
                        "49.05"
                    ],
                    [
                        "-67.84",
                        "47.75"
                    ],
                    [
                        "-68.27",
                        "47.17"
                    ],
                    [
                        "-69.19",
                        "46.56"
                    ],
                    [
                        "-68.60",
                        "45.84"
                    ],
                    [
                        "-67.02",
                        "45.72"
                    ],
                    [
                        "-65.66",
                        "45.68"
                    ],
                    [
                        "-64.82",
                        "45.93"
                    ],
                    [
                        "-62.76",
                        "46.64"
                    ],
                    [
                        "-60.92",
                        "47.35"
                    ]
                ]
            },
            "properties": {
                "forecastId": null,
                "geometryId": null,
                "tag": "1C",
                "forecastHour": 0,
                "hazard": "FZLVL",
                "frequency": null,
                "severity": null,
                "status": "NRML",
                "base": null,
                "top": null,
                "fzlBase": null,
                "fzlTop": null,
                "level": "080",
                "product": "ZULU",
                "rawAirSigmet": null,
                "validTimeTo": "2026-09-05T21:00:00.000",
                "validTimeFrom": [
                    "2026-09-05T20:45"
                ]
            }
        },
        {
            "type": "Feature",
            "geometry": {
                "type": "Polygon",
                "coordinates": [
                    [
                        [
                            "-79.99",
                            "40.96"
                        ],
                        [
                            "-78.76",
                            "40.38"
                        ],
                        [
                            "-77.47",
                            "39.72"
                        ],
                        [
                            "-78.86",
                            "37.84"
                        ],
                        [
                            "-80.45",
                            "37.70"
                        ],
                        [
                            "-81.31",
                            "37.93"
                        ],
                        [
                            "-82.10",
                            "38.60"
                        ],
                        [
                            "-79.99",
                            "40.96"
                        ]
                    ]
                ]
            },
            "properties": {
                "forecastId": null,
                "geometryId": null,
                "tag": "1E",
                "forecastHour": 0,
                "hazard": "MT_OBSC",
                "frequency": null,
                "severity": null,
                "status": "NRML",
                "base": null,
                "top": null,
                "fzlBase": null,
                "fzlTop": null,
                "level": null,
                "product": "SIERRA",
                "rawAirSigmet": "MTNS OBSC BY CLDS PCPN BR",
                "validTimeTo": "2026-09-05T21:00:00.000",
                "validTimeFrom": [
                    "2026-09-05T20:45"
                ]
            }
        },
        {
            "type": "Feature",
            "geometry": {
                "type": "Polygon",
                "coordinates": [
                    [
                        [
                            "-121.73",
                            "47.77"
                        ],
                        [
                            "-121.14",
                            "47.60"
                        ],
                        [
                            "-120.61",
                            "47.10"
                        ],
                        [
                            "-120.64",
                            "46.67"
                        ],
                        [
                            "-120.91",
                            "46.31"
                        ],
                        [
                            "-121.54",
                            "46.11"
                        ],
                        [
                            "-122.07",
                            "46.29"
                        ],
                        [
                            "-122.45",
                            "46.63"
                        ],
                        [
                            "-121.99",
                            "47.16"
                        ],
                        [
                            "-121.73",
                            "47.77"
                        ]
                    ]
                ]
            },
            "properties": {
                "forecastId": null,
                "geometryId": null,
                "tag": "3E",
                "forecastHour": 0,
                "hazard": "MT_OBSC",
                "frequency": null,
                "severity": null,
                "status": "NRML",
                "base": null,
                "top": null,
                "fzlBase": null,
                "fzlTop": null,
                "level": null,
                "product": "SIERRA",
                "rawAirSigmet": "MTNS OBSC BY CLDS PCPN BR",
                "validTimeTo": "2026-09-05T21:00:00.000",
                "validTimeFrom": [
                    "2026-09-05T20:45"
                ]
            }
        },
        {
            "type": "Feature",
            "geometry": {
                "type": "Polygon",
                "coordinates": [
                    [
                        [
                            "-84.48",
                            "29.21"
                        ],
                        [
                            "-84.56",
                            "29.14"
                        ],
                        [
                            "-84.71",
                            "28.86"
                        ],
                        [
                            "-84.73",
                            "28.50"
                        ],
                        [
                            "-84.74",
                            "28.13"
                        ],
                        [
                            "-85.07",
                            "27.79"
                        ],
                        [
                            "-85.09",
                            "27.77"
                        ],
                        [
                            "-85.52",
                            "27.62"
                        ],
                        [
                            "-85.74",
                            "27.46"
                        ],
                        [
                            "-85.54",
                            "27.34"
                        ],
                        [
                            "-85.13",
                            "27.29"
                        ],
                        [
                            "-84.71",
                            "27.38"
                        ],
                        [
                            "-84.66",
                            "27.39"
                        ],
                        [
                            "-84.28",
                            "27.54"
                        ],
                        [
                            "-83.86",
                            "27.63"
                        ],
                        [
                            "-83.69",
                            "27.69"
                        ],
                        [
                            "-83.44",
                            "27.77"
                        ],
                        [
                            "-83.12",
                            "28.01"
                        ],
                        [
                            "-83.02",
                            "28.37"
                        ],
                        [
                            "-83.15",
                            "28.75"
                        ],
                        [
                            "-83.32",
                            "28.93"
                        ],
                        [
                            "-83.60",
                            "29.15"
                        ],
                        [
                            "-83.71",
                            "29.21"
                        ],
                        [
                            "-84.12",
                            "29.31"
                        ],
                        [
                            "-84.48",
                            "29.21"
                        ]
                    ]
                ]
            },
            "properties": {
                "forecastId": null,
                "geometryId": null,
                "tag": "1C",
                "forecastHour": 0,
                "hazard": "FZLVL",
                "frequency": null,
                "severity": null,
                "status": "NRML",
                "base": null,
                "top": null,
                "fzlBase": null,
                "fzlTop": null,
                "level": "160",
                "product": "ZULU",
                "rawAirSigmet": null,
                "validTimeTo": "2026-09-05T21:00:00.000",
                "validTimeFrom": [
                    "2026-09-05T20:45"
                ]
            }
        },
        {
            "type": "Feature",
            "geometry": {
                "type": "Polygon",
                "coordinates": [
                    [
                        [
                            "-123.25",
                            "49.14"
                        ],
                        [
                            "-121.13",
                            "48.94"
                        ],
                        [
                            "-124.15",
                            "45.26"
                        ],
                        [
                            "-126.75",
                            "42.47"
                        ],
                        [
                            "-126.55",
                            "45.16"
                        ],
                        [
                            "-127.40",
                            "46.69"
                        ],
                        [
                            "-125.02",
                            "48.75"
                        ],
                        [
                            "-123.16",
                            "48.11"
                        ],
                        [
                            "-123.25",
                            "49.14"
                        ]
                    ]
                ]
            },
            "properties": {
                "forecastId": null,
                "geometryId": null,
                "tag": "1W",
                "forecastHour": 0,
                "hazard": "TURB-HI",
                "frequency": null,
                "severity": "MOD",
                "status": "NRML",
                "base": "180",
                "top": "450",
                "fzlBase": null,
                "fzlTop": null,
                "level": null,
                "product": "TANGO",
                "rawAirSigmet": null,
                "validTimeTo": "2026-09-05T21:00:00.000",
                "validTimeFrom": [
                    "2026-09-05T20:45"
                ]
            }
        },
        {
            "type": "Feature",
            "geometry": {
                "type": "Polygon",
                "coordinates": [
                    [
                        [
                            "-125.55",
                            "47.68"
                        ],
                        [
                            "-124.17",
                            "47.18"
                        ],
                        [
                            "-124.03",
                            "46.61"
                        ],
                        [
                            "-124.27",
                            "46.33"
                        ],
                        [
                            "-125.59",
                            "46.27"
                        ],
                        [
                            "-125.59",
                            "45.84"
                        ],
                        [
                            "-126.54",
                            "45.20"
                        ],
                        [
                            "-126.60",
                            "45.69"
                        ],
                        [
                            "-126.97",
                            "46.62"
                        ],
                        [
                            "-126.90",
                            "47.17"
                        ],
                        [
                            "-125.55",
                            "47.68"
                        ]
                    ]
                ]
            },
            "properties": {
                "forecastId": null,
                "geometryId": null,
                "tag": "3C",
                "forecastHour": 0,
                "hazard": "ICE",
                "frequency": null,
                "severity": "MOD",
                "status": "NRML",
                "base": "080",
                "top": "160",
                "fzlBase": null,
                "fzlTop": null,
                "level": null,
                "product": "ZULU",
                "rawAirSigmet": "ICE",
                "validTimeTo": "2026-09-05T21:00:00.000",
                "validTimeFrom": [
                    "2026-09-05T20:45"
                ]
            }
        },
        {
            "type": "Feature",
            "geometry": {
                "type": "Polygon",
                "coordinates": [
                    [
                        [
                            "-114.93",
                            "48.85"
                        ],
                        [
                            "-113.08",
                            "48.82"
                        ],
                        [
                            "-111.96",
                            "47.82"
                        ],
                        [
                            "-112.99",
                            "47.33"
                        ],
                        [
                            "-113.92",
                            "47.98"
                        ],
                        [
                            "-114.93",
                            "48.85"
                        ]
                    ]
                ]
            },
            "properties": {
                "forecastId": null,
                "geometryId": null,
                "tag": "5E",
                "forecastHour": 0,
                "hazard": "MT_OBSC",
                "frequency": null,
                "severity": null,
                "status": "NRML",
                "base": null,
                "top": null,
                "fzlBase": null,
                "fzlTop": null,
                "level": null,
                "product": "SIERRA",
                "rawAirSigmet": "MTNS OBSC BY CLDS BR",
                "validTimeTo": "2026-09-05T21:00:00.000",
                "validTimeFrom": [
                    "2026-09-05T20:45"
                ]
            }
        },
        {
            "type": "Feature",
            "geometry": {
                "type": "Polygon",
                "coordinates": [
                    [
                        [
                            "-98.36",
                            "44.16"
                        ],
                        [
                            "-97.88",
                            "44.38"
                        ],
                        [
                            "-97.41",
                            "44.48"
                        ],
                        [
                            "-96.92",
                            "44.31"
                        ],
                        [
                            "-96.81",
                            "44.16"
                        ],
                        [
                            "-96.77",
                            "43.82"
                        ],
                        [
                            "-96.91",
                            "43.52"
                        ],
                        [
                            "-96.95",
                            "43.47"
                        ],
                        [
                            "-97.38",
                            "43.23"
                        ],
                        [
                            "-97.85",
                            "43.18"
                        ],
                        [
                            "-98.33",
                            "43.29"
                        ],
                        [
                            "-98.61",
                            "43.44"
                        ],
                        [
                            "-98.74",
                            "43.79"
                        ],
                        [
                            "-98.41",
                            "44.14"
                        ],
                        [
                            "-98.36",
                            "44.16"
                        ]
                    ]
                ]
            },
            "properties": {
                "forecastId": null,
                "geometryId": null,
                "tag": "1C",
                "forecastHour": 0,
                "hazard": "FZLVL",
                "frequency": null,
                "severity": null,
                "status": "NRML",
                "base": null,
                "top": null,
                "fzlBase": null,
                "fzlTop": null,
                "level": "160",
                "product": "ZULU",
                "rawAirSigmet": null,
                "validTimeTo": "2026-09-05T21:00:00.000",
                "validTimeFrom": [
                    "2026-09-05T20:45"
                ]
            }
        },
        {
            "type": "Feature",
            "geometry": {
                "type": "LineString",
                "coordinates": [
                    [
                        "-98.48",
                        "19.67"
                    ],
                    [
                        "-99.48",
                        "20.84"
                    ],
                    [
                        "-100.02",
                        "21.57"
                    ],
                    [
                        "-99.74",
                        "22.36"
                    ],
                    [
                        "-97.00",
                        "22.98"
                    ],
                    [
                        "-95.40",
                        "24.23"
                    ],
                    [
                        "-94.38",
                        "25.04"
                    ],
                    [
                        "-93.22",
                        "25.33"
                    ],
                    [
                        "-90.54",
                        "25.65"
                    ],
                    [
                        "-86.80",
                        "28.25"
                    ],
                    [
                        "-86.32",
                        "29.26"
                    ],
                    [
                        "-87.16",
                        "29.70"
                    ],
                    [
                        "-88.04",
                        "29.70"
                    ],
                    [
                        "-88.83",
                        "29.53"
                    ],
                    [
                        "-89.19",
                        "29.17"
                    ],
                    [
                        "-90.02",
                        "28.42"
                    ],
                    [
                        "-92.43",
                        "27.70"
                    ],
                    [
                        "-93.96",
                        "27.42"
                    ],
                    [
                        "-95.41",
                        "27.43"
                    ],
                    [
                        "-97.53",
                        "28.80"
                    ],
                    [
                        "-98.94",
                        "28.88"
                    ],
                    [
                        "-99.76",
                        "28.40"
                    ],
                    [
                        "-100.02",
                        "27.17"
                    ],
                    [
                        "-100.39",
                        "26.69"
                    ],
                    [
                        "-101.30",
                        "26.68"
                    ],
                    [
                        "-102.46",
                        "27.14"
                    ],
                    [
                        "-103.00",
                        "27.90"
                    ],
                    [
                        "-103.30",
                        "28.37"
                    ],
                    [
                        "-104.23",
                        "28.36"
                    ],
                    [
                        "-104.84",
                        "27.37"
                    ],
                    [
                        "-105.43",
                        "26.49"
                    ],
                    [
                        "-105.56",
                        "25.55"
                    ],
                    [
                        "-105.12",
                        "24.40"
                    ],
                    [
                        "-104.96",
                        "23.38"
                    ],
                    [
                        "-104.74",
                        "22.47"
                    ],
                    [
                        "-103.68",
                        "22.27"
                    ],
                    [
                        "-102.78",
                        "22.29"
                    ],
                    [
                        "-102.11",
                        "21.30"
                    ],
                    [
                        "-101.59",
                        "20.37"
                    ],
                    [
                        "-101.66",
                        "19.56"
                    ]
                ]
            },
            "properties": {
                "forecastId": null,
                "geometryId": null,
                "tag": "1C",
                "forecastHour": 0,
                "hazard": "FZLVL",
                "frequency": null,
                "severity": null,
                "status": "NRML",
                "base": null,
                "top": null,
                "fzlBase": null,
                "fzlTop": null,
                "level": "160",
                "product": "ZULU",
                "rawAirSigmet": null,
                "validTimeTo": "2026-09-05T21:00:00.000",
                "validTimeFrom": [
                    "2026-09-05T20:45"
                ]
            }
        },
        {
            "type": "Feature",
            "geometry": {
                "type": "LineString",
                "coordinates": [
                    [
                        "-128.65",
                        "56.08"
                    ],
                    [
                        "-128.20",
                        "54.87"
                    ],
                    [
                        "-128.53",
                        "53.91"
                    ],
                    [
                        "-128.88",
                        "53.14"
                    ],
                    [
                        "-129.47",
                        "52.25"
                    ],
                    [
                        "-130.16",
                        "51.34"
                    ],
                    [
                        "-130.79",
                        "50.50"
                    ],
                    [
                        "-131.44",
                        "49.71"
                    ],
                    [
                        "-131.95",
                        "48.93"
                    ],
                    [
                        "-132.16",
                        "47.85"
                    ],
                    [
                        "-132.03",
                        "46.83"
                    ],
                    [
                        "-132.37",
                        "45.71"
                    ],
                    [
                        "-133.04",
                        "44.86"
                    ],
                    [
                        "-133.64",
                        "44.02"
                    ],
                    [
                        "-134.52",
                        "43.27"
                    ]
                ]
            },
            "properties": {
                "forecastId": null,
                "geometryId": null,
                "tag": "1C",
                "forecastHour": 0,
                "hazard": "FZLVL",
                "frequency": null,
                "severity": null,
                "status": "NRML",
                "base": null,
                "top": null,
                "fzlBase": null,
                "fzlTop": null,
                "level": "120",
                "product": "ZULU",
                "rawAirSigmet": null,
                "validTimeTo": "2026-09-05T21:00:00.000",
                "validTimeFrom": [
                    "2026-09-05T20:45"
                ]
            }
        },
        {
            "type": "Feature",
            "geometry": {
                "type": "LineString",
                "coordinates": [
                    [
                        "-104.84",
                        "58.18"
                    ],
                    [
                        "-104.62",
                        "58.04"
                    ],
                    [
                        "-104.40",
                        "57.89"
                    ],
                    [
                        "-104.02",
                        "57.78"
                    ],
                    [
                        "-103.44",
                        "57.63"
                    ],
                    [
                        "-103.43",
                        "57.63"
                    ],
                    [
                        "-102.86",
                        "57.50"
                    ],
                    [
                        "-102.29",
                        "57.43"
                    ],
                    [
                        "-101.73",
                        "57.44"
                    ],
                    [
                        "-101.18",
                        "57.53"
                    ],
                    [
                        "-100.62",
                        "57.62"
                    ],
                    [
                        "-100.06",
                        "57.65"
                    ],
                    [
                        "-99.50",
                        "57.61"
                    ],
                    [
                        "-98.93",
                        "57.56"
                    ],
                    [
                        "-98.37",
                        "57.55"
                    ],
                    [
                        "-97.81",
                        "57.60"
                    ],
                    [
                        "-97.25",
                        "57.68"
                    ],
                    [
                        "-96.86",
                        "57.76"
                    ],
                    [
                        "-96.69",
                        "57.79"
                    ],
                    [
                        "-96.13",
                        "57.89"
                    ],
                    [
                        "-95.57",
                        "57.97"
                    ],
                    [
                        "-95.00",
                        "58.05"
                    ],
                    [
                        "-94.92",
                        "58.07"
                    ],
                    [
                        "-94.43",
                        "58.24"
                    ],
                    [
                        "-94.26",
                        "58.36"
                    ]
                ]
            },
            "properties": {
                "forecastId": null,
                "geometryId": null,
                "tag": "1C",
                "forecastHour": 0,
                "hazard": "FZLVL",
                "frequency": null,
                "severity": null,
                "status": "NRML",
                "base": null,
                "top": null,
                "fzlBase": null,
                "fzlTop": null,
                "level": "080",
                "product": "ZULU",
                "rawAirSigmet": null,
                "validTimeTo": "2026-09-05T21:00:00.000",
                "validTimeFrom": [
                    "2026-09-05T20:45"
                ]
            }
        },
        {
            "type": "Feature",
            "geometry": {
                "type": "LineString",
                "coordinates": [
                    [
                        "-92.45",
                        "19.69"
                    ],
                    [
                        "-92.52",
                        "20.05"
                    ],
                    [
                        "-92.67",
                        "20.36"
                    ],
                    [
                        "-92.72",
                        "20.42"
                    ],
                    [
                        "-93.05",
                        "20.72"
                    ],
                    [
                        "-93.19",
                        "20.79"
                    ],
                    [
                        "-93.44",
                        "20.93"
                    ],
                    [
                        "-93.83",
                        "21.06"
                    ],
                    [
                        "-94.22",
                        "21.16"
                    ],
                    [
                        "-94.25",
                        "21.17"
                    ],
                    [
                        "-94.61",
                        "21.27"
                    ],
                    [
                        "-95.00",
                        "21.34"
                    ],
                    [
                        "-95.39",
                        "21.33"
                    ],
                    [
                        "-95.78",
                        "21.27"
                    ],
                    [
                        "-96.11",
                        "21.16"
                    ],
                    [
                        "-96.17",
                        "21.10"
                    ],
                    [
                        "-96.29",
                        "20.80"
                    ],
                    [
                        "-96.29",
                        "20.43"
                    ],
                    [
                        "-96.30",
                        "20.07"
                    ],
                    [
                        "-96.31",
                        "19.71"
                    ]
                ]
            },
            "properties": {
                "forecastId": null,
                "geometryId": null,
                "tag": "1C",
                "forecastHour": 0,
                "hazard": "FZLVL",
                "frequency": null,
                "severity": null,
                "status": "NRML",
                "base": null,
                "top": null,
                "fzlBase": null,
                "fzlTop": null,
                "level": "160",
                "product": "ZULU",
                "rawAirSigmet": null,
                "validTimeTo": "2026-09-05T21:00:00.000",
                "validTimeFrom": [
                    "2026-09-05T20:45"
                ]
            }
        },
        {
            "type": "Feature",
            "geometry": {
                "type": "Polygon",
                "coordinates": [
                    [
                        [
                            "-104.40",
                            "26.53"
                        ],
                        [
                            "-104.00",
                            "26.64"
                        ],
                        [
                            "-103.58",
                            "26.50"
                        ],
                        [
                            "-103.48",
                            "26.41"
                        ],
                        [
                            "-103.45",
                            "26.05"
                        ],
                        [
                            "-103.54",
                            "25.93"
                        ],
                        [
                            "-103.94",
                            "25.88"
                        ],
                        [
                            "-104.27",
                            "26.00"
                        ],
                        [
                            "-104.37",
                            "26.11"
                        ],
                        [
                            "-104.55",
                            "26.35"
                        ],
                        [
                            "-104.40",
                            "26.53"
                        ]
                    ]
                ]
            },
            "properties": {
                "forecastId": null,
                "geometryId": null,
                "tag": "1C",
                "forecastHour": 0,
                "hazard": "FZLVL",
                "frequency": null,
                "severity": null,
                "status": "NRML",
                "base": null,
                "top": null,
                "fzlBase": null,
                "fzlTop": null,
                "level": "160",
                "product": "ZULU",
                "rawAirSigmet": null,
                "validTimeTo": "2026-09-05T21:00:00.000",
                "validTimeFrom": [
                    "2026-09-05T20:45"
                ]
            }
        },
        {
            "type": "Feature",
            "geometry": {
                "type": "LineString",
                "coordinates": [
                    [
                        "-131.65",
                        "35.59"
                    ],
                    [
                        "-130.66",
                        "36.52"
                    ],
                    [
                        "-130.48",
                        "37.59"
                    ],
                    [
                        "-127.61",
                        "38.10"
                    ],
                    [
                        "-125.35",
                        "38.07"
                    ],
                    [
                        "-123.54",
                        "37.99"
                    ],
                    [
                        "-122.01",
                        "38.78"
                    ],
                    [
                        "-120.46",
                        "39.13"
                    ],
                    [
                        "-119.52",
                        "39.64"
                    ],
                    [
                        "-118.33",
                        "40.64"
                    ],
                    [
                        "-115.93",
                        "42.97"
                    ],
                    [
                        "-114.16",
                        "45.74"
                    ],
                    [
                        "-112.13",
                        "48.18"
                    ],
                    [
                        "-110.39",
                        "50.84"
                    ],
                    [
                        "-109.65",
                        "52.27"
                    ],
                    [
                        "-110.05",
                        "53.58"
                    ],
                    [
                        "-109.79",
                        "54.33"
                    ],
                    [
                        "-108.08",
                        "54.57"
                    ],
                    [
                        "-104.95",
                        "54.62"
                    ],
                    [
                        "-99.31",
                        "54.48"
                    ],
                    [
                        "-97.50",
                        "54.47"
                    ],
                    [
                        "-95.80",
                        "54.61"
                    ],
                    [
                        "-94.31",
                        "54.60"
                    ],
                    [
                        "-92.52",
                        "54.40"
                    ],
                    [
                        "-89.23",
                        "54.53"
                    ],
                    [
                        "-86.55",
                        "54.24"
                    ],
                    [
                        "-83.90",
                        "53.82"
                    ],
                    [
                        "-82.52",
                        "53.51"
                    ],
                    [
                        "-81.69",
                        "53.06"
                    ],
                    [
                        "-80.72",
                        "52.68"
                    ],
                    [
                        "-80.15",
                        "52.09"
                    ],
                    [
                        "-79.98",
                        "50.67"
                    ],
                    [
                        "-79.78",
                        "49.57"
                    ],
                    [
                        "-79.37",
                        "48.84"
                    ],
                    [
                        "-78.56",
                        "47.56"
                    ],
                    [
                        "-76.68",
                        "45.01"
                    ],
                    [
                        "-76.73",
                        "43.37"
                    ],
                    [
                        "-75.99",
                        "41.59"
                    ],
                    [
                        "-75.47",
                        "40.99"
                    ],
                    [
                        "-74.24",
                        "40.60"
                    ],
                    [
                        "-72.18",
                        "40.77"
                    ],
                    [
                        "-69.43",
                        "40.85"
                    ],
                    [
                        "-67.44",
                        "41.06"
                    ],
                    [
                        "-63.08",
                        "41.14"
                    ]
                ]
            },
            "properties": {
                "forecastId": null,
                "geometryId": null,
                "tag": "1C",
                "forecastHour": 0,
                "hazard": "FZLVL",
                "frequency": null,
                "severity": null,
                "status": "NRML",
                "base": null,
                "top": null,
                "fzlBase": null,
                "fzlTop": null,
                "level": "120",
                "product": "ZULU",
                "rawAirSigmet": null,
                "validTimeTo": "2026-09-05T21:00:00.000",
                "validTimeFrom": [
                    "2026-09-05T20:45"
                ]
            }
        },
        {
            "type": "Feature",
            "geometry": {
                "type": "Polygon",
                "coordinates": [
                    [
                        [
                            "-80.26",
                            "36.15"
                        ],
                        [
                            "-80.09",
                            "35.80"
                        ],
                        [
                            "-80.13",
                            "35.42"
                        ],
                        [
                            "-80.74",
                            "35.14"
                        ],
                        [
                            "-81.33",
                            "35.01"
                        ],
                        [
                            "-82.46",
                            "34.87"
                        ],
                        [
                            "-83.23",
                            "34.69"
                        ],
                        [
                            "-83.16",
                            "35.34"
                        ],
                        [
                            "-81.70",
                            "35.89"
                        ],
                        [
                            "-80.26",
                            "36.15"
                        ]
                    ]
                ]
            },
            "properties": {
                "forecastId": null,
                "geometryId": null,
                "tag": "9E",
                "forecastHour": 0,
                "hazard": "IFR",
                "frequency": null,
                "severity": null,
                "status": "NRML",
                "base": null,
                "top": null,
                "fzlBase": null,
                "fzlTop": null,
                "level": null,
                "product": "SIERRA",
                "rawAirSigmet": "CIG BLW 010 VIS BLW 3SM PCPN BR",
                "validTimeTo": "2026-09-05T21:00:00.000",
                "validTimeFrom": [
                    "2026-09-05T20:45"
                ]
            }
        },
        {
            "type": "Feature",
            "geometry": {
                "type": "Polygon",
                "coordinates": [
                    [
                        [
                            "-126.04",
                            "47.18"
                        ],
                        [
                            "-126.13",
                            "46.82"
                        ],
                        [
                            "-126.16",
                            "46.47"
                        ],
                        [
                            "-126.14",
                            "46.24"
                        ],
                        [
                            "-126.13",
                            "46.13"
                        ],
                        [
                            "-126.03",
                            "45.79"
                        ],
                        [
                            "-125.95",
                            "45.67"
                        ],
                        [
                            "-125.74",
                            "45.49"
                        ],
                        [
                            "-125.38",
                            "45.43"
                        ],
                        [
                            "-124.89",
                            "45.46"
                        ],
                        [
                            "-124.39",
                            "45.45"
                        ],
                        [
                            "-123.99",
                            "45.42"
                        ],
                        [
                            "-123.88",
                            "45.41"
                        ],
                        [
                            "-123.79",
                            "45.45"
                        ],
                        [
                            "-123.47",
                            "45.71"
                        ],
                        [
                            "-123.42",
                            "45.85"
                        ],
                        [
                            "-123.47",
                            "46.19"
                        ],
                        [
                            "-123.67",
                            "46.51"
                        ],
                        [
                            "-123.74",
                            "46.57"
                        ],
                        [
                            "-123.97",
                            "46.81"
                        ],
                        [
                            "-124.40",
                            "47.09"
                        ],
                        [
                            "-124.41",
                            "47.09"
                        ],
                        [
                            "-124.97",
                            "47.26"
                        ],
                        [
                            "-125.29",
                            "47.30"
                        ],
                        [
                            "-125.50",
                            "47.34"
                        ],
                        [
                            "-126.00",
                            "47.30"
                        ],
                        [
                            "-126.04",
                            "47.18"
                        ]
                    ]
                ]
            },
            "properties": {
                "forecastId": null,
                "geometryId": null,
                "tag": "1C",
                "forecastHour": 0,
                "hazard": "FZLVL",
                "frequency": null,
                "severity": null,
                "status": "NRML",
                "base": null,
                "top": null,
                "fzlBase": null,
                "fzlTop": null,
                "level": "080",
                "product": "ZULU",
                "rawAirSigmet": null,
                "validTimeTo": "2026-09-05T21:00:00.000",
                "validTimeFrom": [
                    "2026-09-05T20:45"
                ]
            }
        },
        {
            "type": "Feature",
            "geometry": {
                "type": "Polygon",
                "coordinates": [
                    [
                        [
                            "-71.70",
                            "45.35"
                        ],
                        [
                            "-70.54",
                            "45.09"
                        ],
                        [
                            "-70.57",
                            "43.98"
                        ],
                        [
                            "-71.56",
                            "43.22"
                        ],
                        [
                            "-72.54",
                            "42.70"
                        ],
                        [
                            "-73.32",
                            "42.79"
                        ],
                        [
                            "-74.43",
                            "42.53"
                        ],
                        [
                            "-75.10",
                            "42.13"
                        ],
                        [
                            "-75.75",
                            "42.00"
                        ],
                        [
                            "-76.53",
                            "42.48"
                        ],
                        [
                            "-76.30",
                            "43.18"
                        ],
                        [
                            "-74.69",
                            "45.00"
                        ],
                        [
                            "-71.70",
                            "45.35"
                        ]
                    ]
                ]
            },
            "properties": {
                "forecastId": null,
                "geometryId": null,
                "tag": "2E",
                "forecastHour": 0,
                "hazard": "MT_OBSC",
                "frequency": null,
                "severity": null,
                "status": "NRML",
                "base": null,
                "top": null,
                "fzlBase": null,
                "fzlTop": null,
                "level": null,
                "product": "SIERRA",
                "rawAirSigmet": "MTNS OBSC BY CLDS PCPN BR",
                "validTimeTo": "2026-09-05T21:00:00.000",
                "validTimeFrom": [
                    "2026-09-05T20:45"
                ]
            }
        },
        {
            "type": "Feature",
            "geometry": {
                "type": "LineString",
                "coordinates": [
                    [
                        "-83.10",
                        "19.22"
                    ],
                    [
                        "-83.28",
                        "19.60"
                    ],
                    [
                        "-83.39",
                        "19.66"
                    ],
                    [
                        "-83.77",
                        "19.81"
                    ],
                    [
                        "-84.16",
                        "19.82"
                    ],
                    [
                        "-84.55",
                        "19.70"
                    ],
                    [
                        "-84.56",
                        "19.69"
                    ],
                    [
                        "-84.88",
                        "19.36"
                    ]
                ]
            },
            "properties": {
                "forecastId": null,
                "geometryId": null,
                "tag": "1C",
                "forecastHour": 0,
                "hazard": "FZLVL",
                "frequency": null,
                "severity": null,
                "status": "NRML",
                "base": null,
                "top": null,
                "fzlBase": null,
                "fzlTop": null,
                "level": "160",
                "product": "ZULU",
                "rawAirSigmet": null,
                "validTimeTo": "2026-09-05T21:00:00.000",
                "validTimeFrom": [
                    "2026-09-05T20:45"
                ]
            }
        }
    ],
    "metadata": {
        "creationTime": "2026-09-05T21:05"
    }
}