{
    "type": "FeatureCollection",
    "features": [
        {
            "type": "Feature",
            "geometry": {
                "type": "LineString",
                "coordinates": [
                    [
                        "-112.47",
                        "60.40"
                    ],
                    [
                        "-110.82",
                        "60.21"
                    ],
                    [
                        "-108.14",
                        "59.51"
                    ],
                    [
                        "-106.57",
                        "58.73"
                    ],
                    [
                        "-105.73",
                        "58.05"
                    ],
                    [
                        "-104.32",
                        "56.61"
                    ],
                    [
                        "-102.81",
                        "55.70"
                    ],
                    [
                        "-100.25",
                        "54.23"
                    ],
                    [
                        "-99.13",
                        "53.19"
                    ],
                    [
                        "-98.28",
                        "52.11"
                    ],
                    [
                        "-97.09",
                        "50.33"
                    ],
                    [
                        "-95.54",
                        "47.98"
                    ],
                    [
                        "-94.18",
                        "46.37"
                    ],
                    [
                        "-91.94",
                        "44.49"
                    ],
                    [
                        "-90.16",
                        "43.25"
                    ],
                    [
                        "-88.09",
                        "41.42"
                    ],
                    [
                        "-86.83",
                        "40.93"
                    ],
                    [
                        "-85.95",
                        "40.95"
                    ],
                    [
                        "-83.11",
                        "42.01"
                    ],
                    [
                        "-80.79",
                        "42.75"
                    ],
                    [
                        "-77.82",
                        "43.74"
                    ],
                    [
                        "-76.77",
                        "44.54"
                    ],
                    [
                        "-75.74",
                        "45.72"
                    ],
                    [
                        "-74.40",
                        "46.87"
                    ],
                    [
                        "-73.15",
                        "47.55"
                    ],
                    [
                        "-71.72",
                        "48.06"
                    ],
                    [
                        "-69.91",
                        "48.54"
                    ],
                    [
                        "-66.84",
                        "49.28"
                    ],
                    [
                        "-63.53",
                        "50.23"
                    ],
                    [
                        "-62.19",
                        "50.45"
                    ],
                    [
                        "-60.24",
                        "50.52"
                    ],
                    [
                        "-56.63",
                        "50.14"
                    ],
                    [
                        "-53.85",
                        "49.81"
                    ],
                    [
                        "-51.21",
                        "49.57"
                    ]
                ]
            },
            "properties": {
                "forecastId": null,
                "geometryId": null,
                "tag": "1C",
                "forecastHour": 0,
                "hazard": "FZLVL",
                "frequency": null,
                "severity": null,
                "status": "NRML",
                "base": null,
                "top": null,
                "fzlBase": null,
                "fzlTop": null,
                "level": "120",
                "product": "ZULU",
                "rawAirSigmet": null,
                "validTimeTo": "2026-08-22T21:00:00.000",
                "validTimeFrom": [
                    "2026-08-22T20:45"
                ]
            }
        },
        {
            "type": "Feature",
            "geometry": {
                "type": "LineString",
                "coordinates": [
                    [
                        "-138.83",
                        "29.54"
                    ],
                    [
                        "-135.84",
                        "29.82"
                    ],
                    [
                        "-133.90",
                        "30.20"
                    ],
                    [
                        "-131.80",
                        "30.88"
                    ],
                    [
                        "-130.03",
                        "31.44"
                    ],
                    [
                        "-128.70",
                        "31.25"
                    ],
                    [
                        "-128.49",
                        "29.92"
                    ],
                    [
                        "-128.43",
                        "28.42"
                    ],
                    [
                        "-127.89",
                        "27.99"
                    ],
                    [
                        "-127.14",
                        "28.28"
                    ],
                    [
                        "-123.56",
                        "29.58"
                    ],
                    [
                        "-122.37",
                        "30.99"
                    ],
                    [
                        "-121.59",
                        "32.56"
                    ],
                    [
                        "-120.82",
                        "33.72"
                    ],
                    [
                        "-119.27",
                        "35.08"
                    ],
                    [
                        "-118.51",
                        "36.29"
                    ],
                    [
                        "-117.18",
                        "37.93"
                    ],
                    [
                        "-114.17",
                        "41.24"
                    ],
                    [
                        "-112.69",
                        "42.42"
                    ],
                    [
                        "-111.61",
                        "43.07"
                    ],
                    [
                        "-110.58",
                        "43.32"
                    ],
                    [
                        "-108.78",
                        "43.35"
                    ],
                    [
                        "-107.26",
                        "43.73"
                    ],
                    [
                        "-106.52",
                        "44.22"
                    ],
                    [
                        "-105.50",
                        "45.39"
                    ],
                    [
                        "-104.81",
                        "45.93"
                    ],
                    [
                        "-104.06",
                        "46.04"
                    ],
                    [
                        "-103.35",
                        "45.71"
                    ],
                    [
                        "-102.34",
                        "44.76"
                    ],
                    [
                        "-100.44",
                        "42.59"
                    ],
                    [
                        "-98.60",
                        "41.16"
                    ],
                    [
                        "-97.90",
                        "40.53"
                    ],
                    [
                        "-97.33",
                        "39.59"
                    ],
                    [
                        "-97.18",
                        "37.86"
                    ],
                    [
                        "-96.66",
                        "35.90"
                    ],
                    [
                        "-96.34",
                        "34.76"
                    ],
                    [
                        "-96.89",
                        "33.54"
                    ],
                    [
                        "-97.61",
                        "32.24"
                    ],
                    [
                        "-99.13",
                        "31.64"
                    ],
                    [
                        "-100.31",
                        "31.03"
                    ],
                    [
                        "-100.66",
                        "30.38"
                    ],
                    [
                        "-100.52",
                        "29.82"
                    ],
                    [
                        "-98.90",
                        "28.48"
                    ],
                    [
                        "-96.09",
                        "26.70"
                    ],
                    [
                        "-92.65",
                        "25.53"
                    ],
                    [
                        "-91.09",
                        "24.64"
                    ],
                    [
                        "-89.04",
                        "23.71"
                    ],
                    [
                        "-87.64",
                        "23.69"
                    ],
                    [
                        "-86.73",
                        "23.91"
                    ],
                    [
                        "-85.08",
                        "24.60"
                    ],
                    [
                        "-83.53",
                        "25.17"
                    ],
                    [
                        "-82.67",
                        "24.97"
                    ],
                    [
                        "-82.32",
                        "24.49"
                    ],
                    [
                        "-82.31",
                        "23.64"
                    ],
                    [
                        "-82.67",
                        "22.56"
                    ],
                    [
                        "-83.37",
                        "21.74"
                    ],
                    [
                        "-84.21",
                        "21.42"
                    ],
                    [
                        "-87.07",
                        "21.48"
                    ],
                    [
                        "-88.41",
                        "21.55"
                    ],
                    [
                        "-89.18",
                        "21.38"
                    ],
                    [
                        "-89.93",
                        "20.86"
                    ],
                    [
                        "-90.27",
                        "20.07"
                    ],
                    [
                        "-88.15",
                        "18.17"
                    ],
                    [
                        "-86.88",
                        "17.21"
                    ],
                    [
                        "-85.93",
                        "16.83"
                    ],
                    [
                        "-85.25",
                        "16.91"
                    ],
                    [
                        "-83.91",
                        "17.45"
                    ],
                    [
                        "-82.69",
                        "17.42"
                    ],
                    [
                        "-81.75",
                        "17.51"
                    ],
                    [
                        "-80.79",
                        "17.85"
                    ],
                    [
                        "-79.41",
                        "18.81"
                    ],
                    [
                        "-78.56",
                        "20.16"
                    ],
                    [
                        "-78.05",
                        "21.51"
                    ],
                    [
                        "-77.13",
                        "22.55"
                    ],
                    [
                        "-76.22",
                        "22.68"
                    ],
                    [
                        "-75.17",
                        "22.38"
                    ],
                    [
                        "-73.72",
                        "22.37"
                    ],
                    [
                        "-73.22",
                        "22.81"
                    ],
                    [
                        "-72.92",
                        "23.63"
                    ],
                    [
                        "-73.15",
                        "24.51"
                    ],
                    [
                        "-72.77",
                        "25.19"
                    ],
                    [
                        "-70.99",
                        "25.60"
                    ],
                    [
                        "-69.31",
                        "26.39"
                    ],
                    [
                        "-68.08",
                        "27.54"
                    ],
                    [
                        "-66.58",
                        "29.39"
                    ],
                    [
                        "-66.54",
                        "29.83"
                    ],
                    [
                        "-67.52",
                        "30.71"
                    ],
                    [
                        "-68.18",
                        "32.11"
                    ],
                    [
                        "-68.03",
                        "33.32"
                    ],
                    [
                        "-67.25",
                        "34.82"
                    ],
                    [
                        "-66.27",
                        "36.08"
                    ],
                    [
                        "-64.95",
                        "37.65"
                    ],
                    [
                        "-63.20",
                        "38.70"
                    ],
                    [
                        "-61.06",
                        "39.49"
                    ],
                    [
                        "-58.78",
                        "41.19"
                    ],
                    [
                        "-57.26",
                        "41.67"
                    ],
                    [
                        "-55.97",
                        "41.76"
                    ],
                    [
                        "-52.14",
                        "41.69"
                    ],
                    [
                        "-49.06",
                        "41.78"
                    ],
                    [
                        "-46.34",
                        "42.08"
                    ],
                    [
                        "-43.74",
                        "42.22"
                    ],
                    [
                        "-42.38",
                        "42.08"
                    ],
                    [
                        "-41.54",
                        "41.74"
                    ]
                ]
            },
            "properties": {
                "forecastId": null,
                "geometryId": null,
                "tag": "1C",
                "forecastHour": 0,
                "hazard": "FZLVL",
                "frequency": null,
                "severity": null,
                "status": "NRML",
                "base": null,
                "top": null,
                "fzlBase": null,
                "fzlTop": null,
                "level": "160",
                "product": "ZULU",
                "rawAirSigmet": null,
                "validTimeTo": "2026-08-22T21:00:00.000",
                "validTimeFrom": [
                    "2026-08-22T20:45"
                ]
            }
        },
        {
            "type": "Feature",
            "geometry": {
                "type": "Polygon",
                "coordinates": [
                    [
                        [
                            "-125.00",
                            "48.63"
                        ],
                        [
                            "-124.31",
                            "48.41"
                        ],
                        [
                            "-124.10",
                            "46.67"
                        ],
                        [
                            "-124.27",
                            "44.07"
                        ],
                        [
                            "-124.66",
                            "42.82"
                        ],
                        [
                            "-124.46",
                            "41.78"
                        ],
                        [
                            "-124.45",
                            "41.02"
                        ],
                        [
                            "-124.73",
                            "39.99"
                        ],
                        [
                            "-124.56",
                            "39.48"
                        ],
                        [
                            "-123.93",
                            "38.77"
                        ],
                        [
                            "-123.38",
                            "37.65"
                        ],
                        [
                            "-122.61",
                            "37.64"
                        ],
                        [
                            "-122.28",
                            "36.16"
                        ],
                        [
                            "-122.98",
                            "34.09"
                        ],
                        [
                            "-124.15",
                            "35.98"
                        ],
                        [
                            "-125.21",
                            "37.40"
                        ],
                        [
                            "-126.03",
                            "39.83"
                        ],
                        [
                            "-125.20",
                            "43.82"
                        ],
                        [
                            "-125.27",
                            "45.55"
                        ],
                        [
                            "-125.53",
                            "46.50"
                        ],
                        [
                            "-126.10",
                            "47.04"
                        ],
                        [
                            "-126.82",
                            "48.40"
                        ],
                        [
                            "-125.00",
                            "48.63"
                        ]
                    ]
                ]
            },
            "properties": {
                "forecastId": null,
                "geometryId": null,
                "tag": "3E",
                "forecastHour": 0,
                "hazard": "IFR",
                "frequency": null,
                "severity": null,
                "status": "NRML",
                "base": null,
                "top": null,
                "fzlBase": null,
                "fzlTop": null,
                "level": null,
                "product": "SIERRA",
                "rawAirSigmet": "CIG BLW 010",
                "validTimeTo": "2026-08-22T21:00:00.000",
                "validTimeFrom": [
                    "2026-08-22T20:45"
                ]
            }
        },
        {
            "type": "Feature",
            "geometry": {
                "type": "Polygon",
                "coordinates": [
                    [
                        [
                            "-123.20",
                            "48.95"
                        ],
                        [
                            "-121.16",
                            "48.95"
                        ],
                        [
                            "-121.27",
                            "47.32"
                        ],
                        [
                            "-122.17",
                            "46.72"
                        ],
                        [
                            "-122.40",
                            "45.46"
                        ],
                        [
                            "-123.90",
                            "43.08"
                        ],
                        [
                            "-124.28",
                            "42.54"
                        ],
                        [
                            "-124.66",
                            "42.81"
                        ],
                        [
                            "-124.17",
                            "46.98"
                        ],
                        [
                            "-124.63",
                            "48.34"
                        ],
                        [
                            "-123.20",
                            "48.95"
                        ]
                    ]
                ]
            },
            "properties": {
                "forecastId": null,
                "geometryId": null,
                "tag": "2E",
                "forecastHour": 0,
                "hazard": "MT_OBSC",
                "frequency": null,
                "severity": null,
                "status": "NRML",
                "base": null,
                "top": null,
                "fzlBase": null,
                "fzlTop": null,
                "level": null,
                "product": "SIERRA",
                "rawAirSigmet": "MTNS OBSC BY CLDS",
                "validTimeTo": "2026-08-22T21:00:00.000",
                "validTimeFrom": [
                    "2026-08-22T20:45"
                ]
            }
        },
        {
            "type": "Feature",
            "geometry": {
                "type": "Polygon",
                "coordinates": [
                    [
                        [
                            "-106.99",
                            "48.99"
                        ],
                        [
                            "-106.29",
                            "48.93"
                        ],
                        [
                            "-105.55",
                            "48.80"
                        ],
                        [
                            "-105.06",
                            "48.65"
                        ],
                        [
                            "-104.67",
                            "48.33"
                        ],
                        [
                            "-104.32",
                            "48.11"
                        ],
                        [
                            "-103.56",
                            "47.78"
                        ],
                        [
                            "-102.96",
                            "47.43"
                        ],
                        [
                            "-102.56",
                            "47.02"
                        ],
                        [
                            "-102.40",
                            "46.66"
                        ],
                        [
                            "-102.03",
                            "46.18"
                        ],
                        [
                            "-101.55",
                            "45.65"
                        ],
                        [
                            "-101.17",
                            "45.18"
                        ],
                        [
                            "-100.97",
                            "44.56"
                        ],
                        [
                            "-101.06",
                            "43.88"
                        ],
                        [
                            "-101.93",
                            "43.01"
                        ],
                        [
                            "-102.88",
                            "43.41"
                        ],
                        [
                            "-103.86",
                            "43.57"
                        ],
                        [
                            "-104.59",
                            "43.94"
                        ],
                        [
                            "-105.37",
                            "44.66"
                        ],
                        [
                            "-106.77",
                            "45.24"
                        ],
                        [
                            "-107.63",
                            "45.58"
                        ],
                        [
                            "-108.80",
                            "45.73"
                        ],
                        [
                            "-109.55",
                            "45.73"
                        ],
                        [
                            "-110.28",
                            "45.62"
                        ],
                        [
                            "-110.94",
                            "45.64"
                        ],
                        [
                            "-111.25",
                            "45.82"
                        ],
                        [
                            "-111.56",
                            "46.29"
                        ],
                        [
                            "-111.54",
                            "46.61"
                        ],
                        [
                            "-111.51",
                            "47.30"
                        ],
                        [
                            "-111.20",
                            "47.98"
                        ],
                        [
                            "-110.84",
                            "48.39"
                        ],
                        [
                            "-110.56",
                            "48.66"
                        ],
                        [
                            "-110.21",
                            "48.95"
                        ],
                        [
                            "-109.27",
                            "48.94"
                        ],
                        [
                            "-108.04",
                            "48.86"
                        ],
                        [
                            "-106.99",
                            "48.99"
                        ]
                    ]
                ]
            },
            "properties": {
                "forecastId": null,
                "geometryId": null,
                "tag": "2W",
                "forecastHour": 0,
                "hazard": "TURB-HI",
                "frequency": null,
                "severity": "MOD",
                "status": "NRML",
                "base": "270",
                "top": "410",
                "fzlBase": null,
                "fzlTop": null,
                "level": null,
                "product": "TANGO",
                "rawAirSigmet": null,
                "validTimeTo": "2026-08-22T21:00:00.000",
                "validTimeFrom": [
                    "2026-08-22T20:45"
                ]
            }
        },
        {
            "type": "Feature",
            "geometry": {
                "type": "LineString",
                "coordinates": [
                    [
                        "-151.59",
                        "41.56"
                    ],
                    [
                        "-150.28",
                        "40.91"
                    ],
                    [
                        "-148.71",
                        "40.55"
                    ],
                    [
                        "-146.55",
                        "40.21"
                    ],
                    [
                        "-145.33",
                        "40.07"
                    ],
                    [
                        "-143.18",
                        "40.49"
                    ],
                    [
                        "-141.95",
                        "41.47"
                    ],
                    [
                        "-141.56",
                        "42.32"
                    ],
                    [
                        "-141.85",
                        "43.85"
                    ],
                    [
                        "-142.39",
                        "45.58"
                    ],
                    [
                        "-142.43",
                        "46.81"
                    ],
                    [
                        "-141.86",
                        "47.93"
                    ],
                    [
                        "-140.21",
                        "48.87"
                    ],
                    [
                        "-138.44",
                        "49.34"
                    ],
                    [
                        "-136.79",
                        "49.17"
                    ],
                    [
                        "-135.61",
                        "48.45"
                    ],
                    [
                        "-135.19",
                        "47.61"
                    ],
                    [
                        "-134.99",
                        "46.30"
                    ],
                    [
                        "-135.05",
                        "44.25"
                    ],
                    [
                        "-134.93",
                        "42.88"
                    ],
                    [
                        "-134.50",
                        "42.22"
                    ],
                    [
                        "-133.96",
                        "41.62"
                    ],
                    [
                        "-132.36",
                        "40.53"
                    ],
                    [
                        "-130.91",
                        "40.58"
                    ],
                    [
                        "-129.44",
                        "41.35"
                    ],
                    [
                        "-124.42",
                        "43.97"
                    ],
                    [
                        "-123.67",
                        "44.92"
                    ],
                    [
                        "-123.32",
                        "46.39"
                    ],
                    [
                        "-123.61",
                        "47.45"
                    ],
                    [
                        "-124.40",
                        "48.76"
                    ],
                    [
                        "-125.07",
                        "49.39"
                    ],
                    [
                        "-126.89",
                        "50.40"
                    ],
                    [
                        "-128.32",
                        "51.22"
                    ],
                    [
                        "-128.72",
                        "51.84"
                    ],
                    [
                        "-128.52",
                        "52.74"
                    ],
                    [
                        "-127.67",
                        "53.68"
                    ],
                    [
                        "-126.44",
                        "54.63"
                    ],
                    [
                        "-124.31",
                        "56.25"
                    ],
                    [
                        "-122.37",
                        "58.30"
                    ]
                ]
            },
            "properties": {
                "forecastId": null,
                "geometryId": null,
                "tag": "1C",
                "forecastHour": 0,
                "hazard": "FZLVL",
                "frequency": null,
                "severity": null,
                "status": "NRML",
                "base": null,
                "top": null,
                "fzlBase": null,
                "fzlTop": null,
                "level": "120",
                "product": "ZULU",
                "rawAirSigmet": null,
                "validTimeTo": "2026-08-22T21:00:00.000",
                "validTimeFrom": [
                    "2026-08-22T20:45"
                ]
            }
        },
        {
            "type": "Feature",
            "geometry": {
                "type": "LineString",
                "coordinates": [
                    [
                        "-93.09",
                        "60.71"
                    ],
                    [
                        "-94.07",
                        "59.14"
                    ],
                    [
                        "-94.57",
                        "57.54"
                    ],
                    [
                        "-94.32",
                        "55.88"
                    ],
                    [
                        "-93.97",
                        "55.03"
                    ],
                    [
                        "-93.53",
                        "53.86"
                    ],
                    [
                        "-92.76",
                        "52.47"
                    ],
                    [
                        "-91.93",
                        "51.55"
                    ],
                    [
                        "-90.74",
                        "50.77"
                    ],
                    [
                        "-89.46",
                        "50.57"
                    ],
                    [
                        "-88.16",
                        "50.84"
                    ],
                    [
                        "-87.18",
                        "51.54"
                    ],
                    [
                        "-86.76",
                        "52.34"
                    ],
                    [
                        "-86.70",
                        "53.10"
                    ],
                    [
                        "-87.04",
                        "53.99"
                    ],
                    [
                        "-87.74",
                        "54.95"
                    ],
                    [
                        "-88.37",
                        "55.90"
                    ],
                    [
                        "-88.65",
                        "57.62"
                    ],
                    [
                        "-88.63",
                        "58.46"
                    ],
                    [
                        "-88.94",
                        "60.20"
                    ],
                    [
                        "-88.62",
                        "61.00"
                    ]
                ]
            },
            "properties": {
                "forecastId": null,
                "geometryId": null,
                "tag": "1C",
                "forecastHour": 0,
                "hazard": "FZLVL",
                "frequency": null,
                "severity": null,
                "status": "NRML",
                "base": null,
                "top": null,
                "fzlBase": null,
                "fzlTop": null,
                "level": "080",
                "product": "ZULU",
                "rawAirSigmet": null,
                "validTimeTo": "2026-08-22T21:00:00.000",
                "validTimeFrom": [
                    "2026-08-22T20:45"
                ]
            }
        },
        {
            "type": "Feature",
            "geometry": {
                "type": "Polygon",
                "coordinates": [
                    [
                        [
                            "-93.61",
                            "38.78"
                        ],
                        [
                            "-92.76",
                            "38.76"
                        ],
                        [
                            "-91.39",
                            "38.43"
                        ],
                        [
                            "-89.90",
                            "38.07"
                        ],
                        [
                            "-88.42",
                            "37.72"
                        ],
                        [
                            "-87.45",
                            "37.49"
                        ],
                        [
                            "-86.79",
                            "37.25"
                        ],
                        [
                            "-86.06",
                            "36.97"
                        ],
                        [
                            "-85.39",
                            "36.62"
                        ],
                        [
                            "-84.48",
                            "35.90"
                        ],
                        [
                            "-83.60",
                            "34.94"
                        ],
                        [
                            "-83.39",
                            "33.66"
                        ],
                        [
                            "-83.72",
                            "32.77"
                        ],
                        [
                            "-84.07",
                            "31.92"
                        ],
                        [
                            "-84.84",
                            "30.34"
                        ],
                        [
                            "-86.12",
                            "29.67"
                        ],
                        [
                            "-88.01",
                            "29.28"
                        ],
                        [
                            "-89.21",
                            "29.14"
                        ],
                        [
                            "-90.71",
                            "29.27"
                        ],
                        [
                            "-92.41",
                            "29.61"
                        ],
                        [
                            "-94.14",
                            "30.13"
                        ],
                        [
                            "-94.77",
                            "30.15"
                        ],
                        [
                            "-95.84",
                            "30.42"
                        ],
                        [
                            "-98.73",
                            "30.83"
                        ],
                        [
                            "-98.99",
                            "32.07"
                        ],
                        [
                            "-95.33",
                            "32.35"
                        ],
                        [
                            "-93.72",
                            "33.19"
                        ],
                        [
                            "-93.01",
                            "33.73"
                        ],
                        [
                            "-91.94",
                            "34.39"
                        ],
                        [
                            "-91.49",
                            "34.85"
                        ],
                        [
                            "-91.31",
                            "35.31"
                        ],
                        [
                            "-91.37",
                            "35.88"
                        ],
                        [
                            "-91.46",
                            "36.25"
                        ],
                        [
                            "-91.75",
                            "36.70"
                        ],
                        [
                            "-91.99",
                            "36.94"
                        ],
                        [
                            "-92.57",
                            "37.27"
                        ],
                        [
                            "-93.16",
                            "37.62"
                        ],
                        [
                            "-94.08",
                            "37.87"
                        ],
                        [
                            "-94.44",
                            "38.11"
                        ],
                        [
                            "-94.26",
                            "38.37"
                        ],
                        [
                            "-94.01",
                            "38.58"
                        ],
                        [
                            "-93.61",
                            "38.78"
                        ]
                    ]
                ]
            },
            "properties": {
                "forecastId": null,
                "geometryId": null,
                "tag": "1W",
                "forecastHour": 0,
                "hazard": "TURB-HI",
                "frequency": null,
                "severity": "MOD",
                "status": "NRML",
                "base": "280",
                "top": "450",
                "fzlBase": null,
                "fzlTop": null,
                "level": null,
                "product": "TANGO",
                "rawAirSigmet": null,
                "validTimeTo": "2026-08-22T21:00:00.000",
                "validTimeFrom": [
                    "2026-08-22T20:45"
                ]
            }
        },
        {
            "type": "Feature",
            "geometry": {
                "type": "Polygon",
                "coordinates": [
                    [
                        [
                            "-67.04",
                            "43.77"
                        ],
                        [
                            "-66.96",
                            "41.42"
                        ],
                        [
                            "-68.04",
                            "40.75"
                        ],
                        [
                            "-69.20",
                            "40.45"
                        ],
                        [
                            "-70.05",
                            "40.42"
                        ],
                        [
                            "-71.58",
                            "40.71"
                        ],
                        [
                            "-72.38",
                            "41.41"
                        ],
                        [
                            "-71.73",
                            "41.98"
                        ],
                        [
                            "-71.01",
                            "42.15"
                        ],
                        [
                            "-70.82",
                            "42.99"
                        ],
                        [
                            "-70.13",
                            "43.36"
                        ],
                        [
                            "-69.37",
                            "43.52"
                        ],
                        [
                            "-67.04",
                            "43.77"
                        ]
                    ]
                ]
            },
            "properties": {
                "forecastId": null,
                "geometryId": null,
                "tag": "1E",
                "forecastHour": 0,
                "hazard": "IFR",
                "frequency": null,
                "severity": null,
                "status": "NRML",
                "base": null,
                "top": null,
                "fzlBase": null,
                "fzlTop": null,
                "level": null,
                "product": "SIERRA",
                "rawAirSigmet": "CIG BLW 010 VIS BLW 3SM PCPN BR",
                "validTimeTo": "2026-08-22T21:00:00.000",
                "validTimeFrom": [
                    "2026-08-22T20:45"
                ]
            }
        },
        {
            "type": "Feature",
            "geometry": {
                "type": "LineString",
                "coordinates": [
                    [
                        "-49.75",
                        "34.24"
                    ],
                    [
                        "-50.51",
                        "34.17"
                    ],
                    [
                        "-51.59",
                        "34.03"
                    ],
                    [
                        "-52.47",
                        "33.86"
                    ],
                    [
                        "-54.07",
                        "33.36"
                    ],
                    [
                        "-54.93",
                        "33.04"
                    ],
                    [
                        "-56.34",
                        "32.47"
                    ],
                    [
                        "-57.63",
                        "31.69"
                    ],
                    [
                        "-58.49",
                        "30.53"
                    ],
                    [
                        "-58.88",
                        "29.93"
                    ],
                    [
                        "-59.63",
                        "29.66"
                    ],
                    [
                        "-60.56",
                        "29.49"
                    ],
                    [
                        "-61.66",
                        "28.67"
                    ],
                    [
                        "-61.97",
                        "28.04"
                    ],
                    [
                        "-62.23",
                        "27.01"
                    ],
                    [
                        "-62.12",
                        "26.19"
                    ],
                    [
                        "-61.31",
                        "25.13"
                    ],
                    [
                        "-60.24",
                        "24.35"
                    ]
                ]
            },
            "properties": {
                "forecastId": null,
                "geometryId": null,
                "tag": "1C",
                "forecastHour": 0,
                "hazard": "FZLVL",
                "frequency": null,
                "severity": null,
                "status": "NRML",
                "base": null,
                "top": null,
                "fzlBase": null,
                "fzlTop": null,
                "level": "160",
                "product": "ZULU",
                "rawAirSigmet": null,
                "validTimeTo": "2026-08-22T21:00:00.000",
                "validTimeFrom": [
                    "2026-08-22T20:45"
                ]
            }
        },
        {
            "type": "Feature",
            "geometry": {
                "type": "LineString",
                "coordinates": [
                    [
                        "-72.81",
                        "58.77"
                    ],
                    [
                        "-71.72",
                        "58.17"
                    ],
                    [
                        "-70.64",
                        "57.57"
                    ],
                    [
                        "-70.37",
                        "57.42"
                    ],
                    [
                        "-69.57",
                        "56.99"
                    ],
                    [
                        "-68.47",
                        "56.46"
                    ],
                    [
                        "-67.35",
                        "55.95"
                    ],
                    [
                        "-66.23",
                        "55.46"
                    ],
                    [
                        "-65.11",
                        "54.99"
                    ],
                    [
                        "-63.97",
                        "54.53"
                    ],
                    [
                        "-63.39",
                        "54.35"
                    ],
                    [
                        "-62.74",
                        "54.15"
                    ],
                    [
                        "-61.43",
                        "53.81"
                    ],
                    [
                        "-60.07",
                        "53.51"
                    ],
                    [
                        "-59.86",
                        "53.47"
                    ],
                    [
                        "-58.59",
                        "53.27"
                    ],
                    [
                        "-57.42",
                        "53.08"
                    ],
                    [
                        "-57.07",
                        "53.04"
                    ]
                ]
            },
            "properties": {
                "forecastId": null,
                "geometryId": null,
                "tag": "1C",
                "forecastHour": 0,
                "hazard": "FZLVL",
                "frequency": null,
                "severity": null,
                "status": "NRML",
                "base": null,
                "top": null,
                "fzlBase": null,
                "fzlTop": null,
                "level": "080",
                "product": "ZULU",
                "rawAirSigmet": null,
                "validTimeTo": "2026-08-22T21:00:00.000",
                "validTimeFrom": [
                    "2026-08-22T20:45"
                ]
            }
        },
        {
            "type": "Feature",
            "geometry": {
                "type": "Polygon",
                "coordinates": [
                    [
                        [
                            "-117.72",
                            "27.51"
                        ],
                        [
                            "-118.69",
                            "26.02"
                        ],
                        [
                            "-119.01",
                            "24.66"
                        ],
                        [
                            "-118.66",
                            "23.86"
                        ],
                        [
                            "-118.00",
                            "23.03"
                        ],
                        [
                            "-117.14",
                            "22.26"
                        ],
                        [
                            "-115.76",
                            "22.01"
                        ],
                        [
                            "-113.86",
                            "22.43"
                        ],
                        [
                            "-112.93",
                            "22.40"
                        ],
                        [
                            "-112.26",
                            "22.70"
                        ],
                        [
                            "-112.56",
                            "23.37"
                        ],
                        [
                            "-113.29",
                            "23.80"
                        ],
                        [
                            "-114.19",
                            "24.30"
                        ],
                        [
                            "-115.10",
                            "25.49"
                        ],
                        [
                            "-116.07",
                            "26.70"
                        ],
                        [
                            "-117.05",
                            "27.81"
                        ],
                        [
                            "-117.72",
                            "27.51"
                        ]
                    ]
                ]
            },
            "properties": {
                "forecastId": null,
                "geometryId": null,
                "tag": "1C",
                "forecastHour": 0,
                "hazard": "FZLVL",
                "frequency": null,
                "severity": null,
                "status": "NRML",
                "base": null,
                "top": null,
                "fzlBase": null,
                "fzlTop": null,
                "level": "160",
                "product": "ZULU",
                "rawAirSigmet": null,
                "validTimeTo": "2026-08-22T21:00:00.000",
                "validTimeFrom": [
                    "2026-08-22T20:45"
                ]
            }
        },
        {
            "type": "Feature",
            "geometry": {
                "type": "Polygon",
                "coordinates": [
                    [
                        [
                            "-103.07",
                            "20.10"
                        ],
                        [
                            "-103.44",
                            "20.08"
                        ],
                        [
                            "-104.07",
                            "19.67"
                        ],
                        [
                            "-104.18",
                            "19.54"
                        ],
                        [
                            "-104.44",
                            "18.96"
                        ],
                        [
                            "-104.45",
                            "18.39"
                        ],
                        [
                            "-104.28",
                            "17.81"
                        ],
                        [
                            "-104.11",
                            "17.43"
                        ],
                        [
                            "-104.01",
                            "17.24"
                        ],
                        [
                            "-103.53",
                            "16.74"
                        ],
                        [
                            "-102.94",
                            "16.70"
                        ],
                        [
                            "-102.34",
                            "16.96"
                        ],
                        [
                            "-102.12",
                            "17.18"
                        ],
                        [
                            "-101.72",
                            "17.51"
                        ],
                        [
                            "-101.54",
                            "17.72"
                        ],
                        [
                            "-101.07",
                            "18.24"
                        ],
                        [
                            "-101.05",
                            "18.26"
                        ],
                        [
                            "-100.80",
                            "18.82"
                        ],
                        [
                            "-101.00",
                            "19.19"
                        ],
                        [
                            "-101.16",
                            "19.43"
                        ],
                        [
                            "-101.58",
                            "19.69"
                        ],
                        [
                            "-102.19",
                            "19.96"
                        ],
                        [
                            "-102.75",
                            "20.09"
                        ],
                        [
                            "-102.81",
                            "20.11"
                        ],
                        [
                            "-103.07",
                            "20.10"
                        ]
                    ]
                ]
            },
            "properties": {
                "forecastId": null,
                "geometryId": null,
                "tag": "1C",
                "forecastHour": 0,
                "hazard": "FZLVL",
                "frequency": null,
                "severity": null,
                "status": "NRML",
                "base": null,
                "top": null,
                "fzlBase": null,
                "fzlTop": null,
                "level": "160",
                "product": "ZULU",
                "rawAirSigmet": null,
                "validTimeTo": "2026-08-22T21:00:00.000",
                "validTimeFrom": [
                    "2026-08-22T20:45"
                ]
            }
        }
    ],
    "metadata": {
        "creationTime": "2026-08-22T22:29"
    }
}