{
    "type": "FeatureCollection",
    "features": [
        {
            "type": "Feature",
            "geometry": {
                "type": "Polygon",
                "coordinates": [
                    [
                        [
                            -112.67,
                            38.991
                        ],
                        [
                            -111.035,
                            39.032
                        ],
                        [
                            -111.709,
                            37.218
                        ],
                        [
                            -113.037,
                            37.099
                        ],
                        [
                            -112.67,
                            38.991
                        ]
                    ]
                ]
            },
            "properties": {
                "airSigmetId": null,
                "airportIcao": "KKCI",
                "airSigmetType": "SIGMET",
                "hazard": "CONVECTIVE",
                "severity": 5,
                "altitudeLow1": null,
                "altitudeLow2": null,
                "altitudeHi1": 31000,
                "altitudeHi2": 31000,
                "movementDir": null,
                "movementSpd": 0,
                "rawAirSigmet": "WSUS33 KKCI 090155\nMKCW WST 090155\nCONVECTIVE SIGMET 3W\nVALID UNTIL 0355Z\nUT\nFROM 20SSW DTA-40NNW HVE-40SE BCE-50SW BCE-20SSW DTA\nDMSHG AREA TS MOV LTL. TOPS TO FL310.\n\n",
                "validTimeTo": [
                    "2026-10-09T03:55"
                ]
            }
        },
        {
            "type": "Feature",
            "geometry": {
                "type": "Polygon",
                "coordinates": [
                    [
                        [
                            -97.106,
                            43.885
                        ],
                        [
                            -93.33,
                            42.425
                        ],
                        [
                            -93.446,
                            41.375
                        ],
                        [
                            -94.538,
                            41.437
                        ],
                        [
                            -97.885,
                            43.055
                        ],
                        [
                            -97.106,
                            43.885
                        ]
                    ]
                ]
            },
            "properties": {
                "airSigmetId": null,
                "airportIcao": "KKCI",
                "airSigmetType": "SIGMET",
                "hazard": "CONVECTIVE",
                "severity": 5,
                "altitudeLow1": null,
                "altitudeLow2": null,
                "altitudeHi1": 45000,
                "altitudeHi2": 45000,
                "movementDir": 300,
                "movementSpd": 40,
                "rawAirSigmet": "WSUS32 KKCI 090155\nMKCC WST 090155\nCONVECTIVE SIGMET 2C\nVALID UNTIL 0355Z\nMN IA NE SD\nFROM 20NW FSD-40S MCW-10ESE DSM-40W DSM-50NE ONL-20NW FSD\nAREA TS MOV FROM 30040KT. TOPS ABV FL450.\n\n",
                "validTimeTo": [
                    "2026-10-09T03:55"
                ]
            }
        },
        {
            "type": "Feature",
            "geometry": {
                "type": "Polygon",
                "coordinates": [
                    [
                        [
                            -78.931,
                            31.944
                        ],
                        [
                            -79.13,
                            31.049
                        ],
                        [
                            -80.798,
                            30.598
                        ],
                        [
                            -81.11,
                            31.328
                        ],
                        [
                            -78.931,
                            31.944
                        ]
                    ]
                ]
            },
            "properties": {
                "airSigmetId": null,
                "airportIcao": "KKCI",
                "airSigmetType": "SIGMET",
                "hazard": "CONVECTIVE",
                "severity": 5,
                "altitudeLow1": null,
                "altitudeLow2": null,
                "altitudeHi1": 31000,
                "altitudeHi2": 31000,
                "movementDir": null,
                "movementSpd": 0,
                "rawAirSigmet": "WSUS31 KKCI 090155\nMKCE WST 090155\nCONVECTIVE SIGMET 5E\nVALID UNTIL 0355Z\nFL GA CSTL WTRS\nFROM 80SE CHS-120SSE CHS-40ENE CRG-50S SAV-80SE CHS\nAREA EMBD TS MOV LTL. TOPS TO FL310.\n\n",
                "validTimeTo": [
                    "2026-10-09T03:55"
                ]
            }
        },
        {
            "type": "Feature",
            "geometry": {
                "type": "Polygon",
                "coordinates": [
                    [
                        [
                            -79.055,
                            30.895
                        ],
                        [
                            -78.63,
                            29.277
                        ],
                        [
                            -80.09,
                            26.347
                        ],
                        [
                            -83.861,
                            26.217
                        ],
                        [
                            -84.974,
                            28.871
                        ],
                        [
                            -79.055,
                            30.895
                        ]
                    ]
                ]
            },
            "properties": {
                "airSigmetId": null,
                "airportIcao": "KKCI",
                "airSigmetType": "SIGMET",
                "hazard": "CONVECTIVE",
                "severity": 5,
                "altitudeLow1": null,
                "altitudeLow2": null,
                "altitudeHi1": 44000,
                "altitudeHi2": 44000,
                "movementDir": 200,
                "movementSpd": 15,
                "rawAirSigmet": "WSUS31 KKCI 090155\nMKCE WST 090155\nCONVECTIVE SIGMET 6E\nVALID UNTIL 0355Z\nFL AND FL GA CSTL WTRS\nFROM 130SSE CHS-130E OMN-20S PBI-100SW SRQ-110WSW CTY-130SSE CHS\nAREA TS MOV FROM 20015KT. TOPS TO FL440.\nREF INTL SIGMET JULIETT SERIES.\n\n",
                "validTimeTo": [
                    "2026-10-09T03:55"
                ]
            }
        },
        {
            "type": "Feature",
            "geometry": {
                "type": "Polygon",
                "coordinates": [
                    [
                        [
                            -77.012,
                            30.733
                        ],
                        [
                            -76.096,
                            28.119
                        ],
                        [
                            -78.193,
                            27.382
                        ],
                        [
                            -78.4,
                            28.444
                        ],
                        [
                            -77.012,
                            30.733
                        ]
                    ]
                ]
            },
            "properties": {
                "airSigmetId": null,
                "airportIcao": "KKCI",
                "airSigmetType": "SIGMET",
                "hazard": "CONVECTIVE",
                "severity": 5,
                "altitudeLow1": null,
                "altitudeLow2": null,
                "altitudeHi1": 45000,
                "altitudeHi2": 45000,
                "movementDir": 220,
                "movementSpd": 15,
                "rawAirSigmet": "WSUS31 KKCI 090155\nMKCE WST 090155\nCONVECTIVE SIGMET 7E\nVALID UNTIL 0355Z\nFL CSTL WTRS\nFROM 230ENE OMN-230ENE PBI-110ENE PBI-120ENE TRV-230ENE OMN\nAREA TS MOV FROM 22015KT. TOPS TO FL450.\n\n",
                "validTimeTo": [
                    "2026-10-09T03:55"
                ]
            }
        },
        {
            "type": "Feature",
            "geometry": {
                "type": "Polygon",
                "coordinates": [
                    [
                        [
                            -86.407,
                            30.594
                        ],
                        [
                            -84.974,
                            28.871
                        ],
                        [
                            -84.403,
                            27.249
                        ],
                        [
                            -90.1,
                            28.348
                        ],
                        [
                            -89.616,
                            29.849
                        ],
                        [
                            -86.407,
                            30.594
                        ]
                    ]
                ]
            },
            "properties": {
                "airSigmetId": null,
                "airportIcao": "KKCI",
                "airSigmetType": "SIGMET",
                "hazard": "CONVECTIVE",
                "severity": 5,
                "altitudeLow1": null,
                "altitudeLow2": null,
                "altitudeHi1": 34000,
                "altitudeHi2": 34000,
                "movementDir": 90,
                "movementSpd": 15,
                "rawAirSigmet": "WSUS31 KKCI 090155\nMKCE WST 090155\nCONVECTIVE SIGMET 8E\nVALID UNTIL 0355Z\nFL AL LA AND FL AL MS LA CSTL WTRS\nFROM 20SE CEW-110WSW CTY-100WSW PIE-50S LEV-20E HRV-20SE CEW\nAREA EMBD TS MOV FROM 09015KT. TOPS TO FL340.\nREF INTL SIGMET JULIETT SERIES.\n\n",
                "validTimeTo": [
                    "2026-10-09T03:55"
                ]
            }
        }
    ],
    "metadata": {
        "creationTime": "2026-10-09T01:56"
    }
}