{
    "type": "FeatureCollection",
    "features": [
        {
            "type": "Feature",
            "geometry": {
                "type": "Polygon",
                "coordinates": [
                    [
                        [
                            -100.309,
                            37.919
                        ],
                        [
                            -98.659,
                            36.938
                        ],
                        [
                            -101.92,
                            33.197
                        ],
                        [
                            -105.456,
                            31.112
                        ],
                        [
                            -106.872,
                            31.819
                        ],
                        [
                            -100.309,
                            37.919
                        ]
                    ]
                ]
            },
            "properties": {
                "airSigmetId": null,
                "airportIcao": "KKCI",
                "airSigmetType": "SIGMET",
                "hazard": "CONVECTIVE",
                "severity": 5,
                "altitudeLow1": null,
                "altitudeLow2": null,
                "altitudeHi1": 45000,
                "altitudeHi2": 60000,
                "movementDir": 210,
                "movementSpd": 25,
                "rawAirSigmet": "WSUS32 KKCI 250655\nSIGC \nCONVECTIVE SIGMET 37C\nVALID UNTIL 0855Z\nTX OK KS NM\nFROM 20E GCK-50NW END-30S LBB-60SE ELP-30W ELP-20E GCK\nAREA EMBD TS MOV FROM 21025KT. TOPS ABV FL450.\n\nOUTLOOK VALID 250855-251255\nFROM 50NE OBH-30S OVR-30W MCI-30NW TUL-30NE LBB-90SE MRF-80S\nMRF-40SW DMN-50N ABQ-30SE LAA-30E LBL-30E GLD-LBF-50NE OBH\nWST ISSUANCES EXPD. REFER TO MOST RECENT ACUS01 KWNS FROM STORM\nPREDICTION CENTER FOR SYNOPSIS AND METEOROLOGICAL DETAILS.",
                "validTimeTo": [
                    "2026-09-25T08:55"
                ]
            }
        },
        {
            "type": "Feature",
            "geometry": {
                "type": "Polygon",
                "coordinates": [
                    [
                        [
                            -105.53,
                            34.888
                        ],
                        [
                            -104.852,
                            33.805
                        ],
                        [
                            -105.718,
                            32.954
                        ],
                        [
                            -107.678,
                            33.279
                        ],
                        [
                            -107.128,
                            34.425
                        ],
                        [
                            -105.53,
                            34.888
                        ]
                    ]
                ]
            },
            "properties": {
                "airSigmetId": null,
                "airportIcao": "KKCI",
                "airSigmetType": "SIGMET",
                "hazard": "CONVECTIVE",
                "severity": 5,
                "altitudeLow1": null,
                "altitudeLow2": null,
                "altitudeHi1": 45000,
                "altitudeHi2": 45000,
                "movementDir": 190,
                "movementSpd": 20,
                "rawAirSigmet": "WSUS32 KKCI 250655\nSIGC \nCONVECTIVE SIGMET 38C\nVALID UNTIL 0855Z\nNM\nFROM 50SSW FTI-30NNW CME-60WSW CME-20W TCS-40SSW ABQ-50SSW FTI\nAREA TS MOV FROM 19020KT. TOPS TO FL450.\n\nOUTLOOK VALID 250855-251255\nFROM 50NE OBH-30S OVR-30W MCI-30NW TUL-30NE LBB-90SE MRF-80S\nMRF-40SW DMN-50N ABQ-30SE LAA-30E LBL-30E GLD-LBF-50NE OBH\nWST ISSUANCES EXPD. REFER TO MOST RECENT ACUS01 KWNS FROM STORM\nPREDICTION CENTER FOR SYNOPSIS AND METEOROLOGICAL DETAILS.",
                "validTimeTo": [
                    "2026-09-25T08:55"
                ]
            }
        },
        {
            "type": "Feature",
            "geometry": {
                "type": "Polygon",
                "coordinates": [
                    [
                        [
                            -94.523,
                            40.782
                        ],
                        [
                            -93.683,
                            40.135
                        ],
                        [
                            -95.169,
                            39.289
                        ],
                        [
                            -95.903,
                            39.965
                        ],
                        [
                            -94.523,
                            40.782
                        ]
                    ]
                ]
            },
            "properties": {
                "airSigmetId": null,
                "airportIcao": "KKCI",
                "airSigmetType": "SIGMET",
                "hazard": "CONVECTIVE",
                "severity": 5,
                "altitudeLow1": null,
                "altitudeLow2": null,
                "altitudeHi1": 30000,
                "altitudeHi2": 30000,
                "movementDir": 230,
                "movementSpd": 20,
                "rawAirSigmet": "WSUS32 KKCI 250655\nSIGC \nCONVECTIVE SIGMET 39C\nVALID UNTIL 0855Z\nMO IA KS NE\nFROM 60ESE OVR-50W IRK-20W MCI-20SE PWE-60ESE OVR\nAREA TS MOV FROM 23020KT. TOPS TO FL300.\n\nOUTLOOK VALID 250855-251255\nFROM 50NE OBH-30S OVR-30W MCI-30NW TUL-30NE LBB-90SE MRF-80S\nMRF-40SW DMN-50N ABQ-30SE LAA-30E LBL-30E GLD-LBF-50NE OBH\nWST ISSUANCES EXPD. REFER TO MOST RECENT ACUS01 KWNS FROM STORM\nPREDICTION CENTER FOR SYNOPSIS AND METEOROLOGICAL DETAILS.",
                "validTimeTo": [
                    "2026-09-25T08:55"
                ]
            }
        },
        {
            "type": "Feature",
            "geometry": {
                "type": "Polygon",
                "coordinates": [
                    [
                        [
                            -75.406,
                            34.712
                        ],
                        [
                            -73.903,
                            34.348
                        ],
                        [
                            -74.962,
                            31.844
                        ],
                        [
                            -78.062,
                            29.265
                        ],
                        [
                            -79.22,
                            31.194
                        ],
                        [
                            -75.406,
                            34.712
                        ]
                    ]
                ]
            },
            "properties": {
                "airSigmetId": null,
                "airportIcao": "KKCI",
                "airSigmetType": "SIGMET",
                "hazard": "CONVECTIVE",
                "severity": 5,
                "altitudeLow1": null,
                "altitudeLow2": null,
                "altitudeHi1": 43000,
                "altitudeHi2": 43000,
                "movementDir": null,
                "movementSpd": null,
                "rawAirSigmet": "WSUS31 KKCI 250655\nSIGE \nCONVECTIVE SIGMET 9E\nVALID UNTIL 0855Z\nNC FL SC GA CSTL WTRS\nFROM 100SSE ECG-160SE ECG-210SE ILM-160E OMN-110SSE CHS-100SSE\nECG\nAREA EMBD TS MOV LTL. TOPS TO FL430.\n\nOUTLOOK VALID 250855-251255\nAREA 1...FROM 150SE SIE-190ESE ECG-150SSE ILM-240ENE PBI-60E\nTRV-60SE CHS-90S ECG-70E ECG-150SE SIE\nWST ISSUANCES POSS. REFER TO MOST RECENT ACUS01 KWNS FROM STORM\nPREDICTION CENTER FOR SYNOPSIS AND METEOROLOGICAL DETAILS.\n\nAREA 2...FROM 210ESE ACK-200SE ACK-150SE SIE-140ESE SIE-120SSE\nACK-210ESE ACK\nWST ISSUANCES POSS. REFER TO MOST RECENT ACUS01 KWNS FROM STORM\nPREDICTION CENTER FOR SYNOPSIS AND METEOROLOGICAL DETAILS.",
                "validTimeTo": [
                    "2026-09-25T08:55"
                ]
            }
        },
        {
            "type": "Feature",
            "geometry": {
                "type": "Polygon",
                "coordinates": [
                    [
                        [
                            -78.454,
                            25.788
                        ],
                        [
                            -78.267,
                            25.023
                        ],
                        [
                            -79.389,
                            24.971
                        ],
                        [
                            -79.959,
                            25.672
                        ],
                        [
                            -78.454,
                            25.788
                        ]
                    ]
                ]
            },
            "properties": {
                "airSigmetId": null,
                "airportIcao": "KKCI",
                "airSigmetType": "SIGMET",
                "hazard": "CONVECTIVE",
                "severity": 5,
                "altitudeLow1": null,
                "altitudeLow2": null,
                "altitudeHi1": 43000,
                "altitudeHi2": 43000,
                "movementDir": 300,
                "movementSpd": 5,
                "rawAirSigmet": "WSUS31 KKCI 250655\nSIGE \nCONVECTIVE SIGMET 10E\nVALID UNTIL 0855Z\nFL CSTL WTRS\nFROM 100E MIA-120ESE MIA-70SE MIA-20ESE MIA-100E MIA\nAREA TS MOV FROM 30005KT. TOPS TO FL430.\n\nOUTLOOK VALID 250855-251255\nAREA 1...FROM 150SE SIE-190ESE ECG-150SSE ILM-240ENE PBI-60E\nTRV-60SE CHS-90S ECG-70E ECG-150SE SIE\nWST ISSUANCES POSS. REFER TO MOST RECENT ACUS01 KWNS FROM STORM\nPREDICTION CENTER FOR SYNOPSIS AND METEOROLOGICAL DETAILS.\n\nAREA 2...FROM 210ESE ACK-200SE ACK-150SE SIE-140ESE SIE-120SSE\nACK-210ESE ACK\nWST ISSUANCES POSS. REFER TO MOST RECENT ACUS01 KWNS FROM STORM\nPREDICTION CENTER FOR SYNOPSIS AND METEOROLOGICAL DETAILS.",
                "validTimeTo": [
                    "2026-09-25T08:55"
                ]
            }
        },
        {
            "type": "Feature",
            "geometry": {
                "type": "Polygon",
                "coordinates": [
                    [
                        [
                            -97.464,
                            41.377
                        ],
                        [
                            -97.08,
                            40.197
                        ],
                        [
                            -99.461,
                            39.848
                        ],
                        [
                            -99.611,
                            41.125
                        ],
                        [
                            -97.464,
                            41.377
                        ]
                    ]
                ]
            },
            "properties": {
                "airSigmetId": null,
                "airportIcao": "KKCI",
                "airSigmetType": "SIGMET",
                "hazard": "CONVECTIVE",
                "severity": 5,
                "altitudeLow1": null,
                "altitudeLow2": null,
                "altitudeHi1": 36000,
                "altitudeHi2": 36000,
                "movementDir": 220,
                "movementSpd": 20,
                "rawAirSigmet": "WSUS32 KKCI 250655\nSIGC \nCONVECTIVE SIGMET 40C\nVALID UNTIL 0855Z\nKS NE\nFROM 40E OBH-40W PWE-50NE HLC-50E LBF-40E OBH\nAREA EMBD TS MOV FROM 22020KT. TOPS TO FL360.\n\nOUTLOOK VALID 250855-251255\nFROM 50NE OBH-30S OVR-30W MCI-30NW TUL-30NE LBB-90SE MRF-80S\nMRF-40SW DMN-50N ABQ-30SE LAA-30E LBL-30E GLD-LBF-50NE OBH\nWST ISSUANCES EXPD. REFER TO MOST RECENT ACUS01 KWNS FROM STORM\nPREDICTION CENTER FOR SYNOPSIS AND METEOROLOGICAL DETAILS.",
                "validTimeTo": [
                    "2026-09-25T08:55"
                ]
            }
        },
        {
            "type": "Feature",
            "geometry": {
                "type": "Polygon",
                "coordinates": [
                    [
                        [
                            -103.213,
                            37.397
                        ],
                        [
                            -102.252,
                            36.815
                        ],
                        [
                            -104.328,
                            35.769
                        ],
                        [
                            -104.579,
                            36.255
                        ],
                        [
                            -103.213,
                            37.397
                        ]
                    ]
                ]
            },
            "properties": {
                "airSigmetId": null,
                "airportIcao": "KKCI",
                "airSigmetType": "SIGMET",
                "hazard": "CONVECTIVE",
                "severity": 5,
                "altitudeLow1": null,
                "altitudeLow2": null,
                "altitudeHi1": 36000,
                "altitudeHi2": 36000,
                "movementDir": 220,
                "movementSpd": 15,
                "rawAirSigmet": "WSUS32 KKCI 250655\nSIGC \nCONVECTIVE SIGMET 41C\nVALID UNTIL 0855Z\nTX OK CO NM\nFROM 20ENE TBE-70ESE TBE-50NW TCC-20SE CIM-20ENE TBE\nAREA TS MOV FROM 22015KT. TOPS TO FL360.\n\nOUTLOOK VALID 250855-251255\nFROM 50NE OBH-30S OVR-30W MCI-30NW TUL-30NE LBB-90SE MRF-80S\nMRF-40SW DMN-50N ABQ-30SE LAA-30E LBL-30E GLD-LBF-50NE OBH\nWST ISSUANCES EXPD. REFER TO MOST RECENT ACUS01 KWNS FROM STORM\nPREDICTION CENTER FOR SYNOPSIS AND METEOROLOGICAL DETAILS.",
                "validTimeTo": [
                    "2026-09-25T08:55"
                ]
            }
        },
        {
            "type": "Feature",
            "geometry": {
                "type": "Polygon",
                "coordinates": [
                    [
                        [
                            -99.466,
                            37.913
                        ],
                        [
                            -97.192,
                            37.622
                        ],
                        [
                            -97.261,
                            37.135
                        ],
                        [
                            -98.659,
                            36.938
                        ],
                        [
                            -99.954,
                            37.663
                        ],
                        [
                            -99.466,
                            37.913
                        ]
                    ]
                ]
            },
            "properties": {
                "airSigmetId": null,
                "airportIcao": "KKCI",
                "airSigmetType": "SIGMET",
                "hazard": "CONVECTIVE",
                "severity": 5,
                "altitudeLow1": null,
                "altitudeLow2": null,
                "altitudeHi1": 45000,
                "altitudeHi2": 45000,
                "movementDir": 230,
                "movementSpd": 20,
                "rawAirSigmet": "WSUS32 KKCI 250655\nSIGC \nCONVECTIVE SIGMET 42C\nVALID UNTIL 0855Z\nOK KS\nFROM 60E GCK-20ESE ICT-40SSE ICT-50NW END-40ESE GCK-60E GCK\nAREA TS MOV FROM 23020KT. TOPS TO FL450.\n\nOUTLOOK VALID 250855-251255\nFROM 50NE OBH-30S OVR-30W MCI-30NW TUL-30NE LBB-90SE MRF-80S\nMRF-40SW DMN-50N ABQ-30SE LAA-30E LBL-30E GLD-LBF-50NE OBH\nWST ISSUANCES EXPD. REFER TO MOST RECENT ACUS01 KWNS FROM STORM\nPREDICTION CENTER FOR SYNOPSIS AND METEOROLOGICAL DETAILS.",
                "validTimeTo": [
                    "2026-09-25T08:55"
                ]
            }
        },
        {
            "type": "Feature",
            "geometry": {
                "type": "Polygon",
                "coordinates": [
                    [
                        [
                            -109.517,
                            37.616
                        ],
                        [
                            -105.82,
                            36.847
                        ],
                        [
                            -105.898,
                            35.912
                        ],
                        [
                            -108.749,
                            35.191
                        ],
                        [
                            -109.517,
                            37.616
                        ]
                    ]
                ]
            },
            "properties": {
                "airSigmetId": null,
                "airportIcao": "KKCI",
                "airSigmetType": "SIGMET",
                "hazard": "CONVECTIVE",
                "severity": 5,
                "altitudeLow1": null,
                "altitudeLow2": null,
                "altitudeHi1": 39000,
                "altitudeHi2": 39000,
                "movementDir": 190,
                "movementSpd": 10,
                "rawAirSigmet": "WSUS33 KKCI 250655\nSIGW \nCONVECTIVE SIGMET 18W\nVALID UNTIL 0855Z\nCO NM AZ UT\nFROM 30WSW DVC-30S ALS-40WNW FTI-50NNE SJN-30WSW DVC\nAREA TS MOV FROM 19010KT. TOPS TO FL390.\n\nOUTLOOK VALID 250855-251255\nFROM 50E RSK-50N ABQ-60W TCS-70SW PHX-50SW TBC-50E RSK\nWST ISSUANCES POSS. REFER TO MOST RECENT ACUS01 KWNS FROM STORM\nPREDICTION CENTER FOR SYNOPSIS AND METEOROLOGICAL DETAILS.",
                "validTimeTo": [
                    "2026-09-25T08:55"
                ]
            }
        },
        {
            "type": "Feature",
            "geometry": {
                "type": "Polygon",
                "coordinates": [
                    [
                        [
                            -109.988,
                            35.057
                        ],
                        [
                            -110.386,
                            33.178
                        ],
                        [
                            -112.02,
                            32.765
                        ],
                        [
                            -111.671,
                            34.697
                        ],
                        [
                            -109.988,
                            35.057
                        ]
                    ]
                ]
            },
            "properties": {
                "airSigmetId": null,
                "airportIcao": "KKCI",
                "airSigmetType": "SIGMET",
                "hazard": "CONVECTIVE",
                "severity": 5,
                "altitudeLow1": null,
                "altitudeLow2": null,
                "altitudeHi1": 42000,
                "altitudeHi2": 42000,
                "movementDir": null,
                "movementSpd": null,
                "rawAirSigmet": "WSUS33 KKCI 250655\nSIGW \nCONVECTIVE SIGMET 19W\nVALID UNTIL 0855Z\nAZ\nFROM 40E INW-70NNE TUS-40S PHX-40E DRK-40E INW\nAREA TS MOV LTL. TOPS TO FL420.\n\nOUTLOOK VALID 250855-251255\nFROM 50E RSK-50N ABQ-60W TCS-70SW PHX-50SW TBC-50E RSK\nWST ISSUANCES POSS. REFER TO MOST RECENT ACUS01 KWNS FROM STORM\nPREDICTION CENTER FOR SYNOPSIS AND METEOROLOGICAL DETAILS.",
                "validTimeTo": [
                    "2026-09-25T08:55"
                ]
            }
        },
        {
            "type": "Feature",
            "geometry": {
                "type": "Polygon",
                "coordinates": [
                    [
                        [
                            -126.158,
                            46.358
                        ],
                        [
                            -126.166,
                            44.561
                        ],
                        [
                            -127.352,
                            45.489
                        ],
                        [
                            -127.246,
                            46.017
                        ],
                        [
                            -126.158,
                            46.358
                        ]
                    ]
                ]
            },
            "properties": {
                "airSigmetId": null,
                "airportIcao": "KKCI",
                "airSigmetType": "SIGMET",
                "hazard": "CONVECTIVE",
                "severity": 5,
                "altitudeLow1": null,
                "altitudeLow2": null,
                "altitudeHi1": 25000,
                "altitudeHi2": 25000,
                "movementDir": 230,
                "movementSpd": 15,
                "rawAirSigmet": "WSUS33 KKCI 250655\nSIGW \nCONVECTIVE SIGMET 20W\nVALID UNTIL 0855Z\nOR WA CSTL WTRS\nFROM 90WSW HQM-90W ONP-150WNW ONP-140WSW HQM-90WSW HQM\nAREA TS MOV FROM 23015KT. TOPS TO FL250.\n\nOUTLOOK VALID 250855-251255\nFROM 50E RSK-50N ABQ-60W TCS-70SW PHX-50SW TBC-50E RSK\nWST ISSUANCES POSS. REFER TO MOST RECENT ACUS01 KWNS FROM STORM\nPREDICTION CENTER FOR SYNOPSIS AND METEOROLOGICAL DETAILS.",
                "validTimeTo": [
                    "2026-09-25T08:55"
                ]
            }
        }
    ],
    "metadata": {
        "creationTime": "2026-09-25T07:36"
    }
}