{
    "type": "FeatureCollection",
    "features": [
        {
            "type": "Feature",
            "geometry": {
                "type": "Polygon",
                "coordinates": [
                    [
                        [
                            -108.384,
                            47.043
                        ],
                        [
                            -106.469,
                            46.735
                        ],
                        [
                            -106.123,
                            44.836
                        ],
                        [
                            -106.868,
                            44.126
                        ],
                        [
                            -107.718,
                            44.368
                        ],
                        [
                            -108.384,
                            47.043
                        ]
                    ]
                ]
            },
            "properties": {
                "airSigmetId": null,
                "airportIcao": "KKCI",
                "airSigmetType": "SIGMET",
                "hazard": "CONVECTIVE",
                "severity": 5,
                "altitudeLow1": null,
                "altitudeLow2": null,
                "altitudeHi1": 40000,
                "altitudeHi2": 40000,
                "movementDir": 240,
                "movementSpd": 10,
                "rawAirSigmet": "WSUS33 KKCI 300255\nSIGW \nCONVECTIVE SIGMET 11W\nVALID UNTIL 0455Z\nMT WY\nFROM 50E LWT-30NW MLS-40E SHR-20WNW CZI-40SW SHR-50E LWT\nAREA TS MOV FROM 24010KT. TOPS TO FL400.\n\nOUTLOOK VALID 300455-300855\nFROM LWT-50WSW MLS-30W CZI-30NNW DBL-40N HVE-30NW DLN-LWT\nWST ISSUANCES POSS. REFER TO MOST RECENT ACUS01 KWNS FROM STORM\nPREDICTION CENTER FOR SYNOPSIS AND METEOROLOGICAL DETAILS.",
                "validTimeTo": [
                    "2026-07-30T04:55"
                ]
            }
        },
        {
            "type": "Feature",
            "geometry": {
                "type": "Polygon",
                "coordinates": [
                    [
                        [
                            -111.41,
                            47.279
                        ],
                        [
                            -108.63,
                            44.813
                        ],
                        [
                            -111.907,
                            38.828
                        ],
                        [
                            -114.711,
                            37.635
                        ],
                        [
                            -114.907,
                            44.426
                        ],
                        [
                            -111.41,
                            47.279
                        ]
                    ]
                ]
            },
            "properties": {
                "airSigmetId": null,
                "airportIcao": "KKCI",
                "airSigmetType": "SIGMET",
                "hazard": "CONVECTIVE",
                "severity": 5,
                "altitudeLow1": null,
                "altitudeLow2": null,
                "altitudeHi1": 44000,
                "altitudeHi2": 44000,
                "movementDir": 230,
                "movementSpd": 15,
                "rawAirSigmet": "WSUS33 KKCI 300255\nSIGW \nCONVECTIVE SIGMET 12W\nVALID UNTIL 0455Z\nMT WY UT ID NV\nFROM 10S GTF-60S BIL-40SE DTA-40SSW ILC-50SW LKT-10S GTF\nAREA TS MOV FROM 23015KT. TOPS TO FL440.\n\nOUTLOOK VALID 300455-300855\nFROM LWT-50WSW MLS-30W CZI-30NNW DBL-40N HVE-30NW DLN-LWT\nWST ISSUANCES POSS. REFER TO MOST RECENT ACUS01 KWNS FROM STORM\nPREDICTION CENTER FOR SYNOPSIS AND METEOROLOGICAL DETAILS.",
                "validTimeTo": [
                    "2026-07-30T04:55"
                ]
            }
        },
        {
            "type": "Feature",
            "geometry": {
                "type": "Polygon",
                "coordinates": [
                    [
                        [
                            -109.521,
                            37.338
                        ],
                        [
                            -107.472,
                            36.748
                        ],
                        [
                            -110.252,
                            34.033
                        ],
                        [
                            -111.735,
                            34.443
                        ],
                        [
                            -111.905,
                            35.169
                        ],
                        [
                            -109.521,
                            37.338
                        ]
                    ]
                ]
            },
            "properties": {
                "airSigmetId": null,
                "airportIcao": "KKCI",
                "airSigmetType": "SIGMET",
                "hazard": "CONVECTIVE",
                "severity": 5,
                "altitudeLow1": null,
                "altitudeLow2": null,
                "altitudeHi1": 40000,
                "altitudeHi2": 40000,
                "movementDir": 230,
                "movementSpd": 10,
                "rawAirSigmet": "WSUS33 KKCI 300255\nSIGW \nCONVECTIVE SIGMET 13W\nVALID UNTIL 0455Z\nCO NM AZ UT\nFROM 40SW DVC-30E RSK-60WSW SJN-40ESE DRK-40NE DRK-40SW DVC\nAREA TS MOV FROM 23010KT. TOPS TO FL400.\n\nOUTLOOK VALID 300455-300855\nFROM LWT-50WSW MLS-30W CZI-30NNW DBL-40N HVE-30NW DLN-LWT\nWST ISSUANCES POSS. REFER TO MOST RECENT ACUS01 KWNS FROM STORM\nPREDICTION CENTER FOR SYNOPSIS AND METEOROLOGICAL DETAILS.",
                "validTimeTo": [
                    "2026-07-30T04:55"
                ]
            }
        },
        {
            "type": "Feature",
            "geometry": {
                "type": "Polygon",
                "coordinates": [
                    [
                        [
                            -107.085,
                            40.52
                        ],
                        [
                            -106.448,
                            38.256
                        ],
                        [
                            -107.716,
                            36.877
                        ],
                        [
                            -109.521,
                            37.338
                        ],
                        [
                            -109.824,
                            39.915
                        ],
                        [
                            -107.085,
                            40.52
                        ]
                    ]
                ]
            },
            "properties": {
                "airSigmetId": null,
                "airportIcao": "KKCI",
                "airSigmetType": "SIGMET",
                "hazard": "CONVECTIVE",
                "severity": 5,
                "altitudeLow1": null,
                "altitudeLow2": null,
                "altitudeHi1": 45000,
                "altitudeHi2": 45000,
                "movementDir": 230,
                "movementSpd": 10,
                "rawAirSigmet": "WSUS33 KKCI 300255\nSIGW \nCONVECTIVE SIGMET 14W\nVALID UNTIL 0455Z\nCO NM UT\nFROM 10E CHE-30ESE HBU-20ENE RSK-40SW DVC-20SE MTU-10E CHE\nAREA SEV TS MOV FROM 23010KT. TOPS TO FL450.\nHAIL TO 1 IN...WIND GUSTS TO 50KT POSS.\n\nOUTLOOK VALID 300455-300855\nFROM LWT-50WSW MLS-30W CZI-30NNW DBL-40N HVE-30NW DLN-LWT\nWST ISSUANCES POSS. REFER TO MOST RECENT ACUS01 KWNS FROM STORM\nPREDICTION CENTER FOR SYNOPSIS AND METEOROLOGICAL DETAILS.",
                "validTimeTo": [
                    "2026-07-30T04:55"
                ]
            }
        },
        {
            "type": "Feature",
            "geometry": {
                "type": "Polygon",
                "coordinates": [
                    [
                        [
                            -107.472,
                            36.748
                        ],
                        [
                            -106.094,
                            35.976
                        ],
                        [
                            -108.896,
                            32.397
                        ],
                        [
                            -110.734,
                            32.165
                        ],
                        [
                            -110.072,
                            34.097
                        ],
                        [
                            -107.472,
                            36.748
                        ]
                    ]
                ]
            },
            "properties": {
                "airSigmetId": null,
                "airportIcao": "KKCI",
                "airSigmetType": "SIGMET",
                "hazard": "CONVECTIVE",
                "severity": 5,
                "altitudeLow1": null,
                "altitudeLow2": null,
                "altitudeHi1": 44000,
                "altitudeHi2": 44000,
                "movementDir": 230,
                "movementSpd": 15,
                "rawAirSigmet": "WSUS33 KKCI 300255\nSIGW \nCONVECTIVE SIGMET 15W\nVALID UNTIL 0455Z\nNM AZ\nFROM 30E RSK-50WNW FTI-20ENE SSO-10ENE TUS-50WSW SJN-30E RSK\nAREA TS MOV FROM 23015KT. TOPS TO FL440.\n\nOUTLOOK VALID 300455-300855\nFROM LWT-50WSW MLS-30W CZI-30NNW DBL-40N HVE-30NW DLN-LWT\nWST ISSUANCES POSS. REFER TO MOST RECENT ACUS01 KWNS FROM STORM\nPREDICTION CENTER FOR SYNOPSIS AND METEOROLOGICAL DETAILS.",
                "validTimeTo": [
                    "2026-07-30T04:55"
                ]
            }
        },
        {
            "type": "Feature",
            "geometry": {
                "type": "Polygon",
                "coordinates": [
                    [
                        [
                            -100.325,
                            47.005
                        ],
                        [
                            -100.623,
                            42.761
                        ],
                        [
                            -102.12,
                            39.389
                        ],
                        [
                            -104.373,
                            41.887
                        ],
                        [
                            -102.77,
                            46.528
                        ],
                        [
                            -100.325,
                            47.005
                        ]
                    ]
                ]
            },
            "properties": {
                "airSigmetId": null,
                "airportIcao": "KKCI",
                "airSigmetType": "SIGMET",
                "hazard": "CONVECTIVE",
                "severity": 5,
                "altitudeLow1": null,
                "altitudeLow2": null,
                "altitudeHi1": 39000,
                "altitudeHi2": 39000,
                "movementDir": 250,
                "movementSpd": 25,
                "rawAirSigmet": "WSUS32 KKCI 300255\nSIGC \nCONVECTIVE SIGMET 14C\nVALID UNTIL 0455Z\nKS NE SD ND CO WY\nFROM 20NE BIS-30WNW ANW-20W GLD-40W BFF-20S DIK-20NE BIS\nAREA SEV TS MOV FROM 25025KT. TOPS TO FL390.\nWIND GUSTS TO 50KT POSS.\n\nOUTLOOK VALID 300455-300855\nAREA 1...FROM 60NE MOT-30NE BJI-60S BIS-40WSW ANW-30W CZI-60NE\nGGW-60NE MOT\nWST ISSUANCES POSS. REFER TO MOST RECENT ACUS01 KWNS FROM STORM\nPREDICTION CENTER FOR SYNOPSIS AND METEOROLOGICAL DETAILS.\n\nAREA 2...FROM 40N SGF-60ESE SGF-LIT-SQS-30N IGB-40NW MGM-60SSW\nCEW-30S MEI-30NNE MLU-30SSE OSW-40N SGF\nWST ISSUANCES POSS. REFER TO MOST RECENT ACUS01 KWNS FROM STORM\nPREDICTION CENTER FOR SYNOPSIS AND METEOROLOGICAL DETAILS.\n\nAREA 3...FROM 30W CZI-40WSW ANW-40SW FOD-30NE BUM-30SE TUL-50WNW\nAMA-30ESE ALS-30NNW DBL-30W CZI\nWST ISSUANCES POSS. REFER TO MOST RECENT ACUS01 KWNS FROM STORM\nPREDICTION CENTER FOR SYNOPSIS AND METEOROLOGICAL DETAILS.",
                "validTimeTo": [
                    "2026-07-30T04:55"
                ]
            }
        },
        {
            "type": "Feature",
            "geometry": {
                "type": "Polygon",
                "coordinates": [
                    [
                        [
                            -105.72,
                            40.827
                        ],
                        [
                            -102.369,
                            37.585
                        ],
                        [
                            -103.312,
                            35.415
                        ],
                        [
                            -105.873,
                            36.249
                        ],
                        [
                            -107.102,
                            40.585
                        ],
                        [
                            -105.72,
                            40.827
                        ]
                    ]
                ]
            },
            "properties": {
                "airSigmetId": null,
                "airportIcao": "KKCI",
                "airSigmetType": "SIGMET",
                "hazard": "CONVECTIVE",
                "severity": 5,
                "altitudeLow1": null,
                "altitudeLow2": null,
                "altitudeHi1": 45000,
                "altitudeHi2": 60000,
                "movementDir": null,
                "movementSpd": null,
                "rawAirSigmet": "WSUS32 KKCI 300255\nSIGC \nCONVECTIVE SIGMET 15C\nVALID UNTIL 0455Z\nTX OK CO NM\nFROM 30S LAR-40SSE LAA-20NE TCC-50NW FTI-10ENE CHE-30S LAR\nAREA TS MOV LTL. TOPS ABV FL450.\n\nOUTLOOK VALID 300455-300855\nAREA 1...FROM 60NE MOT-30NE BJI-60S BIS-40WSW ANW-30W CZI-60NE\nGGW-60NE MOT\nWST ISSUANCES POSS. REFER TO MOST RECENT ACUS01 KWNS FROM STORM\nPREDICTION CENTER FOR SYNOPSIS AND METEOROLOGICAL DETAILS.\n\nAREA 2...FROM 40N SGF-60ESE SGF-LIT-SQS-30N IGB-40NW MGM-60SSW\nCEW-30S MEI-30NNE MLU-30SSE OSW-40N SGF\nWST ISSUANCES POSS. REFER TO MOST RECENT ACUS01 KWNS FROM STORM\nPREDICTION CENTER FOR SYNOPSIS AND METEOROLOGICAL DETAILS.\n\nAREA 3...FROM 30W CZI-40WSW ANW-40SW FOD-30NE BUM-30SE TUL-50WNW\nAMA-30ESE ALS-30NNW DBL-30W CZI\nWST ISSUANCES POSS. REFER TO MOST RECENT ACUS01 KWNS FROM STORM\nPREDICTION CENTER FOR SYNOPSIS AND METEOROLOGICAL DETAILS.",
                "validTimeTo": [
                    "2026-07-30T04:55"
                ]
            }
        },
        {
            "type": "Feature",
            "geometry": {
                "type": "Polygon",
                "coordinates": [
                    [
                        [
                            -105.7,
                            34.653
                        ],
                        [
                            -105.471,
                            34.042
                        ],
                        [
                            -105.814,
                            33.334
                        ],
                        [
                            -107.28,
                            33.28
                        ],
                        [
                            -106.512,
                            34.425
                        ],
                        [
                            -105.7,
                            34.653
                        ]
                    ]
                ]
            },
            "properties": {
                "airSigmetId": null,
                "airportIcao": "KKCI",
                "airSigmetType": "SIGMET",
                "hazard": "CONVECTIVE",
                "severity": 5,
                "altitudeLow1": null,
                "altitudeLow2": null,
                "altitudeHi1": 35000,
                "altitudeHi2": 35000,
                "movementDir": 220,
                "movementSpd": 10,
                "rawAirSigmet": "WSUS32 KKCI 300255\nSIGC \nCONVECTIVE SIGMET 16C\nVALID UNTIL 0455Z\nNM\nFROM 60ESE ABQ-60NW CME-60W CME-TCS-40SSE ABQ-60ESE ABQ\nAREA TS MOV FROM 22010KT. TOPS TO FL350.\n\nOUTLOOK VALID 300455-300855\nAREA 1...FROM 60NE MOT-30NE BJI-60S BIS-40WSW ANW-30W CZI-60NE\nGGW-60NE MOT\nWST ISSUANCES POSS. REFER TO MOST RECENT ACUS01 KWNS FROM STORM\nPREDICTION CENTER FOR SYNOPSIS AND METEOROLOGICAL DETAILS.\n\nAREA 2...FROM 40N SGF-60ESE SGF-LIT-SQS-30N IGB-40NW MGM-60SSW\nCEW-30S MEI-30NNE MLU-30SSE OSW-40N SGF\nWST ISSUANCES POSS. REFER TO MOST RECENT ACUS01 KWNS FROM STORM\nPREDICTION CENTER FOR SYNOPSIS AND METEOROLOGICAL DETAILS.\n\nAREA 3...FROM 30W CZI-40WSW ANW-40SW FOD-30NE BUM-30SE TUL-50WNW\nAMA-30ESE ALS-30NNW DBL-30W CZI\nWST ISSUANCES POSS. REFER TO MOST RECENT ACUS01 KWNS FROM STORM\nPREDICTION CENTER FOR SYNOPSIS AND METEOROLOGICAL DETAILS.",
                "validTimeTo": [
                    "2026-07-30T04:55"
                ]
            }
        },
        {
            "type": "Feature",
            "geometry": {
                "type": "Polygon",
                "coordinates": [
                    [
                        [
                            -93.717,
                            37.487
                        ],
                        [
                            -92.177,
                            36.973
                        ],
                        [
                            -88.945,
                            33.124
                        ],
                        [
                            -92.818,
                            32.518
                        ],
                        [
                            -96.531,
                            35.102
                        ],
                        [
                            -93.717,
                            37.487
                        ]
                    ]
                ]
            },
            "properties": {
                "airSigmetId": null,
                "airportIcao": "KKCI",
                "airSigmetType": "SIGMET",
                "hazard": "CONVECTIVE",
                "severity": 5,
                "altitudeLow1": null,
                "altitudeLow2": null,
                "altitudeHi1": 45000,
                "altitudeHi2": 60000,
                "movementDir": null,
                "movementSpd": null,
                "rawAirSigmet": "WSUS32 KKCI 300255\nSIGC \nCONVECTIVE SIGMET 17C\nVALID UNTIL 0455Z\nMS LA MO AR TX OK\nFROM 20WNW SGF-60ESE SGF-30SW IGB-40W MLU-40WNW MLC-20WNW SGF\nAREA TS MOV LTL. TOPS ABV FL450.\n\nOUTLOOK VALID 300455-300855\nAREA 1...FROM 60NE MOT-30NE BJI-60S BIS-40WSW ANW-30W CZI-60NE\nGGW-60NE MOT\nWST ISSUANCES POSS. REFER TO MOST RECENT ACUS01 KWNS FROM STORM\nPREDICTION CENTER FOR SYNOPSIS AND METEOROLOGICAL DETAILS.\n\nAREA 2...FROM 40N SGF-60ESE SGF-LIT-SQS-30N IGB-40NW MGM-60SSW\nCEW-30S MEI-30NNE MLU-30SSE OSW-40N SGF\nWST ISSUANCES POSS. REFER TO MOST RECENT ACUS01 KWNS FROM STORM\nPREDICTION CENTER FOR SYNOPSIS AND METEOROLOGICAL DETAILS.\n\nAREA 3...FROM 30W CZI-40WSW ANW-40SW FOD-30NE BUM-30SE TUL-50WNW\nAMA-30ESE ALS-30NNW DBL-30W CZI\nWST ISSUANCES POSS. REFER TO MOST RECENT ACUS01 KWNS FROM STORM\nPREDICTION CENTER FOR SYNOPSIS AND METEOROLOGICAL DETAILS.",
                "validTimeTo": [
                    "2026-07-30T04:55"
                ]
            }
        },
        {
            "type": "Feature",
            "geometry": {
                "type": "Polygon",
                "coordinates": [
                    [
                        [
                            -81.964,
                            31.731
                        ],
                        [
                            -81.877,
                            29.009
                        ],
                        [
                            -84.257,
                            28.534
                        ],
                        [
                            -86.68,
                            30.165
                        ],
                        [
                            -86.382,
                            31.444
                        ],
                        [
                            -81.964,
                            31.731
                        ]
                    ]
                ]
            },
            "properties": {
                "airSigmetId": null,
                "airportIcao": "KKCI",
                "airSigmetType": "SIGMET",
                "hazard": "CONVECTIVE",
                "severity": 5,
                "altitudeLow1": null,
                "altitudeLow2": null,
                "altitudeHi1": 45000,
                "altitudeHi2": 60000,
                "movementDir": 310,
                "movementSpd": 10,
                "rawAirSigmet": "WSUS31 KKCI 300255\nSIGE \nCONVECTIVE SIGMET 5E\nVALID UNTIL 0455Z\nFL GA AL AND FL CSTL WTRS\nFROM 30ENE AMG-40NW ORL-90SW CTY-40S CEW-40NNE CEW-30ENE AMG\nAREA TS MOV FROM 31010KT. TOPS ABV FL450.\n\nOUTLOOK VALID 300455-300855\nAREA 1...FROM MPV-80SE BGR-200SE ACK-40WSW ACK-40NE SAX-ALB-MPV\nWST ISSUANCES POSS. REFER TO MOST RECENT ACUS01 KWNS FROM STORM\nPREDICTION CENTER FOR SYNOPSIS AND METEOROLOGICAL DETAILS.\n\nAREA 2...FROM 40SSE SBY-170E ECG-130SSE ILM-40E ORL-40WNW\nSAV-40SSE SBY\nWST ISSUANCES POSS. REFER TO MOST RECENT ACUS01 KWNS FROM STORM\nPREDICTION CENTER FOR SYNOPSIS AND METEOROLOGICAL DETAILS.\n\nAREA 3...FROM 50NW MGM-30WSW AMG-40WNW SAV-40N TRV-100WSW\nPIE-50SSW CEW-50NW MGM\nWST ISSUANCES POSS. REFER TO MOST RECENT ACUS01 KWNS FROM STORM\nPREDICTION CENTER FOR SYNOPSIS AND METEOROLOGICAL DETAILS.",
                "validTimeTo": [
                    "2026-07-30T04:55"
                ]
            }
        },
        {
            "type": "Feature",
            "geometry": {
                "type": "Polygon",
                "coordinates": [
                    [
                        [
                            -79.735,
                            33.504
                        ],
                        [
                            -77.865,
                            32.108
                        ],
                        [
                            -77.176,
                            30.386
                        ],
                        [
                            -80.972,
                            29.179
                        ],
                        [
                            -81.956,
                            32.009
                        ],
                        [
                            -79.735,
                            33.504
                        ]
                    ]
                ]
            },
            "properties": {
                "airSigmetId": null,
                "airportIcao": "KKCI",
                "airSigmetType": "SIGMET",
                "hazard": "CONVECTIVE",
                "severity": 5,
                "altitudeLow1": null,
                "altitudeLow2": null,
                "altitudeHi1": 45000,
                "altitudeHi2": 60000,
                "movementDir": 260,
                "movementSpd": 20,
                "rawAirSigmet": "WSUS31 KKCI 300255\nSIGE \nCONVECTIVE SIGMET 6E\nVALID UNTIL 0455Z\nSC FL GA AND CSTL WTRS\nFROM 40NNE CHS-120ESE CHS-210SE CHS-10SE OMN-40NE AMG-40NNE CHS\nAREA TS MOV FROM 26020KT. TOPS ABV FL450.\nREF INTL SIGMET FOXTROT SERIES.\n\nOUTLOOK VALID 300455-300855\nAREA 1...FROM MPV-80SE BGR-200SE ACK-40WSW ACK-40NE SAX-ALB-MPV\nWST ISSUANCES POSS. REFER TO MOST RECENT ACUS01 KWNS FROM STORM\nPREDICTION CENTER FOR SYNOPSIS AND METEOROLOGICAL DETAILS.\n\nAREA 2...FROM 40SSE SBY-170E ECG-130SSE ILM-40E ORL-40WNW\nSAV-40SSE SBY\nWST ISSUANCES POSS. REFER TO MOST RECENT ACUS01 KWNS FROM STORM\nPREDICTION CENTER FOR SYNOPSIS AND METEOROLOGICAL DETAILS.\n\nAREA 3...FROM 50NW MGM-30WSW AMG-40WNW SAV-40N TRV-100WSW\nPIE-50SSW CEW-50NW MGM\nWST ISSUANCES POSS. REFER TO MOST RECENT ACUS01 KWNS FROM STORM\nPREDICTION CENTER FOR SYNOPSIS AND METEOROLOGICAL DETAILS.",
                "validTimeTo": [
                    "2026-07-30T04:55"
                ]
            }
        },
        {
            "type": "Feature",
            "geometry": {
                "type": "Polygon",
                "coordinates": [
                    [
                        [
                            -76.04,
                            37.197
                        ],
                        [
                            -74.953,
                            36.883
                        ],
                        [
                            -75.178,
                            34.246
                        ],
                        [
                            -76.57,
                            33.896
                        ],
                        [
                            -76.804,
                            36.248
                        ],
                        [
                            -76.04,
                            37.197
                        ]
                    ]
                ]
            },
            "properties": {
                "airSigmetId": null,
                "airportIcao": "KKCI",
                "airSigmetType": "SIGMET",
                "hazard": "CONVECTIVE",
                "severity": 5,
                "altitudeLow1": null,
                "altitudeLow2": null,
                "altitudeHi1": 42000,
                "altitudeHi2": 42000,
                "movementDir": 270,
                "movementSpd": 10,
                "rawAirSigmet": "WSUS31 KKCI 300255\nSIGE \nCONVECTIVE SIGMET 7E\nVALID UNTIL 0455Z\nVA NC AND CSTL WTRS\nFROM 20NNE ORF-60E ORF-130SSE ECG-70ESE ILM-30W ECG-20NNE ORF\nAREA TS MOV FROM 27010KT. TOPS TO FL420.\n\nOUTLOOK VALID 300455-300855\nAREA 1...FROM MPV-80SE BGR-200SE ACK-40WSW ACK-40NE SAX-ALB-MPV\nWST ISSUANCES POSS. REFER TO MOST RECENT ACUS01 KWNS FROM STORM\nPREDICTION CENTER FOR SYNOPSIS AND METEOROLOGICAL DETAILS.\n\nAREA 2...FROM 40SSE SBY-170E ECG-130SSE ILM-40E ORL-40WNW\nSAV-40SSE SBY\nWST ISSUANCES POSS. REFER TO MOST RECENT ACUS01 KWNS FROM STORM\nPREDICTION CENTER FOR SYNOPSIS AND METEOROLOGICAL DETAILS.\n\nAREA 3...FROM 50NW MGM-30WSW AMG-40WNW SAV-40N TRV-100WSW\nPIE-50SSW CEW-50NW MGM\nWST ISSUANCES POSS. REFER TO MOST RECENT ACUS01 KWNS FROM STORM\nPREDICTION CENTER FOR SYNOPSIS AND METEOROLOGICAL DETAILS.",
                "validTimeTo": [
                    "2026-07-30T04:55"
                ]
            }
        },
        {
            "type": "Feature",
            "geometry": {
                "type": "Polygon",
                "coordinates": [
                    [
                        [
                            -73.584,
                            41.937
                        ],
                        [
                            -72.727,
                            41.046
                        ],
                        [
                            -72.851,
                            39.921
                        ],
                        [
                            -73.823,
                            40.011
                        ],
                        [
                            -73.912,
                            41.538
                        ],
                        [
                            -73.584,
                            41.937
                        ]
                    ]
                ]
            },
            "properties": {
                "airSigmetId": null,
                "airportIcao": "KKCI",
                "airSigmetType": "SIGMET",
                "hazard": "CONVECTIVE",
                "severity": 5,
                "altitudeLow1": null,
                "altitudeLow2": null,
                "altitudeHi1": 35000,
                "altitudeHi2": 35000,
                "movementDir": 310,
                "movementSpd": 20,
                "rawAirSigmet": "WSUS31 KKCI 300255\nSIGE \nCONVECTIVE SIGMET 8E\nVALID UNTIL 0455Z\nCT NY NJ AND CSTL WTRS\nFROM 40W BDL-20WNW HTO-60SE JFK-30ENE CYN-40NE SAX-40W BDL\nAREA TS MOV FROM 31020KT. TOPS TO FL350.\n\nOUTLOOK VALID 300455-300855\nAREA 1...FROM MPV-80SE BGR-200SE ACK-40WSW ACK-40NE SAX-ALB-MPV\nWST ISSUANCES POSS. REFER TO MOST RECENT ACUS01 KWNS FROM STORM\nPREDICTION CENTER FOR SYNOPSIS AND METEOROLOGICAL DETAILS.\n\nAREA 2...FROM 40SSE SBY-170E ECG-130SSE ILM-40E ORL-40WNW\nSAV-40SSE SBY\nWST ISSUANCES POSS. REFER TO MOST RECENT ACUS01 KWNS FROM STORM\nPREDICTION CENTER FOR SYNOPSIS AND METEOROLOGICAL DETAILS.\n\nAREA 3...FROM 50NW MGM-30WSW AMG-40WNW SAV-40N TRV-100WSW\nPIE-50SSW CEW-50NW MGM\nWST ISSUANCES POSS. REFER TO MOST RECENT ACUS01 KWNS FROM STORM\nPREDICTION CENTER FOR SYNOPSIS AND METEOROLOGICAL DETAILS.",
                "validTimeTo": [
                    "2026-07-30T04:55"
                ]
            }
        }
    ],
    "metadata": {
        "creationTime": "2026-07-30T03:19"
    }
}