{
    "type": "FeatureCollection",
    "features": [
        {
            "type": "Feature",
            "geometry": {
                "type": "Polygon",
                "coordinates": [
                    [
                        [
                            -98.37,
                            44.423
                        ],
                        [
                            -96.425,
                            44.264
                        ],
                        [
                            -95.333,
                            42.286
                        ],
                        [
                            -97.235,
                            42.2
                        ],
                        [
                            -98.37,
                            44.423
                        ]
                    ]
                ]
            },
            "properties": {
                "airSigmetId": null,
                "airportIcao": "KKCI",
                "airSigmetType": "SIGMET",
                "hazard": "CONVECTIVE",
                "severity": 5,
                "altitudeLow1": null,
                "altitudeLow2": null,
                "altitudeHi1": 41000,
                "altitudeHi2": 41000,
                "movementDir": 300,
                "movementSpd": 30,
                "rawAirSigmet": "WSUS32 KKCI 261755\nSIGC \nCONVECTIVE SIGMET 34C\nVALID UNTIL 1955Z\nMN IA NE SD\nFROM 60S ABR-40NNE FSD-50WSW FOD-70NE OBH-60S ABR\nAREA TS MOV FROM 30030KT. TOPS TO FL410.\n\nOUTLOOK VALID 261955-262355\nAREA 1...FROM 30SE ABR-30NW RWF-30SW BAE-BVT-50SE TTH-30N\nDYR-40NE ARG-30NE IRK-40NE ONL-30E LBF-40E SNY-30SE ABR\nWST ISSUANCES EXPD. REFER TO MOST RECENT ACUS01 KWNS FROM STORM\nPREDICTION CENTER FOR SYNOPSIS AND METEOROLOGICAL DETAILS.\n\nAREA 2...FROM 50NW IGB-30S VUZ-90S CEW-MHZ-50NW IGB\nWST ISSUANCES POSS. REFER TO MOST RECENT ACUS01 KWNS FROM STORM\nPREDICTION CENTER FOR SYNOPSIS AND METEOROLOGICAL DETAILS.\n\nAREA 3...FROM 60WNW INL-40E YQT-60NW SSM-50S SAW-40SE RHI-30SW\nRHI-30W DLH-60SSW YWG-60WNW INL\nWST ISSUANCES EXPD. REFER TO MOST RECENT ACUS01 KWNS FROM STORM\nPREDICTION CENTER FOR SYNOPSIS AND METEOROLOGICAL DETAILS.",
                "validTimeTo": [
                    "2026-07-26T19:55"
                ]
            }
        },
        {
            "type": "Feature",
            "geometry": {
                "type": "Polygon",
                "coordinates": [
                    [
                        [
                            -97.811,
                            48.977
                        ],
                        [
                            -94.803,
                            48.943
                        ],
                        [
                            -92.866,
                            48.213
                        ],
                        [
                            -97.19,
                            47.95
                        ],
                        [
                            -97.811,
                            48.977
                        ]
                    ]
                ]
            },
            "properties": {
                "airSigmetId": null,
                "airportIcao": "KKCI",
                "airSigmetType": "SIGMET",
                "hazard": "CONVECTIVE",
                "severity": 5,
                "altitudeLow1": null,
                "altitudeLow2": null,
                "altitudeHi1": 45000,
                "altitudeHi2": 45000,
                "movementDir": 300,
                "movementSpd": 40,
                "rawAirSigmet": "WSUS32 KKCI 261755\nSIGC \nCONVECTIVE SIGMET 35C\nVALID UNTIL 1955Z\nMN ND\nFROM 60SSW YWG-60WNW INL-30SE INL-GFK-60SSW YWG\nAREA TS MOV FROM 30040KT. TOPS TO FL450.\n\nOUTLOOK VALID 261955-262355\nAREA 1...FROM 30SE ABR-30NW RWF-30SW BAE-BVT-50SE TTH-30N\nDYR-40NE ARG-30NE IRK-40NE ONL-30E LBF-40E SNY-30SE ABR\nWST ISSUANCES EXPD. REFER TO MOST RECENT ACUS01 KWNS FROM STORM\nPREDICTION CENTER FOR SYNOPSIS AND METEOROLOGICAL DETAILS.\n\nAREA 2...FROM 50NW IGB-30S VUZ-90S CEW-MHZ-50NW IGB\nWST ISSUANCES POSS. REFER TO MOST RECENT ACUS01 KWNS FROM STORM\nPREDICTION CENTER FOR SYNOPSIS AND METEOROLOGICAL DETAILS.\n\nAREA 3...FROM 60WNW INL-40E YQT-60NW SSM-50S SAW-40SE RHI-30SW\nRHI-30W DLH-60SSW YWG-60WNW INL\nWST ISSUANCES EXPD. REFER TO MOST RECENT ACUS01 KWNS FROM STORM\nPREDICTION CENTER FOR SYNOPSIS AND METEOROLOGICAL DETAILS.",
                "validTimeTo": [
                    "2026-07-26T19:55"
                ]
            }
        },
        {
            "type": "Feature",
            "geometry": {
                "type": "Polygon",
                "coordinates": [
                    [
                        [
                            -75.915,
                            32.689
                        ],
                        [
                            -76.444,
                            29.086
                        ],
                        [
                            -78.93,
                            30.578
                        ],
                        [
                            -77.865,
                            32.108
                        ],
                        [
                            -75.915,
                            32.689
                        ]
                    ]
                ]
            },
            "properties": {
                "airSigmetId": null,
                "airportIcao": "KKCI",
                "airSigmetType": "SIGMET",
                "hazard": "CONVECTIVE",
                "severity": 5,
                "altitudeLow1": null,
                "altitudeLow2": null,
                "altitudeHi1": 45000,
                "altitudeHi2": 60000,
                "movementDir": 300,
                "movementSpd": 20,
                "rawAirSigmet": "WSUS31 KKCI 261755\nSIGE \nCONVECTIVE SIGMET 70E\nVALID UNTIL 1955Z\nNC FL SC GA CSTL WTRS\nFROM 140SE ILM-230ENE TRV-150SSE CHS-120ESE CHS-140SE ILM\nAREA TS MOV FROM 30020KT. TOPS ABV FL450.\nREF INTL SIGMET LIMA SERIES.\n\nOUTLOOK VALID 261955-262355\nAREA 1...FROM 40SE HMV-80S ILM-170SE ECG-140SSE ILM-210E\nPBI-150SE MIA-70W EYW-40SW CTY-90S CEW-30S VUZ-LGC-40SE HMV\nWST ISSUANCES EXPD. REFER TO MOST RECENT ACUS01 KWNS FROM STORM\nPREDICTION CENTER FOR SYNOPSIS AND METEOROLOGICAL DETAILS.\n\nAREA 2...FROM 60E MSS-40WSW MPV-30E DCA-30SW RIC-GSO-PSK-50SE\nJST-SYR-MSS-60E MSS\nWST ISSUANCES EXPD. REFER TO MOST RECENT ACUS01 KWNS FROM STORM\nPREDICTION CENTER FOR SYNOPSIS AND METEOROLOGICAL DETAILS.",
                "validTimeTo": [
                    "2026-07-26T19:55"
                ]
            }
        },
        {
            "type": "Feature",
            "geometry": {
                "type": "Polygon",
                "coordinates": [
                    [
                        [
                            -80.973,
                            30.146
                        ],
                        [
                            -80.49,
                            28.012
                        ],
                        [
                            -81.78,
                            26.53
                        ],
                        [
                            -83.24,
                            27.144
                        ],
                        [
                            -82.052,
                            29.869
                        ],
                        [
                            -80.973,
                            30.146
                        ]
                    ]
                ]
            },
            "properties": {
                "airSigmetId": null,
                "airportIcao": "KKCI",
                "airSigmetType": "SIGMET",
                "hazard": "CONVECTIVE",
                "severity": 5,
                "altitudeLow1": null,
                "altitudeLow2": null,
                "altitudeHi1": 45000,
                "altitudeHi2": 60000,
                "movementDir": 330,
                "movementSpd": 10,
                "rawAirSigmet": "WSUS31 KKCI 261755\nSIGE \nCONVECTIVE SIGMET 71E\nVALID UNTIL 1955Z\nFL AND CSTL WTRS\nFROM 30ESE CRG-20N TRV-RSW-40WSW SRQ-40SW CRG-30ESE CRG\nAREA TS MOV FROM 33010KT. TOPS ABV FL450.\n\nOUTLOOK VALID 261955-262355\nAREA 1...FROM 40SE HMV-80S ILM-170SE ECG-140SSE ILM-210E\nPBI-150SE MIA-70W EYW-40SW CTY-90S CEW-30S VUZ-LGC-40SE HMV\nWST ISSUANCES EXPD. REFER TO MOST RECENT ACUS01 KWNS FROM STORM\nPREDICTION CENTER FOR SYNOPSIS AND METEOROLOGICAL DETAILS.\n\nAREA 2...FROM 60E MSS-40WSW MPV-30E DCA-30SW RIC-GSO-PSK-50SE\nJST-SYR-MSS-60E MSS\nWST ISSUANCES EXPD. REFER TO MOST RECENT ACUS01 KWNS FROM STORM\nPREDICTION CENTER FOR SYNOPSIS AND METEOROLOGICAL DETAILS.",
                "validTimeTo": [
                    "2026-07-26T19:55"
                ]
            }
        },
        {
            "type": "Feature",
            "geometry": {
                "type": "Polygon",
                "coordinates": [
                    [
                        [
                            -79.804,
                            27.294
                        ],
                        [
                            -80.3,
                            25.135
                        ],
                        [
                            -81.408,
                            24.945
                        ],
                        [
                            -81.425,
                            25.758
                        ],
                        [
                            -79.804,
                            27.294
                        ]
                    ]
                ]
            },
            "properties": {
                "airSigmetId": null,
                "airportIcao": "KKCI",
                "airSigmetType": "SIGMET",
                "hazard": "CONVECTIVE",
                "severity": 5,
                "altitudeLow1": null,
                "altitudeLow2": null,
                "altitudeHi1": 45000,
                "altitudeHi2": 60000,
                "movementDir": 330,
                "movementSpd": 5,
                "rawAirSigmet": "WSUS31 KKCI 261755\nSIGE \nCONVECTIVE SIGMET 72E\nVALID UNTIL 1955Z\nFL AND CSTL WTRS\nFROM 40NNE PBI-40S MIA-30NE EYW-50SSE RSW-40NNE PBI\nAREA TS MOV FROM 33005KT. TOPS ABV FL450.\n\nOUTLOOK VALID 261955-262355\nAREA 1...FROM 40SE HMV-80S ILM-170SE ECG-140SSE ILM-210E\nPBI-150SE MIA-70W EYW-40SW CTY-90S CEW-30S VUZ-LGC-40SE HMV\nWST ISSUANCES EXPD. REFER TO MOST RECENT ACUS01 KWNS FROM STORM\nPREDICTION CENTER FOR SYNOPSIS AND METEOROLOGICAL DETAILS.\n\nAREA 2...FROM 60E MSS-40WSW MPV-30E DCA-30SW RIC-GSO-PSK-50SE\nJST-SYR-MSS-60E MSS\nWST ISSUANCES EXPD. REFER TO MOST RECENT ACUS01 KWNS FROM STORM\nPREDICTION CENTER FOR SYNOPSIS AND METEOROLOGICAL DETAILS.",
                "validTimeTo": [
                    "2026-07-26T19:55"
                ]
            }
        },
        {
            "type": "Feature",
            "geometry": {
                "type": "Polygon",
                "coordinates": [
                    [
                        [
                            -86.32,
                            32.22
                        ],
                        [
                            -81.51,
                            30.843
                        ],
                        [
                            -85.183,
                            29.852
                        ],
                        [
                            -86.32,
                            32.22
                        ]
                    ]
                ]
            },
            "properties": {
                "airSigmetId": null,
                "airportIcao": "KKCI",
                "airSigmetType": "SIGMET",
                "hazard": "CONVECTIVE",
                "severity": 5,
                "altitudeLow1": null,
                "altitudeLow2": null,
                "altitudeHi1": 45000,
                "altitudeHi2": 60000,
                "movementDir": 320,
                "movementSpd": 15,
                "rawAirSigmet": "WSUS31 KKCI 261755\nSIGE \nCONVECTIVE SIGMET 73E\nVALID UNTIL 1955Z\nFL GA AL\nFROM MGM-30N CRG-60SW TLH-MGM\nAREA TS MOV FROM 32015KT. TOPS ABV FL450.\n\nOUTLOOK VALID 261955-262355\nAREA 1...FROM 40SE HMV-80S ILM-170SE ECG-140SSE ILM-210E\nPBI-150SE MIA-70W EYW-40SW CTY-90S CEW-30S VUZ-LGC-40SE HMV\nWST ISSUANCES EXPD. REFER TO MOST RECENT ACUS01 KWNS FROM STORM\nPREDICTION CENTER FOR SYNOPSIS AND METEOROLOGICAL DETAILS.\n\nAREA 2...FROM 60E MSS-40WSW MPV-30E DCA-30SW RIC-GSO-PSK-50SE\nJST-SYR-MSS-60E MSS\nWST ISSUANCES EXPD. REFER TO MOST RECENT ACUS01 KWNS FROM STORM\nPREDICTION CENTER FOR SYNOPSIS AND METEOROLOGICAL DETAILS.",
                "validTimeTo": [
                    "2026-07-26T19:55"
                ]
            }
        },
        {
            "type": "Feature",
            "geometry": {
                "type": "Polygon",
                "coordinates": [
                    [
                        [
                            -80.04,
                            33.555
                        ],
                        [
                            -77.186,
                            32.962
                        ],
                        [
                            -78.519,
                            31.585
                        ],
                        [
                            -80.325,
                            32.158
                        ],
                        [
                            -80.04,
                            33.555
                        ]
                    ]
                ]
            },
            "properties": {
                "airSigmetId": null,
                "airportIcao": "KKCI",
                "airSigmetType": "SIGMET",
                "hazard": "CONVECTIVE",
                "severity": 5,
                "altitudeLow1": null,
                "altitudeLow2": null,
                "altitudeHi1": 45000,
                "altitudeHi2": 60000,
                "movementDir": 300,
                "movementSpd": 15,
                "rawAirSigmet": "WSUS31 KKCI 261755\nSIGE \nCONVECTIVE SIGMET 74E\nVALID UNTIL 1955Z\nSC AND NC SC GA CSTL WTRS\nFROM 40N CHS-90SSE ILM-110SE CHS-40E SAV-40N CHS\nAREA TS MOV FROM 30015KT. TOPS ABV FL450.\n\nOUTLOOK VALID 261955-262355\nAREA 1...FROM 40SE HMV-80S ILM-170SE ECG-140SSE ILM-210E\nPBI-150SE MIA-70W EYW-40SW CTY-90S CEW-30S VUZ-LGC-40SE HMV\nWST ISSUANCES EXPD. REFER TO MOST RECENT ACUS01 KWNS FROM STORM\nPREDICTION CENTER FOR SYNOPSIS AND METEOROLOGICAL DETAILS.\n\nAREA 2...FROM 60E MSS-40WSW MPV-30E DCA-30SW RIC-GSO-PSK-50SE\nJST-SYR-MSS-60E MSS\nWST ISSUANCES EXPD. REFER TO MOST RECENT ACUS01 KWNS FROM STORM\nPREDICTION CENTER FOR SYNOPSIS AND METEOROLOGICAL DETAILS.",
                "validTimeTo": [
                    "2026-07-26T19:55"
                ]
            }
        },
        {
            "type": "Feature",
            "geometry": {
                "type": "Polygon",
                "coordinates": [
                    [
                        [
                            -115.592,
                            34.099
                        ],
                        [
                            -115.049,
                            34.007
                        ],
                        [
                            -115.198,
                            32.769
                        ],
                        [
                            -116.951,
                            32.545
                        ],
                        [
                            -115.592,
                            34.099
                        ]
                    ]
                ]
            },
            "properties": {
                "airSigmetId": null,
                "airportIcao": "KKCI",
                "airSigmetType": "SIGMET",
                "hazard": "CONVECTIVE",
                "severity": 5,
                "altitudeLow1": null,
                "altitudeLow2": null,
                "altitudeHi1": 37000,
                "altitudeHi2": 37000,
                "movementDir": 140,
                "movementSpd": 15,
                "rawAirSigmet": "WSUS33 KKCI 261755\nSIGW \nCONVECTIVE SIGMET 54W\nVALID UNTIL 1955Z\nCA\nFROM 40NE TRM-60ENE TRM-30W BZA-20SE MZB-40NE TRM\nAREA TS MOV FROM 14015KT. TOPS TO FL370.\n\nOUTLOOK VALID 261955-262355\nAREA 1...FROM LAR-30SSW DEN-CIM-FTI-70SE SSO-70SW TUS-70SSW\nSJN-30E EED-60S ILC-DTA-30W JNC-50SE OCS-LAR\nWST ISSUANCES EXPD. REFER TO MOST RECENT ACUS01 KWNS FROM STORM\nPREDICTION CENTER FOR SYNOPSIS AND METEOROLOGICAL DETAILS.\n\nAREA 2...FROM 40WNW MLS-60E CZI-50S BOY-40WSW BPI-30SSE DBS-30WNW\nTWF-BOI-LKT-50ESE HLN-40WNW MLS\nWST ISSUANCES EXPD. REFER TO MOST RECENT ACUS01 KWNS FROM STORM\nPREDICTION CENTER FOR SYNOPSIS AND METEOROLOGICAL DETAILS.\n\nAREA 3...FROM HEC-40ENE TRM-30SSW BZA-30SSE MZB-50WSW HEC-HEC\nWST ISSUANCES POSS. REFER TO MOST RECENT ACUS01 KWNS FROM STORM\nPREDICTION CENTER FOR SYNOPSIS AND METEOROLOGICAL DETAILS.",
                "validTimeTo": [
                    "2026-07-26T19:55"
                ]
            }
        },
        {
            "type": "Feature",
            "geometry": {
                "type": "Polygon",
                "coordinates": [
                    [
                        [
                            -105.255,
                            40.575
                        ],
                        [
                            -107.092,
                            38.666
                        ],
                        [
                            -106.585,
                            38.363
                        ],
                        [
                            -104.734,
                            40.272
                        ],
                        [
                            -105.255,
                            40.575
                        ]
                    ]
                ]
            },
            "properties": {
                "airSigmetId": null,
                "airportIcao": "KKCI",
                "airSigmetType": "SIGMET",
                "hazard": "CONVECTIVE",
                "severity": 5,
                "altitudeLow1": null,
                "altitudeLow2": null,
                "altitudeHi1": 37000,
                "altitudeHi2": 37000,
                "movementDir": 270,
                "movementSpd": 5,
                "rawAirSigmet": "WSUS33 KKCI 261755\nSIGW \nCONVECTIVE SIGMET 55W\nVALID UNTIL 1955Z\nCO\nFROM 40NNW DEN-10ENE HBU\nDVLPG LINE TS 30 NM WIDE MOV FROM 27005KT. TOPS TO FL370.\n\nOUTLOOK VALID 261955-262355\nAREA 1...FROM LAR-30SSW DEN-CIM-FTI-70SE SSO-70SW TUS-70SSW\nSJN-30E EED-60S ILC-DTA-30W JNC-50SE OCS-LAR\nWST ISSUANCES EXPD. REFER TO MOST RECENT ACUS01 KWNS FROM STORM\nPREDICTION CENTER FOR SYNOPSIS AND METEOROLOGICAL DETAILS.\n\nAREA 2...FROM 40WNW MLS-60E CZI-50S BOY-40WSW BPI-30SSE DBS-30WNW\nTWF-BOI-LKT-50ESE HLN-40WNW MLS\nWST ISSUANCES EXPD. REFER TO MOST RECENT ACUS01 KWNS FROM STORM\nPREDICTION CENTER FOR SYNOPSIS AND METEOROLOGICAL DETAILS.\n\nAREA 3...FROM HEC-40ENE TRM-30SSW BZA-30SSE MZB-50WSW HEC-HEC\nWST ISSUANCES POSS. REFER TO MOST RECENT ACUS01 KWNS FROM STORM\nPREDICTION CENTER FOR SYNOPSIS AND METEOROLOGICAL DETAILS.",
                "validTimeTo": [
                    "2026-07-26T19:55"
                ]
            }
        }
    ],
    "metadata": {
        "creationTime": "2026-07-26T18:06"
    }
}