{
    "type": "FeatureCollection",
    "features": [
        {
            "type": "Feature",
            "geometry": {
                "type": "Polygon",
                "coordinates": [
                    [
                        [
                            -78.83,
                            39.817
                        ],
                        [
                            -77.04,
                            38.357
                        ],
                        [
                            -78.494,
                            36.657
                        ],
                        [
                            -81.004,
                            36.855
                        ],
                        [
                            -81.508,
                            37.652
                        ],
                        [
                            -78.83,
                            39.817
                        ]
                    ]
                ]
            },
            "properties": {
                "airSigmetId": null,
                "airportIcao": "KKCI",
                "airSigmetType": "SIGMET",
                "hazard": "CONVECTIVE",
                "severity": 5,
                "altitudeLow1": null,
                "altitudeLow2": null,
                "altitudeHi1": 35000,
                "altitudeHi2": 35000,
                "movementDir": 280,
                "movementSpd": 25,
                "rawAirSigmet": "WSUS31 KKCI 161455\nSIGE \nCONVECTIVE SIGMET 46E\nVALID UNTIL 1655Z\nPA MD VA WV\nFROM 30S JST-30S DCA-50SE LYH-20SW PSK-20WSW BKW-30S JST\nAREA EMBD TS MOV FROM 28025KT. TOPS TO FL350.\n\nOUTLOOK VALID 161655-162055\nFROM 30NE ECK-DXO-40WNW CLE-BUF-HNK-JFK-70SE SBY-50SE\nECG-ILM-40ENE OMN-ORL-MCN-HMV-40NW BWG-30W PMM-30NE MKG-30NE ECK\nWST ISSUANCES EXPD. REFER TO MOST RECENT ACUS01 KWNS FROM STORM\nPREDICTION CENTER FOR SYNOPSIS AND METEOROLOGICAL DETAILS.",
                "validTimeTo": [
                    "2026-08-16T16:55"
                ]
            }
        },
        {
            "type": "Feature",
            "geometry": {
                "type": "Polygon",
                "coordinates": [
                    [
                        [
                            -79.208,
                            42.348
                        ],
                        [
                            -76.553,
                            41.672
                        ],
                        [
                            -75.568,
                            39.688
                        ],
                        [
                            -77.04,
                            38.357
                        ],
                        [
                            -79.081,
                            39.855
                        ],
                        [
                            -79.208,
                            42.348
                        ]
                    ]
                ]
            },
            "properties": {
                "airSigmetId": null,
                "airportIcao": "KKCI",
                "airSigmetType": "SIGMET",
                "hazard": "CONVECTIVE",
                "severity": 5,
                "altitudeLow1": null,
                "altitudeLow2": null,
                "altitudeHi1": 28000,
                "altitudeHi2": 28000,
                "movementDir": 270,
                "movementSpd": 15,
                "rawAirSigmet": "WSUS31 KKCI 161455\nSIGE \nCONVECTIVE SIGMET 47E\nVALID UNTIL 1655Z\nNY PA DE MD VA DC WV\nFROM 10NNW JHW-60WSW HNK-50NW SIE-30S DCA-30SSW JST-10NNW JHW\nAREA EMBD TS MOV FROM 27015KT. TOPS TO FL280.\n\nOUTLOOK VALID 161655-162055\nFROM 30NE ECK-DXO-40WNW CLE-BUF-HNK-JFK-70SE SBY-50SE\nECG-ILM-40ENE OMN-ORL-MCN-HMV-40NW BWG-30W PMM-30NE MKG-30NE ECK\nWST ISSUANCES EXPD. REFER TO MOST RECENT ACUS01 KWNS FROM STORM\nPREDICTION CENTER FOR SYNOPSIS AND METEOROLOGICAL DETAILS.",
                "validTimeTo": [
                    "2026-08-16T16:55"
                ]
            }
        },
        {
            "type": "Feature",
            "geometry": {
                "type": "Polygon",
                "coordinates": [
                    [
                        [
                            -84.256,
                            43.837
                        ],
                        [
                            -82.631,
                            43.102
                        ],
                        [
                            -84.398,
                            38.785
                        ],
                        [
                            -86.917,
                            37.927
                        ],
                        [
                            -87.419,
                            42.335
                        ],
                        [
                            -84.256,
                            43.837
                        ]
                    ]
                ]
            },
            "properties": {
                "airSigmetId": null,
                "airportIcao": "KKCI",
                "airSigmetType": "SIGMET",
                "hazard": "CONVECTIVE",
                "severity": 5,
                "altitudeLow1": null,
                "altitudeLow2": null,
                "altitudeHi1": 45000,
                "altitudeHi2": 60000,
                "movementDir": 280,
                "movementSpd": 20,
                "rawAirSigmet": "WSUS31 KKCI 161455\nSIGE \nCONVECTIVE SIGMET 48E\nVALID UNTIL 1655Z\nOH KY MI IN LE LM\nFROM 20NNW MBS-10SSE ECK-20SE CVG-40E PXV-30NE ORD-20NNW MBS\nAREA EMBD TS MOV FROM 28020KT. TOPS ABV FL450.\n\nOUTLOOK VALID 161655-162055\nFROM 30NE ECK-DXO-40WNW CLE-BUF-HNK-JFK-70SE SBY-50SE\nECG-ILM-40ENE OMN-ORL-MCN-HMV-40NW BWG-30W PMM-30NE MKG-30NE ECK\nWST ISSUANCES EXPD. REFER TO MOST RECENT ACUS01 KWNS FROM STORM\nPREDICTION CENTER FOR SYNOPSIS AND METEOROLOGICAL DETAILS.",
                "validTimeTo": [
                    "2026-08-16T16:55"
                ]
            }
        },
        {
            "type": "Feature",
            "geometry": {
                "type": "Polygon",
                "coordinates": [
                    [
                        [
                            -110.375,
                            44.234
                        ],
                        [
                            -109.451,
                            43.454
                        ],
                        [
                            -111.322,
                            42.194
                        ],
                        [
                            -112.663,
                            42.134
                        ],
                        [
                            -112.824,
                            43.177
                        ],
                        [
                            -110.375,
                            44.234
                        ]
                    ]
                ]
            },
            "properties": {
                "airSigmetId": null,
                "airportIcao": "KKCI",
                "airSigmetType": "SIGMET",
                "hazard": "CONVECTIVE",
                "severity": 5,
                "altitudeLow1": null,
                "altitudeLow2": null,
                "altitudeHi1": 29000,
                "altitudeHi2": 29000,
                "movementDir": 260,
                "movementSpd": 15,
                "rawAirSigmet": "WSUS33 KKCI 161455\nSIGW \nCONVECTIVE SIGMET 52W\nVALID UNTIL 1655Z\nWY ID\nFROM 40NNE JAC-50W BOY-50E MLD-10WSW MLD-20NNW PIH-40NNE JAC\nAREA TS MOV FROM 26015KT. TOPS TO FL290.\n\nOUTLOOK VALID 161655-162055\nAREA 1...FROM HBU-40W ELP-60SW DMN-40S TUS-40SW PHX-50S\nEED-HEC-50S BTY-70NE LAS-TBC-HBU\nWST ISSUANCES POSS. REFER TO MOST RECENT ACUS01 KWNS FROM STORM\nPREDICTION CENTER FOR SYNOPSIS AND METEOROLOGICAL DETAILS.\n\nAREA 2...FROM 50N FCA-50NNW GGW-HBU-MTU-DTA-40SSW ELY-30SE\nBAM-50S BOI-30WSW BKE-50N FCA\nWST ISSUANCES POSS. REFER TO MOST RECENT ACUS01 KWNS FROM STORM\nPREDICTION CENTER FOR SYNOPSIS AND METEOROLOGICAL DETAILS.",
                "validTimeTo": [
                    "2026-08-16T16:55"
                ]
            }
        },
        {
            "type": "Feature",
            "geometry": {
                "type": "Polygon",
                "coordinates": [
                    [
                        [
                            -106.63,
                            49.055
                        ],
                        [
                            -104.624,
                            45.991
                        ],
                        [
                            -105.413,
                            44.828
                        ],
                        [
                            -110.246,
                            47.767
                        ],
                        [
                            -110.487,
                            49.008
                        ],
                        [
                            -106.63,
                            49.055
                        ]
                    ]
                ]
            },
            "properties": {
                "airSigmetId": null,
                "airportIcao": "KKCI",
                "airSigmetType": "SIGMET",
                "hazard": "CONVECTIVE",
                "severity": 5,
                "altitudeLow1": null,
                "altitudeLow2": null,
                "altitudeHi1": 33000,
                "altitudeHi2": 33000,
                "movementDir": 260,
                "movementSpd": 20,
                "rawAirSigmet": "WSUS33 KKCI 161455\nSIGW \nCONVECTIVE SIGMET 53W\nVALID UNTIL 1655Z\nMT WY\nFROM 50N GGW-60ESE MLS-70E SHR-50SSW HVR-40NW HVR-50N GGW\nAREA TS MOV FROM 26020KT. TOPS TO FL330.\n\nOUTLOOK VALID 161655-162055\nAREA 1...FROM HBU-40W ELP-60SW DMN-40S TUS-40SW PHX-50S\nEED-HEC-50S BTY-70NE LAS-TBC-HBU\nWST ISSUANCES POSS. REFER TO MOST RECENT ACUS01 KWNS FROM STORM\nPREDICTION CENTER FOR SYNOPSIS AND METEOROLOGICAL DETAILS.\n\nAREA 2...FROM 50N FCA-50NNW GGW-HBU-MTU-DTA-40SSW ELY-30SE\nBAM-50S BOI-30WSW BKE-50N FCA\nWST ISSUANCES POSS. REFER TO MOST RECENT ACUS01 KWNS FROM STORM\nPREDICTION CENTER FOR SYNOPSIS AND METEOROLOGICAL DETAILS.",
                "validTimeTo": [
                    "2026-08-16T16:55"
                ]
            }
        },
        {
            "type": "Feature",
            "geometry": {
                "type": "Polygon",
                "coordinates": [
                    [
                        [
                            -114.746,
                            47.202
                        ],
                        [
                            -115.754,
                            45.541
                        ],
                        [
                            -118.94,
                            45.871
                        ],
                        [
                            -116.94,
                            47.088
                        ],
                        [
                            -114.746,
                            47.202
                        ]
                    ]
                ]
            },
            "properties": {
                "airSigmetId": null,
                "airportIcao": "KKCI",
                "airSigmetType": "SIGMET",
                "hazard": "CONVECTIVE",
                "severity": 5,
                "altitudeLow1": null,
                "altitudeLow2": null,
                "altitudeHi1": 34000,
                "altitudeHi2": 34000,
                "movementDir": 230,
                "movementSpd": 20,
                "rawAirSigmet": "WSUS33 KKCI 161455\nSIGW \nCONVECTIVE SIGMET 54W\nVALID UNTIL 1655Z\nMT ID OR WA\nFROM 40ESE MLP-50NNE DNJ-10N PDT-40SE GEG-40ESE MLP\nDVLPG AREA TS MOV FROM 23020KT. TOPS TO FL340.\n\nOUTLOOK VALID 161655-162055\nAREA 1...FROM HBU-40W ELP-60SW DMN-40S TUS-40SW PHX-50S\nEED-HEC-50S BTY-70NE LAS-TBC-HBU\nWST ISSUANCES POSS. REFER TO MOST RECENT ACUS01 KWNS FROM STORM\nPREDICTION CENTER FOR SYNOPSIS AND METEOROLOGICAL DETAILS.\n\nAREA 2...FROM 50N FCA-50NNW GGW-HBU-MTU-DTA-40SSW ELY-30SE\nBAM-50S BOI-30WSW BKE-50N FCA\nWST ISSUANCES POSS. REFER TO MOST RECENT ACUS01 KWNS FROM STORM\nPREDICTION CENTER FOR SYNOPSIS AND METEOROLOGICAL DETAILS.",
                "validTimeTo": [
                    "2026-08-16T16:55"
                ]
            }
        },
        {
            "type": "Feature",
            "geometry": {
                "type": "Polygon",
                "coordinates": [
                    [
                        [
                            -92.646,
                            41.835
                        ],
                        [
                            -91.28,
                            39.518
                        ],
                        [
                            -93.583,
                            38.972
                        ],
                        [
                            -97.29,
                            39.544
                        ],
                        [
                            -96.687,
                            41.871
                        ],
                        [
                            -92.646,
                            41.835
                        ]
                    ]
                ]
            },
            "properties": {
                "airSigmetId": null,
                "airportIcao": "KKCI",
                "airSigmetType": "SIGMET",
                "hazard": "CONVECTIVE",
                "severity": 5,
                "altitudeLow1": null,
                "altitudeLow2": null,
                "altitudeHi1": 45000,
                "altitudeHi2": 60000,
                "movementDir": 270,
                "movementSpd": 30,
                "rawAirSigmet": "WSUS32 KKCI 161455\nSIGC \nCONVECTIVE SIGMET 72C\nVALID UNTIL 1655Z\nMO IA KS NE\nFROM 50WNW IOW-20S UIN-60NE BUM-40NNE SLN-60NW OVR-50WNW IOW\nAREA EMBD TS MOV FROM 27030KT. TOPS ABV FL450.\n\nOUTLOOK VALID 161655-162055\nAREA 1...FROM 30W PMM-40NW BWG-SGF-SLN-50SSW OBH-30SSW FOD-40ESE\nDBQ-30W PMM\nWST ISSUANCES EXPD. REFER TO MOST RECENT ACUS01 KWNS FROM STORM\nPREDICTION CENTER FOR SYNOPSIS AND METEOROLOGICAL DETAILS.\n\nAREA 2...FROM 30SW MHZ-50NNW CEW-120S CEW-40SSW LEV-30SE LCH-30SW\nMHZ\nWST ISSUANCES EXPD. REFER TO MOST RECENT ACUS01 KWNS FROM STORM\nPREDICTION CENTER FOR SYNOPSIS AND METEOROLOGICAL DETAILS.\n\nAREA 3...FROM 50NNW GGW-60NE ISN-60NW RAP-LAA-CME-FST-80SSE\nFST-110SSE MRF-50SW MRF-ELP-40SE DMN-HBU-50NNW GGW\nWST ISSUANCES POSS. REFER TO MOST RECENT ACUS01 KWNS FROM STORM\nPREDICTION CENTER FOR SYNOPSIS AND METEOROLOGICAL DETAILS.",
                "validTimeTo": [
                    "2026-08-16T16:55"
                ]
            }
        },
        {
            "type": "Feature",
            "geometry": {
                "type": "Polygon",
                "coordinates": [
                    [
                        [
                            -87.473,
                            40.432
                        ],
                        [
                            -87.25,
                            38.655
                        ],
                        [
                            -90.23,
                            37.67
                        ],
                        [
                            -92.355,
                            37.676
                        ],
                        [
                            -92.818,
                            39.011
                        ],
                        [
                            -87.473,
                            40.432
                        ]
                    ]
                ]
            },
            "properties": {
                "airSigmetId": null,
                "airportIcao": "KKCI",
                "airSigmetType": "SIGMET",
                "hazard": "CONVECTIVE",
                "severity": 5,
                "altitudeLow1": null,
                "altitudeLow2": null,
                "altitudeHi1": 45000,
                "altitudeHi2": 60000,
                "movementDir": 270,
                "movementSpd": 30,
                "rawAirSigmet": "WSUS32 KKCI 161455\nSIGC \nCONVECTIVE SIGMET 73C\nVALID UNTIL 1655Z\nIN IL MO\nFROM 20WSW BVT-50S TTH-FAM-50ENE SGF-30WNW COU-20WSW BVT\nAREA TS MOV FROM 27030KT. TOPS ABV FL450.\n\nOUTLOOK VALID 161655-162055\nAREA 1...FROM 30W PMM-40NW BWG-SGF-SLN-50SSW OBH-30SSW FOD-40ESE\nDBQ-30W PMM\nWST ISSUANCES EXPD. REFER TO MOST RECENT ACUS01 KWNS FROM STORM\nPREDICTION CENTER FOR SYNOPSIS AND METEOROLOGICAL DETAILS.\n\nAREA 2...FROM 30SW MHZ-50NNW CEW-120S CEW-40SSW LEV-30SE LCH-30SW\nMHZ\nWST ISSUANCES EXPD. REFER TO MOST RECENT ACUS01 KWNS FROM STORM\nPREDICTION CENTER FOR SYNOPSIS AND METEOROLOGICAL DETAILS.\n\nAREA 3...FROM 50NNW GGW-60NE ISN-60NW RAP-LAA-CME-FST-80SSE\nFST-110SSE MRF-50SW MRF-ELP-40SE DMN-HBU-50NNW GGW\nWST ISSUANCES POSS. REFER TO MOST RECENT ACUS01 KWNS FROM STORM\nPREDICTION CENTER FOR SYNOPSIS AND METEOROLOGICAL DETAILS.",
                "validTimeTo": [
                    "2026-08-16T16:55"
                ]
            }
        }
    ],
    "metadata": {
        "creationTime": "2026-08-16T15:28"
    }
}