{
    "type": "FeatureCollection",
    "features": [
        {
            "type": "Feature",
            "geometry": {
                "type": "Polygon",
                "coordinates": [
                    [
                        [
                            -115.09,
                            45.721
                        ],
                        [
                            -111.233,
                            45.624
                        ],
                        [
                            -110.73,
                            44.455
                        ],
                        [
                            -113.286,
                            43.061
                        ],
                        [
                            -115.941,
                            44.305
                        ],
                        [
                            -115.09,
                            45.721
                        ]
                    ]
                ]
            },
            "properties": {
                "airSigmetId": null,
                "airportIcao": "KKCI",
                "airSigmetType": "SIGMET",
                "hazard": "CONVECTIVE",
                "severity": 5,
                "altitudeLow1": null,
                "altitudeLow2": null,
                "altitudeHi1": 45000,
                "altitudeHi2": 45000,
                "movementDir": 240,
                "movementSpd": 15,
                "rawAirSigmet": "WSUS33 KKCI 141955\nSIGW \nCONVECTIVE SIGMET 91W\nVALID UNTIL 2155Z\nMT WY ID\nFROM 60NW LKT-60ENE DLN-50N JAC-30WNW PIH-30SSE DNJ-60NW LKT\nDVLPG AREA TS MOV FROM 24015KT. TOPS TO FL450.\n\nOUTLOOK VALID 142155-150155\nAREA 1...FROM 30WNW OCS-30NNE CHE-TCS-70SE SSO-50S TUS-50SSW\nINW-40SSW DRK-40SE BZA-BZA-40ESE MZB-60E RBL-30WNW OCS\nWST ISSUANCES POSS. REFER TO MOST RECENT ACUS01 KWNS FROM STORM\nPREDICTION CENTER FOR SYNOPSIS AND METEOROLOGICAL DETAILS.\n\nAREA 2...FROM 40SSW YQL-30W GTF-60W GGW-DDY-30WNW OCS-60WNW\nFMG-BOI-40SE OED-30ESE EUG-80SSE GEG-BTG-HUH-60SW YXC-40SSW YQL\nWST ISSUANCES POSS. REFER TO MOST RECENT ACUS01 KWNS FROM STORM\nPREDICTION CENTER FOR SYNOPSIS AND METEOROLOGICAL DETAILS.",
                "validTimeTo": [
                    "2026-08-14T21:55"
                ]
            }
        },
        {
            "type": "Feature",
            "geometry": {
                "type": "Polygon",
                "coordinates": [
                    [
                        [
                            -109.964,
                            39.843
                        ],
                        [
                            -109.52,
                            38.001
                        ],
                        [
                            -111.548,
                            34.803
                        ],
                        [
                            -114.237,
                            34.305
                        ],
                        [
                            -115.31,
                            36.201
                        ],
                        [
                            -109.964,
                            39.843
                        ]
                    ]
                ]
            },
            "properties": {
                "airSigmetId": null,
                "airportIcao": "KKCI",
                "airSigmetType": "SIGMET",
                "hazard": "CONVECTIVE",
                "severity": 5,
                "altitudeLow1": null,
                "altitudeLow2": null,
                "altitudeHi1": 45000,
                "altitudeHi2": 60000,
                "movementDir": 230,
                "movementSpd": 20,
                "rawAirSigmet": "WSUS33 KKCI 141955\nSIGW \nCONVECTIVE SIGMET 92W\nVALID UNTIL 2155Z\nAZ UT NV CA\nFROM 20SSE MTU-30WNW DVC-40WSW INW-30SSE EED-10NW LAS-20SSE MTU\nAREA TS MOV FROM 23020KT. TOPS ABV FL450.\n\nOUTLOOK VALID 142155-150155\nAREA 1...FROM 30WNW OCS-30NNE CHE-TCS-70SE SSO-50S TUS-50SSW\nINW-40SSW DRK-40SE BZA-BZA-40ESE MZB-60E RBL-30WNW OCS\nWST ISSUANCES POSS. REFER TO MOST RECENT ACUS01 KWNS FROM STORM\nPREDICTION CENTER FOR SYNOPSIS AND METEOROLOGICAL DETAILS.\n\nAREA 2...FROM 40SSW YQL-30W GTF-60W GGW-DDY-30WNW OCS-60WNW\nFMG-BOI-40SE OED-30ESE EUG-80SSE GEG-BTG-HUH-60SW YXC-40SSW YQL\nWST ISSUANCES POSS. REFER TO MOST RECENT ACUS01 KWNS FROM STORM\nPREDICTION CENTER FOR SYNOPSIS AND METEOROLOGICAL DETAILS.",
                "validTimeTo": [
                    "2026-08-14T21:55"
                ]
            }
        },
        {
            "type": "Feature",
            "geometry": {
                "type": "Polygon",
                "coordinates": [
                    [
                        [
                            -79.347,
                            38.327
                        ],
                        [
                            -78.382,
                            36.641
                        ],
                        [
                            -82.216,
                            34.795
                        ],
                        [
                            -86.538,
                            35.016
                        ],
                        [
                            -85.13,
                            37.743
                        ],
                        [
                            -79.347,
                            38.327
                        ]
                    ]
                ]
            },
            "properties": {
                "airSigmetId": null,
                "airportIcao": "KKCI",
                "airSigmetType": "SIGMET",
                "hazard": "CONVECTIVE",
                "severity": 5,
                "altitudeLow1": null,
                "altitudeLow2": null,
                "altitudeHi1": 45000,
                "altitudeHi2": 60000,
                "movementDir": 270,
                "movementSpd": 10,
                "rawAirSigmet": "WSUS31 KKCI 141955\nSIGE \nCONVECTIVE SIGMET 88E\nVALID UNTIL 2155Z\nVA NC WV SC GA TN KY AL\nFROM 50SE EKN-50NNE RDU-20SW SPA-50ENE MSL-30SE IIU-50SE EKN\nAREA SEV EMBD TS MOV FROM 27010KT. TOPS ABV FL450.\nHAIL TO 1 IN...WIND GUSTS TO 50KT POSS.\n\nOUTLOOK VALID 142155-150155\nAREA 1...FROM BVT-190ESE SIE-190ESE ECG-CHS-190SE CHS-210ENE\nPBI-70ENE PBI-160SE MIA-80WSW EYW-120S CEW-BVT\nWST ISSUANCES EXPD. REFER TO MOST RECENT ACUS01 KWNS FROM STORM\nPREDICTION CENTER FOR SYNOPSIS AND METEOROLOGICAL DETAILS.\n\nAREA 2...FROM MSS-CON-BDL-40NW SYR-60N SYR-MSS\nWST ISSUANCES EXPD. REFER TO MOST RECENT ACUS01 KWNS FROM STORM\nPREDICTION CENTER FOR SYNOPSIS AND METEOROLOGICAL DETAILS.",
                "validTimeTo": [
                    "2026-08-14T21:55"
                ]
            }
        },
        {
            "type": "Feature",
            "geometry": {
                "type": "Polygon",
                "coordinates": [
                    [
                        [
                            -75.155,
                            45.036
                        ],
                        [
                            -72.837,
                            43.755
                        ],
                        [
                            -73.171,
                            42.295
                        ],
                        [
                            -74.692,
                            42.251
                        ],
                        [
                            -76.644,
                            43.931
                        ],
                        [
                            -75.155,
                            45.036
                        ]
                    ]
                ]
            },
            "properties": {
                "airSigmetId": null,
                "airportIcao": "KKCI",
                "airSigmetType": "SIGMET",
                "hazard": "CONVECTIVE",
                "severity": 5,
                "altitudeLow1": null,
                "altitudeLow2": null,
                "altitudeHi1": 35000,
                "altitudeHi2": 35000,
                "movementDir": 300,
                "movementSpd": 25,
                "rawAirSigmet": "WSUS31 KKCI 141955\nSIGE \nCONVECTIVE SIGMET 89E\nVALID UNTIL 2155Z\nMA VT NY LO\nFROM 20WNW MSS-30SSW MPV-30NW BDL-30ENE HNK-50NNW SYR-20WNW MSS\nAREA SEV EMBD TS MOV FROM 30025KT. TOPS TO FL350.\nHAIL TO 0.75 IN...WIND GUSTS TO 50KT POSS.\n\nOUTLOOK VALID 142155-150155\nAREA 1...FROM BVT-190ESE SIE-190ESE ECG-CHS-190SE CHS-210ENE\nPBI-70ENE PBI-160SE MIA-80WSW EYW-120S CEW-BVT\nWST ISSUANCES EXPD. REFER TO MOST RECENT ACUS01 KWNS FROM STORM\nPREDICTION CENTER FOR SYNOPSIS AND METEOROLOGICAL DETAILS.\n\nAREA 2...FROM MSS-CON-BDL-40NW SYR-60N SYR-MSS\nWST ISSUANCES EXPD. REFER TO MOST RECENT ACUS01 KWNS FROM STORM\nPREDICTION CENTER FOR SYNOPSIS AND METEOROLOGICAL DETAILS.",
                "validTimeTo": [
                    "2026-08-14T21:55"
                ]
            }
        },
        {
            "type": "Feature",
            "geometry": {
                "type": "Polygon",
                "coordinates": [
                    [
                        [
                            -79.009,
                            29.284
                        ],
                        [
                            -78.746,
                            28.305
                        ],
                        [
                            -79.689,
                            28.383
                        ],
                        [
                            -80.152,
                            29.297
                        ],
                        [
                            -79.009,
                            29.284
                        ]
                    ]
                ]
            },
            "properties": {
                "airSigmetId": null,
                "airportIcao": "KKCI",
                "airSigmetType": "SIGMET",
                "hazard": "CONVECTIVE",
                "severity": 5,
                "altitudeLow1": null,
                "altitudeLow2": null,
                "altitudeHi1": 44000,
                "altitudeHi2": 44000,
                "movementDir": 90,
                "movementSpd": 5,
                "rawAirSigmet": "WSUS31 KKCI 141955\nSIGE \nCONVECTIVE SIGMET 90E\nVALID UNTIL 2155Z\nFL CSTL WTRS\nFROM 110E OMN-100ENE TRV-60NE TRV-50E OMN-110E OMN\nAREA TS MOV FROM 09005KT. TOPS TO FL440.\n\nOUTLOOK VALID 142155-150155\nAREA 1...FROM BVT-190ESE SIE-190ESE ECG-CHS-190SE CHS-210ENE\nPBI-70ENE PBI-160SE MIA-80WSW EYW-120S CEW-BVT\nWST ISSUANCES EXPD. REFER TO MOST RECENT ACUS01 KWNS FROM STORM\nPREDICTION CENTER FOR SYNOPSIS AND METEOROLOGICAL DETAILS.\n\nAREA 2...FROM MSS-CON-BDL-40NW SYR-60N SYR-MSS\nWST ISSUANCES EXPD. REFER TO MOST RECENT ACUS01 KWNS FROM STORM\nPREDICTION CENTER FOR SYNOPSIS AND METEOROLOGICAL DETAILS.",
                "validTimeTo": [
                    "2026-08-14T21:55"
                ]
            }
        },
        {
            "type": "Feature",
            "geometry": {
                "type": "Polygon",
                "coordinates": [
                    [
                        [
                            -83.24,
                            27.144
                        ],
                        [
                            -82.908,
                            26.628
                        ],
                        [
                            -82.842,
                            25.527
                        ],
                        [
                            -83.497,
                            25.216
                        ],
                        [
                            -84.103,
                            26.817
                        ],
                        [
                            -83.24,
                            27.144
                        ]
                    ]
                ]
            },
            "properties": {
                "airSigmetId": null,
                "airportIcao": "KKCI",
                "airSigmetType": "SIGMET",
                "hazard": "CONVECTIVE",
                "severity": 5,
                "altitudeLow1": null,
                "altitudeLow2": null,
                "altitudeHi1": 45000,
                "altitudeHi2": 45000,
                "movementDir": 100,
                "movementSpd": 10,
                "rawAirSigmet": "WSUS31 KKCI 141955\nSIGE \nCONVECTIVE SIGMET 91E\nVALID UNTIL 2155Z\nFL CSTL WTRS\nFROM 40WSW SRQ-50SSW SRQ-80NW EYW-100WNW EYW-90WSW SRQ-40WSW SRQ\nAREA TS MOV FROM 10010KT. TOPS TO FL450.\nREF INTL SIGMET JULIETT SERIES.\n\nOUTLOOK VALID 142155-150155\nAREA 1...FROM BVT-190ESE SIE-190ESE ECG-CHS-190SE CHS-210ENE\nPBI-70ENE PBI-160SE MIA-80WSW EYW-120S CEW-BVT\nWST ISSUANCES EXPD. REFER TO MOST RECENT ACUS01 KWNS FROM STORM\nPREDICTION CENTER FOR SYNOPSIS AND METEOROLOGICAL DETAILS.\n\nAREA 2...FROM MSS-CON-BDL-40NW SYR-60N SYR-MSS\nWST ISSUANCES EXPD. REFER TO MOST RECENT ACUS01 KWNS FROM STORM\nPREDICTION CENTER FOR SYNOPSIS AND METEOROLOGICAL DETAILS.",
                "validTimeTo": [
                    "2026-08-14T21:55"
                ]
            }
        },
        {
            "type": "Feature",
            "geometry": {
                "type": "Polygon",
                "coordinates": [
                    [
                        [
                            -99.88,
                            37.005
                        ],
                        [
                            -99.304,
                            36.146
                        ],
                        [
                            -101.219,
                            34.686
                        ],
                        [
                            -101.954,
                            35.904
                        ],
                        [
                            -99.88,
                            37.005
                        ]
                    ]
                ]
            },
            "properties": {
                "airSigmetId": null,
                "airportIcao": "KKCI",
                "airSigmetType": "SIGMET",
                "hazard": "CONVECTIVE",
                "severity": 5,
                "altitudeLow1": null,
                "altitudeLow2": null,
                "altitudeHi1": 45000,
                "altitudeHi2": 60000,
                "movementDir": 280,
                "movementSpd": 30,
                "rawAirSigmet": "WSUS32 KKCI 141955\nSIGC \nCONVECTIVE SIGMET 98C\nVALID UNTIL 2155Z\nTX OK KS\nFROM 40N MMB-30ESE MMB-50WNW CDS-40NNW AMA-40N MMB\nAREA SEV TS MOV FROM 28030KT TOPS ABV FL450.\nWIND GUSTS TO 50KT POSS.\n\nOUTLOOK VALID 142155-150155\nAREA 1...FROM 60NNW FSD-40ESE RWF-BVT-120S CEW-40NW\nSJI-AXC-MCI-OBH-60NNW FSD\nWST ISSUANCES EXPD. REFER TO MOST RECENT ACUS01 KWNS FROM STORM\nPREDICTION CENTER FOR SYNOPSIS AND METEOROLOGICAL DETAILS.\n\nAREA 2...FROM 60NE MOT-PIR-40S RAP-70WNW RAP-70NE GGW-60NE MOT\nWST ISSUANCES POSS. REFER TO MOST RECENT ACUS01 KWNS FROM STORM\nPREDICTION CENTER FOR SYNOPSIS AND METEOROLOGICAL DETAILS.\n\nAREA 3...FROM 40WSW ACT-30SSE LFK-60SSW LEV-120SSW LCH-80E\nBRO-BRO-70SSE LRD-40SSE DLF-40WSW ACT\nWST ISSUANCES POSS. REFER TO MOST RECENT ACUS01 KWNS FROM STORM\nPREDICTION CENTER FOR SYNOPSIS AND METEOROLOGICAL DETAILS.\n\nAREA 4...FROM 40S RAP-MCK-PWE-MCI-CDS-60NW DLF-90SSE MRF-50SW\nMRF-60SE ELP-TCS-40NNE CHE-40S RAP\nWST ISSUANCES POSS. REFER TO MOST RECENT ACUS01 KWNS FROM STORM\nPREDICTION CENTER FOR SYNOPSIS AND METEOROLOGICAL DETAILS.",
                "validTimeTo": [
                    "2026-08-14T21:55"
                ]
            }
        },
        {
            "type": "Feature",
            "geometry": {
                "type": "Polygon",
                "coordinates": [
                    [
                        [
                            -105.332,
                            33.929
                        ],
                        [
                            -102.98,
                            30.779
                        ],
                        [
                            -103.803,
                            29.993
                        ],
                        [
                            -105.58,
                            32.409
                        ],
                        [
                            -106.872,
                            32.532
                        ],
                        [
                            -105.332,
                            33.929
                        ]
                    ]
                ]
            },
            "properties": {
                "airSigmetId": null,
                "airportIcao": "KKCI",
                "airSigmetType": "SIGMET",
                "hazard": "CONVECTIVE",
                "severity": 5,
                "altitudeLow1": null,
                "altitudeLow2": null,
                "altitudeHi1": 45000,
                "altitudeHi2": 60000,
                "movementDir": 230,
                "movementSpd": 25,
                "rawAirSigmet": "WSUS32 KKCI 141955\nSIGC \nCONVECTIVE SIGMET 99C\nVALID UNTIL 2155Z\nTX NM\nFROM 50NW CME-10S FST-20SSE MRF-50NE ELP-40ENE DMN-50NW CME\nAREA TS MOV FROM 23025KT. TOPS ABV FL450.\n\nOUTLOOK VALID 142155-150155\nAREA 1...FROM 60NNW FSD-40ESE RWF-BVT-120S CEW-40NW\nSJI-AXC-MCI-OBH-60NNW FSD\nWST ISSUANCES EXPD. REFER TO MOST RECENT ACUS01 KWNS FROM STORM\nPREDICTION CENTER FOR SYNOPSIS AND METEOROLOGICAL DETAILS.\n\nAREA 2...FROM 60NE MOT-PIR-40S RAP-70WNW RAP-70NE GGW-60NE MOT\nWST ISSUANCES POSS. REFER TO MOST RECENT ACUS01 KWNS FROM STORM\nPREDICTION CENTER FOR SYNOPSIS AND METEOROLOGICAL DETAILS.\n\nAREA 3...FROM 40WSW ACT-30SSE LFK-60SSW LEV-120SSW LCH-80E\nBRO-BRO-70SSE LRD-40SSE DLF-40WSW ACT\nWST ISSUANCES POSS. REFER TO MOST RECENT ACUS01 KWNS FROM STORM\nPREDICTION CENTER FOR SYNOPSIS AND METEOROLOGICAL DETAILS.\n\nAREA 4...FROM 40S RAP-MCK-PWE-MCI-CDS-60NW DLF-90SSE MRF-50SW\nMRF-60SE ELP-TCS-40NNE CHE-40S RAP\nWST ISSUANCES POSS. REFER TO MOST RECENT ACUS01 KWNS FROM STORM\nPREDICTION CENTER FOR SYNOPSIS AND METEOROLOGICAL DETAILS.",
                "validTimeTo": [
                    "2026-08-14T21:55"
                ]
            }
        },
        {
            "type": "Feature",
            "geometry": {
                "type": "Polygon",
                "coordinates": [
                    [
                        [
                            -106.056,
                            40.715
                        ],
                        [
                            -104.005,
                            39.808
                        ],
                        [
                            -103.283,
                            36.655
                        ],
                        [
                            -105.428,
                            35.425
                        ],
                        [
                            -108.685,
                            38.275
                        ],
                        [
                            -106.056,
                            40.715
                        ]
                    ]
                ]
            },
            "properties": {
                "airSigmetId": null,
                "airportIcao": "KKCI",
                "airSigmetType": "SIGMET",
                "hazard": "CONVECTIVE",
                "severity": 5,
                "altitudeLow1": null,
                "altitudeLow2": null,
                "altitudeHi1": 45000,
                "altitudeHi2": 60000,
                "movementDir": 210,
                "movementSpd": 15,
                "rawAirSigmet": "WSUS32 KKCI 141955\nSIGC \nCONVECTIVE SIGMET 01C\nVALID UNTIL 2155Z\nCO NM\nFROM 40SSW LAR-30E DEN-40SSE TBE-20SW FTI-30NNE DVC-40SSW LAR\nAREA TS MOV FROM 21015KT. TOPS ABV FL450.\n\nOUTLOOK VALID 142155-150155\nAREA 1...FROM 60NNW FSD-40ESE RWF-BVT-120S CEW-40NW\nSJI-AXC-MCI-OBH-60NNW FSD\nWST ISSUANCES EXPD. REFER TO MOST RECENT ACUS01 KWNS FROM STORM\nPREDICTION CENTER FOR SYNOPSIS AND METEOROLOGICAL DETAILS.\n\nAREA 2...FROM 60NE MOT-PIR-40S RAP-70WNW RAP-70NE GGW-60NE MOT\nWST ISSUANCES POSS. REFER TO MOST RECENT ACUS01 KWNS FROM STORM\nPREDICTION CENTER FOR SYNOPSIS AND METEOROLOGICAL DETAILS.\n\nAREA 3...FROM 40WSW ACT-30SSE LFK-60SSW LEV-120SSW LCH-80E\nBRO-BRO-70SSE LRD-40SSE DLF-40WSW ACT\nWST ISSUANCES POSS. REFER TO MOST RECENT ACUS01 KWNS FROM STORM\nPREDICTION CENTER FOR SYNOPSIS AND METEOROLOGICAL DETAILS.\n\nAREA 4...FROM 40S RAP-MCK-PWE-MCI-CDS-60NW DLF-90SSE MRF-50SW\nMRF-60SE ELP-TCS-40NNE CHE-40S RAP\nWST ISSUANCES POSS. REFER TO MOST RECENT ACUS01 KWNS FROM STORM\nPREDICTION CENTER FOR SYNOPSIS AND METEOROLOGICAL DETAILS.",
                "validTimeTo": [
                    "2026-08-14T21:55"
                ]
            }
        },
        {
            "type": "Feature",
            "geometry": {
                "type": "Polygon",
                "coordinates": [
                    [
                        [
                            -96.311,
                            30.782
                        ],
                        [
                            -94.815,
                            29.766
                        ],
                        [
                            -98.115,
                            27.308
                        ],
                        [
                            -98.842,
                            29.639
                        ],
                        [
                            -96.311,
                            30.782
                        ]
                    ]
                ]
            },
            "properties": {
                "airSigmetId": null,
                "airportIcao": "KKCI",
                "airSigmetType": "SIGMET",
                "hazard": "CONVECTIVE",
                "severity": 5,
                "altitudeLow1": null,
                "altitudeLow2": null,
                "altitudeHi1": 45000,
                "altitudeHi2": 60000,
                "movementDir": 170,
                "movementSpd": 15,
                "rawAirSigmet": "WSUS32 KKCI 141955\nSIGC \nCONVECTIVE SIGMET 02C\nVALID UNTIL 2155Z\nTX\nFROM 70NW IAH-30ESE IAH-50SW CRP-20W SAT-70NW IAH\nAREA TS MOV FROM 17015KT. TOPS ABV FL450.\n\nOUTLOOK VALID 142155-150155\nAREA 1...FROM 60NNW FSD-40ESE RWF-BVT-120S CEW-40NW\nSJI-AXC-MCI-OBH-60NNW FSD\nWST ISSUANCES EXPD. REFER TO MOST RECENT ACUS01 KWNS FROM STORM\nPREDICTION CENTER FOR SYNOPSIS AND METEOROLOGICAL DETAILS.\n\nAREA 2...FROM 60NE MOT-PIR-40S RAP-70WNW RAP-70NE GGW-60NE MOT\nWST ISSUANCES POSS. REFER TO MOST RECENT ACUS01 KWNS FROM STORM\nPREDICTION CENTER FOR SYNOPSIS AND METEOROLOGICAL DETAILS.\n\nAREA 3...FROM 40WSW ACT-30SSE LFK-60SSW LEV-120SSW LCH-80E\nBRO-BRO-70SSE LRD-40SSE DLF-40WSW ACT\nWST ISSUANCES POSS. REFER TO MOST RECENT ACUS01 KWNS FROM STORM\nPREDICTION CENTER FOR SYNOPSIS AND METEOROLOGICAL DETAILS.\n\nAREA 4...FROM 40S RAP-MCK-PWE-MCI-CDS-60NW DLF-90SSE MRF-50SW\nMRF-60SE ELP-TCS-40NNE CHE-40S RAP\nWST ISSUANCES POSS. REFER TO MOST RECENT ACUS01 KWNS FROM STORM\nPREDICTION CENTER FOR SYNOPSIS AND METEOROLOGICAL DETAILS.",
                "validTimeTo": [
                    "2026-08-14T21:55"
                ]
            }
        },
        {
            "type": "Feature",
            "geometry": {
                "type": "Polygon",
                "coordinates": [
                    [
                        [
                            -103.652,
                            42.197
                        ],
                        [
                            -103.48,
                            41.558
                        ],
                        [
                            -104.938,
                            40.903
                        ],
                        [
                            -106.034,
                            41.565
                        ],
                        [
                            -103.652,
                            42.197
                        ]
                    ]
                ]
            },
            "properties": {
                "airSigmetId": null,
                "airportIcao": "KKCI",
                "airSigmetType": "SIGMET",
                "hazard": "CONVECTIVE",
                "severity": 5,
                "altitudeLow1": null,
                "altitudeLow2": null,
                "altitudeHi1": 45000,
                "altitudeHi2": 60000,
                "movementDir": 230,
                "movementSpd": 15,
                "rawAirSigmet": "WSUS32 KKCI 141955\nSIGC \nCONVECTIVE SIGMET 03C\nVALID UNTIL 2155Z\nNE CO WY\nFROM 20NNW BFF-20S BFF-20SSW CYS-20NW LAR-20NNW BFF\nDVLPG AREA TS MOV FROM 23015KT. TOPS ABV FL450.\n\nOUTLOOK VALID 142155-150155\nAREA 1...FROM 60NNW FSD-40ESE RWF-BVT-120S CEW-40NW\nSJI-AXC-MCI-OBH-60NNW FSD\nWST ISSUANCES EXPD. REFER TO MOST RECENT ACUS01 KWNS FROM STORM\nPREDICTION CENTER FOR SYNOPSIS AND METEOROLOGICAL DETAILS.\n\nAREA 2...FROM 60NE MOT-PIR-40S RAP-70WNW RAP-70NE GGW-60NE MOT\nWST ISSUANCES POSS. REFER TO MOST RECENT ACUS01 KWNS FROM STORM\nPREDICTION CENTER FOR SYNOPSIS AND METEOROLOGICAL DETAILS.\n\nAREA 3...FROM 40WSW ACT-30SSE LFK-60SSW LEV-120SSW LCH-80E\nBRO-BRO-70SSE LRD-40SSE DLF-40WSW ACT\nWST ISSUANCES POSS. REFER TO MOST RECENT ACUS01 KWNS FROM STORM\nPREDICTION CENTER FOR SYNOPSIS AND METEOROLOGICAL DETAILS.\n\nAREA 4...FROM 40S RAP-MCK-PWE-MCI-CDS-60NW DLF-90SSE MRF-50SW\nMRF-60SE ELP-TCS-40NNE CHE-40S RAP\nWST ISSUANCES POSS. REFER TO MOST RECENT ACUS01 KWNS FROM STORM\nPREDICTION CENTER FOR SYNOPSIS AND METEOROLOGICAL DETAILS.",
                "validTimeTo": [
                    "2026-08-14T21:55"
                ]
            }
        },
        {
            "type": "Feature",
            "geometry": {
                "type": "Polygon",
                "coordinates": [
                    [
                        [
                            -90.39,
                            37.363
                        ],
                        [
                            -85.58,
                            37.265
                        ],
                        [
                            -85.917,
                            36.392
                        ],
                        [
                            -90.633,
                            36.724
                        ],
                        [
                            -90.39,
                            37.363
                        ]
                    ]
                ]
            },
            "properties": {
                "airSigmetId": null,
                "airportIcao": "KKCI",
                "airSigmetType": "SIGMET",
                "hazard": "CONVECTIVE",
                "severity": 5,
                "altitudeLow1": null,
                "altitudeLow2": null,
                "altitudeHi1": 45000,
                "altitudeHi2": 60000,
                "movementDir": 270,
                "movementSpd": 10,
                "rawAirSigmet": "WSUS32 KKCI 141955\nSIGC \nCONVECTIVE SIGMET 04C\nVALID UNTIL 2155Z\nTN KY IL MO\nFROM 20SSW FAM-50S IIU-40ENE BNA-40NNE ARG-20SSW FAM\nDVLPG AREA TS MOV FROM 27010KT. TOPS ABV FL450.\n\nOUTLOOK VALID 142155-150155\nAREA 1...FROM 60NNW FSD-40ESE RWF-BVT-120S CEW-40NW\nSJI-AXC-MCI-OBH-60NNW FSD\nWST ISSUANCES EXPD. REFER TO MOST RECENT ACUS01 KWNS FROM STORM\nPREDICTION CENTER FOR SYNOPSIS AND METEOROLOGICAL DETAILS.\n\nAREA 2...FROM 60NE MOT-PIR-40S RAP-70WNW RAP-70NE GGW-60NE MOT\nWST ISSUANCES POSS. REFER TO MOST RECENT ACUS01 KWNS FROM STORM\nPREDICTION CENTER FOR SYNOPSIS AND METEOROLOGICAL DETAILS.\n\nAREA 3...FROM 40WSW ACT-30SSE LFK-60SSW LEV-120SSW LCH-80E\nBRO-BRO-70SSE LRD-40SSE DLF-40WSW ACT\nWST ISSUANCES POSS. REFER TO MOST RECENT ACUS01 KWNS FROM STORM\nPREDICTION CENTER FOR SYNOPSIS AND METEOROLOGICAL DETAILS.\n\nAREA 4...FROM 40S RAP-MCK-PWE-MCI-CDS-60NW DLF-90SSE MRF-50SW\nMRF-60SE ELP-TCS-40NNE CHE-40S RAP\nWST ISSUANCES POSS. REFER TO MOST RECENT ACUS01 KWNS FROM STORM\nPREDICTION CENTER FOR SYNOPSIS AND METEOROLOGICAL DETAILS.",
                "validTimeTo": [
                    "2026-08-14T21:55"
                ]
            }
        },
        {
            "type": "Feature",
            "geometry": {
                "type": "Polygon",
                "coordinates": [
                    [
                        [
                            -91.498,
                            30.48
                        ],
                        [
                            -90.354,
                            29.722
                        ],
                        [
                            -90.987,
                            29.497
                        ],
                        [
                            -91.593,
                            29.866
                        ],
                        [
                            -91.498,
                            30.48
                        ]
                    ]
                ]
            },
            "properties": {
                "airSigmetId": null,
                "airportIcao": "KKCI",
                "airSigmetType": "SIGMET",
                "hazard": "CONVECTIVE",
                "severity": 5,
                "altitudeLow1": null,
                "altitudeLow2": null,
                "altitudeHi1": 45000,
                "altitudeHi2": 60000,
                "movementDir": null,
                "movementSpd": null,
                "rawAirSigmet": "WSUS32 KKCI 141955\nSIGC \nCONVECTIVE SIGMET 05C\nVALID UNTIL 2155Z\nLA\nFROM 10W LSU-20WSW HRV-50WNW LEV-40SSW LSU-10W LSU\nAREA TS MOV LTL. TOPS ABV FL450.\n\nOUTLOOK VALID 142155-150155\nAREA 1...FROM 60NNW FSD-40ESE RWF-BVT-120S CEW-40NW\nSJI-AXC-MCI-OBH-60NNW FSD\nWST ISSUANCES EXPD. REFER TO MOST RECENT ACUS01 KWNS FROM STORM\nPREDICTION CENTER FOR SYNOPSIS AND METEOROLOGICAL DETAILS.\n\nAREA 2...FROM 60NE MOT-PIR-40S RAP-70WNW RAP-70NE GGW-60NE MOT\nWST ISSUANCES POSS. REFER TO MOST RECENT ACUS01 KWNS FROM STORM\nPREDICTION CENTER FOR SYNOPSIS AND METEOROLOGICAL DETAILS.\n\nAREA 3...FROM 40WSW ACT-30SSE LFK-60SSW LEV-120SSW LCH-80E\nBRO-BRO-70SSE LRD-40SSE DLF-40WSW ACT\nWST ISSUANCES POSS. REFER TO MOST RECENT ACUS01 KWNS FROM STORM\nPREDICTION CENTER FOR SYNOPSIS AND METEOROLOGICAL DETAILS.\n\nAREA 4...FROM 40S RAP-MCK-PWE-MCI-CDS-60NW DLF-90SSE MRF-50SW\nMRF-60SE ELP-TCS-40NNE CHE-40S RAP\nWST ISSUANCES POSS. REFER TO MOST RECENT ACUS01 KWNS FROM STORM\nPREDICTION CENTER FOR SYNOPSIS AND METEOROLOGICAL DETAILS.",
                "validTimeTo": [
                    "2026-08-14T21:55"
                ]
            }
        },
        {
            "type": "Feature",
            "geometry": {
                "type": "Polygon",
                "coordinates": [
                    [
                        [
                            -110.507,
                            36.372
                        ],
                        [
                            -106.82,
                            35.543
                        ],
                        [
                            -108.122,
                            31.2
                        ],
                        [
                            -109.707,
                            31.348
                        ],
                        [
                            -111.366,
                            34.866
                        ],
                        [
                            -110.507,
                            36.372
                        ]
                    ]
                ]
            },
            "properties": {
                "airSigmetId": null,
                "airportIcao": "KKCI",
                "airSigmetType": "SIGMET",
                "hazard": "CONVECTIVE",
                "severity": 5,
                "altitudeLow1": null,
                "altitudeLow2": null,
                "altitudeHi1": 40000,
                "altitudeHi2": 40000,
                "movementDir": 240,
                "movementSpd": 15,
                "rawAirSigmet": "WSUS33 KKCI 141955\nSIGW \nCONVECTIVE SIGMET 93W\nVALID UNTIL 2155Z\nNM AZ\nFROM 40ENE TBC-30N ABQ-70SSW DMN-60SSW SSO-30WSW INW-40ENE TBC\nAREA TS MOV FROM 24015KT. TOPS TO FL400.\n\nOUTLOOK VALID 142155-150155\nAREA 1...FROM 30WNW OCS-30NNE CHE-TCS-70SE SSO-50S TUS-50SSW\nINW-40SSW DRK-40SE BZA-BZA-40ESE MZB-60E RBL-30WNW OCS\nWST ISSUANCES POSS. REFER TO MOST RECENT ACUS01 KWNS FROM STORM\nPREDICTION CENTER FOR SYNOPSIS AND METEOROLOGICAL DETAILS.\n\nAREA 2...FROM 40SSW YQL-30W GTF-60W GGW-DDY-30WNW OCS-60WNW\nFMG-BOI-40SE OED-30ESE EUG-80SSE GEG-BTG-HUH-60SW YXC-40SSW YQL\nWST ISSUANCES POSS. REFER TO MOST RECENT ACUS01 KWNS FROM STORM\nPREDICTION CENTER FOR SYNOPSIS AND METEOROLOGICAL DETAILS.",
                "validTimeTo": [
                    "2026-08-14T21:55"
                ]
            }
        },
        {
            "type": "Feature",
            "geometry": {
                "type": "Polygon",
                "coordinates": [
                    [
                        [
                            -109.469,
                            45.216
                        ],
                        [
                            -107.718,
                            44.368
                        ],
                        [
                            -109.43,
                            41.462
                        ],
                        [
                            -110.955,
                            41.165
                        ],
                        [
                            -116.494,
                            41.341
                        ],
                        [
                            -109.469,
                            45.216
                        ]
                    ]
                ]
            },
            "properties": {
                "airSigmetId": null,
                "airportIcao": "KKCI",
                "airSigmetType": "SIGMET",
                "hazard": "CONVECTIVE",
                "severity": 5,
                "altitudeLow1": null,
                "altitudeLow2": null,
                "altitudeHi1": 36000,
                "altitudeHi2": 36000,
                "movementDir": 240,
                "movementSpd": 15,
                "rawAirSigmet": "WSUS33 KKCI 141955\nSIGW \nCONVECTIVE SIGMET 94W\nVALID UNTIL 2155Z\nMT WY UT ID NV\nFROM 50SW BIL-40SW SHR-20WSW OCS-50ENE SLC-50NNE BAM-50SW BIL\nDVLPG AREA TS MOV FROM 24015KT. TOPS TO FL360.\n\nOUTLOOK VALID 142155-150155\nAREA 1...FROM 30WNW OCS-30NNE CHE-TCS-70SE SSO-50S TUS-50SSW\nINW-40SSW DRK-40SE BZA-BZA-40ESE MZB-60E RBL-30WNW OCS\nWST ISSUANCES POSS. REFER TO MOST RECENT ACUS01 KWNS FROM STORM\nPREDICTION CENTER FOR SYNOPSIS AND METEOROLOGICAL DETAILS.\n\nAREA 2...FROM 40SSW YQL-30W GTF-60W GGW-DDY-30WNW OCS-60WNW\nFMG-BOI-40SE OED-30ESE EUG-80SSE GEG-BTG-HUH-60SW YXC-40SSW YQL\nWST ISSUANCES POSS. REFER TO MOST RECENT ACUS01 KWNS FROM STORM\nPREDICTION CENTER FOR SYNOPSIS AND METEOROLOGICAL DETAILS.",
                "validTimeTo": [
                    "2026-08-14T21:55"
                ]
            }
        },
        {
            "type": "Feature",
            "geometry": {
                "type": "Polygon",
                "coordinates": [
                    [
                        [
                            -110.297,
                            40.457
                        ],
                        [
                            -109.964,
                            39.843
                        ],
                        [
                            -115.31,
                            36.201
                        ],
                        [
                            -116.92,
                            39.402
                        ],
                        [
                            -114.376,
                            40.258
                        ],
                        [
                            -110.297,
                            40.457
                        ]
                    ]
                ]
            },
            "properties": {
                "airSigmetId": null,
                "airportIcao": "KKCI",
                "airSigmetType": "SIGMET",
                "hazard": "CONVECTIVE",
                "severity": 5,
                "altitudeLow1": null,
                "altitudeLow2": null,
                "altitudeHi1": 45000,
                "altitudeHi2": 60000,
                "movementDir": 230,
                "movementSpd": 10,
                "rawAirSigmet": "WSUS33 KKCI 141955\nSIGW \nCONVECTIVE SIGMET 95W\nVALID UNTIL 2155Z\nUT NV\nFROM 20NNW MTU-20SSE MTU-10NW LAS-70S BAM-40SW BVL-20NNW MTU\nAREA TS MOV FROM 23010KT. TOPS ABV FL450.\n\nOUTLOOK VALID 142155-150155\nAREA 1...FROM 30WNW OCS-30NNE CHE-TCS-70SE SSO-50S TUS-50SSW\nINW-40SSW DRK-40SE BZA-BZA-40ESE MZB-60E RBL-30WNW OCS\nWST ISSUANCES POSS. REFER TO MOST RECENT ACUS01 KWNS FROM STORM\nPREDICTION CENTER FOR SYNOPSIS AND METEOROLOGICAL DETAILS.\n\nAREA 2...FROM 40SSW YQL-30W GTF-60W GGW-DDY-30WNW OCS-60WNW\nFMG-BOI-40SE OED-30ESE EUG-80SSE GEG-BTG-HUH-60SW YXC-40SSW YQL\nWST ISSUANCES POSS. REFER TO MOST RECENT ACUS01 KWNS FROM STORM\nPREDICTION CENTER FOR SYNOPSIS AND METEOROLOGICAL DETAILS.",
                "validTimeTo": [
                    "2026-08-14T21:55"
                ]
            }
        },
        {
            "type": "Feature",
            "geometry": {
                "type": "Polygon",
                "coordinates": [
                    [
                        [
                            -115.65,
                            48.295
                        ],
                        [
                            -114.37,
                            47.903
                        ],
                        [
                            -118.31,
                            43.361
                        ],
                        [
                            -118.747,
                            44.836
                        ],
                        [
                            -115.65,
                            48.295
                        ]
                    ]
                ]
            },
            "properties": {
                "airSigmetId": null,
                "airportIcao": "KKCI",
                "airSigmetType": "SIGMET",
                "hazard": "CONVECTIVE",
                "severity": 5,
                "altitudeLow1": null,
                "altitudeLow2": null,
                "altitudeHi1": 38000,
                "altitudeHi2": 38000,
                "movementDir": 230,
                "movementSpd": 15,
                "rawAirSigmet": "WSUS33 KKCI 141955\nSIGW \nCONVECTIVE SIGMET 96W\nVALID UNTIL 2155Z\nMT ID OR WA\nFROM 50N MLP-20SSW FCA-50NNW REO-40W BKE-50N MLP\nDVLPG AREA TS MOV FROM 23015KT. TOPS TO FL380.\n\nOUTLOOK VALID 142155-150155\nAREA 1...FROM 30WNW OCS-30NNE CHE-TCS-70SE SSO-50S TUS-50SSW\nINW-40SSW DRK-40SE BZA-BZA-40ESE MZB-60E RBL-30WNW OCS\nWST ISSUANCES POSS. REFER TO MOST RECENT ACUS01 KWNS FROM STORM\nPREDICTION CENTER FOR SYNOPSIS AND METEOROLOGICAL DETAILS.\n\nAREA 2...FROM 40SSW YQL-30W GTF-60W GGW-DDY-30WNW OCS-60WNW\nFMG-BOI-40SE OED-30ESE EUG-80SSE GEG-BTG-HUH-60SW YXC-40SSW YQL\nWST ISSUANCES POSS. REFER TO MOST RECENT ACUS01 KWNS FROM STORM\nPREDICTION CENTER FOR SYNOPSIS AND METEOROLOGICAL DETAILS.",
                "validTimeTo": [
                    "2026-08-14T21:55"
                ]
            }
        },
        {
            "type": "Feature",
            "geometry": {
                "type": "Polygon",
                "coordinates": [
                    [
                        [
                            -120.52,
                            48.967
                        ],
                        [
                            -119.622,
                            48.876
                        ],
                        [
                            -120.816,
                            45.955
                        ],
                        [
                            -122.125,
                            46.521
                        ],
                        [
                            -120.52,
                            48.967
                        ]
                    ]
                ]
            },
            "properties": {
                "airSigmetId": null,
                "airportIcao": "KKCI",
                "airSigmetType": "SIGMET",
                "hazard": "CONVECTIVE",
                "severity": 5,
                "altitudeLow1": null,
                "altitudeLow2": null,
                "altitudeHi1": 32000,
                "altitudeHi2": 32000,
                "movementDir": 230,
                "movementSpd": 10,
                "rawAirSigmet": "WSUS33 KKCI 141955\nSIGW \nCONVECTIVE SIGMET 97W\nVALID UNTIL 2155Z\nWA\nFROM 30S YDC-50SE YDC-40SSW YKM-50NNE BTG-30S YDC\nDVLPG AREA TS MOV FROM 23010KT. TOPS TO FL320.\n\nOUTLOOK VALID 142155-150155\nAREA 1...FROM 30WNW OCS-30NNE CHE-TCS-70SE SSO-50S TUS-50SSW\nINW-40SSW DRK-40SE BZA-BZA-40ESE MZB-60E RBL-30WNW OCS\nWST ISSUANCES POSS. REFER TO MOST RECENT ACUS01 KWNS FROM STORM\nPREDICTION CENTER FOR SYNOPSIS AND METEOROLOGICAL DETAILS.\n\nAREA 2...FROM 40SSW YQL-30W GTF-60W GGW-DDY-30WNW OCS-60WNW\nFMG-BOI-40SE OED-30ESE EUG-80SSE GEG-BTG-HUH-60SW YXC-40SSW YQL\nWST ISSUANCES POSS. REFER TO MOST RECENT ACUS01 KWNS FROM STORM\nPREDICTION CENTER FOR SYNOPSIS AND METEOROLOGICAL DETAILS.",
                "validTimeTo": [
                    "2026-08-14T21:55"
                ]
            }
        },
        {
            "type": "Feature",
            "geometry": {
                "type": "Polygon",
                "coordinates": [
                    [
                        [
                            -81.11,
                            29.632
                        ],
                        [
                            -80.573,
                            28.829
                        ],
                        [
                            -80.653,
                            25.028
                        ],
                        [
                            -82.908,
                            26.628
                        ],
                        [
                            -83.373,
                            27.654
                        ],
                        [
                            -81.11,
                            29.632
                        ]
                    ]
                ]
            },
            "properties": {
                "airSigmetId": null,
                "airportIcao": "KKCI",
                "airSigmetType": "SIGMET",
                "hazard": "CONVECTIVE",
                "severity": 5,
                "altitudeLow1": null,
                "altitudeLow2": null,
                "altitudeHi1": 45000,
                "altitudeHi2": 60000,
                "movementDir": 100,
                "movementSpd": 5,
                "rawAirSigmet": "WSUS31 KKCI 141955\nSIGE \nCONVECTIVE SIGMET 92E\nVALID UNTIL 2155Z\nFL AND CSTL WTRS\nFROM 20N OMN-40SE OMN-50SSW MIA-50SSW SRQ-40WSW PIE-20N OMN\nAREA TS MOV FROM 10005KT. TOPS ABV FL450.\n\nOUTLOOK VALID 142155-150155\nAREA 1...FROM BVT-190ESE SIE-190ESE ECG-CHS-190SE CHS-210ENE\nPBI-70ENE PBI-160SE MIA-80WSW EYW-120S CEW-BVT\nWST ISSUANCES EXPD. REFER TO MOST RECENT ACUS01 KWNS FROM STORM\nPREDICTION CENTER FOR SYNOPSIS AND METEOROLOGICAL DETAILS.\n\nAREA 2...FROM MSS-CON-BDL-40NW SYR-60N SYR-MSS\nWST ISSUANCES EXPD. REFER TO MOST RECENT ACUS01 KWNS FROM STORM\nPREDICTION CENTER FOR SYNOPSIS AND METEOROLOGICAL DETAILS.",
                "validTimeTo": [
                    "2026-08-14T21:55"
                ]
            }
        },
        {
            "type": "Feature",
            "geometry": {
                "type": "Polygon",
                "coordinates": [
                    [
                        [
                            -85.764,
                            34.958
                        ],
                        [
                            -83.674,
                            34.827
                        ],
                        [
                            -83.4,
                            30.556
                        ],
                        [
                            -88.219,
                            30.851
                        ],
                        [
                            -88.573,
                            31.915
                        ],
                        [
                            -85.764,
                            34.958
                        ]
                    ]
                ]
            },
            "properties": {
                "airSigmetId": null,
                "airportIcao": "KKCI",
                "airSigmetType": "SIGMET",
                "hazard": "CONVECTIVE",
                "severity": 5,
                "altitudeLow1": null,
                "altitudeLow2": null,
                "altitudeHi1": 45000,
                "altitudeHi2": 60000,
                "movementDir": 290,
                "movementSpd": 5,
                "rawAirSigmet": "WSUS31 KKCI 141955\nSIGE \nCONVECTIVE SIGMET 93E\nVALID UNTIL 2155Z\nFL GA AL MS\nFROM 30W GQO-20WNW ODF-50E TLH-10NE SJI-30SSE MEI-30W GQO\nAREA SEV EMBD TS MOV FROM 29005KT. TOPS ABV FL450.\nHAIL TO 0.75 IN...WIND GUSTS TO 50KT POSS.\n\nOUTLOOK VALID 142155-150155\nAREA 1...FROM BVT-190ESE SIE-190ESE ECG-CHS-190SE CHS-210ENE\nPBI-70ENE PBI-160SE MIA-80WSW EYW-120S CEW-BVT\nWST ISSUANCES EXPD. REFER TO MOST RECENT ACUS01 KWNS FROM STORM\nPREDICTION CENTER FOR SYNOPSIS AND METEOROLOGICAL DETAILS.\n\nAREA 2...FROM MSS-CON-BDL-40NW SYR-60N SYR-MSS\nWST ISSUANCES EXPD. REFER TO MOST RECENT ACUS01 KWNS FROM STORM\nPREDICTION CENTER FOR SYNOPSIS AND METEOROLOGICAL DETAILS.",
                "validTimeTo": [
                    "2026-08-14T21:55"
                ]
            }
        },
        {
            "type": "Feature",
            "geometry": {
                "type": "Polygon",
                "coordinates": [
                    [
                        [
                            -74.339,
                            39.455
                        ],
                        [
                            -72.248,
                            39.098
                        ],
                        [
                            -72.869,
                            37.553
                        ],
                        [
                            -74.843,
                            37.329
                        ],
                        [
                            -75.682,
                            38.043
                        ],
                        [
                            -74.339,
                            39.455
                        ]
                    ]
                ]
            },
            "properties": {
                "airSigmetId": null,
                "airportIcao": "KKCI",
                "airSigmetType": "SIGMET",
                "hazard": "CONVECTIVE",
                "severity": 5,
                "altitudeLow1": null,
                "altitudeLow2": null,
                "altitudeHi1": 45000,
                "altitudeHi2": 60000,
                "movementDir": 280,
                "movementSpd": 25,
                "rawAirSigmet": "WSUS31 KKCI 141955\nSIGE \nCONVECTIVE SIGMET 94E\nVALID UNTIL 2155Z\nDE MD VA AND DE NJ MD VA CSTL WTRS\nFROM 30NE SIE-110ESE CYN-130SE SIE-70ENE ORF-20SSW SBY-30NE SIE\nAREA TS MOV FROM 28025KT. TOPS ABV FL450.\n\nOUTLOOK VALID 142155-150155\nAREA 1...FROM BVT-190ESE SIE-190ESE ECG-CHS-190SE CHS-210ENE\nPBI-70ENE PBI-160SE MIA-80WSW EYW-120S CEW-BVT\nWST ISSUANCES EXPD. REFER TO MOST RECENT ACUS01 KWNS FROM STORM\nPREDICTION CENTER FOR SYNOPSIS AND METEOROLOGICAL DETAILS.\n\nAREA 2...FROM MSS-CON-BDL-40NW SYR-60N SYR-MSS\nWST ISSUANCES EXPD. REFER TO MOST RECENT ACUS01 KWNS FROM STORM\nPREDICTION CENTER FOR SYNOPSIS AND METEOROLOGICAL DETAILS.",
                "validTimeTo": [
                    "2026-08-14T21:55"
                ]
            }
        },
        {
            "type": "Feature",
            "geometry": {
                "type": "Polygon",
                "coordinates": [
                    [
                        [
                            -78.974,
                            26.676
                        ],
                        [
                            -79.007,
                            24.619
                        ],
                        [
                            -79.67,
                            24.413
                        ],
                        [
                            -79.571,
                            26.487
                        ],
                        [
                            -78.974,
                            26.676
                        ]
                    ]
                ]
            },
            "properties": {
                "airSigmetId": null,
                "airportIcao": "KKCI",
                "airSigmetType": "SIGMET",
                "hazard": "CONVECTIVE",
                "severity": 5,
                "altitudeLow1": null,
                "altitudeLow2": null,
                "altitudeHi1": 45000,
                "altitudeHi2": 60000,
                "movementDir": 100,
                "movementSpd": 10,
                "rawAirSigmet": "WSUS31 KKCI 141955\nSIGE \nCONVECTIVE SIGMET 95E\nVALID UNTIL 2155Z\nFL CSTL WTRS\nFROM 60E PBI-100SE MIA-90SSE MIA-30ESE PBI-60E PBI\nAREA TS MOV FROM 10010KT. TOPS ABV FL450.\nREF INTL SIGMET DELTA SERIES.\n\nOUTLOOK VALID 142155-150155\nAREA 1...FROM BVT-190ESE SIE-190ESE ECG-CHS-190SE CHS-210ENE\nPBI-70ENE PBI-160SE MIA-80WSW EYW-120S CEW-BVT\nWST ISSUANCES EXPD. REFER TO MOST RECENT ACUS01 KWNS FROM STORM\nPREDICTION CENTER FOR SYNOPSIS AND METEOROLOGICAL DETAILS.\n\nAREA 2...FROM MSS-CON-BDL-40NW SYR-60N SYR-MSS\nWST ISSUANCES EXPD. REFER TO MOST RECENT ACUS01 KWNS FROM STORM\nPREDICTION CENTER FOR SYNOPSIS AND METEOROLOGICAL DETAILS.",
                "validTimeTo": [
                    "2026-08-14T21:55"
                ]
            }
        },
        {
            "type": "Feature",
            "geometry": {
                "type": "Polygon",
                "coordinates": [
                    [
                        [
                            -75.682,
                            38.043
                        ],
                        [
                            -74.843,
                            37.329
                        ],
                        [
                            -74.667,
                            35.732
                        ],
                        [
                            -75.633,
                            35.17
                        ],
                        [
                            -76.18,
                            35.747
                        ],
                        [
                            -75.682,
                            38.043
                        ]
                    ]
                ]
            },
            "properties": {
                "airSigmetId": null,
                "airportIcao": "KKCI",
                "airSigmetType": "SIGMET",
                "hazard": "CONVECTIVE",
                "severity": 5,
                "altitudeLow1": null,
                "altitudeLow2": null,
                "altitudeHi1": 39000,
                "altitudeHi2": 39000,
                "movementDir": 270,
                "movementSpd": 25,
                "rawAirSigmet": "WSUS31 KKCI 141955\nSIGE \nCONVECTIVE SIGMET 96E\nVALID UNTIL 2155Z\nMD VA NC AND NC VA CSTL WTRS\nFROM 20SSW SBY-70ENE ORF-80ESE ECG-70SSE ECG-30S ECG-20SSW SBY\nAREA TS MOV FROM 27025KT. TOPS TO FL390.\n\nOUTLOOK VALID 142155-150155\nAREA 1...FROM BVT-190ESE SIE-190ESE ECG-CHS-190SE CHS-210ENE\nPBI-70ENE PBI-160SE MIA-80WSW EYW-120S CEW-BVT\nWST ISSUANCES EXPD. REFER TO MOST RECENT ACUS01 KWNS FROM STORM\nPREDICTION CENTER FOR SYNOPSIS AND METEOROLOGICAL DETAILS.\n\nAREA 2...FROM MSS-CON-BDL-40NW SYR-60N SYR-MSS\nWST ISSUANCES EXPD. REFER TO MOST RECENT ACUS01 KWNS FROM STORM\nPREDICTION CENTER FOR SYNOPSIS AND METEOROLOGICAL DETAILS.",
                "validTimeTo": [
                    "2026-08-14T21:55"
                ]
            }
        },
        {
            "type": "Feature",
            "geometry": {
                "type": "Polygon",
                "coordinates": [
                    [
                        [
                            -83.65,
                            33.193
                        ],
                        [
                            -81.11,
                            31.495
                        ],
                        [
                            -81.11,
                            29.632
                        ],
                        [
                            -81.812,
                            29.044
                        ],
                        [
                            -83.231,
                            29.535
                        ],
                        [
                            -83.65,
                            33.193
                        ]
                    ]
                ]
            },
            "properties": {
                "airSigmetId": null,
                "airportIcao": "KKCI",
                "airSigmetType": "SIGMET",
                "hazard": "CONVECTIVE",
                "severity": 5,
                "altitudeLow1": null,
                "altitudeLow2": null,
                "altitudeHi1": 45000,
                "altitudeHi2": 60000,
                "movementDir": null,
                "movementSpd": null,
                "rawAirSigmet": "WSUS31 KKCI 141955\nSIGE \nCONVECTIVE SIGMET 97E\nVALID UNTIL 2155Z\nFL GA AND CSTL WTRS\nFROM 30N MCN-40S SAV-20N OMN-40WSW OMN-10WSW CTY-30N MCN\nAREA SEV TS MOV LTL. TOPS ABV FL450.\nHAIL TO 1 IN...WIND GUSTS TO 50KT POSS.\n\nOUTLOOK VALID 142155-150155\nAREA 1...FROM BVT-190ESE SIE-190ESE ECG-CHS-190SE CHS-210ENE\nPBI-70ENE PBI-160SE MIA-80WSW EYW-120S CEW-BVT\nWST ISSUANCES EXPD. REFER TO MOST RECENT ACUS01 KWNS FROM STORM\nPREDICTION CENTER FOR SYNOPSIS AND METEOROLOGICAL DETAILS.\n\nAREA 2...FROM MSS-CON-BDL-40NW SYR-60N SYR-MSS\nWST ISSUANCES EXPD. REFER TO MOST RECENT ACUS01 KWNS FROM STORM\nPREDICTION CENTER FOR SYNOPSIS AND METEOROLOGICAL DETAILS.",
                "validTimeTo": [
                    "2026-08-14T21:55"
                ]
            }
        },
        {
            "type": "Feature",
            "geometry": {
                "type": "Polygon",
                "coordinates": [
                    [
                        [
                            -80.493,
                            35.575
                        ],
                        [
                            -79.171,
                            35.098
                        ],
                        [
                            -80.592,
                            32.696
                        ],
                        [
                            -81.949,
                            32.862
                        ],
                        [
                            -82.216,
                            34.795
                        ],
                        [
                            -80.493,
                            35.575
                        ]
                    ]
                ]
            },
            "properties": {
                "airSigmetId": null,
                "airportIcao": "KKCI",
                "airSigmetType": "SIGMET",
                "hazard": "CONVECTIVE",
                "severity": 5,
                "altitudeLow1": null,
                "altitudeLow2": null,
                "altitudeHi1": 45000,
                "altitudeHi2": 60000,
                "movementDir": null,
                "movementSpd": null,
                "rawAirSigmet": "WSUS31 KKCI 141955\nSIGE \nCONVECTIVE SIGMET 98E\nVALID UNTIL 2155Z\nNC SC GA\nFROM 30NE CLT-50SSW RDU-30WSW CHS-60NW SAV-20SW SPA-30NE CLT\nAREA TS MOV LTL. TOPS ABV FL450.\n\nOUTLOOK VALID 142155-150155\nAREA 1...FROM BVT-190ESE SIE-190ESE ECG-CHS-190SE CHS-210ENE\nPBI-70ENE PBI-160SE MIA-80WSW EYW-120S CEW-BVT\nWST ISSUANCES EXPD. REFER TO MOST RECENT ACUS01 KWNS FROM STORM\nPREDICTION CENTER FOR SYNOPSIS AND METEOROLOGICAL DETAILS.\n\nAREA 2...FROM MSS-CON-BDL-40NW SYR-60N SYR-MSS\nWST ISSUANCES EXPD. REFER TO MOST RECENT ACUS01 KWNS FROM STORM\nPREDICTION CENTER FOR SYNOPSIS AND METEOROLOGICAL DETAILS.",
                "validTimeTo": [
                    "2026-08-14T21:55"
                ]
            }
        }
    ],
    "metadata": {
        "creationTime": "2026-08-14T20:37"
    }
}