{
    "type": "FeatureCollection",
    "features": [
        {
            "type": "Feature",
            "geometry": {
                "type": "Polygon",
                "coordinates": [
                    [
                        [
                            -114.237,
                            34.305
                        ],
                        [
                            -113.215,
                            33.424
                        ],
                        [
                            -114.397,
                            32.77
                        ],
                        [
                            -114.905,
                            33.384
                        ],
                        [
                            -114.237,
                            34.305
                        ]
                    ]
                ]
            },
            "properties": {
                "airSigmetId": null,
                "airportIcao": "KKCI",
                "airSigmetType": "SIGMET",
                "hazard": "CONVECTIVE",
                "severity": 5,
                "altitudeLow1": null,
                "altitudeLow2": null,
                "altitudeHi1": 33000,
                "altitudeHi2": 33000,
                "movementDir": 190,
                "movementSpd": 10,
                "rawAirSigmet": "WSUS33 KKCI 231255\nSIGW \nCONVECTIVE SIGMET 70W\nVALID UNTIL 1455Z\nAZ CA\nFROM 30SSE EED-60W PHX-10E BZA-40NNW BZA-30SSE EED\nAREA TS MOV FROM 19010KT. TOPS TO FL330.\n\nOUTLOOK VALID 231455-231855\nTS ARE NOT EXPD TO REQUIRE WST ISSUANCES.",
                "validTimeTo": [
                    "2026-08-23T14:55"
                ]
            }
        },
        {
            "type": "Feature",
            "geometry": {
                "type": "Polygon",
                "coordinates": [
                    [
                        [
                            -117.63,
                            49.06
                        ],
                        [
                            -115.392,
                            48.985
                        ],
                        [
                            -115.416,
                            47.525
                        ],
                        [
                            -117.883,
                            47.56
                        ],
                        [
                            -117.63,
                            49.06
                        ]
                    ]
                ]
            },
            "properties": {
                "airSigmetId": null,
                "airportIcao": "KKCI",
                "airSigmetType": "SIGMET",
                "hazard": "CONVECTIVE",
                "severity": 5,
                "altitudeLow1": null,
                "altitudeLow2": null,
                "altitudeHi1": 35000,
                "altitudeHi2": 35000,
                "movementDir": 210,
                "movementSpd": 35,
                "rawAirSigmet": "WSUS33 KKCI 231255\nSIGW \nCONVECTIVE SIGMET 71W\nVALID UNTIL 1455Z\nMT ID WA\nFROM 90N GEG-40SSE YXC-10ENE MLP-10W GEG-90N GEG\nAREA TS MOV FROM 21035KT. TOPS TO FL350.\n\nOUTLOOK VALID 231455-231855\nTS ARE NOT EXPD TO REQUIRE WST ISSUANCES.",
                "validTimeTo": [
                    "2026-08-23T14:55"
                ]
            }
        },
        {
            "type": "Feature",
            "geometry": {
                "type": "Polygon",
                "coordinates": [
                    [
                        [
                            -99.717,
                            45.171
                        ],
                        [
                            -95.807,
                            40.326
                        ],
                        [
                            -99.238,
                            38.936
                        ],
                        [
                            -103.01,
                            43.98
                        ],
                        [
                            -99.717,
                            45.171
                        ]
                    ]
                ]
            },
            "properties": {
                "airSigmetId": null,
                "airportIcao": "KKCI",
                "airSigmetType": "SIGMET",
                "hazard": "CONVECTIVE",
                "severity": 5,
                "altitudeLow1": null,
                "altitudeLow2": null,
                "altitudeHi1": 45000,
                "altitudeHi2": 45000,
                "movementDir": 310,
                "movementSpd": 25,
                "rawAirSigmet": "WSUS32 KKCI 231255\nSIGC \nCONVECTIVE SIGMET 59C\nVALID UNTIL 1455Z\nKS NE SD\nFROM 50NNE PIR-20ENE PWE-50ESE HLC-RAP-50NNE PIR\nAREA SEV TS MOV FROM 31025KT. TOPS TO FL450.\nHAIL TO 1.5 IN POSS.\n\nOUTLOOK VALID 231455-231855\nFROM 50NNW MOT-30N MCI-30N GCK-40NE HVR-50NNW MOT\nWST ISSUANCES POSS. REFER TO MOST RECENT ACUS01 KWNS FROM STORM\nPREDICTION CENTER FOR SYNOPSIS AND METEOROLOGICAL DETAILS.",
                "validTimeTo": [
                    "2026-08-23T14:55"
                ]
            }
        },
        {
            "type": "Feature",
            "geometry": {
                "type": "Polygon",
                "coordinates": [
                    [
                        [
                            -91.111,
                            32.836
                        ],
                        [
                            -90.401,
                            31.421
                        ],
                        [
                            -91.953,
                            30.789
                        ],
                        [
                            -92.58,
                            32.326
                        ],
                        [
                            -91.111,
                            32.836
                        ]
                    ]
                ]
            },
            "properties": {
                "airSigmetId": null,
                "airportIcao": "KKCI",
                "airSigmetType": "SIGMET",
                "hazard": "CONVECTIVE",
                "severity": 5,
                "altitudeLow1": null,
                "altitudeLow2": null,
                "altitudeHi1": 45000,
                "altitudeHi2": 60000,
                "movementDir": 320,
                "movementSpd": 15,
                "rawAirSigmet": "WSUS32 KKCI 231255\nSIGC \nCONVECTIVE SIGMET 60C\nVALID UNTIL 1455Z\nMS LA\nFROM 50ENE MLU-10NW MCB-40SE AEX-30WSW MLU-50ENE MLU\nAREA TS MOV FROM 32015KT. TOPS ABV FL450.\n\nOUTLOOK VALID 231455-231855\nFROM 50NNW MOT-30N MCI-30N GCK-40NE HVR-50NNW MOT\nWST ISSUANCES POSS. REFER TO MOST RECENT ACUS01 KWNS FROM STORM\nPREDICTION CENTER FOR SYNOPSIS AND METEOROLOGICAL DETAILS.",
                "validTimeTo": [
                    "2026-08-23T14:55"
                ]
            }
        },
        {
            "type": "Feature",
            "geometry": {
                "type": "Polygon",
                "coordinates": [
                    [
                        [
                            -95.948,
                            32.484
                        ],
                        [
                            -93.582,
                            32.305
                        ],
                        [
                            -93.555,
                            31.155
                        ],
                        [
                            -96.192,
                            31.274
                        ],
                        [
                            -95.948,
                            32.484
                        ]
                    ]
                ]
            },
            "properties": {
                "airSigmetId": null,
                "airportIcao": "KKCI",
                "airSigmetType": "SIGMET",
                "hazard": "CONVECTIVE",
                "severity": 5,
                "altitudeLow1": null,
                "altitudeLow2": null,
                "altitudeHi1": 45000,
                "altitudeHi2": 60000,
                "movementDir": 360,
                "movementSpd": 20,
                "rawAirSigmet": "WSUS32 KKCI 231255\nSIGC \nCONVECTIVE SIGMET 61C\nVALID UNTIL 1455Z\nLA TX\nFROM 60ESE TTT-30SSE EIC-60E LFK-60ESE ACT-60ESE TTT\nAREA TS MOV FROM 36020KT. TOPS ABV FL450.\n\nOUTLOOK VALID 231455-231855\nFROM 50NNW MOT-30N MCI-30N GCK-40NE HVR-50NNW MOT\nWST ISSUANCES POSS. REFER TO MOST RECENT ACUS01 KWNS FROM STORM\nPREDICTION CENTER FOR SYNOPSIS AND METEOROLOGICAL DETAILS.",
                "validTimeTo": [
                    "2026-08-23T14:55"
                ]
            }
        },
        {
            "type": "Feature",
            "geometry": {
                "type": "Polygon",
                "coordinates": [
                    [
                        [
                            -107.703,
                            48.92
                        ],
                        [
                            -104.889,
                            48.999
                        ],
                        [
                            -104.108,
                            46.471
                        ],
                        [
                            -106.432,
                            46.379
                        ],
                        [
                            -107.703,
                            48.92
                        ]
                    ]
                ]
            },
            "properties": {
                "airSigmetId": null,
                "airportIcao": "KKCI",
                "airSigmetType": "SIGMET",
                "hazard": "CONVECTIVE",
                "severity": 5,
                "altitudeLow1": null,
                "altitudeLow2": null,
                "altitudeHi1": 30000,
                "altitudeHi2": 30000,
                "movementDir": 270,
                "movementSpd": 20,
                "rawAirSigmet": "WSUS32 KKCI 231255\nSIGC \nCONVECTIVE SIGMET 62C\nVALID UNTIL 1455Z\nMT\nFROM 60NW GGW-70NW ISN-60WSW DIK-20W MLS-60NW GGW\nAREA TS MOV FROM 27020KT. TOPS TO FL300.\n\nOUTLOOK VALID 231455-231855\nFROM 50NNW MOT-30N MCI-30N GCK-40NE HVR-50NNW MOT\nWST ISSUANCES POSS. REFER TO MOST RECENT ACUS01 KWNS FROM STORM\nPREDICTION CENTER FOR SYNOPSIS AND METEOROLOGICAL DETAILS.",
                "validTimeTo": [
                    "2026-08-23T14:55"
                ]
            }
        },
        {
            "type": "Feature",
            "geometry": {
                "type": "Polygon",
                "coordinates": [
                    [
                        [
                            -73.366,
                            41.938
                        ],
                        [
                            -71.842,
                            41.846
                        ],
                        [
                            -71.703,
                            41.111
                        ],
                        [
                            -72.32,
                            39.59
                        ],
                        [
                            -73.827,
                            39.626
                        ],
                        [
                            -73.366,
                            41.938
                        ]
                    ]
                ]
            },
            "properties": {
                "airSigmetId": null,
                "airportIcao": "KKCI",
                "airSigmetType": "SIGMET",
                "hazard": "CONVECTIVE",
                "severity": 5,
                "altitudeLow1": null,
                "altitudeLow2": null,
                "altitudeHi1": 35000,
                "altitudeHi2": 35000,
                "movementDir": 230,
                "movementSpd": 35,
                "rawAirSigmet": "WSUS31 KKCI 231255\nSIGE \nCONVECTIVE SIGMET 94E\nVALID UNTIL 1455Z\nRI CT NY AND RI NJ NY CT CSTL WTRS\nFROM 30W BDL-20WNW PVD-30ENE HTO-80S HTO-30ESE CYN-30W BDL\nAREA TS MOV FROM 23035KT. TOPS TO FL350.\n\nOUTLOOK VALID 231455-231855\nAREA 1...FROM 90ESE SBY-140SE SIE-190ESE ECG-140SSE ILM-210ENE\nPBI-90SE MIA-50WSW EYW-120ESE LEV-40SSE CHS-90ESE SBY\nWST ISSUANCES POSS. REFER TO MOST RECENT ACUS01 KWNS FROM STORM\nPREDICTION CENTER FOR SYNOPSIS AND METEOROLOGICAL DETAILS.\n\nAREA 2...FROM MSS-MPV-40ENE BOS-90NE ACK-140ENE ACK-200SE\nACK-150SE SIE-90SE SIE-SIE-HAR-JST-30NE CLE-MSS\nWST ISSUANCES POSS. REFER TO MOST RECENT ACUS01 KWNS FROM STORM\nPREDICTION CENTER FOR SYNOPSIS AND METEOROLOGICAL DETAILS.",
                "validTimeTo": [
                    "2026-08-23T14:55"
                ]
            }
        },
        {
            "type": "Feature",
            "geometry": {
                "type": "Polygon",
                "coordinates": [
                    [
                        [
                            -78.003,
                            43.398
                        ],
                        [
                            -77.601,
                            42.605
                        ],
                        [
                            -78.592,
                            41.701
                        ],
                        [
                            -80.379,
                            41.137
                        ],
                        [
                            -80.463,
                            42.141
                        ],
                        [
                            -78.003,
                            43.398
                        ]
                    ]
                ]
            },
            "properties": {
                "airSigmetId": null,
                "airportIcao": "KKCI",
                "airSigmetType": "SIGMET",
                "hazard": "CONVECTIVE",
                "severity": 5,
                "altitudeLow1": null,
                "altitudeLow2": null,
                "altitudeHi1": 33000,
                "altitudeHi2": 33000,
                "movementDir": 320,
                "movementSpd": 20,
                "rawAirSigmet": "WSUS31 KKCI 231255\nSIGE \nCONVECTIVE SIGMET 95E\nVALID UNTIL 1455Z\nNY PA OH LE\nFROM 40NE BUF-50ESE BUF-30WNW SLT-20NNW EWC-10NW ERI-40NE BUF\nAREA TS MOV FROM 32020KT. TOPS TO FL330.\n\nOUTLOOK VALID 231455-231855\nAREA 1...FROM 90ESE SBY-140SE SIE-190ESE ECG-140SSE ILM-210ENE\nPBI-90SE MIA-50WSW EYW-120ESE LEV-40SSE CHS-90ESE SBY\nWST ISSUANCES POSS. REFER TO MOST RECENT ACUS01 KWNS FROM STORM\nPREDICTION CENTER FOR SYNOPSIS AND METEOROLOGICAL DETAILS.\n\nAREA 2...FROM MSS-MPV-40ENE BOS-90NE ACK-140ENE ACK-200SE\nACK-150SE SIE-90SE SIE-SIE-HAR-JST-30NE CLE-MSS\nWST ISSUANCES POSS. REFER TO MOST RECENT ACUS01 KWNS FROM STORM\nPREDICTION CENTER FOR SYNOPSIS AND METEOROLOGICAL DETAILS.",
                "validTimeTo": [
                    "2026-08-23T14:55"
                ]
            }
        },
        {
            "type": "Feature",
            "geometry": {
                "type": "Polygon",
                "coordinates": [
                    [
                        [
                            -83.593,
                            30.069
                        ],
                        [
                            -81.983,
                            27.399
                        ],
                        [
                            -83.993,
                            26.097
                        ],
                        [
                            -85.984,
                            29.14
                        ],
                        [
                            -83.593,
                            30.069
                        ]
                    ]
                ]
            },
            "properties": {
                "airSigmetId": null,
                "airportIcao": "KKCI",
                "airSigmetType": "SIGMET",
                "hazard": "CONVECTIVE",
                "severity": 5,
                "altitudeLow1": null,
                "altitudeLow2": null,
                "altitudeHi1": 45000,
                "altitudeHi2": 60000,
                "movementDir": 310,
                "movementSpd": 5,
                "rawAirSigmet": "WSUS31 KKCI 231255\nSIGE \nCONVECTIVE SIGMET 96E\nVALID UNTIL 1455Z\nFL AND CSTL WTRS\nFROM 40NW CTY-30E SRQ-110SW SRQ-120SW TLH-40NW CTY\nAREA TS MOV FROM 31005KT. TOPS ABV FL450.\nREF INTL SIGMET BRAVO SERIES.\n\nOUTLOOK VALID 231455-231855\nAREA 1...FROM 90ESE SBY-140SE SIE-190ESE ECG-140SSE ILM-210ENE\nPBI-90SE MIA-50WSW EYW-120ESE LEV-40SSE CHS-90ESE SBY\nWST ISSUANCES POSS. REFER TO MOST RECENT ACUS01 KWNS FROM STORM\nPREDICTION CENTER FOR SYNOPSIS AND METEOROLOGICAL DETAILS.\n\nAREA 2...FROM MSS-MPV-40ENE BOS-90NE ACK-140ENE ACK-200SE\nACK-150SE SIE-90SE SIE-SIE-HAR-JST-30NE CLE-MSS\nWST ISSUANCES POSS. REFER TO MOST RECENT ACUS01 KWNS FROM STORM\nPREDICTION CENTER FOR SYNOPSIS AND METEOROLOGICAL DETAILS.",
                "validTimeTo": [
                    "2026-08-23T14:55"
                ]
            }
        },
        {
            "type": "Feature",
            "geometry": {
                "type": "Polygon",
                "coordinates": [
                    [
                        [
                            -77.87,
                            32.688
                        ],
                        [
                            -76.89,
                            32.346
                        ],
                        [
                            -76.434,
                            27.97
                        ],
                        [
                            -78.604,
                            25.154
                        ],
                        [
                            -79.619,
                            25.544
                        ],
                        [
                            -77.87,
                            32.688
                        ]
                    ]
                ]
            },
            "properties": {
                "airSigmetId": null,
                "airportIcao": "KKCI",
                "airSigmetType": "SIGMET",
                "hazard": "CONVECTIVE",
                "severity": 5,
                "altitudeLow1": null,
                "altitudeLow2": null,
                "altitudeHi1": 38000,
                "altitudeHi2": 38000,
                "movementDir": 190,
                "movementSpd": 15,
                "rawAirSigmet": "WSUS31 KKCI 231255\nSIGE \nCONVECTIVE SIGMET 97E\nVALID UNTIL 1455Z\nFL SC GA CSTL WTRS\nFROM 100S ILM-130SSE ILM-210ENE PBI-100ESE MIA-40ESE MIA-100S ILM\nAREA TS MOV FROM 19015KT. TOPS TO FL380.\nREF INTL SIGMET SERIES LIMA.\n\nOUTLOOK VALID 231455-231855\nAREA 1...FROM 90ESE SBY-140SE SIE-190ESE ECG-140SSE ILM-210ENE\nPBI-90SE MIA-50WSW EYW-120ESE LEV-40SSE CHS-90ESE SBY\nWST ISSUANCES POSS. REFER TO MOST RECENT ACUS01 KWNS FROM STORM\nPREDICTION CENTER FOR SYNOPSIS AND METEOROLOGICAL DETAILS.\n\nAREA 2...FROM MSS-MPV-40ENE BOS-90NE ACK-140ENE ACK-200SE\nACK-150SE SIE-90SE SIE-SIE-HAR-JST-30NE CLE-MSS\nWST ISSUANCES POSS. REFER TO MOST RECENT ACUS01 KWNS FROM STORM\nPREDICTION CENTER FOR SYNOPSIS AND METEOROLOGICAL DETAILS.",
                "validTimeTo": [
                    "2026-08-23T14:55"
                ]
            }
        },
        {
            "type": "Feature",
            "geometry": {
                "type": "Polygon",
                "coordinates": [
                    [
                        [
                            -73.311,
                            37.915
                        ],
                        [
                            -72.58,
                            37.313
                        ],
                        [
                            -72.434,
                            34.919
                        ],
                        [
                            -76.818,
                            32.196
                        ],
                        [
                            -77.87,
                            32.688
                        ],
                        [
                            -73.311,
                            37.915
                        ]
                    ]
                ]
            },
            "properties": {
                "airSigmetId": null,
                "airportIcao": "KKCI",
                "airSigmetType": "SIGMET",
                "hazard": "CONVECTIVE",
                "severity": 5,
                "altitudeLow1": null,
                "altitudeLow2": null,
                "altitudeHi1": 45000,
                "altitudeHi2": 60000,
                "movementDir": 230,
                "movementSpd": 20,
                "rawAirSigmet": "WSUS31 KKCI 231255\nSIGE \nCONVECTIVE SIGMET 98E\nVALID UNTIL 1455Z\nNC AND MD NC VA SC CSTL WTRS\nFROM 100SE SIE-150SE SIE-200ESE ECG-140SSE ILM-100S ILM-100SE SIE\nAREA TS MOV FROM 23020KT. TOPS ABV FL450.\nREF INTL SIGMET INDIA SERIES.\n\nOUTLOOK VALID 231455-231855\nAREA 1...FROM 90ESE SBY-140SE SIE-190ESE ECG-140SSE ILM-210ENE\nPBI-90SE MIA-50WSW EYW-120ESE LEV-40SSE CHS-90ESE SBY\nWST ISSUANCES POSS. REFER TO MOST RECENT ACUS01 KWNS FROM STORM\nPREDICTION CENTER FOR SYNOPSIS AND METEOROLOGICAL DETAILS.\n\nAREA 2...FROM MSS-MPV-40ENE BOS-90NE ACK-140ENE ACK-200SE\nACK-150SE SIE-90SE SIE-SIE-HAR-JST-30NE CLE-MSS\nWST ISSUANCES POSS. REFER TO MOST RECENT ACUS01 KWNS FROM STORM\nPREDICTION CENTER FOR SYNOPSIS AND METEOROLOGICAL DETAILS.",
                "validTimeTo": [
                    "2026-08-23T14:55"
                ]
            }
        }
    ],
    "metadata": {
        "creationTime": "2026-08-23T13:37"
    }
}