{
    "type": "FeatureCollection",
    "features": [
        {
            "type": "Feature",
            "geometry": {
                "type": "Polygon",
                "coordinates": [
                    [
                        [
                            -100.55,
                            28.895
                        ],
                        [
                            -97.814,
                            28.671
                        ],
                        [
                            -98.321,
                            27.578
                        ],
                        [
                            -99.556,
                            27.359
                        ],
                        [
                            -100.55,
                            28.895
                        ]
                    ]
                ]
            },
            "properties": {
                "airSigmetId": null,
                "airportIcao": "KKCI",
                "airSigmetType": "SIGMET",
                "hazard": "CONVECTIVE",
                "severity": 5,
                "altitudeLow1": null,
                "altitudeLow2": null,
                "altitudeHi1": 45000,
                "altitudeHi2": 45000,
                "movementDir": null,
                "movementSpd": null,
                "rawAirSigmet": "WSUS32 KKCI 021455\nSIGC \nCONVECTIVE SIGMET 42C\nVALID UNTIL 1655Z\nTX\nFROM 30SSE DLF-50NNW CRP-50WSW CRP-10SW LRD-30SSE DLF\nAREA TS MOV LTL. TOPS TO FL450.\n\nOUTLOOK VALID 021655-022055\nFROM 50NNW CEW-190ESE LEV-160SE LEV-130ESE LEV-120ESE PSX-60SE\nIAH-HRV-50NNW CEW\nWST ISSUANCES EXPD. REFER TO MOST RECENT ACUS01 KWNS FROM STORM\nPREDICTION CENTER FOR SYNOPSIS AND METEOROLOGICAL DETAILS.",
                "validTimeTo": [
                    "2026-08-02T16:55"
                ]
            }
        },
        {
            "type": "Feature",
            "geometry": {
                "type": "Polygon",
                "coordinates": [
                    [
                        [
                            -97.45,
                            28.735
                        ],
                        [
                            -94.414,
                            28.747
                        ],
                        [
                            -94.723,
                            27.341
                        ],
                        [
                            -97.98,
                            27.429
                        ],
                        [
                            -97.45,
                            28.735
                        ]
                    ]
                ]
            },
            "properties": {
                "airSigmetId": null,
                "airportIcao": "KKCI",
                "airSigmetType": "SIGMET",
                "hazard": "CONVECTIVE",
                "severity": 5,
                "altitudeLow1": null,
                "altitudeLow2": null,
                "altitudeHi1": 45000,
                "altitudeHi2": 60000,
                "movementDir": 290,
                "movementSpd": 5,
                "rawAirSigmet": "WSUS32 KKCI 021455\nSIGC \nCONVECTIVE SIGMET 43C\nVALID UNTIL 1655Z\nTX AND CSTL WTRS\nFROM 50N CRP-100E PSX-120SE PSX-40SW CRP-50N CRP\nAREA TS MOV FROM 29005KT. TOPS ABV FL450.\n\nOUTLOOK VALID 021655-022055\nFROM 50NNW CEW-190ESE LEV-160SE LEV-130ESE LEV-120ESE PSX-60SE\nIAH-HRV-50NNW CEW\nWST ISSUANCES EXPD. REFER TO MOST RECENT ACUS01 KWNS FROM STORM\nPREDICTION CENTER FOR SYNOPSIS AND METEOROLOGICAL DETAILS.",
                "validTimeTo": [
                    "2026-08-02T16:55"
                ]
            }
        },
        {
            "type": "Feature",
            "geometry": {
                "type": "Polygon",
                "coordinates": [
                    [
                        [
                            -110.92,
                            32.765
                        ],
                        [
                            -109.411,
                            32.577
                        ],
                        [
                            -109.954,
                            31.271
                        ],
                        [
                            -111.613,
                            31.507
                        ],
                        [
                            -110.92,
                            32.765
                        ]
                    ]
                ]
            },
            "properties": {
                "airSigmetId": null,
                "airportIcao": "KKCI",
                "airSigmetType": "SIGMET",
                "hazard": "CONVECTIVE",
                "severity": 5,
                "altitudeLow1": null,
                "altitudeLow2": null,
                "altitudeHi1": 29000,
                "altitudeHi2": 29000,
                "movementDir": 30,
                "movementSpd": 15,
                "rawAirSigmet": "WSUS33 KKCI 021455\nSIGW \nCONVECTIVE SIGMET 14W\nVALID UNTIL 1655Z\nAZ\nFROM 40N TUS-20NNW SSO-70SE TUS-50SW TUS-40N TUS\nAREA TS MOV FROM 03015KT. TOPS TO FL290.\n\nOUTLOOK VALID 021655-022055\nFROM 30SW RSK-40W FTI-30NE DMN-60SSW SSO-60SW TUS-30SW RSK\nWST ISSUANCES EXPD. REFER TO MOST RECENT ACUS01 KWNS FROM STORM\nPREDICTION CENTER FOR SYNOPSIS AND METEOROLOGICAL DETAILS.",
                "validTimeTo": [
                    "2026-08-02T16:55"
                ]
            }
        },
        {
            "type": "Feature",
            "geometry": {
                "type": "Polygon",
                "coordinates": [
                    [
                        [
                            -79.404,
                            26.424
                        ],
                        [
                            -79.264,
                            24.856
                        ],
                        [
                            -82.982,
                            24.138
                        ],
                        [
                            -82.64,
                            26.208
                        ],
                        [
                            -79.404,
                            26.424
                        ]
                    ]
                ]
            },
            "properties": {
                "airSigmetId": null,
                "airportIcao": "KKCI",
                "airSigmetType": "SIGMET",
                "hazard": "CONVECTIVE",
                "severity": 5,
                "altitudeLow1": null,
                "altitudeLow2": null,
                "altitudeHi1": 45000,
                "altitudeHi2": 60000,
                "movementDir": 180,
                "movementSpd": 10,
                "rawAirSigmet": "WSUS31 KKCI 021455\nSIGE \nCONVECTIVE SIGMET 25E\nVALID UNTIL 1655Z\nFL AND CSTL WTRS\nFROM 40ESE PBI-80SE MIA-70WSW EYW-50WSW RSW-40ESE PBI\nAREA TS MOV FROM 18010KT. TOPS ABV FL450.\n\nOUTLOOK VALID 021655-022055\nAREA 1...FROM 50W HMV-FLO-60ENE CRG-40SE PBI-60SSE MIA-50NW\nEYW-190W SRQ-200SE LEV-50SSW CEW-40SW MGM-50W HMV\nWST ISSUANCES EXPD. REFER TO MOST RECENT ACUS01 KWNS FROM STORM\nPREDICTION CENTER FOR SYNOPSIS AND METEOROLOGICAL DETAILS.\n\nAREA 2...FROM 40NW SYR-SBY-70SE ECG-FLO-40W HMV-30NNE\nCLE-YYZ-40NW SYR\nWST ISSUANCES EXPD. REFER TO MOST RECENT ACUS01 KWNS FROM STORM\nPREDICTION CENTER FOR SYNOPSIS AND METEOROLOGICAL DETAILS.\n\nAREA 3...FROM 110ESE SIE-180ESE ECG-140SSE ILM-220ENE OMN-210ENE\nPBI-160E PBI-30ENE PBI-30SSW CHS-FLO-80ESE ECG-110ESE SIE\nWST ISSUANCES EXPD. REFER TO MOST RECENT ACUS01 KWNS FROM STORM\nPREDICTION CENTER FOR SYNOPSIS AND METEOROLOGICAL DETAILS.",
                "validTimeTo": [
                    "2026-08-02T16:55"
                ]
            }
        },
        {
            "type": "Feature",
            "geometry": {
                "type": "Polygon",
                "coordinates": [
                    [
                        [
                            -80.21,
                            41.333
                        ],
                        [
                            -77.99,
                            40.749
                        ],
                        [
                            -79.706,
                            38.792
                        ],
                        [
                            -82.278,
                            39.215
                        ],
                        [
                            -80.21,
                            41.333
                        ]
                    ]
                ]
            },
            "properties": {
                "airSigmetId": null,
                "airportIcao": "KKCI",
                "airSigmetType": "SIGMET",
                "hazard": "CONVECTIVE",
                "severity": 5,
                "altitudeLow1": null,
                "altitudeLow2": null,
                "altitudeHi1": 40000,
                "altitudeHi2": 40000,
                "movementDir": 200,
                "movementSpd": 25,
                "rawAirSigmet": "WSUS31 KKCI 021455\nSIGE \nCONVECTIVE SIGMET 26E\nVALID UNTIL 1655Z\nPA MD WV OH\nFROM 30N EWC-10S PSB-20ESE EKN-30NNW HNN-30N EWC\nAREA TS MOV FROM 20025KT. TOPS TO FL400.\n\nOUTLOOK VALID 021655-022055\nAREA 1...FROM 50W HMV-FLO-60ENE CRG-40SE PBI-60SSE MIA-50NW\nEYW-190W SRQ-200SE LEV-50SSW CEW-40SW MGM-50W HMV\nWST ISSUANCES EXPD. REFER TO MOST RECENT ACUS01 KWNS FROM STORM\nPREDICTION CENTER FOR SYNOPSIS AND METEOROLOGICAL DETAILS.\n\nAREA 2...FROM 40NW SYR-SBY-70SE ECG-FLO-40W HMV-30NNE\nCLE-YYZ-40NW SYR\nWST ISSUANCES EXPD. REFER TO MOST RECENT ACUS01 KWNS FROM STORM\nPREDICTION CENTER FOR SYNOPSIS AND METEOROLOGICAL DETAILS.\n\nAREA 3...FROM 110ESE SIE-180ESE ECG-140SSE ILM-220ENE OMN-210ENE\nPBI-160E PBI-30ENE PBI-30SSW CHS-FLO-80ESE ECG-110ESE SIE\nWST ISSUANCES EXPD. REFER TO MOST RECENT ACUS01 KWNS FROM STORM\nPREDICTION CENTER FOR SYNOPSIS AND METEOROLOGICAL DETAILS.",
                "validTimeTo": [
                    "2026-08-02T16:55"
                ]
            }
        },
        {
            "type": "Feature",
            "geometry": {
                "type": "Polygon",
                "coordinates": [
                    [
                        [
                            -86.864,
                            30.895
                        ],
                        [
                            -85.313,
                            28.556
                        ],
                        [
                            -94.392,
                            28.045
                        ],
                        [
                            -93.11,
                            29.637
                        ],
                        [
                            -86.864,
                            30.895
                        ]
                    ]
                ]
            },
            "properties": {
                "airSigmetId": null,
                "airportIcao": "KKCI",
                "airSigmetType": "SIGMET",
                "hazard": "CONVECTIVE",
                "severity": 5,
                "altitudeLow1": null,
                "altitudeLow2": null,
                "altitudeHi1": 45000,
                "altitudeHi2": 60000,
                "movementDir": 270,
                "movementSpd": 25,
                "rawAirSigmet": "WSUS32 KKCI 021455\nSIGC \nCONVECTIVE SIGMET 44C\nVALID UNTIL 1655Z\nFL AL MS LA AND FL AL MS LA TX CSTL WTRS\nFROM 10WNW CEW-130SSW TLH-110ESE PSX-30S LCH-10WNW CEW\nAREA EMBD TS MOV FROM 27025KT. TOPS ABV FL450.\n\nOUTLOOK VALID 021655-022055\nFROM 50NNW CEW-190ESE LEV-160SE LEV-130ESE LEV-120ESE PSX-60SE\nIAH-HRV-50NNW CEW\nWST ISSUANCES EXPD. REFER TO MOST RECENT ACUS01 KWNS FROM STORM\nPREDICTION CENTER FOR SYNOPSIS AND METEOROLOGICAL DETAILS.",
                "validTimeTo": [
                    "2026-08-02T16:55"
                ]
            }
        },
        {
            "type": "Feature",
            "geometry": {
                "type": "Polygon",
                "coordinates": [
                    [
                        [
                            -82.507,
                            35.499
                        ],
                        [
                            -81.203,
                            33.553
                        ],
                        [
                            -85.24,
                            28.715
                        ],
                        [
                            -86.68,
                            30.659
                        ],
                        [
                            -82.507,
                            35.499
                        ]
                    ]
                ]
            },
            "properties": {
                "airSigmetId": null,
                "airportIcao": "KKCI",
                "airSigmetType": "SIGMET",
                "hazard": "CONVECTIVE",
                "severity": 5,
                "altitudeLow1": null,
                "altitudeLow2": null,
                "altitudeHi1": 45000,
                "altitudeHi2": 60000,
                "movementDir": 260,
                "movementSpd": 20,
                "rawAirSigmet": "WSUS31 KKCI 021455\nSIGE \nCONVECTIVE SIGMET 27E\nVALID UNTIL 1655Z\nNC SC FL GA AL AND FL CSTL WTRS\nFROM 40NW SPA-20SSW CAE-120SSW TLH-10S CEW-40NW SPA\nAREA EMBD TS MOV FROM 26020KT. TOPS ABV FL450.\n\nOUTLOOK VALID 021655-022055\nAREA 1...FROM 50W HMV-FLO-60ENE CRG-40SE PBI-60SSE MIA-50NW\nEYW-190W SRQ-200SE LEV-50SSW CEW-40SW MGM-50W HMV\nWST ISSUANCES EXPD. REFER TO MOST RECENT ACUS01 KWNS FROM STORM\nPREDICTION CENTER FOR SYNOPSIS AND METEOROLOGICAL DETAILS.\n\nAREA 2...FROM 40NW SYR-SBY-70SE ECG-FLO-40W HMV-30NNE\nCLE-YYZ-40NW SYR\nWST ISSUANCES EXPD. REFER TO MOST RECENT ACUS01 KWNS FROM STORM\nPREDICTION CENTER FOR SYNOPSIS AND METEOROLOGICAL DETAILS.\n\nAREA 3...FROM 110ESE SIE-180ESE ECG-140SSE ILM-220ENE OMN-210ENE\nPBI-160E PBI-30ENE PBI-30SSW CHS-FLO-80ESE ECG-110ESE SIE\nWST ISSUANCES EXPD. REFER TO MOST RECENT ACUS01 KWNS FROM STORM\nPREDICTION CENTER FOR SYNOPSIS AND METEOROLOGICAL DETAILS.",
                "validTimeTo": [
                    "2026-08-02T16:55"
                ]
            }
        },
        {
            "type": "Feature",
            "geometry": {
                "type": "Polygon",
                "coordinates": [
                    [
                        [
                            -75.313,
                            35.542
                        ],
                        [
                            -75.836,
                            33.632
                        ],
                        [
                            -76.912,
                            30.145
                        ],
                        [
                            -79.512,
                            29.865
                        ],
                        [
                            -80.116,
                            35.217
                        ],
                        [
                            -75.313,
                            35.542
                        ]
                    ]
                ]
            },
            "properties": {
                "airSigmetId": null,
                "airportIcao": "KKCI",
                "airSigmetType": "SIGMET",
                "hazard": "CONVECTIVE",
                "severity": 5,
                "altitudeLow1": null,
                "altitudeLow2": null,
                "altitudeHi1": 44000,
                "altitudeHi2": 44000,
                "movementDir": 200,
                "movementSpd": 25,
                "rawAirSigmet": "WSUS31 KKCI 021455\nSIGE \nCONVECTIVE SIGMET 28E\nVALID UNTIL 1655Z\nNC SC AND NC FL SC GA CSTL WTRS\nFROM 60SE ECG-110ESE ILM-230SE CHS-90ENE OMN-40E CLT-60SE ECG\nAREA TS MOV FROM 20025KT. TOPS TO FL440.\nREF INTL SIGMET ALFA SERIES.\n\nOUTLOOK VALID 021655-022055\nAREA 1...FROM 50W HMV-FLO-60ENE CRG-40SE PBI-60SSE MIA-50NW\nEYW-190W SRQ-200SE LEV-50SSW CEW-40SW MGM-50W HMV\nWST ISSUANCES EXPD. REFER TO MOST RECENT ACUS01 KWNS FROM STORM\nPREDICTION CENTER FOR SYNOPSIS AND METEOROLOGICAL DETAILS.\n\nAREA 2...FROM 40NW SYR-SBY-70SE ECG-FLO-40W HMV-30NNE\nCLE-YYZ-40NW SYR\nWST ISSUANCES EXPD. REFER TO MOST RECENT ACUS01 KWNS FROM STORM\nPREDICTION CENTER FOR SYNOPSIS AND METEOROLOGICAL DETAILS.\n\nAREA 3...FROM 110ESE SIE-180ESE ECG-140SSE ILM-220ENE OMN-210ENE\nPBI-160E PBI-30ENE PBI-30SSW CHS-FLO-80ESE ECG-110ESE SIE\nWST ISSUANCES EXPD. REFER TO MOST RECENT ACUS01 KWNS FROM STORM\nPREDICTION CENTER FOR SYNOPSIS AND METEOROLOGICAL DETAILS.",
                "validTimeTo": [
                    "2026-08-02T16:55"
                ]
            }
        },
        {
            "type": "Feature",
            "geometry": {
                "type": "Polygon",
                "coordinates": [
                    [
                        [
                            -81.734,
                            30.805
                        ],
                        [
                            -80.956,
                            26.997
                        ],
                        [
                            -85.292,
                            26.356
                        ],
                        [
                            -86.68,
                            27.668
                        ],
                        [
                            -81.734,
                            30.805
                        ]
                    ]
                ]
            },
            "properties": {
                "airSigmetId": null,
                "airportIcao": "KKCI",
                "airSigmetType": "SIGMET",
                "hazard": "CONVECTIVE",
                "severity": 5,
                "altitudeLow1": null,
                "altitudeLow2": null,
                "altitudeHi1": 43000,
                "altitudeHi2": 43000,
                "movementDir": null,
                "movementSpd": null,
                "rawAirSigmet": "WSUS31 KKCI 021455\nSIGE \nCONVECTIVE SIGMET 29E\nVALID UNTIL 1655Z\nFL GA AND FL CSTL WTRS\nFROM 30NNW CRG-50WNW PBI-160WSW SRQ-190S CEW-30NNW CRG\nAREA TS MOV LTL. TOPS TO FL430.\nREF INTL SIGMET JULIETT SERIES.\n\nOUTLOOK VALID 021655-022055\nAREA 1...FROM 50W HMV-FLO-60ENE CRG-40SE PBI-60SSE MIA-50NW\nEYW-190W SRQ-200SE LEV-50SSW CEW-40SW MGM-50W HMV\nWST ISSUANCES EXPD. REFER TO MOST RECENT ACUS01 KWNS FROM STORM\nPREDICTION CENTER FOR SYNOPSIS AND METEOROLOGICAL DETAILS.\n\nAREA 2...FROM 40NW SYR-SBY-70SE ECG-FLO-40W HMV-30NNE\nCLE-YYZ-40NW SYR\nWST ISSUANCES EXPD. REFER TO MOST RECENT ACUS01 KWNS FROM STORM\nPREDICTION CENTER FOR SYNOPSIS AND METEOROLOGICAL DETAILS.\n\nAREA 3...FROM 110ESE SIE-180ESE ECG-140SSE ILM-220ENE OMN-210ENE\nPBI-160E PBI-30ENE PBI-30SSW CHS-FLO-80ESE ECG-110ESE SIE\nWST ISSUANCES EXPD. REFER TO MOST RECENT ACUS01 KWNS FROM STORM\nPREDICTION CENTER FOR SYNOPSIS AND METEOROLOGICAL DETAILS.",
                "validTimeTo": [
                    "2026-08-02T16:55"
                ]
            }
        },
        {
            "type": "Feature",
            "geometry": {
                "type": "Polygon",
                "coordinates": [
                    [
                        [
                            -78.877,
                            29.081
                        ],
                        [
                            -77.336,
                            28.789
                        ],
                        [
                            -78.547,
                            26.098
                        ],
                        [
                            -80.09,
                            27.183
                        ],
                        [
                            -78.877,
                            29.081
                        ]
                    ]
                ]
            },
            "properties": {
                "airSigmetId": null,
                "airportIcao": "KKCI",
                "airSigmetType": "SIGMET",
                "hazard": "CONVECTIVE",
                "severity": 5,
                "altitudeLow1": null,
                "altitudeLow2": null,
                "altitudeHi1": 44000,
                "altitudeHi2": 44000,
                "movementDir": 190,
                "movementSpd": 10,
                "rawAirSigmet": "WSUS31 KKCI 021455\nSIGE \nCONVECTIVE SIGMET 30E\nVALID UNTIL 1655Z\nFL CSTL WTRS\nFROM 120NE TRV-180ENE TRV-90ESE PBI-30N PBI-120NE TRV\nAREA TS MOV FROM 19010KT. TOPS TO FL440.\n\nOUTLOOK VALID 021655-022055\nAREA 1...FROM 50W HMV-FLO-60ENE CRG-40SE PBI-60SSE MIA-50NW\nEYW-190W SRQ-200SE LEV-50SSW CEW-40SW MGM-50W HMV\nWST ISSUANCES EXPD. REFER TO MOST RECENT ACUS01 KWNS FROM STORM\nPREDICTION CENTER FOR SYNOPSIS AND METEOROLOGICAL DETAILS.\n\nAREA 2...FROM 40NW SYR-SBY-70SE ECG-FLO-40W HMV-30NNE\nCLE-YYZ-40NW SYR\nWST ISSUANCES EXPD. REFER TO MOST RECENT ACUS01 KWNS FROM STORM\nPREDICTION CENTER FOR SYNOPSIS AND METEOROLOGICAL DETAILS.\n\nAREA 3...FROM 110ESE SIE-180ESE ECG-140SSE ILM-220ENE OMN-210ENE\nPBI-160E PBI-30ENE PBI-30SSW CHS-FLO-80ESE ECG-110ESE SIE\nWST ISSUANCES EXPD. REFER TO MOST RECENT ACUS01 KWNS FROM STORM\nPREDICTION CENTER FOR SYNOPSIS AND METEOROLOGICAL DETAILS.",
                "validTimeTo": [
                    "2026-08-02T16:55"
                ]
            }
        },
        {
            "type": "Feature",
            "geometry": {
                "type": "Polygon",
                "coordinates": [
                    [
                        [
                            -76.2,
                            44.328
                        ],
                        [
                            -75.78,
                            43.032
                        ],
                        [
                            -78.858,
                            42.654
                        ],
                        [
                            -79.141,
                            43.313
                        ],
                        [
                            -76.849,
                            43.628
                        ],
                        [
                            -76.2,
                            44.328
                        ]
                    ]
                ]
            },
            "properties": {
                "airSigmetId": null,
                "airportIcao": "KKCI",
                "airSigmetType": "SIGMET",
                "hazard": "CONVECTIVE",
                "severity": 5,
                "altitudeLow1": null,
                "altitudeLow2": null,
                "altitudeHi1": 30000,
                "altitudeHi2": 30000,
                "movementDir": 210,
                "movementSpd": 20,
                "rawAirSigmet": "WSUS31 KKCI 021455\nSIGE \nCONVECTIVE SIGMET 31E\nVALID UNTIL 1655Z\nNY LO LE\nFROM 70N SYR-20ESE SYR-30NNE JHW-30SE YYZ-40NW SYR-70N SYR\nAREA TS MOV FROM 21020KT. TOPS TO FL300.\n\nOUTLOOK VALID 021655-022055\nAREA 1...FROM 50W HMV-FLO-60ENE CRG-40SE PBI-60SSE MIA-50NW\nEYW-190W SRQ-200SE LEV-50SSW CEW-40SW MGM-50W HMV\nWST ISSUANCES EXPD. REFER TO MOST RECENT ACUS01 KWNS FROM STORM\nPREDICTION CENTER FOR SYNOPSIS AND METEOROLOGICAL DETAILS.\n\nAREA 2...FROM 40NW SYR-SBY-70SE ECG-FLO-40W HMV-30NNE\nCLE-YYZ-40NW SYR\nWST ISSUANCES EXPD. REFER TO MOST RECENT ACUS01 KWNS FROM STORM\nPREDICTION CENTER FOR SYNOPSIS AND METEOROLOGICAL DETAILS.\n\nAREA 3...FROM 110ESE SIE-180ESE ECG-140SSE ILM-220ENE OMN-210ENE\nPBI-160E PBI-30ENE PBI-30SSW CHS-FLO-80ESE ECG-110ESE SIE\nWST ISSUANCES EXPD. REFER TO MOST RECENT ACUS01 KWNS FROM STORM\nPREDICTION CENTER FOR SYNOPSIS AND METEOROLOGICAL DETAILS.",
                "validTimeTo": [
                    "2026-08-02T16:55"
                ]
            }
        },
        {
            "type": "Feature",
            "geometry": {
                "type": "Polygon",
                "coordinates": [
                    [
                        [
                            -72.452,
                            38.313
                        ],
                        [
                            -72.614,
                            34.987
                        ],
                        [
                            -75.107,
                            33.363
                        ],
                        [
                            -74.474,
                            35.664
                        ],
                        [
                            -72.452,
                            38.313
                        ]
                    ]
                ]
            },
            "properties": {
                "airSigmetId": null,
                "airportIcao": "KKCI",
                "airSigmetType": "SIGMET",
                "hazard": "CONVECTIVE",
                "severity": 5,
                "altitudeLow1": null,
                "altitudeLow2": null,
                "altitudeHi1": 36000,
                "altitudeHi2": 36000,
                "movementDir": 210,
                "movementSpd": 20,
                "rawAirSigmet": "WSUS31 KKCI 021455\nSIGE \nCONVECTIVE SIGMET 32E\nVALID UNTIL 1655Z\nDE MD NC VA CSTL WTRS\nFROM 120ESE SIE-190ESE ECG-150ESE ILM-90ESE ECG-120ESE SIE\nAREA TS MOV FROM 21020KT. TOPS TO FL360.\n\nOUTLOOK VALID 021655-022055\nAREA 1...FROM 50W HMV-FLO-60ENE CRG-40SE PBI-60SSE MIA-50NW\nEYW-190W SRQ-200SE LEV-50SSW CEW-40SW MGM-50W HMV\nWST ISSUANCES EXPD. REFER TO MOST RECENT ACUS01 KWNS FROM STORM\nPREDICTION CENTER FOR SYNOPSIS AND METEOROLOGICAL DETAILS.\n\nAREA 2...FROM 40NW SYR-SBY-70SE ECG-FLO-40W HMV-30NNE\nCLE-YYZ-40NW SYR\nWST ISSUANCES EXPD. REFER TO MOST RECENT ACUS01 KWNS FROM STORM\nPREDICTION CENTER FOR SYNOPSIS AND METEOROLOGICAL DETAILS.\n\nAREA 3...FROM 110ESE SIE-180ESE ECG-140SSE ILM-220ENE OMN-210ENE\nPBI-160E PBI-30ENE PBI-30SSW CHS-FLO-80ESE ECG-110ESE SIE\nWST ISSUANCES EXPD. REFER TO MOST RECENT ACUS01 KWNS FROM STORM\nPREDICTION CENTER FOR SYNOPSIS AND METEOROLOGICAL DETAILS.",
                "validTimeTo": [
                    "2026-08-02T16:55"
                ]
            }
        },
        {
            "type": "Feature",
            "geometry": {
                "type": "Polygon",
                "coordinates": [
                    [
                        [
                            -77.627,
                            40.036
                        ],
                        [
                            -76.328,
                            39.498
                        ],
                        [
                            -77.32,
                            37.5
                        ],
                        [
                            -78.824,
                            38.021
                        ],
                        [
                            -77.627,
                            40.036
                        ]
                    ]
                ]
            },
            "properties": {
                "airSigmetId": null,
                "airportIcao": "KKCI",
                "airSigmetType": "SIGMET",
                "hazard": "CONVECTIVE",
                "severity": 5,
                "altitudeLow1": null,
                "altitudeLow2": null,
                "altitudeHi1": 40000,
                "altitudeHi2": 40000,
                "movementDir": 200,
                "movementSpd": 25,
                "rawAirSigmet": "WSUS31 KKCI 021455\nSIGE \nCONVECTIVE SIGMET 33E\nVALID UNTIL 1655Z\nPA MD VA DC WV\nFROM 30WSW HAR-30E EMI-RIC-50NNE LYH-30WSW HAR\nAREA EMBD TS MOV FROM 20025KT. TOPS TO FL400.\n\nOUTLOOK VALID 021655-022055\nAREA 1...FROM 50W HMV-FLO-60ENE CRG-40SE PBI-60SSE MIA-50NW\nEYW-190W SRQ-200SE LEV-50SSW CEW-40SW MGM-50W HMV\nWST ISSUANCES EXPD. REFER TO MOST RECENT ACUS01 KWNS FROM STORM\nPREDICTION CENTER FOR SYNOPSIS AND METEOROLOGICAL DETAILS.\n\nAREA 2...FROM 40NW SYR-SBY-70SE ECG-FLO-40W HMV-30NNE\nCLE-YYZ-40NW SYR\nWST ISSUANCES EXPD. REFER TO MOST RECENT ACUS01 KWNS FROM STORM\nPREDICTION CENTER FOR SYNOPSIS AND METEOROLOGICAL DETAILS.\n\nAREA 3...FROM 110ESE SIE-180ESE ECG-140SSE ILM-220ENE OMN-210ENE\nPBI-160E PBI-30ENE PBI-30SSW CHS-FLO-80ESE ECG-110ESE SIE\nWST ISSUANCES EXPD. REFER TO MOST RECENT ACUS01 KWNS FROM STORM\nPREDICTION CENTER FOR SYNOPSIS AND METEOROLOGICAL DETAILS.",
                "validTimeTo": [
                    "2026-08-02T16:55"
                ]
            }
        },
        {
            "type": "Feature",
            "geometry": {
                "type": "Polygon",
                "coordinates": [
                    [
                        [
                            -73.022,
                            44.991
                        ],
                        [
                            -74.419,
                            43.827
                        ],
                        [
                            -75.804,
                            44.585
                        ],
                        [
                            -74.943,
                            44.975
                        ],
                        [
                            -73.022,
                            44.991
                        ]
                    ]
                ]
            },
            "properties": {
                "airSigmetId": null,
                "airportIcao": "KKCI",
                "airSigmetType": "SIGMET",
                "hazard": "CONVECTIVE",
                "severity": 5,
                "altitudeLow1": null,
                "altitudeLow2": null,
                "altitudeHi1": 35000,
                "altitudeHi2": 35000,
                "movementDir": 200,
                "movementSpd": 25,
                "rawAirSigmet": "WSUS31 KKCI 021455\nSIGE \nCONVECTIVE SIGMET 34E\nVALID UNTIL 1655Z\nVT NY\nFROM 50NNW MPV-70NNW ALB-50WSW MSS-10WNW MSS-50NNW MPV\nAREA TS MOV FROM 20025KT. TOPS TO FL350.\n\nOUTLOOK VALID 021655-022055\nAREA 1...FROM 50W HMV-FLO-60ENE CRG-40SE PBI-60SSE MIA-50NW\nEYW-190W SRQ-200SE LEV-50SSW CEW-40SW MGM-50W HMV\nWST ISSUANCES EXPD. REFER TO MOST RECENT ACUS01 KWNS FROM STORM\nPREDICTION CENTER FOR SYNOPSIS AND METEOROLOGICAL DETAILS.\n\nAREA 2...FROM 40NW SYR-SBY-70SE ECG-FLO-40W HMV-30NNE\nCLE-YYZ-40NW SYR\nWST ISSUANCES EXPD. REFER TO MOST RECENT ACUS01 KWNS FROM STORM\nPREDICTION CENTER FOR SYNOPSIS AND METEOROLOGICAL DETAILS.\n\nAREA 3...FROM 110ESE SIE-180ESE ECG-140SSE ILM-220ENE OMN-210ENE\nPBI-160E PBI-30ENE PBI-30SSW CHS-FLO-80ESE ECG-110ESE SIE\nWST ISSUANCES EXPD. REFER TO MOST RECENT ACUS01 KWNS FROM STORM\nPREDICTION CENTER FOR SYNOPSIS AND METEOROLOGICAL DETAILS.",
                "validTimeTo": [
                    "2026-08-02T16:55"
                ]
            }
        }
    ],
    "metadata": {
        "creationTime": "2026-08-02T15:08"
    }
}