{
    "type": "FeatureCollection",
    "features": [
        {
            "type": "Feature",
            "geometry": {
                "type": "Polygon",
                "coordinates": [
                    [
                        [
                            -113.458,
                            37.303
                        ],
                        [
                            -111.559,
                            37.097
                        ],
                        [
                            -112.028,
                            35.863
                        ],
                        [
                            -114.28,
                            36.782
                        ],
                        [
                            -113.458,
                            37.303
                        ]
                    ]
                ]
            },
            "properties": {
                "airSigmetId": null,
                "airportIcao": "KKCI",
                "airSigmetType": "SIGMET",
                "hazard": "CONVECTIVE",
                "severity": 5,
                "altitudeLow1": null,
                "altitudeLow2": null,
                "altitudeHi1": 38000,
                "altitudeHi2": 38000,
                "movementDir": 180,
                "movementSpd": 15,
                "rawAirSigmet": "WSUS33 KKCI 210755\nSIGW \nCONVECTIVE SIGMET 22W\nVALID UNTIL 0955Z\nAZ UT NV\nFROM 60WSW BCE-50SE BCE-40WSW TBC-60NE LAS-60WSW BCE\nAREA TS MOV FROM 18015KT. TOPS TO FL380.\n\nOUTLOOK VALID 210955-211355\nTS ARE NOT EXPD TO REQUIRE WST ISSUANCES.",
                "validTimeTo": [
                    "2026-08-21T09:55"
                ]
            }
        },
        {
            "type": "Feature",
            "geometry": {
                "type": "Polygon",
                "coordinates": [
                    [
                        [
                            -106.797,
                            45.786
                        ],
                        [
                            -104.938,
                            45.051
                        ],
                        [
                            -105.611,
                            44.588
                        ],
                        [
                            -107.06,
                            45.172
                        ],
                        [
                            -106.797,
                            45.786
                        ]
                    ]
                ]
            },
            "properties": {
                "airSigmetId": null,
                "airportIcao": "KKCI",
                "airSigmetType": "SIGMET",
                "hazard": "CONVECTIVE",
                "severity": 5,
                "altitudeLow1": null,
                "altitudeLow2": null,
                "altitudeHi1": 32000,
                "altitudeHi2": 32000,
                "movementDir": 300,
                "movementSpd": 25,
                "rawAirSigmet": "WSUS33 KKCI 210755\nSIGW \nCONVECTIVE SIGMET 23W\nVALID UNTIL 0955Z\nMT WY\nFROM 50SW MLS-90NE CZI-50NE CZI-20N SHR-50SW MLS\nDVLPG AREA TS MOV FROM 30025KT. TOPS TO FL320.\n\nOUTLOOK VALID 210955-211355\nTS ARE NOT EXPD TO REQUIRE WST ISSUANCES.",
                "validTimeTo": [
                    "2026-08-21T09:55"
                ]
            }
        },
        {
            "type": "Feature",
            "geometry": {
                "type": "Polygon",
                "coordinates": [
                    [
                        [
                            -106.426,
                            35.811
                        ],
                        [
                            -103.6,
                            35.18
                        ],
                        [
                            -104.054,
                            33.809
                        ],
                        [
                            -105.966,
                            34.332
                        ],
                        [
                            -106.426,
                            35.811
                        ]
                    ]
                ]
            },
            "properties": {
                "airSigmetId": null,
                "airportIcao": "KKCI",
                "airSigmetType": "SIGMET",
                "hazard": "CONVECTIVE",
                "severity": 5,
                "altitudeLow1": null,
                "altitudeLow2": null,
                "altitudeHi1": 36000,
                "altitudeHi2": 36000,
                "movementDir": null,
                "movementSpd": null,
                "rawAirSigmet": "WSUS33 KKCI 210755\nSIGW \nCONVECTIVE SIGMET 24W\nVALID UNTIL 0955Z\nNM\nFROM 50NNE ABQ-TCC-40NE CME-60SE ABQ-50NNE ABQ\nAREA TS MOV LTL. TOPS TO FL360.\n\nOUTLOOK VALID 210955-211355\nTS ARE NOT EXPD TO REQUIRE WST ISSUANCES.",
                "validTimeTo": [
                    "2026-08-21T09:55"
                ]
            }
        },
        {
            "type": "Feature",
            "geometry": {
                "type": "Polygon",
                "coordinates": [
                    [
                        [
                            -94.771,
                            42.253
                        ],
                        [
                            -92.828,
                            41.691
                        ],
                        [
                            -93.65,
                            40.775
                        ],
                        [
                            -95.121,
                            41.361
                        ],
                        [
                            -94.771,
                            42.253
                        ]
                    ]
                ]
            },
            "properties": {
                "airSigmetId": null,
                "airportIcao": "KKCI",
                "airSigmetType": "SIGMET",
                "hazard": "CONVECTIVE",
                "severity": 5,
                "altitudeLow1": null,
                "altitudeLow2": null,
                "altitudeHi1": 38000,
                "altitudeHi2": 38000,
                "movementDir": 290,
                "movementSpd": 25,
                "rawAirSigmet": "WSUS32 KKCI 210755\nSIGC \nCONVECTIVE SIGMET 58C\nVALID UNTIL 0955Z\nIA\nFROM 30SW FOD-40ENE DSM-40S DSM-30ENE OVR-30SW FOD\nDVLPG AREA TS MOV FROM 29025KT. TOPS TO FL380.\n\nOUTLOOK VALID 210955-211355\nAREA 1...FROM 50WSW YQT-50NNE SAW-50WNW MKG-DBQ-FOD-50WSW YQT\nWST ISSUANCES EXPD. REFER TO MOST RECENT ACUS01 KWNS FROM STORM\nPREDICTION CENTER FOR SYNOPSIS AND METEOROLOGICAL DETAILS.\n\nAREA 2...FROM 40SSW BNA-40W MGM-30N LSU-40SSE LIT-60SSE DYR-40SSW\nBNA\nWST ISSUANCES EXPD. REFER TO MOST RECENT ACUS01 KWNS FROM STORM\nPREDICTION CENTER FOR SYNOPSIS AND METEOROLOGICAL DETAILS.\n\nAREA 3...FROM HLC-OSW-40NE TXK-70ENE TTT-50NW MLC-50ESE GCK-50ENE\nLAA-HLC\nWST ISSUANCES POSS. REFER TO MOST RECENT ACUS01 KWNS FROM STORM\nPREDICTION CENTER FOR SYNOPSIS AND METEOROLOGICAL DETAILS.",
                "validTimeTo": [
                    "2026-08-21T09:55"
                ]
            }
        },
        {
            "type": "Feature",
            "geometry": {
                "type": "Polygon",
                "coordinates": [
                    [
                        [
                            -93.23,
                            44.045
                        ],
                        [
                            -91.032,
                            43.137
                        ],
                        [
                            -91.61,
                            42.023
                        ],
                        [
                            -93.785,
                            43.089
                        ],
                        [
                            -93.23,
                            44.045
                        ]
                    ]
                ]
            },
            "properties": {
                "airSigmetId": null,
                "airportIcao": "KKCI",
                "airSigmetType": "SIGMET",
                "hazard": "CONVECTIVE",
                "severity": 5,
                "altitudeLow1": null,
                "altitudeLow2": null,
                "altitudeHi1": 45000,
                "altitudeHi2": 60000,
                "movementDir": 350,
                "movementSpd": 25,
                "rawAirSigmet": "WSUS32 KKCI 210755\nSIGC \nCONVECTIVE SIGMET 59C\nVALID UNTIL 0955Z\nWI MN IA\nFROM 50S MSP-50SSE ODI-30N IOW-20W MCW-50S MSP\nDMSHG AREA TS MOV FROM 35025KT. TOPS ABV FL450.\n\nOUTLOOK VALID 210955-211355\nAREA 1...FROM 50WSW YQT-50NNE SAW-50WNW MKG-DBQ-FOD-50WSW YQT\nWST ISSUANCES EXPD. REFER TO MOST RECENT ACUS01 KWNS FROM STORM\nPREDICTION CENTER FOR SYNOPSIS AND METEOROLOGICAL DETAILS.\n\nAREA 2...FROM 40SSW BNA-40W MGM-30N LSU-40SSE LIT-60SSE DYR-40SSW\nBNA\nWST ISSUANCES EXPD. REFER TO MOST RECENT ACUS01 KWNS FROM STORM\nPREDICTION CENTER FOR SYNOPSIS AND METEOROLOGICAL DETAILS.\n\nAREA 3...FROM HLC-OSW-40NE TXK-70ENE TTT-50NW MLC-50ESE GCK-50ENE\nLAA-HLC\nWST ISSUANCES POSS. REFER TO MOST RECENT ACUS01 KWNS FROM STORM\nPREDICTION CENTER FOR SYNOPSIS AND METEOROLOGICAL DETAILS.",
                "validTimeTo": [
                    "2026-08-21T09:55"
                ]
            }
        },
        {
            "type": "Feature",
            "geometry": {
                "type": "Polygon",
                "coordinates": [
                    [
                        [
                            -88.788,
                            48.013
                        ],
                        [
                            -86.365,
                            47.06
                        ],
                        [
                            -86.671,
                            46.358
                        ],
                        [
                            -88.596,
                            46.218
                        ],
                        [
                            -89.32,
                            47.535
                        ],
                        [
                            -88.788,
                            48.013
                        ]
                    ]
                ]
            },
            "properties": {
                "airSigmetId": null,
                "airportIcao": "KKCI",
                "airSigmetType": "SIGMET",
                "hazard": "CONVECTIVE",
                "severity": 5,
                "altitudeLow1": null,
                "altitudeLow2": null,
                "altitudeHi1": 29000,
                "altitudeHi2": 29000,
                "movementDir": 270,
                "movementSpd": 20,
                "rawAirSigmet": "WSUS32 KKCI 210755\nSIGC \nCONVECTIVE SIGMET 60C\nVALID UNTIL 0955Z\nMI LS\nFROM 30SE YQT-60NE SAW-30E SAW-50NE RHI-50S YQT-30SE YQT\nAREA TS MOV FROM 27020KT. TOPS TO FL290.\n\nOUTLOOK VALID 210955-211355\nAREA 1...FROM 50WSW YQT-50NNE SAW-50WNW MKG-DBQ-FOD-50WSW YQT\nWST ISSUANCES EXPD. REFER TO MOST RECENT ACUS01 KWNS FROM STORM\nPREDICTION CENTER FOR SYNOPSIS AND METEOROLOGICAL DETAILS.\n\nAREA 2...FROM 40SSW BNA-40W MGM-30N LSU-40SSE LIT-60SSE DYR-40SSW\nBNA\nWST ISSUANCES EXPD. REFER TO MOST RECENT ACUS01 KWNS FROM STORM\nPREDICTION CENTER FOR SYNOPSIS AND METEOROLOGICAL DETAILS.\n\nAREA 3...FROM HLC-OSW-40NE TXK-70ENE TTT-50NW MLC-50ESE GCK-50ENE\nLAA-HLC\nWST ISSUANCES POSS. REFER TO MOST RECENT ACUS01 KWNS FROM STORM\nPREDICTION CENTER FOR SYNOPSIS AND METEOROLOGICAL DETAILS.",
                "validTimeTo": [
                    "2026-08-21T09:55"
                ]
            }
        },
        {
            "type": "Feature",
            "geometry": {
                "type": "Polygon",
                "coordinates": [
                    [
                        [
                            -89.45,
                            46.295
                        ],
                        [
                            -87.217,
                            46.053
                        ],
                        [
                            -87.257,
                            44.556
                        ],
                        [
                            -91.009,
                            43.909
                        ],
                        [
                            -91.949,
                            44.899
                        ],
                        [
                            -89.45,
                            46.295
                        ]
                    ]
                ]
            },
            "properties": {
                "airSigmetId": null,
                "airportIcao": "KKCI",
                "airSigmetType": "SIGMET",
                "hazard": "CONVECTIVE",
                "severity": 5,
                "altitudeLow1": null,
                "altitudeLow2": null,
                "altitudeHi1": 43000,
                "altitudeHi2": 43000,
                "movementDir": 290,
                "movementSpd": 25,
                "rawAirSigmet": "WSUS32 KKCI 210755\nSIGC \nCONVECTIVE SIGMET 61C\nVALID UNTIL 0955Z\nMI WI LM\nFROM 40N RHI-20SSE SAW-40E GRB-20E ODI-20W EAU-40N RHI\nINTSF AREA TS MOV FROM 29025KT. TOPS TO FL430.\n\nOUTLOOK VALID 210955-211355\nAREA 1...FROM 50WSW YQT-50NNE SAW-50WNW MKG-DBQ-FOD-50WSW YQT\nWST ISSUANCES EXPD. REFER TO MOST RECENT ACUS01 KWNS FROM STORM\nPREDICTION CENTER FOR SYNOPSIS AND METEOROLOGICAL DETAILS.\n\nAREA 2...FROM 40SSW BNA-40W MGM-30N LSU-40SSE LIT-60SSE DYR-40SSW\nBNA\nWST ISSUANCES EXPD. REFER TO MOST RECENT ACUS01 KWNS FROM STORM\nPREDICTION CENTER FOR SYNOPSIS AND METEOROLOGICAL DETAILS.\n\nAREA 3...FROM HLC-OSW-40NE TXK-70ENE TTT-50NW MLC-50ESE GCK-50ENE\nLAA-HLC\nWST ISSUANCES POSS. REFER TO MOST RECENT ACUS01 KWNS FROM STORM\nPREDICTION CENTER FOR SYNOPSIS AND METEOROLOGICAL DETAILS.",
                "validTimeTo": [
                    "2026-08-21T09:55"
                ]
            }
        },
        {
            "type": "Feature",
            "geometry": {
                "type": "Polygon",
                "coordinates": [
                    [
                        [
                            -97.62,
                            38.93
                        ],
                        [
                            -93.88,
                            36.715
                        ],
                        [
                            -93.642,
                            33.865
                        ],
                        [
                            -96.194,
                            33.572
                        ],
                        [
                            -100.405,
                            38.534
                        ],
                        [
                            -97.62,
                            38.93
                        ]
                    ]
                ]
            },
            "properties": {
                "airSigmetId": null,
                "airportIcao": "KKCI",
                "airSigmetType": "SIGMET",
                "hazard": "CONVECTIVE",
                "severity": 5,
                "altitudeLow1": null,
                "altitudeLow2": null,
                "altitudeHi1": 45000,
                "altitudeHi2": 60000,
                "movementDir": 330,
                "movementSpd": 25,
                "rawAirSigmet": "WSUS32 KKCI 210755\nSIGC \nCONVECTIVE SIGMET 62C\nVALID UNTIL 0955Z\nMO AR TX OK KS\nFROM SLN-30NNE RZC-30NE TXK-60NE TTT-40NNE GCK-SLN\nINTSF AREA TS MOV FROM 33025KT. TOPS ABV FL450.\n\nOUTLOOK VALID 210955-211355\nAREA 1...FROM 50WSW YQT-50NNE SAW-50WNW MKG-DBQ-FOD-50WSW YQT\nWST ISSUANCES EXPD. REFER TO MOST RECENT ACUS01 KWNS FROM STORM\nPREDICTION CENTER FOR SYNOPSIS AND METEOROLOGICAL DETAILS.\n\nAREA 2...FROM 40SSW BNA-40W MGM-30N LSU-40SSE LIT-60SSE DYR-40SSW\nBNA\nWST ISSUANCES EXPD. REFER TO MOST RECENT ACUS01 KWNS FROM STORM\nPREDICTION CENTER FOR SYNOPSIS AND METEOROLOGICAL DETAILS.\n\nAREA 3...FROM HLC-OSW-40NE TXK-70ENE TTT-50NW MLC-50ESE GCK-50ENE\nLAA-HLC\nWST ISSUANCES POSS. REFER TO MOST RECENT ACUS01 KWNS FROM STORM\nPREDICTION CENTER FOR SYNOPSIS AND METEOROLOGICAL DETAILS.",
                "validTimeTo": [
                    "2026-08-21T09:55"
                ]
            }
        },
        {
            "type": "Feature",
            "geometry": {
                "type": "Polygon",
                "coordinates": [
                    [
                        [
                            -89.365,
                            35.058
                        ],
                        [
                            -87.504,
                            33.669
                        ],
                        [
                            -88.436,
                            32.507
                        ],
                        [
                            -90.834,
                            34.352
                        ],
                        [
                            -89.365,
                            35.058
                        ]
                    ]
                ]
            },
            "properties": {
                "airSigmetId": null,
                "airportIcao": "KKCI",
                "airSigmetType": "SIGMET",
                "hazard": "CONVECTIVE",
                "severity": 5,
                "altitudeLow1": null,
                "altitudeLow2": null,
                "altitudeHi1": 45000,
                "altitudeHi2": 60000,
                "movementDir": 300,
                "movementSpd": 20,
                "rawAirSigmet": "WSUS32 KKCI 210755\nSIGC \nCONVECTIVE SIGMET 63C\nVALID UNTIL 0955Z\nTN AL MS AR\nFROM 30E MEM-30W VUZ-20ENE MEI-60SW MEM-30E MEM\nAREA SEV TS MOV FROM 30020KT. TOPS ABV FL450.\nHAIL TO 1 IN...WIND GUSTS TO 50KT POSS.\n\nOUTLOOK VALID 210955-211355\nAREA 1...FROM 50WSW YQT-50NNE SAW-50WNW MKG-DBQ-FOD-50WSW YQT\nWST ISSUANCES EXPD. REFER TO MOST RECENT ACUS01 KWNS FROM STORM\nPREDICTION CENTER FOR SYNOPSIS AND METEOROLOGICAL DETAILS.\n\nAREA 2...FROM 40SSW BNA-40W MGM-30N LSU-40SSE LIT-60SSE DYR-40SSW\nBNA\nWST ISSUANCES EXPD. REFER TO MOST RECENT ACUS01 KWNS FROM STORM\nPREDICTION CENTER FOR SYNOPSIS AND METEOROLOGICAL DETAILS.\n\nAREA 3...FROM HLC-OSW-40NE TXK-70ENE TTT-50NW MLC-50ESE GCK-50ENE\nLAA-HLC\nWST ISSUANCES POSS. REFER TO MOST RECENT ACUS01 KWNS FROM STORM\nPREDICTION CENTER FOR SYNOPSIS AND METEOROLOGICAL DETAILS.",
                "validTimeTo": [
                    "2026-08-21T09:55"
                ]
            }
        },
        {
            "type": "Feature",
            "geometry": {
                "type": "Polygon",
                "coordinates": [
                    [
                        [
                            -78.116,
                            31.23
                        ],
                        [
                            -77.579,
                            30.751
                        ],
                        [
                            -78.878,
                            27.122
                        ],
                        [
                            -79.689,
                            28.383
                        ],
                        [
                            -78.116,
                            31.23
                        ]
                    ]
                ]
            },
            "properties": {
                "airSigmetId": null,
                "airportIcao": "KKCI",
                "airSigmetType": "SIGMET",
                "hazard": "CONVECTIVE",
                "severity": 5,
                "altitudeLow1": null,
                "altitudeLow2": null,
                "altitudeHi1": 45000,
                "altitudeHi2": 60000,
                "movementDir": 190,
                "movementSpd": 25,
                "rawAirSigmet": "WSUS31 KKCI 210755\nSIGE \nCONVECTIVE SIGMET 41E\nVALID UNTIL 0955Z\nFL GA CSTL WTRS\nFROM 140SE CHS-180SE CHS-70ENE PBI-60NE TRV-140SE CHS\nDMSHG AREA TS MOV FROM 19025KT. TOPS ABV FL450.\n\nOUTLOOK VALID 210955-211355\nAREA 1...FROM 60SE ENE-150ENE ACK-200SE ACK-150SE SIE-180ESE\nECG-140SSE ILM-30SSW IRQ-40W MGM-BNA-HMV-30NE ORF-60SE ENE\nWST ISSUANCES EXPD. REFER TO MOST RECENT ACUS01 KWNS FROM STORM\nPREDICTION CENTER FOR SYNOPSIS AND METEOROLOGICAL DETAILS.\n\nAREA 2...FROM 50N SAW-SSM-50WNW MKG-50N SAW\nWST ISSUANCES POSS. REFER TO MOST RECENT ACUS01 KWNS FROM STORM\nPREDICTION CENTER FOR SYNOPSIS AND METEOROLOGICAL DETAILS.",
                "validTimeTo": [
                    "2026-08-21T09:55"
                ]
            }
        },
        {
            "type": "Feature",
            "geometry": {
                "type": "Polygon",
                "coordinates": [
                    [
                        [
                            -82.574,
                            36.795
                        ],
                        [
                            -80.137,
                            35.743
                        ],
                        [
                            -83.93,
                            32.925
                        ],
                        [
                            -87.457,
                            33.476
                        ],
                        [
                            -85.083,
                            36.706
                        ],
                        [
                            -82.574,
                            36.795
                        ]
                    ]
                ]
            },
            "properties": {
                "airSigmetId": null,
                "airportIcao": "KKCI",
                "airSigmetType": "SIGMET",
                "hazard": "CONVECTIVE",
                "severity": 5,
                "altitudeLow1": null,
                "altitudeLow2": null,
                "altitudeHi1": 45000,
                "altitudeHi2": 60000,
                "movementDir": 250,
                "movementSpd": 15,
                "rawAirSigmet": "WSUS31 KKCI 210755\nSIGE \nCONVECTIVE SIGMET 42E\nVALID UNTIL 0955Z\nVA NC SC GA TN KY AL\nFROM 30NW HMV-20SSW GSO-20NW MCN-30WSW VUZ-50WSW LOZ-30NW HMV\nAREA TS MOV FROM 25015KT. TOPS ABV FL450.\n\nOUTLOOK VALID 210955-211355\nAREA 1...FROM 60SE ENE-150ENE ACK-200SE ACK-150SE SIE-180ESE\nECG-140SSE ILM-30SSW IRQ-40W MGM-BNA-HMV-30NE ORF-60SE ENE\nWST ISSUANCES EXPD. REFER TO MOST RECENT ACUS01 KWNS FROM STORM\nPREDICTION CENTER FOR SYNOPSIS AND METEOROLOGICAL DETAILS.\n\nAREA 2...FROM 50N SAW-SSM-50WNW MKG-50N SAW\nWST ISSUANCES POSS. REFER TO MOST RECENT ACUS01 KWNS FROM STORM\nPREDICTION CENTER FOR SYNOPSIS AND METEOROLOGICAL DETAILS.",
                "validTimeTo": [
                    "2026-08-21T09:55"
                ]
            }
        },
        {
            "type": "Feature",
            "geometry": {
                "type": "Polygon",
                "coordinates": [
                    [
                        [
                            -71.659,
                            39.69
                        ],
                        [
                            -70.71,
                            37.838
                        ],
                        [
                            -72.472,
                            36.193
                        ],
                        [
                            -74.744,
                            35.066
                        ],
                        [
                            -76.18,
                            35.918
                        ],
                        [
                            -71.659,
                            39.69
                        ]
                    ]
                ]
            },
            "properties": {
                "airSigmetId": null,
                "airportIcao": "KKCI",
                "airSigmetType": "SIGMET",
                "hazard": "CONVECTIVE",
                "severity": 5,
                "altitudeLow1": null,
                "altitudeLow2": null,
                "altitudeHi1": 43000,
                "altitudeHi2": 43000,
                "movementDir": 250,
                "movementSpd": 30,
                "rawAirSigmet": "WSUS31 KKCI 210755\nSIGE \nCONVECTIVE SIGMET 43E\nVALID UNTIL 0955Z\nNC AND RI DE NJ NY MD NC VA CSTL WTRS\nFROM 80SSE HTO-200SSE HTO-180E ECG-100SE ECG-20S ECG-80SSE HTO\nAREA TS MOV FROM 25030KT. TOPS TO FL430.\n\nOUTLOOK VALID 210955-211355\nAREA 1...FROM 60SE ENE-150ENE ACK-200SE ACK-150SE SIE-180ESE\nECG-140SSE ILM-30SSW IRQ-40W MGM-BNA-HMV-30NE ORF-60SE ENE\nWST ISSUANCES EXPD. REFER TO MOST RECENT ACUS01 KWNS FROM STORM\nPREDICTION CENTER FOR SYNOPSIS AND METEOROLOGICAL DETAILS.\n\nAREA 2...FROM 50N SAW-SSM-50WNW MKG-50N SAW\nWST ISSUANCES POSS. REFER TO MOST RECENT ACUS01 KWNS FROM STORM\nPREDICTION CENTER FOR SYNOPSIS AND METEOROLOGICAL DETAILS.",
                "validTimeTo": [
                    "2026-08-21T09:55"
                ]
            }
        },
        {
            "type": "Feature",
            "geometry": {
                "type": "Polygon",
                "coordinates": [
                    [
                        [
                            -74.182,
                            34.588
                        ],
                        [
                            -73.903,
                            34.348
                        ],
                        [
                            -75.294,
                            33.433
                        ],
                        [
                            -75.053,
                            34.318
                        ],
                        [
                            -74.182,
                            34.588
                        ]
                    ]
                ]
            },
            "properties": {
                "airSigmetId": null,
                "airportIcao": "KKCI",
                "airSigmetType": "SIGMET",
                "hazard": "CONVECTIVE",
                "severity": 5,
                "altitudeLow1": null,
                "altitudeLow2": null,
                "altitudeHi1": 39000,
                "altitudeHi2": 39000,
                "movementDir": 270,
                "movementSpd": 15,
                "rawAirSigmet": "WSUS31 KKCI 210755\nSIGE \nCONVECTIVE SIGMET 44E\nVALID UNTIL 0955Z\nNC CSTL WTRS\nFROM 140SE ECG-160SE ECG-140ESE ILM-140E ILM-140SE ECG\nAREA TS MOV FROM 27015KT. TOPS TO FL390.\n\nOUTLOOK VALID 210955-211355\nAREA 1...FROM 60SE ENE-150ENE ACK-200SE ACK-150SE SIE-180ESE\nECG-140SSE ILM-30SSW IRQ-40W MGM-BNA-HMV-30NE ORF-60SE ENE\nWST ISSUANCES EXPD. REFER TO MOST RECENT ACUS01 KWNS FROM STORM\nPREDICTION CENTER FOR SYNOPSIS AND METEOROLOGICAL DETAILS.\n\nAREA 2...FROM 50N SAW-SSM-50WNW MKG-50N SAW\nWST ISSUANCES POSS. REFER TO MOST RECENT ACUS01 KWNS FROM STORM\nPREDICTION CENTER FOR SYNOPSIS AND METEOROLOGICAL DETAILS.",
                "validTimeTo": [
                    "2026-08-21T09:55"
                ]
            }
        },
        {
            "type": "Feature",
            "geometry": {
                "type": "Polygon",
                "coordinates": [
                    [
                        [
                            -86.68,
                            28.997
                        ],
                        [
                            -85.13,
                            27.888
                        ],
                        [
                            -86.68,
                            27.336
                        ],
                        [
                            -87.482,
                            28.199
                        ],
                        [
                            -86.68,
                            28.997
                        ]
                    ]
                ]
            },
            "properties": {
                "airSigmetId": null,
                "airportIcao": "KKCI",
                "airSigmetType": "SIGMET",
                "hazard": "CONVECTIVE",
                "severity": 5,
                "altitudeLow1": null,
                "altitudeLow2": null,
                "altitudeHi1": 38000,
                "altitudeHi2": 38000,
                "movementDir": null,
                "movementSpd": null,
                "rawAirSigmet": "WSUS31 KKCI 210755\nSIGE \nCONVECTIVE SIGMET 45E\nVALID UNTIL 0955Z\nFL AL CSTL WTRS\nFROM 110S CEW-130W PIE-210S CEW-150ESE LEV-110S CEW\nAREA TS MOV LTL. TOPS TO FL380.\n\nOUTLOOK VALID 210955-211355\nAREA 1...FROM 60SE ENE-150ENE ACK-200SE ACK-150SE SIE-180ESE\nECG-140SSE ILM-30SSW IRQ-40W MGM-BNA-HMV-30NE ORF-60SE ENE\nWST ISSUANCES EXPD. REFER TO MOST RECENT ACUS01 KWNS FROM STORM\nPREDICTION CENTER FOR SYNOPSIS AND METEOROLOGICAL DETAILS.\n\nAREA 2...FROM 50N SAW-SSM-50WNW MKG-50N SAW\nWST ISSUANCES POSS. REFER TO MOST RECENT ACUS01 KWNS FROM STORM\nPREDICTION CENTER FOR SYNOPSIS AND METEOROLOGICAL DETAILS.",
                "validTimeTo": [
                    "2026-08-21T09:55"
                ]
            }
        }
    ],
    "metadata": {
        "creationTime": "2026-08-21T08:50"
    }
}