{
    "type": "FeatureCollection",
    "features": [
        {
            "type": "Feature",
            "geometry": {
                "type": "Polygon",
                "coordinates": [
                    [
                        [
                            -76.849,
                            43.628
                        ],
                        [
                            -75.018,
                            40.578
                        ],
                        [
                            -78.83,
                            39.323
                        ],
                        [
                            -81.373,
                            41.775
                        ],
                        [
                            -78.299,
                            43.544
                        ],
                        [
                            -76.849,
                            43.628
                        ]
                    ]
                ]
            },
            "properties": {
                "airSigmetId": null,
                "airportIcao": "KKCI",
                "airSigmetType": "SIGMET",
                "hazard": "CONVECTIVE",
                "severity": 5,
                "altitudeLow1": null,
                "altitudeLow2": null,
                "altitudeHi1": 30000,
                "altitudeHi2": 30000,
                "movementDir": 320,
                "movementSpd": 20,
                "rawAirSigmet": "WSUS31 KKCI 231955\nSIGE \nCONVECTIVE SIGMET 43E\nVALID UNTIL 2155Z\nNY NJ PA MD WV OH LO LE\nFROM 40NW SYR-30E ETX-60S JST-30NE CLE-40NNE BUF-40NW SYR\nAREA TS MOV FROM 32020KT. TOPS TO FL300.\n\nOUTLOOK VALID 232155-240155\nAREA 1...FROM 140SE SIE-190ESE ECG-140SSE ILM-210ENE PBI-90SE\nMIA-30W EYW-CTY-70SSE CHS-100SSE ECG-140SE SIE\nWST ISSUANCES POSS. REFER TO MOST RECENT ACUS01 KWNS FROM STORM\nPREDICTION CENTER FOR SYNOPSIS AND METEOROLOGICAL DETAILS.\n\nAREA 2...FROM MSS-60NE MPV-30W BOS-JST-30NE CLE-MSS\nWST ISSUANCES POSS. REFER TO MOST RECENT ACUS01 KWNS FROM STORM\nPREDICTION CENTER FOR SYNOPSIS AND METEOROLOGICAL DETAILS.",
                "validTimeTo": [
                    "2026-08-23T21:55"
                ]
            }
        },
        {
            "type": "Feature",
            "geometry": {
                "type": "Polygon",
                "coordinates": [
                    [
                        [
                            -80.438,
                            30.717
                        ],
                        [
                            -79.445,
                            25.478
                        ],
                        [
                            -81.627,
                            24.525
                        ],
                        [
                            -83.86,
                            26.219
                        ],
                        [
                            -85.171,
                            28.864
                        ],
                        [
                            -80.438,
                            30.717
                        ]
                    ]
                ]
            },
            "properties": {
                "airSigmetId": null,
                "airportIcao": "KKCI",
                "airSigmetType": "SIGMET",
                "hazard": "CONVECTIVE",
                "severity": 5,
                "altitudeLow1": null,
                "altitudeLow2": null,
                "altitudeHi1": 45000,
                "altitudeHi2": 60000,
                "movementDir": 310,
                "movementSpd": 5,
                "rawAirSigmet": "WSUS31 KKCI 231955\nSIGE \nCONVECTIVE SIGMET 44E\nVALID UNTIL 2155Z\nFL AND FL GA CSTL WTRS\nFROM 60ENE CRG-50ESE MIA-10ESE EYW-100SW SRQ-110SSW TLH-60ENE CRG\nAREA TS MOV FROM 31005KT. TOPS ABV FL450.\n\nOUTLOOK VALID 232155-240155\nAREA 1...FROM 140SE SIE-190ESE ECG-140SSE ILM-210ENE PBI-90SE\nMIA-30W EYW-CTY-70SSE CHS-100SSE ECG-140SE SIE\nWST ISSUANCES POSS. REFER TO MOST RECENT ACUS01 KWNS FROM STORM\nPREDICTION CENTER FOR SYNOPSIS AND METEOROLOGICAL DETAILS.\n\nAREA 2...FROM MSS-60NE MPV-30W BOS-JST-30NE CLE-MSS\nWST ISSUANCES POSS. REFER TO MOST RECENT ACUS01 KWNS FROM STORM\nPREDICTION CENTER FOR SYNOPSIS AND METEOROLOGICAL DETAILS.",
                "validTimeTo": [
                    "2026-08-23T21:55"
                ]
            }
        },
        {
            "type": "Feature",
            "geometry": {
                "type": "Polygon",
                "coordinates": [
                    [
                        [
                            -76.818,
                            32.196
                        ],
                        [
                            -76.371,
                            26.632
                        ],
                        [
                            -78.887,
                            26.228
                        ],
                        [
                            -79.772,
                            30.329
                        ],
                        [
                            -78.932,
                            31.945
                        ],
                        [
                            -76.818,
                            32.196
                        ]
                    ]
                ]
            },
            "properties": {
                "airSigmetId": null,
                "airportIcao": "KKCI",
                "airSigmetType": "SIGMET",
                "hazard": "CONVECTIVE",
                "severity": 5,
                "altitudeLow1": null,
                "altitudeLow2": null,
                "altitudeHi1": 43000,
                "altitudeHi2": 43000,
                "movementDir": 290,
                "movementSpd": 15,
                "rawAirSigmet": "WSUS31 KKCI 231955\nSIGE \nCONVECTIVE SIGMET 45E\nVALID UNTIL 2155Z\nFL SC GA CSTL WTRS\nFROM 140SSE ILM-200E PBI-70ESE PBI-90E CRG-80SE CHS-140SSE ILM\nAREA TS MOV FROM 29015KT. TOPS TO FL430.\nREF INTL SIGMET SERIES LIMA.\n\nOUTLOOK VALID 232155-240155\nAREA 1...FROM 140SE SIE-190ESE ECG-140SSE ILM-210ENE PBI-90SE\nMIA-30W EYW-CTY-70SSE CHS-100SSE ECG-140SE SIE\nWST ISSUANCES POSS. REFER TO MOST RECENT ACUS01 KWNS FROM STORM\nPREDICTION CENTER FOR SYNOPSIS AND METEOROLOGICAL DETAILS.\n\nAREA 2...FROM MSS-60NE MPV-30W BOS-JST-30NE CLE-MSS\nWST ISSUANCES POSS. REFER TO MOST RECENT ACUS01 KWNS FROM STORM\nPREDICTION CENTER FOR SYNOPSIS AND METEOROLOGICAL DETAILS.",
                "validTimeTo": [
                    "2026-08-23T21:55"
                ]
            }
        },
        {
            "type": "Feature",
            "geometry": {
                "type": "Polygon",
                "coordinates": [
                    [
                        [
                            -74.12,
                            36.232
                        ],
                        [
                            -72.061,
                            36.179
                        ],
                        [
                            -72.614,
                            34.987
                        ],
                        [
                            -76.818,
                            32.196
                        ],
                        [
                            -78.659,
                            31.707
                        ],
                        [
                            -74.12,
                            36.232
                        ]
                    ]
                ]
            },
            "properties": {
                "airSigmetId": null,
                "airportIcao": "KKCI",
                "airSigmetType": "SIGMET",
                "hazard": "CONVECTIVE",
                "severity": 5,
                "altitudeLow1": null,
                "altitudeLow2": null,
                "altitudeHi1": 36000,
                "altitudeHi2": 36000,
                "movementDir": 230,
                "movementSpd": 20,
                "rawAirSigmet": "WSUS31 KKCI 231955\nSIGE \nCONVECTIVE SIGMET 46E\nVALID UNTIL 2155Z\nNC SC CSTL WTRS\nFROM 100E ECG-200E ECG-190ESE ECG-140SSE ILM-100SE CHS-100E ECG\nAREA TS MOV FROM 23020KT. TOPS TO FL360.\nREF INTL SIGMET SERIES INDIA.\n\nOUTLOOK VALID 232155-240155\nAREA 1...FROM 140SE SIE-190ESE ECG-140SSE ILM-210ENE PBI-90SE\nMIA-30W EYW-CTY-70SSE CHS-100SSE ECG-140SE SIE\nWST ISSUANCES POSS. REFER TO MOST RECENT ACUS01 KWNS FROM STORM\nPREDICTION CENTER FOR SYNOPSIS AND METEOROLOGICAL DETAILS.\n\nAREA 2...FROM MSS-60NE MPV-30W BOS-JST-30NE CLE-MSS\nWST ISSUANCES POSS. REFER TO MOST RECENT ACUS01 KWNS FROM STORM\nPREDICTION CENTER FOR SYNOPSIS AND METEOROLOGICAL DETAILS.",
                "validTimeTo": [
                    "2026-08-23T21:55"
                ]
            }
        },
        {
            "type": "Feature",
            "geometry": {
                "type": "Polygon",
                "coordinates": [
                    [
                        [
                            -98.69,
                            43.305
                        ],
                        [
                            -96.051,
                            40.935
                        ],
                        [
                            -98.117,
                            39.85
                        ],
                        [
                            -99.99,
                            42.741
                        ],
                        [
                            -98.69,
                            43.305
                        ]
                    ]
                ]
            },
            "properties": {
                "airSigmetId": null,
                "airportIcao": "KKCI",
                "airSigmetType": "SIGMET",
                "hazard": "CONVECTIVE",
                "severity": 5,
                "altitudeLow1": null,
                "altitudeLow2": null,
                "altitudeHi1": 35000,
                "altitudeHi2": 35000,
                "movementDir": 310,
                "movementSpd": 25,
                "rawAirSigmet": "WSUS32 KKCI 231955\nSIGC \nCONVECTIVE SIGMET 77C\nVALID UNTIL 2155Z\nKS NE SD\nFROM 50N ONL-20SW OVR-60NNW SLN-10N ANW-50N ONL\nAREA TS MOV FROM 31025KT. TOPS TO FL350.\n\nOUTLOOK VALID 232155-240155\nTS ARE NOT EXPD TO REQUIRE WST ISSUANCES.",
                "validTimeTo": [
                    "2026-08-23T21:55"
                ]
            }
        },
        {
            "type": "Feature",
            "geometry": {
                "type": "Polygon",
                "coordinates": [
                    [
                        [
                            -104.702,
                            48.88
                        ],
                        [
                            -100.216,
                            48.96
                        ],
                        [
                            -100.294,
                            47.384
                        ],
                        [
                            -104.673,
                            47.47
                        ],
                        [
                            -104.702,
                            48.88
                        ]
                    ]
                ]
            },
            "properties": {
                "airSigmetId": null,
                "airportIcao": "KKCI",
                "airSigmetType": "SIGMET",
                "hazard": "CONVECTIVE",
                "severity": 5,
                "altitudeLow1": null,
                "altitudeLow2": null,
                "altitudeHi1": 37000,
                "altitudeHi2": 37000,
                "movementDir": 250,
                "movementSpd": 15,
                "rawAirSigmet": "WSUS32 KKCI 231955\nSIGC \nCONVECTIVE SIGMET 78C\nVALID UNTIL 2155Z\nND MT\nFROM 60NW ISN-60NE MOT-40NNE BIS-60SW ISN-60NW ISN\nAREA TS MOV FROM 25015KT. TOPS TO FL370.\n\nOUTLOOK VALID 232155-240155\nTS ARE NOT EXPD TO REQUIRE WST ISSUANCES.",
                "validTimeTo": [
                    "2026-08-23T21:55"
                ]
            }
        },
        {
            "type": "Feature",
            "geometry": {
                "type": "Polygon",
                "coordinates": [
                    [
                        [
                            -90.813,
                            31.769
                        ],
                        [
                            -89.845,
                            30.944
                        ],
                        [
                            -91.593,
                            29.866
                        ],
                        [
                            -92.276,
                            30.795
                        ],
                        [
                            -90.813,
                            31.769
                        ]
                    ]
                ]
            },
            "properties": {
                "airSigmetId": null,
                "airportIcao": "KKCI",
                "airSigmetType": "SIGMET",
                "hazard": "CONVECTIVE",
                "severity": 5,
                "altitudeLow1": null,
                "altitudeLow2": null,
                "altitudeHi1": 45000,
                "altitudeHi2": 60000,
                "movementDir": 310,
                "movementSpd": 10,
                "rawAirSigmet": "WSUS32 KKCI 231955\nSIGC \nCONVECTIVE SIGMET 79C\nVALID UNTIL 2155Z\nMS LA\nFROM 40NW MCB-30SE MCB-40SSW LSU-30SSE AEX-40NW MCB\nAREA TS MOV FROM 31010KT. TOPS ABV FL450.\n\nOUTLOOK VALID 232155-240155\nTS ARE NOT EXPD TO REQUIRE WST ISSUANCES.",
                "validTimeTo": [
                    "2026-08-23T21:55"
                ]
            }
        },
        {
            "type": "Feature",
            "geometry": {
                "type": "Polygon",
                "coordinates": [
                    [
                        [
                            -102.376,
                            44.886
                        ],
                        [
                            -102.362,
                            43.508
                        ],
                        [
                            -104.584,
                            43.586
                        ],
                        [
                            -104.938,
                            45.051
                        ],
                        [
                            -102.376,
                            44.886
                        ]
                    ]
                ]
            },
            "properties": {
                "airSigmetId": null,
                "airportIcao": "KKCI",
                "airSigmetType": "SIGMET",
                "hazard": "CONVECTIVE",
                "severity": 5,
                "altitudeLow1": null,
                "altitudeLow2": null,
                "altitudeHi1": 45000,
                "altitudeHi2": 60000,
                "movementDir": 290,
                "movementSpd": 20,
                "rawAirSigmet": "WSUS32 KKCI 231955\nSIGC \nCONVECTIVE SIGMET 80C\nVALID UNTIL 2155Z\nSD WY\nFROM 30WSW DPR-40SE RAP-80ENE DDY-90NE CZI-30WSW DPR\nAREA TS MOV FROM 29020KT. TOPS ABV FL450.\n\nOUTLOOK VALID 232155-240155\nTS ARE NOT EXPD TO REQUIRE WST ISSUANCES.",
                "validTimeTo": [
                    "2026-08-23T21:55"
                ]
            }
        },
        {
            "type": "Feature",
            "geometry": {
                "type": "Polygon",
                "coordinates": [
                    [
                        [
                            -104.681,
                            43.079
                        ],
                        [
                            -102.197,
                            43.386
                        ],
                        [
                            -102.021,
                            42.328
                        ],
                        [
                            -104.522,
                            42.205
                        ],
                        [
                            -104.681,
                            43.079
                        ]
                    ]
                ]
            },
            "properties": {
                "airSigmetId": null,
                "airportIcao": "KKCI",
                "airSigmetType": "SIGMET",
                "hazard": "CONVECTIVE",
                "severity": 5,
                "altitudeLow1": null,
                "altitudeLow2": null,
                "altitudeHi1": 45000,
                "altitudeHi2": 60000,
                "movementDir": 290,
                "movementSpd": 20,
                "rawAirSigmet": "WSUS32 KKCI 231955\nSIGC \nCONVECTIVE SIGMET 81C\nVALID UNTIL 2155Z\nNE SD WY\nFROM 70E DDY-50SE RAP-70ENE BFF-50WNW BFF-70E DDY\nAREA TS MOV FROM 29020KT. TOPS ABV FL450.\n\nOUTLOOK VALID 232155-240155\nTS ARE NOT EXPD TO REQUIRE WST ISSUANCES.",
                "validTimeTo": [
                    "2026-08-23T21:55"
                ]
            }
        },
        {
            "type": "Feature",
            "geometry": {
                "type": "Polygon",
                "coordinates": [
                    [
                        [
                            -88.942,
                            29.464
                        ],
                        [
                            -88.7,
                            28.664
                        ],
                        [
                            -89.298,
                            28.473
                        ],
                        [
                            -89.905,
                            29.18
                        ],
                        [
                            -88.942,
                            29.464
                        ]
                    ]
                ]
            },
            "properties": {
                "airSigmetId": null,
                "airportIcao": "KKCI",
                "airSigmetType": "SIGMET",
                "hazard": "CONVECTIVE",
                "severity": 5,
                "altitudeLow1": null,
                "altitudeLow2": null,
                "altitudeHi1": 45000,
                "altitudeHi2": 60000,
                "movementDir": null,
                "movementSpd": null,
                "rawAirSigmet": "WSUS32 KKCI 231955\nSIGC \nCONVECTIVE SIGMET 82C\nVALID UNTIL 2155Z\nLA AND MS LA CSTL WTRS\nFROM 60ESE HRV-80ESE LEV-60SE LEV-10E LEV-60ESE HRV\nAREA TS MOV LTL. TOPS ABV FL450.\n\nOUTLOOK VALID 232155-240155\nTS ARE NOT EXPD TO REQUIRE WST ISSUANCES.",
                "validTimeTo": [
                    "2026-08-23T21:55"
                ]
            }
        },
        {
            "type": "Feature",
            "geometry": {
                "type": "Polygon",
                "coordinates": [
                    [
                        [
                            -109.02,
                            41.761
                        ],
                        [
                            -108.879,
                            33.041
                        ],
                        [
                            -114.295,
                            33.384
                        ],
                        [
                            -114.09,
                            38.485
                        ],
                        [
                            -111.354,
                            41.318
                        ],
                        [
                            -109.02,
                            41.761
                        ]
                    ]
                ]
            },
            "properties": {
                "airSigmetId": null,
                "airportIcao": "KKCI",
                "airSigmetType": "SIGMET",
                "hazard": "CONVECTIVE",
                "severity": 5,
                "altitudeLow1": null,
                "altitudeLow2": null,
                "altitudeHi1": 45000,
                "altitudeHi2": 45000,
                "movementDir": 180,
                "movementSpd": 15,
                "rawAirSigmet": "WSUS33 KKCI 231955\nSIGW \nCONVECTIVE SIGMET 93W\nVALID UNTIL 2155Z\nCO NM WY AZ UT NV CA\nFROM 10N OCS-50NNE SSO-40NNE BZA-20NE ILC-40NE SLC-10N OCS\nAREA TS MOV FROM 18015KT. TOPS TO FL450.\n\nOUTLOOK VALID 232155-240155\nTS ARE NOT EXPD TO REQUIRE WST ISSUANCES.",
                "validTimeTo": [
                    "2026-08-23T21:55"
                ]
            }
        },
        {
            "type": "Feature",
            "geometry": {
                "type": "Polygon",
                "coordinates": [
                    [
                        [
                            -104.102,
                            41.696
                        ],
                        [
                            -103.441,
                            36.963
                        ],
                        [
                            -104.065,
                            33.146
                        ],
                        [
                            -108.879,
                            33.041
                        ],
                        [
                            -109.02,
                            41.761
                        ],
                        [
                            -104.102,
                            41.696
                        ]
                    ]
                ]
            },
            "properties": {
                "airSigmetId": null,
                "airportIcao": "KKCI",
                "airSigmetType": "SIGMET",
                "hazard": "CONVECTIVE",
                "severity": 5,
                "altitudeLow1": null,
                "altitudeLow2": null,
                "altitudeHi1": 45000,
                "altitudeHi2": 45000,
                "movementDir": 210,
                "movementSpd": 35,
                "rawAirSigmet": "WSUS33 KKCI 231955\nSIGW \nCONVECTIVE SIGMET 94W\nVALID UNTIL 2155Z\nNE CO NM WY\nFROM 30WSW BFF-20SSE TBE-30ESE CME-50NNE SSO-10N OCS-30WSW BFF\nAREA TS MOV FROM 21035KT. TOPS TO FL450.\n\nOUTLOOK VALID 232155-240155\nTS ARE NOT EXPD TO REQUIRE WST ISSUANCES.",
                "validTimeTo": [
                    "2026-08-23T21:55"
                ]
            }
        },
        {
            "type": "Feature",
            "geometry": {
                "type": "Polygon",
                "coordinates": [
                    [
                        [
                            -119.113,
                            49.08
                        ],
                        [
                            -116.681,
                            49.006
                        ],
                        [
                            -116.927,
                            48.028
                        ],
                        [
                            -119.42,
                            48.045
                        ],
                        [
                            -119.113,
                            49.08
                        ]
                    ]
                ]
            },
            "properties": {
                "airSigmetId": null,
                "airportIcao": "KKCI",
                "airSigmetType": "SIGMET",
                "hazard": "CONVECTIVE",
                "severity": 5,
                "altitudeLow1": null,
                "altitudeLow2": null,
                "altitudeHi1": 40000,
                "altitudeHi2": 40000,
                "movementDir": 220,
                "movementSpd": 10,
                "rawAirSigmet": "WSUS33 KKCI 231955\nSIGW \nCONVECTIVE SIGMET 95W\nVALID UNTIL 2155Z\nID WA\nFROM 60ESE YDC-50SW YXC-40NE GEG-40N EPH-60ESE YDC\nAREA TS MOV FROM 22010KT. TOPS TO FL400.\n\nOUTLOOK VALID 232155-240155\nTS ARE NOT EXPD TO REQUIRE WST ISSUANCES.",
                "validTimeTo": [
                    "2026-08-23T21:55"
                ]
            }
        },
        {
            "type": "Feature",
            "geometry": {
                "type": "Polygon",
                "coordinates": [
                    [
                        [
                            -107.713,
                            44.646
                        ],
                        [
                            -107.813,
                            43.103
                        ],
                        [
                            -111.743,
                            42.866
                        ],
                        [
                            -111.55,
                            44.558
                        ],
                        [
                            -107.713,
                            44.646
                        ]
                    ]
                ]
            },
            "properties": {
                "airSigmetId": null,
                "airportIcao": "KKCI",
                "airSigmetType": "SIGMET",
                "hazard": "CONVECTIVE",
                "severity": 5,
                "altitudeLow1": null,
                "altitudeLow2": null,
                "altitudeHi1": 37000,
                "altitudeHi2": 37000,
                "movementDir": 270,
                "movementSpd": 20,
                "rawAirSigmet": "WSUS33 KKCI 231955\nSIGW \nCONVECTIVE SIGMET 96W\nVALID UNTIL 2155Z\nMT WY ID\nFROM 30WSW SHR-30SE BOY-40E PIH-40NE DBS-30WSW SHR\nAREA TS MOV FROM 27020KT. TOPS TO FL370.\n\nOUTLOOK VALID 232155-240155\nTS ARE NOT EXPD TO REQUIRE WST ISSUANCES.",
                "validTimeTo": [
                    "2026-08-23T21:55"
                ]
            }
        },
        {
            "type": "Feature",
            "geometry": {
                "type": "Polygon",
                "coordinates": [
                    [
                        [
                            -109.229,
                            48.894
                        ],
                        [
                            -109.39,
                            47.925
                        ],
                        [
                            -111.94,
                            47.805
                        ],
                        [
                            -114.935,
                            48.208
                        ],
                        [
                            -114.879,
                            49.006
                        ],
                        [
                            -109.229,
                            48.894
                        ]
                    ]
                ]
            },
            "properties": {
                "airSigmetId": null,
                "airportIcao": "KKCI",
                "airSigmetType": "SIGMET",
                "hazard": "CONVECTIVE",
                "severity": 5,
                "altitudeLow1": null,
                "altitudeLow2": null,
                "altitudeHi1": 38000,
                "altitudeHi2": 38000,
                "movementDir": 250,
                "movementSpd": 25,
                "rawAirSigmet": "WSUS33 KKCI 231955\nSIGW \nCONVECTIVE SIGMET 97W\nVALID UNTIL 2155Z\nMT\nFROM 30NE HVR-40SSE HVR-30NW GTF-30W FCA-50SE YXC-30NE HVR\nAREA TS MOV FROM 25025KT. TOPS TO FL380.\n\nOUTLOOK VALID 232155-240155\nTS ARE NOT EXPD TO REQUIRE WST ISSUANCES.",
                "validTimeTo": [
                    "2026-08-23T21:55"
                ]
            }
        },
        {
            "type": "Feature",
            "geometry": {
                "type": "Polygon",
                "coordinates": [
                    [
                        [
                            -111.466,
                            46.609
                        ],
                        [
                            -110.537,
                            45.794
                        ],
                        [
                            -113.623,
                            43.571
                        ],
                        [
                            -114.526,
                            44.247
                        ],
                        [
                            -111.466,
                            46.609
                        ]
                    ]
                ]
            },
            "properties": {
                "airSigmetId": null,
                "airportIcao": "KKCI",
                "airSigmetType": "SIGMET",
                "hazard": "CONVECTIVE",
                "severity": 5,
                "altitudeLow1": null,
                "altitudeLow2": null,
                "altitudeHi1": 45000,
                "altitudeHi2": 45000,
                "movementDir": 210,
                "movementSpd": 25,
                "rawAirSigmet": "WSUS33 KKCI 231955\nSIGW \nCONVECTIVE SIGMET 98W\nVALID UNTIL 2155Z\nMT ID\nFROM 20E HLN-80W BIL-60NW PIH-50SSW LKT-20E HLN\nAREA TS MOV FROM 21025KT. TOPS TO FL450.\n\nOUTLOOK VALID 232155-240155\nTS ARE NOT EXPD TO REQUIRE WST ISSUANCES.",
                "validTimeTo": [
                    "2026-08-23T21:55"
                ]
            }
        },
        {
            "type": "Feature",
            "geometry": {
                "type": "Polygon",
                "coordinates": [
                    [
                        [
                            -71.415,
                            39.223
                        ],
                        [
                            -70.03,
                            38.783
                        ],
                        [
                            -72.061,
                            36.179
                        ],
                        [
                            -74.12,
                            36.232
                        ],
                        [
                            -71.415,
                            39.223
                        ]
                    ]
                ]
            },
            "properties": {
                "airSigmetId": null,
                "airportIcao": "KKCI",
                "airSigmetType": "SIGMET",
                "hazard": "CONVECTIVE",
                "severity": 5,
                "altitudeLow1": null,
                "altitudeLow2": null,
                "altitudeHi1": 39000,
                "altitudeHi2": 39000,
                "movementDir": 190,
                "movementSpd": 20,
                "rawAirSigmet": "WSUS31 KKCI 231955\nSIGE \nCONVECTIVE SIGMET 47E\nVALID UNTIL 2155Z\nMA RI DE NJ NY MD NC VA CSTL WTRS\nFROM 110SSE HTO-150S ACK-200E ECG-100E ECG-110SSE HTO\nAREA TS MOV FROM 19020KT. TOPS TO FL390.\nREF INTL SIGMET SERIES INDIA.\n\nOUTLOOK VALID 232155-240155\nAREA 1...FROM 140SE SIE-190ESE ECG-140SSE ILM-210ENE PBI-90SE\nMIA-30W EYW-CTY-70SSE CHS-100SSE ECG-140SE SIE\nWST ISSUANCES POSS. REFER TO MOST RECENT ACUS01 KWNS FROM STORM\nPREDICTION CENTER FOR SYNOPSIS AND METEOROLOGICAL DETAILS.\n\nAREA 2...FROM MSS-60NE MPV-30W BOS-JST-30NE CLE-MSS\nWST ISSUANCES POSS. REFER TO MOST RECENT ACUS01 KWNS FROM STORM\nPREDICTION CENTER FOR SYNOPSIS AND METEOROLOGICAL DETAILS.",
                "validTimeTo": [
                    "2026-08-23T21:55"
                ]
            }
        },
        {
            "type": "Feature",
            "geometry": {
                "type": "Polygon",
                "coordinates": [
                    [
                        [
                            -66.87,
                            44.611
                        ],
                        [
                            -66.915,
                            42.194
                        ],
                        [
                            -68.595,
                            42.332
                        ],
                        [
                            -68.692,
                            44.533
                        ],
                        [
                            -66.87,
                            44.611
                        ]
                    ]
                ]
            },
            "properties": {
                "airSigmetId": null,
                "airportIcao": "KKCI",
                "airSigmetType": "SIGMET",
                "hazard": "CONVECTIVE",
                "severity": 5,
                "altitudeLow1": null,
                "altitudeLow2": null,
                "altitudeHi1": 36000,
                "altitudeHi2": 36000,
                "movementDir": 190,
                "movementSpd": 20,
                "rawAirSigmet": "WSUS31 KKCI 231955\nSIGE \nCONVECTIVE SIGMET 48E\nVALID UNTIL 2155Z\nME AND ME MA NH CSTL WTRS\nFROM 60SW YSJ-150ENE ACK-90NE ACK-20SSE BGR-60SW YSJ\nAREA TS MOV FROM 19020KT. TOPS TO FL360.\nREF INTL SIGMET SERIES INDIA.\n\nOUTLOOK VALID 232155-240155\nAREA 1...FROM 140SE SIE-190ESE ECG-140SSE ILM-210ENE PBI-90SE\nMIA-30W EYW-CTY-70SSE CHS-100SSE ECG-140SE SIE\nWST ISSUANCES POSS. REFER TO MOST RECENT ACUS01 KWNS FROM STORM\nPREDICTION CENTER FOR SYNOPSIS AND METEOROLOGICAL DETAILS.\n\nAREA 2...FROM MSS-60NE MPV-30W BOS-JST-30NE CLE-MSS\nWST ISSUANCES POSS. REFER TO MOST RECENT ACUS01 KWNS FROM STORM\nPREDICTION CENTER FOR SYNOPSIS AND METEOROLOGICAL DETAILS.",
                "validTimeTo": [
                    "2026-08-23T21:55"
                ]
            }
        },
        {
            "type": "Feature",
            "geometry": {
                "type": "Polygon",
                "coordinates": [
                    [
                        [
                            -74.891,
                            45.031
                        ],
                        [
                            -72.118,
                            44.991
                        ],
                        [
                            -71.842,
                            42.755
                        ],
                        [
                            -75.018,
                            40.578
                        ],
                        [
                            -76.849,
                            43.628
                        ],
                        [
                            -74.891,
                            45.031
                        ]
                    ]
                ]
            },
            "properties": {
                "airSigmetId": null,
                "airportIcao": "KKCI",
                "airSigmetType": "SIGMET",
                "hazard": "CONVECTIVE",
                "severity": 5,
                "altitudeLow1": null,
                "altitudeLow2": null,
                "altitudeHi1": 35000,
                "altitudeHi2": 35000,
                "movementDir": 320,
                "movementSpd": 20,
                "rawAirSigmet": "WSUS31 KKCI 231955\nSIGE \nCONVECTIVE SIGMET 49E\nVALID UNTIL 2155Z\nMA NH VT CT NY NJ PA LO\nFROM 10NW MSS-50NNE MPV-30SSW CON-30E ETX-40NW SYR-10NW MSS\nAREA TS MOV FROM 32020KT. TOPS TO FL350.\n\nOUTLOOK VALID 232155-240155\nAREA 1...FROM 140SE SIE-190ESE ECG-140SSE ILM-210ENE PBI-90SE\nMIA-30W EYW-CTY-70SSE CHS-100SSE ECG-140SE SIE\nWST ISSUANCES POSS. REFER TO MOST RECENT ACUS01 KWNS FROM STORM\nPREDICTION CENTER FOR SYNOPSIS AND METEOROLOGICAL DETAILS.\n\nAREA 2...FROM MSS-60NE MPV-30W BOS-JST-30NE CLE-MSS\nWST ISSUANCES POSS. REFER TO MOST RECENT ACUS01 KWNS FROM STORM\nPREDICTION CENTER FOR SYNOPSIS AND METEOROLOGICAL DETAILS.",
                "validTimeTo": [
                    "2026-08-23T21:55"
                ]
            }
        },
        {
            "type": "Feature",
            "geometry": {
                "type": "Polygon",
                "coordinates": [
                    [
                        [
                            -75.968,
                            36.25
                        ],
                        [
                            -74.85,
                            35.796
                        ],
                        [
                            -76.18,
                            34.913
                        ],
                        [
                            -79.618,
                            32.534
                        ],
                        [
                            -80.04,
                            33.393
                        ],
                        [
                            -75.968,
                            36.25
                        ]
                    ]
                ]
            },
            "properties": {
                "airSigmetId": null,
                "airportIcao": "KKCI",
                "airSigmetType": "SIGMET",
                "hazard": "CONVECTIVE",
                "severity": 5,
                "altitudeLow1": null,
                "altitudeLow2": null,
                "altitudeHi1": 45000,
                "altitudeHi2": 60000,
                "movementDir": 270,
                "movementSpd": 15,
                "rawAirSigmet": "WSUS31 KKCI 231955\nSIGE \nCONVECTIVE SIGMET 50E\nVALID UNTIL 2155Z\nNC SC AND CSTL WTRS\nFROM 10E ECG-70ESE ECG-90ENE ILM-30SE CHS-30N CHS-10E ECG\nAREA TS MOV FROM 27015KT. TOPS ABV FL450.\n\nOUTLOOK VALID 232155-240155\nAREA 1...FROM 140SE SIE-190ESE ECG-140SSE ILM-210ENE PBI-90SE\nMIA-30W EYW-CTY-70SSE CHS-100SSE ECG-140SE SIE\nWST ISSUANCES POSS. REFER TO MOST RECENT ACUS01 KWNS FROM STORM\nPREDICTION CENTER FOR SYNOPSIS AND METEOROLOGICAL DETAILS.\n\nAREA 2...FROM MSS-60NE MPV-30W BOS-JST-30NE CLE-MSS\nWST ISSUANCES POSS. REFER TO MOST RECENT ACUS01 KWNS FROM STORM\nPREDICTION CENTER FOR SYNOPSIS AND METEOROLOGICAL DETAILS.",
                "validTimeTo": [
                    "2026-08-23T21:55"
                ]
            }
        }
    ],
    "metadata": {
        "creationTime": "2026-08-23T20:31"
    }
}