{
    "type": "FeatureCollection",
    "features": [
        {
            "type": "Feature",
            "geometry": {
                "type": "Polygon",
                "coordinates": [
                    [
                        [
                            -73.237,
                            39.432
                        ],
                        [
                            -73.229,
                            38.581
                        ],
                        [
                            -74.54,
                            38.026
                        ],
                        [
                            -74.011,
                            38.843
                        ],
                        [
                            -73.237,
                            39.432
                        ]
                    ]
                ]
            },
            "properties": {
                "airSigmetId": null,
                "airportIcao": "KKCI",
                "airSigmetType": "SIGMET",
                "hazard": "CONVECTIVE",
                "severity": 5,
                "altitudeLow1": null,
                "altitudeLow2": null,
                "altitudeHi1": 40000,
                "altitudeHi2": 40000,
                "movementDir": 250,
                "movementSpd": 20,
                "rawAirSigmet": "WSUS31 KKCI 241055\nSIGE \nCONVECTIVE SIGMET 53E\nVALID UNTIL 1255Z\nDE NJ MD CSTL WTRS\nFROM 60ESE CYN-80ESE SIE-50ESE SBY-40ESE SIE-60ESE CYN\nAREA TS MOV FROM 25020KT. TOPS TO FL400.\n\nOUTLOOK VALID 241255-241655\nAREA 1...FROM 140SSE ILM-210ENE PBI-100E PBI-120SSE MIA-90WSW\nEYW-80W EYW-PBI-140SE CHS-140SSE ILM\nWST ISSUANCES POSS. REFER TO MOST RECENT ACUS01 KWNS FROM STORM\nPREDICTION CENTER FOR SYNOPSIS AND METEOROLOGICAL DETAILS.\n\nAREA 2...FROM 150ESE SBY-190ESE ECG-130SSE ILM-80ESE ILM-150ESE\nSBY\nWST ISSUANCES POSS. REFER TO MOST RECENT ACUS01 KWNS FROM STORM\nPREDICTION CENTER FOR SYNOPSIS AND METEOROLOGICAL DETAILS.",
                "validTimeTo": [
                    "2026-08-24T12:55"
                ]
            }
        },
        {
            "type": "Feature",
            "geometry": {
                "type": "Polygon",
                "coordinates": [
                    [
                        [
                            -72.58,
                            37.313
                        ],
                        [
                            -72.614,
                            34.987
                        ],
                        [
                            -76.89,
                            32.346
                        ],
                        [
                            -76.744,
                            33.405
                        ],
                        [
                            -72.58,
                            37.313
                        ]
                    ]
                ]
            },
            "properties": {
                "airSigmetId": null,
                "airportIcao": "KKCI",
                "airSigmetType": "SIGMET",
                "hazard": "CONVECTIVE",
                "severity": 5,
                "altitudeLow1": null,
                "altitudeLow2": null,
                "altitudeHi1": 45000,
                "altitudeHi2": 60000,
                "movementDir": 250,
                "movementSpd": 20,
                "rawAirSigmet": "WSUS31 KKCI 241055\nSIGE \nCONVECTIVE SIGMET 54E\nVALID UNTIL 1255Z\nMD NC VA CSTL WTRS\nFROM 150SE SIE-190ESE ECG-130SSE ILM-80SE ILM-150SE SIE\nAREA TS MOV FROM 25020KT. TOPS ABV FL450.\nREF INTL SIGMET SERIES LIMA.\n\nOUTLOOK VALID 241255-241655\nAREA 1...FROM 140SSE ILM-210ENE PBI-100E PBI-120SSE MIA-90WSW\nEYW-80W EYW-PBI-140SE CHS-140SSE ILM\nWST ISSUANCES POSS. REFER TO MOST RECENT ACUS01 KWNS FROM STORM\nPREDICTION CENTER FOR SYNOPSIS AND METEOROLOGICAL DETAILS.\n\nAREA 2...FROM 150ESE SBY-190ESE ECG-130SSE ILM-80ESE ILM-150ESE\nSBY\nWST ISSUANCES POSS. REFER TO MOST RECENT ACUS01 KWNS FROM STORM\nPREDICTION CENTER FOR SYNOPSIS AND METEOROLOGICAL DETAILS.",
                "validTimeTo": [
                    "2026-08-24T12:55"
                ]
            }
        },
        {
            "type": "Feature",
            "geometry": {
                "type": "Polygon",
                "coordinates": [
                    [
                        [
                            -111.553,
                            35.312
                        ],
                        [
                            -111.472,
                            31.629
                        ],
                        [
                            -113.419,
                            33.422
                        ],
                        [
                            -113.72,
                            35.022
                        ],
                        [
                            -111.553,
                            35.312
                        ]
                    ]
                ]
            },
            "properties": {
                "airSigmetId": null,
                "airportIcao": "KKCI",
                "airSigmetType": "SIGMET",
                "hazard": "CONVECTIVE",
                "severity": 5,
                "altitudeLow1": null,
                "altitudeLow2": null,
                "altitudeHi1": 38000,
                "altitudeHi2": 38000,
                "movementDir": 190,
                "movementSpd": 15,
                "rawAirSigmet": "WSUS33 KKCI 241055\nSIGW \nCONVECTIVE SIGMET 53W\nVALID UNTIL 1255Z\nAZ\nFROM 40WNW INW-40SW TUS-70W PHX-40ENE EED-40WNW INW\nAREA TS MOV FROM 19015KT. TOPS TO FL380.\n\nOUTLOOK VALID 241255-241655\nFROM 40WSW TBC-40WSW SJN-40ENE TUS-50S TUS-40W BZA-40ESE\nMZB-30WSW PGS-40WSW TBC\nWST ISSUANCES POSS. REFER TO MOST RECENT ACUS01 KWNS FROM STORM\nPREDICTION CENTER FOR SYNOPSIS AND METEOROLOGICAL DETAILS.",
                "validTimeTo": [
                    "2026-08-24T12:55"
                ]
            }
        },
        {
            "type": "Feature",
            "geometry": {
                "type": "Polygon",
                "coordinates": [
                    [
                        [
                            -95.2,
                            37.815
                        ],
                        [
                            -92.363,
                            37.036
                        ],
                        [
                            -89.672,
                            34.445
                        ],
                        [
                            -92.03,
                            33.023
                        ],
                        [
                            -95.2,
                            37.815
                        ]
                    ]
                ]
            },
            "properties": {
                "airSigmetId": null,
                "airportIcao": "KKCI",
                "airSigmetType": "SIGMET",
                "hazard": "CONVECTIVE",
                "severity": 5,
                "altitudeLow1": null,
                "altitudeLow2": null,
                "altitudeHi1": 45000,
                "altitudeHi2": 60000,
                "movementDir": 300,
                "movementSpd": 30,
                "rawAirSigmet": "WSUS32 KKCI 241055\nSIGC \nCONVECTIVE SIGMET 58C\nVALID UNTIL 1255Z\nMS MO AR KS\nFROM 40N OSW-50ESE SGF-40SSE MEM-30N MLU-40N OSW\nAREA TS MOV FROM 30030KT. TOPS ABV FL450.\n\nOUTLOOK VALID 241255-241655\nAREA 1...FROM 60WNW FSD-50NNW MCW-IGB-50SSW MEI-MLU-ELD-50S\nMLC-60ESE HLC-40SSW PWE-40SSE OBH-60WNW FSD\nWST ISSUANCES POSS. REFER TO MOST RECENT ACUS01 KWNS FROM STORM\nPREDICTION CENTER FOR SYNOPSIS AND METEOROLOGICAL DETAILS.\n\nAREA 2...FROM 50NNW MOT-70WNW INL-50SE BRD-40SSW FAR-60ENE\nBIS-DIK-50NNW MOT\nWST ISSUANCES POSS. REFER TO MOST RECENT ACUS01 KWNS FROM STORM\nPREDICTION CENTER FOR SYNOPSIS AND METEOROLOGICAL DETAILS.",
                "validTimeTo": [
                    "2026-08-24T12:55"
                ]
            }
        },
        {
            "type": "Feature",
            "geometry": {
                "type": "Polygon",
                "coordinates": [
                    [
                        [
                            -78.586,
                            35.805
                        ],
                        [
                            -76.18,
                            35.415
                        ],
                        [
                            -78.024,
                            34.043
                        ],
                        [
                            -79.814,
                            34.537
                        ],
                        [
                            -78.586,
                            35.805
                        ]
                    ]
                ]
            },
            "properties": {
                "airSigmetId": null,
                "airportIcao": "KKCI",
                "airSigmetType": "SIGMET",
                "hazard": "CONVECTIVE",
                "severity": 5,
                "altitudeLow1": null,
                "altitudeLow2": null,
                "altitudeHi1": 45000,
                "altitudeHi2": 60000,
                "movementDir": 260,
                "movementSpd": 20,
                "rawAirSigmet": "WSUS31 KKCI 241055\nSIGE \nCONVECTIVE SIGMET 55E\nVALID UNTIL 1255Z\nNC SC AND NC CSTL WTRS\nFROM 10ESE RDU-50S ECG-20SSW ILM-20NNW FLO-10ESE RDU\nAREA TS MOV FROM 26020KT. TOPS ABV FL450.\n\nOUTLOOK VALID 241255-241655\nAREA 1...FROM 140SSE ILM-210ENE PBI-100E PBI-120SSE MIA-90WSW\nEYW-80W EYW-PBI-140SE CHS-140SSE ILM\nWST ISSUANCES POSS. REFER TO MOST RECENT ACUS01 KWNS FROM STORM\nPREDICTION CENTER FOR SYNOPSIS AND METEOROLOGICAL DETAILS.\n\nAREA 2...FROM 150ESE SBY-190ESE ECG-130SSE ILM-80ESE ILM-150ESE\nSBY\nWST ISSUANCES POSS. REFER TO MOST RECENT ACUS01 KWNS FROM STORM\nPREDICTION CENTER FOR SYNOPSIS AND METEOROLOGICAL DETAILS.",
                "validTimeTo": [
                    "2026-08-24T12:55"
                ]
            }
        },
        {
            "type": "Feature",
            "geometry": {
                "type": "Polygon",
                "coordinates": [
                    [
                        [
                            -76.89,
                            32.346
                        ],
                        [
                            -76.627,
                            29.025
                        ],
                        [
                            -78.247,
                            29.269
                        ],
                        [
                            -77.68,
                            32.039
                        ],
                        [
                            -76.89,
                            32.346
                        ]
                    ]
                ]
            },
            "properties": {
                "airSigmetId": null,
                "airportIcao": "KKCI",
                "airSigmetType": "SIGMET",
                "hazard": "CONVECTIVE",
                "severity": 5,
                "altitudeLow1": null,
                "altitudeLow2": null,
                "altitudeHi1": 45000,
                "altitudeHi2": 60000,
                "movementDir": 250,
                "movementSpd": 20,
                "rawAirSigmet": "WSUS31 KKCI 241055\nSIGE \nCONVECTIVE SIGMET 56E\nVALID UNTIL 1255Z\nNC FL SC GA CSTL WTRS\nFROM 130SSE ILM-220ENE TRV-150E OMN-130ESE CHS-130SSE ILM\nAREA TS MOV FROM 25020KT. TOPS ABV FL450.\nREF INTL SIGMET SERIES LIMA.\n\nOUTLOOK VALID 241255-241655\nAREA 1...FROM 140SSE ILM-210ENE PBI-100E PBI-120SSE MIA-90WSW\nEYW-80W EYW-PBI-140SE CHS-140SSE ILM\nWST ISSUANCES POSS. REFER TO MOST RECENT ACUS01 KWNS FROM STORM\nPREDICTION CENTER FOR SYNOPSIS AND METEOROLOGICAL DETAILS.\n\nAREA 2...FROM 150ESE SBY-190ESE ECG-130SSE ILM-80ESE ILM-150ESE\nSBY\nWST ISSUANCES POSS. REFER TO MOST RECENT ACUS01 KWNS FROM STORM\nPREDICTION CENTER FOR SYNOPSIS AND METEOROLOGICAL DETAILS.",
                "validTimeTo": [
                    "2026-08-24T12:55"
                ]
            }
        },
        {
            "type": "Feature",
            "geometry": {
                "type": "Polygon",
                "coordinates": [
                    [
                        [
                            -96.517,
                            39.965
                        ],
                        [
                            -93.699,
                            35.571
                        ],
                        [
                            -96.35,
                            34.379
                        ],
                        [
                            -97.92,
                            36.853
                        ],
                        [
                            -97.62,
                            39.927
                        ],
                        [
                            -96.517,
                            39.965
                        ]
                    ]
                ]
            },
            "properties": {
                "airSigmetId": null,
                "airportIcao": "KKCI",
                "airSigmetType": "SIGMET",
                "hazard": "CONVECTIVE",
                "severity": 5,
                "altitudeLow1": null,
                "altitudeLow2": null,
                "altitudeHi1": 45000,
                "altitudeHi2": 45000,
                "movementDir": 300,
                "movementSpd": 25,
                "rawAirSigmet": "WSUS32 KKCI 241055\nSIGC \nCONVECTIVE SIGMET 59C\nVALID UNTIL 1255Z\nMO AR OK KS\nFROM 20SW PWE-30ENE FSM-40SW MLC-30N END-60N SLN-20SW PWE\nAREA TS MOV FROM 30025KT. TOPS TO FL450.\n\nOUTLOOK VALID 241255-241655\nAREA 1...FROM 60WNW FSD-50NNW MCW-IGB-50SSW MEI-MLU-ELD-50S\nMLC-60ESE HLC-40SSW PWE-40SSE OBH-60WNW FSD\nWST ISSUANCES POSS. REFER TO MOST RECENT ACUS01 KWNS FROM STORM\nPREDICTION CENTER FOR SYNOPSIS AND METEOROLOGICAL DETAILS.\n\nAREA 2...FROM 50NNW MOT-70WNW INL-50SE BRD-40SSW FAR-60ENE\nBIS-DIK-50NNW MOT\nWST ISSUANCES POSS. REFER TO MOST RECENT ACUS01 KWNS FROM STORM\nPREDICTION CENTER FOR SYNOPSIS AND METEOROLOGICAL DETAILS.",
                "validTimeTo": [
                    "2026-08-24T12:55"
                ]
            }
        },
        {
            "type": "Feature",
            "geometry": {
                "type": "Polygon",
                "coordinates": [
                    [
                        [
                            -94.635,
                            44.113
                        ],
                        [
                            -93.209,
                            40.608
                        ],
                        [
                            -97.732,
                            41.186
                        ],
                        [
                            -98.251,
                            43.241
                        ],
                        [
                            -94.635,
                            44.113
                        ]
                    ]
                ]
            },
            "properties": {
                "airSigmetId": null,
                "airportIcao": "KKCI",
                "airSigmetType": "SIGMET",
                "hazard": "CONVECTIVE",
                "severity": 5,
                "altitudeLow1": null,
                "altitudeLow2": null,
                "altitudeHi1": 45000,
                "altitudeHi2": 60000,
                "movementDir": 300,
                "movementSpd": 20,
                "rawAirSigmet": "WSUS32 KKCI 241055\nSIGC \nCONVECTIVE SIGMET 60C\nVALID UNTIL 1255Z\nMO MN IA NE SD\nFROM 30SE RWF-40NW IRK-30ESE OBH-50NNE ONL-30SE RWF\nAREA TS MOV FROM 30020KT. TOPS ABV FL450.\n\nOUTLOOK VALID 241255-241655\nAREA 1...FROM 60WNW FSD-50NNW MCW-IGB-50SSW MEI-MLU-ELD-50S\nMLC-60ESE HLC-40SSW PWE-40SSE OBH-60WNW FSD\nWST ISSUANCES POSS. REFER TO MOST RECENT ACUS01 KWNS FROM STORM\nPREDICTION CENTER FOR SYNOPSIS AND METEOROLOGICAL DETAILS.\n\nAREA 2...FROM 50NNW MOT-70WNW INL-50SE BRD-40SSW FAR-60ENE\nBIS-DIK-50NNW MOT\nWST ISSUANCES POSS. REFER TO MOST RECENT ACUS01 KWNS FROM STORM\nPREDICTION CENTER FOR SYNOPSIS AND METEOROLOGICAL DETAILS.",
                "validTimeTo": [
                    "2026-08-24T12:55"
                ]
            }
        },
        {
            "type": "Feature",
            "geometry": {
                "type": "Polygon",
                "coordinates": [
                    [
                        [
                            -95.798,
                            48.951
                        ],
                        [
                            -95.02,
                            48.083
                        ],
                        [
                            -98.062,
                            47.356
                        ],
                        [
                            -99.917,
                            47.87
                        ],
                        [
                            -100.802,
                            49.031
                        ],
                        [
                            -95.798,
                            48.951
                        ]
                    ]
                ]
            },
            "properties": {
                "airSigmetId": null,
                "airportIcao": "KKCI",
                "airSigmetType": "SIGMET",
                "hazard": "CONVECTIVE",
                "severity": 5,
                "altitudeLow1": null,
                "altitudeLow2": null,
                "altitudeHi1": 45000,
                "altitudeHi2": 60000,
                "movementDir": 270,
                "movementSpd": 20,
                "rawAirSigmet": "WSUS32 KKCI 241055\nSIGC \nCONVECTIVE SIGMET 61C\nVALID UNTIL 1255Z\nMN ND\nFROM 80SE YWG-30N BJI-50SW GFK-60ESE MOT-50NNE MOT-80SE YWG\nAREA TS MOV FROM 27020KT. TOPS ABV FL450.\n\nOUTLOOK VALID 241255-241655\nAREA 1...FROM 60WNW FSD-50NNW MCW-IGB-50SSW MEI-MLU-ELD-50S\nMLC-60ESE HLC-40SSW PWE-40SSE OBH-60WNW FSD\nWST ISSUANCES POSS. REFER TO MOST RECENT ACUS01 KWNS FROM STORM\nPREDICTION CENTER FOR SYNOPSIS AND METEOROLOGICAL DETAILS.\n\nAREA 2...FROM 50NNW MOT-70WNW INL-50SE BRD-40SSW FAR-60ENE\nBIS-DIK-50NNW MOT\nWST ISSUANCES POSS. REFER TO MOST RECENT ACUS01 KWNS FROM STORM\nPREDICTION CENTER FOR SYNOPSIS AND METEOROLOGICAL DETAILS.",
                "validTimeTo": [
                    "2026-08-24T12:55"
                ]
            }
        },
        {
            "type": "Feature",
            "geometry": {
                "type": "Polygon",
                "coordinates": [
                    [
                        [
                            -100.216,
                            48.96
                        ],
                        [
                            -101.668,
                            47.645
                        ],
                        [
                            -103.146,
                            47.474
                        ],
                        [
                            -102.188,
                            48.847
                        ],
                        [
                            -100.216,
                            48.96
                        ]
                    ]
                ]
            },
            "properties": {
                "airSigmetId": null,
                "airportIcao": "KKCI",
                "airSigmetType": "SIGMET",
                "hazard": "CONVECTIVE",
                "severity": 5,
                "altitudeLow1": null,
                "altitudeLow2": null,
                "altitudeHi1": 45000,
                "altitudeHi2": 45000,
                "movementDir": 270,
                "movementSpd": 20,
                "rawAirSigmet": "WSUS32 KKCI 241055\nSIGC \nCONVECTIVE SIGMET 62C\nVALID UNTIL 1255Z\nND\nFROM 60NE MOT-40SSW MOT-40NNW DIK-50NW MOT-60NE MOT\nAREA TS MOV FROM 27020KT. TOPS TO FL450.\n\nOUTLOOK VALID 241255-241655\nAREA 1...FROM 60WNW FSD-50NNW MCW-IGB-50SSW MEI-MLU-ELD-50S\nMLC-60ESE HLC-40SSW PWE-40SSE OBH-60WNW FSD\nWST ISSUANCES POSS. REFER TO MOST RECENT ACUS01 KWNS FROM STORM\nPREDICTION CENTER FOR SYNOPSIS AND METEOROLOGICAL DETAILS.\n\nAREA 2...FROM 50NNW MOT-70WNW INL-50SE BRD-40SSW FAR-60ENE\nBIS-DIK-50NNW MOT\nWST ISSUANCES POSS. REFER TO MOST RECENT ACUS01 KWNS FROM STORM\nPREDICTION CENTER FOR SYNOPSIS AND METEOROLOGICAL DETAILS.",
                "validTimeTo": [
                    "2026-08-24T12:55"
                ]
            }
        },
        {
            "type": "Feature",
            "geometry": {
                "type": "Polygon",
                "coordinates": [
                    [
                        [
                            -79.28,
                            28.736
                        ],
                        [
                            -78.214,
                            28.49
                        ],
                        [
                            -78.362,
                            27.306
                        ],
                        [
                            -79.826,
                            26.915
                        ],
                        [
                            -79.28,
                            28.736
                        ]
                    ]
                ]
            },
            "properties": {
                "airSigmetId": null,
                "airportIcao": "KKCI",
                "airSigmetType": "SIGMET",
                "hazard": "CONVECTIVE",
                "severity": 5,
                "altitudeLow1": null,
                "altitudeLow2": null,
                "altitudeHi1": 43000,
                "altitudeHi2": 43000,
                "movementDir": 260,
                "movementSpd": 15,
                "rawAirSigmet": "WSUS31 KKCI 241055\nSIGE \nCONVECTIVE SIGMET 57E\nVALID UNTIL 1255Z\nFL CSTL WTRS\nFROM 90NE TRV-130ENE TRV-100ENE PBI-20NE PBI-90NE TRV\nAREA TS MOV FROM 26015KT. TOPS TO FL430.\n\nOUTLOOK VALID 241255-241655\nAREA 1...FROM 140SSE ILM-210ENE PBI-100E PBI-120SSE MIA-90WSW\nEYW-80W EYW-PBI-140SE CHS-140SSE ILM\nWST ISSUANCES POSS. REFER TO MOST RECENT ACUS01 KWNS FROM STORM\nPREDICTION CENTER FOR SYNOPSIS AND METEOROLOGICAL DETAILS.\n\nAREA 2...FROM 150ESE SBY-190ESE ECG-130SSE ILM-80ESE ILM-150ESE\nSBY\nWST ISSUANCES POSS. REFER TO MOST RECENT ACUS01 KWNS FROM STORM\nPREDICTION CENTER FOR SYNOPSIS AND METEOROLOGICAL DETAILS.",
                "validTimeTo": [
                    "2026-08-24T12:55"
                ]
            }
        },
        {
            "type": "Feature",
            "geometry": {
                "type": "Polygon",
                "coordinates": [
                    [
                        [
                            -82.512,
                            29.129
                        ],
                        [
                            -82.754,
                            28.068
                        ],
                        [
                            -83.808,
                            27.905
                        ],
                        [
                            -83.341,
                            28.986
                        ],
                        [
                            -82.512,
                            29.129
                        ]
                    ]
                ]
            },
            "properties": {
                "airSigmetId": null,
                "airportIcao": "KKCI",
                "airSigmetType": "SIGMET",
                "hazard": "CONVECTIVE",
                "severity": 5,
                "altitudeLow1": null,
                "altitudeLow2": null,
                "altitudeHi1": 43000,
                "altitudeHi2": 43000,
                "movementDir": 260,
                "movementSpd": 15,
                "rawAirSigmet": "WSUS31 KKCI 241055\nSIGE \nCONVECTIVE SIGMET 58E\nVALID UNTIL 1255Z\nFL AND CSTL WTRS\nFROM 40SE CTY-10NNW PIE-60W PIE-40SSW CTY-40SE CTY\nAREA TS MOV FROM 26015KT. TOPS TO FL430.\n\nOUTLOOK VALID 241255-241655\nAREA 1...FROM 140SSE ILM-210ENE PBI-100E PBI-120SSE MIA-90WSW\nEYW-80W EYW-PBI-140SE CHS-140SSE ILM\nWST ISSUANCES POSS. REFER TO MOST RECENT ACUS01 KWNS FROM STORM\nPREDICTION CENTER FOR SYNOPSIS AND METEOROLOGICAL DETAILS.\n\nAREA 2...FROM 150ESE SBY-190ESE ECG-130SSE ILM-80ESE ILM-150ESE\nSBY\nWST ISSUANCES POSS. REFER TO MOST RECENT ACUS01 KWNS FROM STORM\nPREDICTION CENTER FOR SYNOPSIS AND METEOROLOGICAL DETAILS.",
                "validTimeTo": [
                    "2026-08-24T12:55"
                ]
            }
        }
    ],
    "metadata": {
        "creationTime": "2026-08-24T11:35"
    }
}