{
    "type": "FeatureCollection",
    "features": [
        {
            "type": "Feature",
            "geometry": {
                "type": "Polygon",
                "coordinates": [
                    [
                        [
                            -122.58,
                            49.121
                        ],
                        [
                            -118.65,
                            48.946
                        ],
                        [
                            -116.21,
                            45.435
                        ],
                        [
                            -121.794,
                            43.893
                        ],
                        [
                            -125.09,
                            48.172
                        ],
                        [
                            -122.58,
                            49.121
                        ]
                    ]
                ]
            },
            "properties": {
                "airSigmetId": null,
                "airportIcao": "KKCI",
                "airSigmetType": "SIGMET",
                "hazard": "CONVECTIVE",
                "severity": 5,
                "altitudeLow1": null,
                "altitudeLow2": null,
                "altitudeHi1": 39000,
                "altitudeHi2": 39000,
                "movementDir": null,
                "movementSpd": null,
                "rawAirSigmet": "WSUS33 KKCI 052255\nSIGW \nCONVECTIVE SIGMET 28W\nVALID UNTIL 0055Z\nID OR WA AND WA CSTL WTRS\nFROM 10N HUH-80ESE YDC-40N DNJ-30SW DSD-20WSW TOU-10N HUH\nAREA TS MOV LTL. TOPS TO FL390.\n\nOUTLOOK VALID 060055-060455\nFROM HUH-90ESE YDC-DSD-ONP-TOU-HUH\nWST ISSUANCES POSS. REFER TO MOST RECENT ACUS01 KWNS FROM STORM\nPREDICTION CENTER FOR SYNOPSIS AND METEOROLOGICAL DETAILS.",
                "validTimeTo": [
                    "2026-09-06T00:55"
                ]
            }
        },
        {
            "type": "Feature",
            "geometry": {
                "type": "Polygon",
                "coordinates": [
                    [
                        [
                            -113.183,
                            48.206
                        ],
                        [
                            -111.029,
                            48.064
                        ],
                        [
                            -113.724,
                            44.405
                        ],
                        [
                            -115.349,
                            44.512
                        ],
                        [
                            -113.183,
                            48.206
                        ]
                    ]
                ]
            },
            "properties": {
                "airSigmetId": null,
                "airportIcao": "KKCI",
                "airSigmetType": "SIGMET",
                "hazard": "CONVECTIVE",
                "severity": 5,
                "altitudeLow1": null,
                "altitudeLow2": null,
                "altitudeHi1": 35000,
                "altitudeHi2": 35000,
                "movementDir": 190,
                "movementSpd": 20,
                "rawAirSigmet": "WSUS33 KKCI 052255\nSIGW \nCONVECTIVE SIGMET 29W\nVALID UNTIL 0055Z\nMT ID\nFROM 40E FCA-40NNE GTF-40SSE LKT-40ESE DNJ-40E FCA\nAREA TS MOV FROM 19020KT. TOPS TO FL350.\n\nOUTLOOK VALID 060055-060455\nFROM HUH-90ESE YDC-DSD-ONP-TOU-HUH\nWST ISSUANCES POSS. REFER TO MOST RECENT ACUS01 KWNS FROM STORM\nPREDICTION CENTER FOR SYNOPSIS AND METEOROLOGICAL DETAILS.",
                "validTimeTo": [
                    "2026-09-06T00:55"
                ]
            }
        },
        {
            "type": "Feature",
            "geometry": {
                "type": "Polygon",
                "coordinates": [
                    [
                        [
                            -107.741,
                            34.2
                        ],
                        [
                            -106.82,
                            34.205
                        ],
                        [
                            -107.049,
                            32.471
                        ],
                        [
                            -108.047,
                            31.358
                        ],
                        [
                            -109.782,
                            31.19
                        ],
                        [
                            -107.741,
                            34.2
                        ]
                    ]
                ]
            },
            "properties": {
                "airSigmetId": null,
                "airportIcao": "KKCI",
                "airSigmetType": "SIGMET",
                "hazard": "CONVECTIVE",
                "severity": 5,
                "altitudeLow1": null,
                "altitudeLow2": null,
                "altitudeHi1": 38000,
                "altitudeHi2": 38000,
                "movementDir": 200,
                "movementSpd": 10,
                "rawAirSigmet": "WSUS33 KKCI 052255\nSIGW \nCONVECTIVE SIGMET 30W\nVALID UNTIL 0055Z\nNM AZ\nFROM 60NNW TCS-50S ABQ-30ENE DMN-60SSW DMN-70SSW SSO-60NNW TCS\nAREA TS MOV FROM 20010KT. TOPS TO FL380.\n\nOUTLOOK VALID 060055-060455\nFROM HUH-90ESE YDC-DSD-ONP-TOU-HUH\nWST ISSUANCES POSS. REFER TO MOST RECENT ACUS01 KWNS FROM STORM\nPREDICTION CENTER FOR SYNOPSIS AND METEOROLOGICAL DETAILS.",
                "validTimeTo": [
                    "2026-09-06T00:55"
                ]
            }
        },
        {
            "type": "Feature",
            "geometry": {
                "type": "Polygon",
                "coordinates": [
                    [
                        [
                            -86.944,
                            39.725
                        ],
                        [
                            -85.337,
                            37.635
                        ],
                        [
                            -86.358,
                            36.772
                        ],
                        [
                            -88.843,
                            36.94
                        ],
                        [
                            -88.743,
                            38.246
                        ],
                        [
                            -86.944,
                            39.725
                        ]
                    ]
                ]
            },
            "properties": {
                "airSigmetId": null,
                "airportIcao": "KKCI",
                "airSigmetType": "SIGMET",
                "hazard": "CONVECTIVE",
                "severity": 5,
                "altitudeLow1": null,
                "altitudeLow2": null,
                "altitudeHi1": 45000,
                "altitudeHi2": 60000,
                "movementDir": 340,
                "movementSpd": 10,
                "rawAirSigmet": "WSUS32 KKCI 052255\nSIGC \nCONVECTIVE SIGMET 43C\nVALID UNTIL 0055Z\nKY IN IL\nFROM 20NE TTH-30SSE IIU-10SSE BWG-60NNE DYR-50WNW PXV-20NE TTH\nAREA TS MOV FROM 34010KT. TOPS ABV FL450.\n\nOUTLOOK VALID 060055-060455\nFROM RAP-ONL-CDS-SPS-MLC-TUL-SGF-LIT-VUZ-70S CEW-150ESE\nLEV-LRD-DLF-50SSW MRF-ELP-SSO-PUB-RAP\nWST ISSUANCES EXPD. REFER TO MOST RECENT ACUS01 KWNS FROM STORM\nPREDICTION CENTER FOR SYNOPSIS AND METEOROLOGICAL DETAILS.",
                "validTimeTo": [
                    "2026-09-06T00:55"
                ]
            }
        },
        {
            "type": "Feature",
            "geometry": {
                "type": "Polygon",
                "coordinates": [
                    [
                        [
                            -98.438,
                            47.186
                        ],
                        [
                            -102.294,
                            38.918
                        ],
                        [
                            -104.103,
                            38.904
                        ],
                        [
                            -103.506,
                            46.858
                        ],
                        [
                            -98.438,
                            47.186
                        ]
                    ]
                ]
            },
            "properties": {
                "airSigmetId": null,
                "airportIcao": "KKCI",
                "airSigmetType": "SIGMET",
                "hazard": "CONVECTIVE",
                "severity": 5,
                "altitudeLow1": null,
                "altitudeLow2": null,
                "altitudeHi1": 45000,
                "altitudeHi2": 60000,
                "movementDir": 240,
                "movementSpd": 15,
                "rawAirSigmet": "WSUS32 KKCI 052255\nSIGC \nCONVECTIVE SIGMET 44C\nVALID UNTIL 0055Z\nKS NE SD ND CO\nFROM 70WNW FAR-40SW GLD-40NNE PUB-30W DIK-70WNW FAR\nAREA SEV TS MOV FROM 24015KT. TOPS ABV FL450.\nHAIL TO 1.75 IN...WIND GUSTS TO 50KT POSS.\n\nOUTLOOK VALID 060055-060455\nFROM RAP-ONL-CDS-SPS-MLC-TUL-SGF-LIT-VUZ-70S CEW-150ESE\nLEV-LRD-DLF-50SSW MRF-ELP-SSO-PUB-RAP\nWST ISSUANCES EXPD. REFER TO MOST RECENT ACUS01 KWNS FROM STORM\nPREDICTION CENTER FOR SYNOPSIS AND METEOROLOGICAL DETAILS.",
                "validTimeTo": [
                    "2026-09-06T00:55"
                ]
            }
        },
        {
            "type": "Feature",
            "geometry": {
                "type": "Polygon",
                "coordinates": [
                    [
                        [
                            -79.155,
                            29.987
                        ],
                        [
                            -76.627,
                            29.025
                        ],
                        [
                            -76.434,
                            27.97
                        ],
                        [
                            -78.974,
                            26.676
                        ],
                        [
                            -79.155,
                            29.987
                        ]
                    ]
                ]
            },
            "properties": {
                "airSigmetId": null,
                "airportIcao": "KKCI",
                "airSigmetType": "SIGMET",
                "hazard": "CONVECTIVE",
                "severity": 5,
                "altitudeLow1": null,
                "altitudeLow2": null,
                "altitudeHi1": 45000,
                "altitudeHi2": 60000,
                "movementDir": null,
                "movementSpd": null,
                "rawAirSigmet": "WSUS31 KKCI 052255\nSIGE \nCONVECTIVE SIGMET 23E\nVALID UNTIL 0055Z\nFL CSTL WTRS\nFROM 110ENE OMN-220ENE TRV-210ENE PBI-60E PBI-110ENE OMN\nAREA EMBD TS MOV LTL. TOPS ABV FL450.\nREF INTL SIGMET FOXTROT SERIES.\n\nOUTLOOK VALID 060055-060455\nFROM FWA-JST-SBY-ECG-ILM-SAV-140SSE ILM-200ENE PBI-70ENE\nPBI-140SE MIA-EYW-CTY-70S CEW-VUZ-STL-FWA\nREF WW 656.\nWST ISSUANCES EXPD. REFER TO MOST RECENT ACUS01 KWNS FROM STORM\nPREDICTION CENTER FOR SYNOPSIS AND METEOROLOGICAL DETAILS.",
                "validTimeTo": [
                    "2026-09-06T00:55"
                ]
            }
        },
        {
            "type": "Feature",
            "geometry": {
                "type": "Polygon",
                "coordinates": [
                    [
                        [
                            -74.292,
                            35.599
                        ],
                        [
                            -72.803,
                            35.058
                        ],
                        [
                            -75.107,
                            33.363
                        ],
                        [
                            -83.052,
                            32.689
                        ],
                        [
                            -83.3,
                            33.865
                        ],
                        [
                            -74.292,
                            35.599
                        ]
                    ]
                ]
            },
            "properties": {
                "airSigmetId": null,
                "airportIcao": "KKCI",
                "airSigmetType": "SIGMET",
                "hazard": "CONVECTIVE",
                "severity": 5,
                "altitudeLow1": null,
                "altitudeLow2": null,
                "altitudeHi1": 45000,
                "altitudeHi2": 60000,
                "movementDir": 300,
                "movementSpd": 20,
                "rawAirSigmet": "WSUS31 KKCI 052255\nSIGE \nCONVECTIVE SIGMET 24E\nVALID UNTIL 0055Z\nNC SC GA AND NC SC CSTL WTRS\nFROM 100ESE ECG-180ESE ECG-150ESE ILM-30E MCN-50S ODF-100ESE ECG\nAREA SEV TS MOV FROM 30020KT. TOPS ABV FL450.\nHAIL TO 1 IN...WIND GUSTS TO 50KT POSS.\n\nOUTLOOK VALID 060055-060455\nFROM FWA-JST-SBY-ECG-ILM-SAV-140SSE ILM-200ENE PBI-70ENE\nPBI-140SE MIA-EYW-CTY-70S CEW-VUZ-STL-FWA\nREF WW 656.\nWST ISSUANCES EXPD. REFER TO MOST RECENT ACUS01 KWNS FROM STORM\nPREDICTION CENTER FOR SYNOPSIS AND METEOROLOGICAL DETAILS.",
                "validTimeTo": [
                    "2026-09-06T00:55"
                ]
            }
        },
        {
            "type": "Feature",
            "geometry": {
                "type": "Polygon",
                "coordinates": [
                    [
                        [
                            -83.229,
                            37.732
                        ],
                        [
                            -83.069,
                            35.897
                        ],
                        [
                            -85.15,
                            35.795
                        ],
                        [
                            -86.358,
                            36.772
                        ],
                        [
                            -85.337,
                            37.635
                        ],
                        [
                            -83.229,
                            37.732
                        ]
                    ]
                ]
            },
            "properties": {
                "airSigmetId": null,
                "airportIcao": "KKCI",
                "airSigmetType": "SIGMET",
                "hazard": "CONVECTIVE",
                "severity": 5,
                "altitudeLow1": null,
                "altitudeLow2": null,
                "altitudeHi1": 45000,
                "altitudeHi2": 60000,
                "movementDir": 310,
                "movementSpd": 20,
                "rawAirSigmet": "WSUS31 KKCI 052255\nSIGE \nCONVECTIVE SIGMET 25E\nVALID UNTIL 0055Z\nVA TN KY\nFROM 60NE LOZ-40E VXV-50N GQO-10SSE BWG-30SSE IIU-60NE LOZ\nAREA SEV TS MOV FROM 31020KT. TOPS ABV FL450.\nWIND GUSTS TO 50KT POSS.\n\nOUTLOOK VALID 060055-060455\nFROM FWA-JST-SBY-ECG-ILM-SAV-140SSE ILM-200ENE PBI-70ENE\nPBI-140SE MIA-EYW-CTY-70S CEW-VUZ-STL-FWA\nREF WW 656.\nWST ISSUANCES EXPD. REFER TO MOST RECENT ACUS01 KWNS FROM STORM\nPREDICTION CENTER FOR SYNOPSIS AND METEOROLOGICAL DETAILS.",
                "validTimeTo": [
                    "2026-09-06T00:55"
                ]
            }
        },
        {
            "type": "Feature",
            "geometry": {
                "type": "Polygon",
                "coordinates": [
                    [
                        [
                            -95.065,
                            34.257
                        ],
                        [
                            -90.1,
                            31.927
                        ],
                        [
                            -89.219,
                            28.857
                        ],
                        [
                            -96.849,
                            29.787
                        ],
                        [
                            -97.66,
                            31.659
                        ],
                        [
                            -95.065,
                            34.257
                        ]
                    ]
                ]
            },
            "properties": {
                "airSigmetId": null,
                "airportIcao": "KKCI",
                "airSigmetType": "SIGMET",
                "hazard": "CONVECTIVE",
                "severity": 5,
                "altitudeLow1": null,
                "altitudeLow2": null,
                "altitudeHi1": 45000,
                "altitudeHi2": 60000,
                "movementDir": 50,
                "movementSpd": 5,
                "rawAirSigmet": "WSUS32 KKCI 052255\nSIGC \nCONVECTIVE SIGMET 45C\nVALID UNTIL 0055Z\nMS LA AR TX OK AND LA TX CSTL WTRS\nFROM 50SE MLC-30S MHZ-50ESE LEV-50SE CWK-20W ACT-50SE MLC\nAREA TS MOV FROM 05005KT. TOPS ABV FL450.\n\nOUTLOOK VALID 060055-060455\nFROM RAP-ONL-CDS-SPS-MLC-TUL-SGF-LIT-VUZ-70S CEW-150ESE\nLEV-LRD-DLF-50SSW MRF-ELP-SSO-PUB-RAP\nWST ISSUANCES EXPD. REFER TO MOST RECENT ACUS01 KWNS FROM STORM\nPREDICTION CENTER FOR SYNOPSIS AND METEOROLOGICAL DETAILS.",
                "validTimeTo": [
                    "2026-09-06T00:55"
                ]
            }
        },
        {
            "type": "Feature",
            "geometry": {
                "type": "Polygon",
                "coordinates": [
                    [
                        [
                            -90.729,
                            39.325
                        ],
                        [
                            -89.34,
                            38.808
                        ],
                        [
                            -89.934,
                            37.435
                        ],
                        [
                            -91.285,
                            37.665
                        ],
                        [
                            -90.729,
                            39.325
                        ]
                    ]
                ]
            },
            "properties": {
                "airSigmetId": null,
                "airportIcao": "KKCI",
                "airSigmetType": "SIGMET",
                "hazard": "CONVECTIVE",
                "severity": 5,
                "altitudeLow1": null,
                "altitudeLow2": null,
                "altitudeHi1": 45000,
                "altitudeHi2": 45000,
                "movementDir": 360,
                "movementSpd": 5,
                "rawAirSigmet": "WSUS32 KKCI 052255\nSIGC \nCONVECTIVE SIGMET 46C\nVALID UNTIL 0055Z\nIL MO\nFROM 30NNW STL-60SSW AXC-20SE FAM-50W FAM-30NNW STL\nDMSHG AREA TS MOV FROM 36005KT. TOPS TO FL450.\n\nOUTLOOK VALID 060055-060455\nFROM RAP-ONL-CDS-SPS-MLC-TUL-SGF-LIT-VUZ-70S CEW-150ESE\nLEV-LRD-DLF-50SSW MRF-ELP-SSO-PUB-RAP\nWST ISSUANCES EXPD. REFER TO MOST RECENT ACUS01 KWNS FROM STORM\nPREDICTION CENTER FOR SYNOPSIS AND METEOROLOGICAL DETAILS.",
                "validTimeTo": [
                    "2026-09-06T00:55"
                ]
            }
        },
        {
            "type": "Feature",
            "geometry": {
                "type": "Polygon",
                "coordinates": [
                    [
                        [
                            -85.856,
                            40.978
                        ],
                        [
                            -82.991,
                            40.022
                        ],
                        [
                            -83.074,
                            37.851
                        ],
                        [
                            -85.337,
                            37.635
                        ],
                        [
                            -87.084,
                            39.797
                        ],
                        [
                            -85.856,
                            40.978
                        ]
                    ]
                ]
            },
            "properties": {
                "airSigmetId": null,
                "airportIcao": "KKCI",
                "airSigmetType": "SIGMET",
                "hazard": "CONVECTIVE",
                "severity": 5,
                "altitudeLow1": null,
                "altitudeLow2": null,
                "altitudeHi1": 45000,
                "altitudeHi2": 60000,
                "movementDir": 310,
                "movementSpd": 20,
                "rawAirSigmet": "WSUS31 KKCI 052255\nSIGE \nCONVECTIVE SIGMET 26E\nVALID UNTIL 0055Z\nOH KY IN\nFROM 30W FWA-20WSW APE-70NE LOZ-30SSE IIU-20NNE TTH-30W FWA\nAREA SEV TS MOV FROM 31020KT. TOPS ABV FL450.\nWIND GUSTS TO 50KT POSS.\n\nOUTLOOK VALID 060055-060455\nFROM FWA-JST-SBY-ECG-ILM-SAV-140SSE ILM-200ENE PBI-70ENE\nPBI-140SE MIA-EYW-CTY-70S CEW-VUZ-STL-FWA\nREF WW 656.\nWST ISSUANCES EXPD. REFER TO MOST RECENT ACUS01 KWNS FROM STORM\nPREDICTION CENTER FOR SYNOPSIS AND METEOROLOGICAL DETAILS.",
                "validTimeTo": [
                    "2026-09-06T00:55"
                ]
            }
        },
        {
            "type": "Feature",
            "geometry": {
                "type": "Polygon",
                "coordinates": [
                    [
                        [
                            -80.82,
                            40.191
                        ],
                        [
                            -76.267,
                            37.757
                        ],
                        [
                            -77.079,
                            37.035
                        ],
                        [
                            -81.701,
                            39.364
                        ],
                        [
                            -80.82,
                            40.191
                        ]
                    ]
                ]
            },
            "properties": {
                "airSigmetId": null,
                "airportIcao": "KKCI",
                "airSigmetType": "SIGMET",
                "hazard": "CONVECTIVE",
                "severity": 5,
                "altitudeLow1": null,
                "altitudeLow2": null,
                "altitudeHi1": 41000,
                "altitudeHi2": 41000,
                "movementDir": 300,
                "movementSpd": 20,
                "rawAirSigmet": "WSUS31 KKCI 052255\nSIGE \nCONVECTIVE SIGMET 27E\nVALID UNTIL 0055Z\nPA MD VA WV OH\nFROM 10N AIR-50SW SBY-30SSE RIC-40NNE HNN-10N AIR\nAREA TS MOV FROM 30020KT. TOPS TO FL410.\n\nOUTLOOK VALID 060055-060455\nFROM FWA-JST-SBY-ECG-ILM-SAV-140SSE ILM-200ENE PBI-70ENE\nPBI-140SE MIA-EYW-CTY-70S CEW-VUZ-STL-FWA\nREF WW 656.\nWST ISSUANCES EXPD. REFER TO MOST RECENT ACUS01 KWNS FROM STORM\nPREDICTION CENTER FOR SYNOPSIS AND METEOROLOGICAL DETAILS.",
                "validTimeTo": [
                    "2026-09-06T00:55"
                ]
            }
        },
        {
            "type": "Feature",
            "geometry": {
                "type": "Polygon",
                "coordinates": [
                    [
                        [
                            -98.122,
                            28.489
                        ],
                        [
                            -97.667,
                            27.435
                        ],
                        [
                            -98.921,
                            26.4
                        ],
                        [
                            -99.945,
                            27.672
                        ],
                        [
                            -98.122,
                            28.489
                        ]
                    ]
                ]
            },
            "properties": {
                "airSigmetId": null,
                "airportIcao": "KKCI",
                "airSigmetType": "SIGMET",
                "hazard": "CONVECTIVE",
                "severity": 5,
                "altitudeLow1": null,
                "altitudeLow2": null,
                "altitudeHi1": 45000,
                "altitudeHi2": 45000,
                "movementDir": null,
                "movementSpd": null,
                "rawAirSigmet": "WSUS32 KKCI 052255\nSIGC \nCONVECTIVE SIGMET 47C\nVALID UNTIL 0055Z\nTX\nFROM 50NW CRP-30SSW CRP-70SSE LRD-30WNW LRD-50NW CRP\nAREA TS MOV LTL. TOPS TO FL450.\n\nOUTLOOK VALID 060055-060455\nFROM RAP-ONL-CDS-SPS-MLC-TUL-SGF-LIT-VUZ-70S CEW-150ESE\nLEV-LRD-DLF-50SSW MRF-ELP-SSO-PUB-RAP\nWST ISSUANCES EXPD. REFER TO MOST RECENT ACUS01 KWNS FROM STORM\nPREDICTION CENTER FOR SYNOPSIS AND METEOROLOGICAL DETAILS.",
                "validTimeTo": [
                    "2026-09-06T00:55"
                ]
            }
        },
        {
            "type": "Feature",
            "geometry": {
                "type": "Polygon",
                "coordinates": [
                    [
                        [
                            -105.66,
                            39.486
                        ],
                        [
                            -104.66,
                            39.307
                        ],
                        [
                            -104.728,
                            38.055
                        ],
                        [
                            -105.82,
                            38.015
                        ],
                        [
                            -105.66,
                            39.486
                        ]
                    ]
                ]
            },
            "properties": {
                "airSigmetId": null,
                "airportIcao": "KKCI",
                "airSigmetType": "SIGMET",
                "hazard": "CONVECTIVE",
                "severity": 5,
                "altitudeLow1": null,
                "altitudeLow2": null,
                "altitudeHi1": 40000,
                "altitudeHi2": 40000,
                "movementDir": 190,
                "movementSpd": 10,
                "rawAirSigmet": "WSUS32 KKCI 052255\nSIGC \nCONVECTIVE SIGMET 48C\nVALID UNTIL 0055Z\nCO\nFROM 50WSW DEN-30S DEN-20SW PUB-40N ALS-50WSW DEN\nAREA TS MOV FROM 19010KT. TOPS TO FL400.\n\nOUTLOOK VALID 060055-060455\nFROM RAP-ONL-CDS-SPS-MLC-TUL-SGF-LIT-VUZ-70S CEW-150ESE\nLEV-LRD-DLF-50SSW MRF-ELP-SSO-PUB-RAP\nWST ISSUANCES EXPD. REFER TO MOST RECENT ACUS01 KWNS FROM STORM\nPREDICTION CENTER FOR SYNOPSIS AND METEOROLOGICAL DETAILS.",
                "validTimeTo": [
                    "2026-09-06T00:55"
                ]
            }
        },
        {
            "type": "Feature",
            "geometry": {
                "type": "Polygon",
                "coordinates": [
                    [
                        [
                            -105.111,
                            41.824
                        ],
                        [
                            -105.06,
                            39.937
                        ],
                        [
                            -106.287,
                            39.908
                        ],
                        [
                            -106.196,
                            41.685
                        ],
                        [
                            -105.111,
                            41.824
                        ]
                    ]
                ]
            },
            "properties": {
                "airSigmetId": null,
                "airportIcao": "KKCI",
                "airSigmetType": "SIGMET",
                "hazard": "CONVECTIVE",
                "severity": 5,
                "altitudeLow1": null,
                "altitudeLow2": null,
                "altitudeHi1": 38000,
                "altitudeHi2": 38000,
                "movementDir": 190,
                "movementSpd": 10,
                "rawAirSigmet": "WSUS32 KKCI 052255\nSIGC \nCONVECTIVE SIGMET 49C\nVALID UNTIL 0055Z\nCO WY\nFROM 40NNW CYS-20WNW DEN-40NE DBL-30NW LAR-40NNW CYS\nAREA TS MOV FROM 19010KT. TOPS TO FL380.\n\nOUTLOOK VALID 060055-060455\nFROM RAP-ONL-CDS-SPS-MLC-TUL-SGF-LIT-VUZ-70S CEW-150ESE\nLEV-LRD-DLF-50SSW MRF-ELP-SSO-PUB-RAP\nWST ISSUANCES EXPD. REFER TO MOST RECENT ACUS01 KWNS FROM STORM\nPREDICTION CENTER FOR SYNOPSIS AND METEOROLOGICAL DETAILS.",
                "validTimeTo": [
                    "2026-09-06T00:55"
                ]
            }
        },
        {
            "type": "Feature",
            "geometry": {
                "type": "Polygon",
                "coordinates": [
                    [
                        [
                            -100.802,
                            49.031
                        ],
                        [
                            -98.49,
                            49.067
                        ],
                        [
                            -99.042,
                            48.444
                        ],
                        [
                            -100.752,
                            48.614
                        ],
                        [
                            -100.802,
                            49.031
                        ]
                    ]
                ]
            },
            "properties": {
                "airSigmetId": null,
                "airportIcao": "KKCI",
                "airSigmetType": "SIGMET",
                "hazard": "CONVECTIVE",
                "severity": 5,
                "altitudeLow1": null,
                "altitudeLow2": null,
                "altitudeHi1": 45000,
                "altitudeHi2": 45000,
                "movementDir": 260,
                "movementSpd": 25,
                "rawAirSigmet": "WSUS32 KKCI 052255\nSIGC \nCONVECTIVE SIGMET 50C\nVALID UNTIL 0055Z\nND\nFROM 50NNE MOT-70SW YWG-80WNW GFK-30NE MOT-50NNE MOT\nAREA TS MOV FROM 26025KT. TOPS TO FL450.\n\nOUTLOOK VALID 060055-060455\nFROM RAP-ONL-CDS-SPS-MLC-TUL-SGF-LIT-VUZ-70S CEW-150ESE\nLEV-LRD-DLF-50SSW MRF-ELP-SSO-PUB-RAP\nWST ISSUANCES EXPD. REFER TO MOST RECENT ACUS01 KWNS FROM STORM\nPREDICTION CENTER FOR SYNOPSIS AND METEOROLOGICAL DETAILS.",
                "validTimeTo": [
                    "2026-09-06T00:55"
                ]
            }
        },
        {
            "type": "Feature",
            "geometry": {
                "type": "Polygon",
                "coordinates": [
                    [
                        [
                            -80.8,
                            30.084
                        ],
                        [
                            -79.155,
                            29.987
                        ],
                        [
                            -78.942,
                            25.285
                        ],
                        [
                            -81.94,
                            24.283
                        ],
                        [
                            -81.816,
                            29.553
                        ],
                        [
                            -80.8,
                            30.084
                        ]
                    ]
                ]
            },
            "properties": {
                "airSigmetId": null,
                "airportIcao": "KKCI",
                "airSigmetType": "SIGMET",
                "hazard": "CONVECTIVE",
                "severity": 5,
                "altitudeLow1": null,
                "altitudeLow2": null,
                "altitudeHi1": 45000,
                "altitudeHi2": 60000,
                "movementDir": null,
                "movementSpd": null,
                "rawAirSigmet": "WSUS31 KKCI 052255\nSIGE \nCONVECTIVE SIGMET 28E\nVALID UNTIL 0055Z\nFL AND CSTL WTRS\nFROM 40ESE CRG-110ENE OMN-80ESE MIA-20SSW EYW-40WNW OMN-40ESE CRG\nAREA TS MOV LTL. TOPS ABV FL450.\nREFER INTL SIGMET FOXTROT SERIES.\n\nOUTLOOK VALID 060055-060455\nFROM FWA-JST-SBY-ECG-ILM-SAV-140SSE ILM-200ENE PBI-70ENE\nPBI-140SE MIA-EYW-CTY-70S CEW-VUZ-STL-FWA\nREF WW 656.\nWST ISSUANCES EXPD. REFER TO MOST RECENT ACUS01 KWNS FROM STORM\nPREDICTION CENTER FOR SYNOPSIS AND METEOROLOGICAL DETAILS.",
                "validTimeTo": [
                    "2026-09-06T00:55"
                ]
            }
        },
        {
            "type": "Feature",
            "geometry": {
                "type": "Polygon",
                "coordinates": [
                    [
                        [
                            -73.707,
                            36.864
                        ],
                        [
                            -74.292,
                            35.599
                        ],
                        [
                            -78.731,
                            35.052
                        ],
                        [
                            -78.046,
                            36.459
                        ],
                        [
                            -73.707,
                            36.864
                        ]
                    ]
                ]
            },
            "properties": {
                "airSigmetId": null,
                "airportIcao": "KKCI",
                "airSigmetType": "SIGMET",
                "hazard": "CONVECTIVE",
                "severity": 5,
                "altitudeLow1": null,
                "altitudeLow2": null,
                "altitudeHi1": 45000,
                "altitudeHi2": 60000,
                "movementDir": 300,
                "movementSpd": 15,
                "rawAirSigmet": "WSUS31 KKCI 052255\nSIGE \nCONVECTIVE SIGMET 29E\nVALID UNTIL 0055Z\nVA NC AND CSTL WTRS\nFROM 120E ORF-100ESE ECG-60NW ILM-50NE RDU-120E ORF\nAREA TS MOV FROM 30015KT. TOPS ABV FL450.\n\nOUTLOOK VALID 060055-060455\nFROM FWA-JST-SBY-ECG-ILM-SAV-140SSE ILM-200ENE PBI-70ENE\nPBI-140SE MIA-EYW-CTY-70S CEW-VUZ-STL-FWA\nREF WW 656.\nWST ISSUANCES EXPD. REFER TO MOST RECENT ACUS01 KWNS FROM STORM\nPREDICTION CENTER FOR SYNOPSIS AND METEOROLOGICAL DETAILS.",
                "validTimeTo": [
                    "2026-09-06T00:55"
                ]
            }
        },
        {
            "type": "Feature",
            "geometry": {
                "type": "Polygon",
                "coordinates": [
                    [
                        [
                            -86.3,
                            36.012
                        ],
                        [
                            -83.3,
                            33.865
                        ],
                        [
                            -83.052,
                            32.689
                        ],
                        [
                            -87.052,
                            33.363
                        ],
                        [
                            -86.993,
                            35.525
                        ],
                        [
                            -86.3,
                            36.012
                        ]
                    ]
                ]
            },
            "properties": {
                "airSigmetId": null,
                "airportIcao": "KKCI",
                "airSigmetType": "SIGMET",
                "hazard": "CONVECTIVE",
                "severity": 5,
                "altitudeLow1": null,
                "altitudeLow2": null,
                "altitudeHi1": 45000,
                "altitudeHi2": 60000,
                "movementDir": 330,
                "movementSpd": 15,
                "rawAirSigmet": "WSUS31 KKCI 052255\nSIGE \nCONVECTIVE SIGMET 30E\nVALID UNTIL 0055Z\nGA TN AL\nFROM 20ESE BNA-50S ODF-30E MCN-20SSW VUZ-40SSW BNA-20ESE BNA\nAREA SEV TS MOV FROM 33015KT. TOPS ABV FL450.\nWIND GUSTS TO 50KT POSS.\n\nOUTLOOK VALID 060055-060455\nFROM FWA-JST-SBY-ECG-ILM-SAV-140SSE ILM-200ENE PBI-70ENE\nPBI-140SE MIA-EYW-CTY-70S CEW-VUZ-STL-FWA\nREF WW 656.\nWST ISSUANCES EXPD. REFER TO MOST RECENT ACUS01 KWNS FROM STORM\nPREDICTION CENTER FOR SYNOPSIS AND METEOROLOGICAL DETAILS.",
                "validTimeTo": [
                    "2026-09-06T00:55"
                ]
            }
        },
        {
            "type": "Feature",
            "geometry": {
                "type": "Polygon",
                "coordinates": [
                    [
                        [
                            -106.664,
                            35.347
                        ],
                        [
                            -102.48,
                            33.891
                        ],
                        [
                            -102.734,
                            29.234
                        ],
                        [
                            -103.95,
                            28.8
                        ],
                        [
                            -107.049,
                            32.471
                        ],
                        [
                            -106.664,
                            35.347
                        ]
                    ]
                ]
            },
            "properties": {
                "airSigmetId": null,
                "airportIcao": "KKCI",
                "airSigmetType": "SIGMET",
                "hazard": "CONVECTIVE",
                "severity": 5,
                "altitudeLow1": null,
                "altitudeLow2": null,
                "altitudeHi1": 45000,
                "altitudeHi2": 60000,
                "movementDir": null,
                "movementSpd": null,
                "rawAirSigmet": "WSUS32 KKCI 052255\nSIGC \nCONVECTIVE SIGMET 51C\nVALID UNTIL 0055Z\nTX NM\nFROM 20NNE ABQ-30WNW LBB-90SE MRF-90S MRF-30ENE DMN-20NNE ABQ\nAREA TS MOV LTL. TOPS ABV FL450.\n\nOUTLOOK VALID 060055-060455\nFROM RAP-ONL-CDS-SPS-MLC-TUL-SGF-LIT-VUZ-70S CEW-150ESE\nLEV-LRD-DLF-50SSW MRF-ELP-SSO-PUB-RAP\nWST ISSUANCES EXPD. REFER TO MOST RECENT ACUS01 KWNS FROM STORM\nPREDICTION CENTER FOR SYNOPSIS AND METEOROLOGICAL DETAILS.",
                "validTimeTo": [
                    "2026-09-06T00:55"
                ]
            }
        },
        {
            "type": "Feature",
            "geometry": {
                "type": "Polygon",
                "coordinates": [
                    [
                        [
                            -102.527,
                            38.507
                        ],
                        [
                            -100.526,
                            36.683
                        ],
                        [
                            -102.48,
                            33.891
                        ],
                        [
                            -106.664,
                            35.347
                        ],
                        [
                            -105.523,
                            37.585
                        ],
                        [
                            -102.527,
                            38.507
                        ]
                    ]
                ]
            },
            "properties": {
                "airSigmetId": null,
                "airportIcao": "KKCI",
                "airSigmetType": "SIGMET",
                "hazard": "CONVECTIVE",
                "severity": 5,
                "altitudeLow1": null,
                "altitudeLow2": null,
                "altitudeHi1": 45000,
                "altitudeHi2": 60000,
                "movementDir": 230,
                "movementSpd": 15,
                "rawAirSigmet": "WSUS32 KKCI 052255\nSIGC \nCONVECTIVE SIGMET 52C\nVALID UNTIL 0055Z\nTX OK KS CO NM\nFROM 20NNE LAA-30SE LBL-30WNW LBB-20NNE ABQ-20NE ALS-20NNE LAA\nAREA TS MOV FROM 23015KT. TOPS ABV FL450.\n\nOUTLOOK VALID 060055-060455\nFROM RAP-ONL-CDS-SPS-MLC-TUL-SGF-LIT-VUZ-70S CEW-150ESE\nLEV-LRD-DLF-50SSW MRF-ELP-SSO-PUB-RAP\nWST ISSUANCES EXPD. REFER TO MOST RECENT ACUS01 KWNS FROM STORM\nPREDICTION CENTER FOR SYNOPSIS AND METEOROLOGICAL DETAILS.",
                "validTimeTo": [
                    "2026-09-06T00:55"
                ]
            }
        },
        {
            "type": "Feature",
            "geometry": {
                "type": "Polygon",
                "coordinates": [
                    [
                        [
                            -98.535,
                            39.632
                        ],
                        [
                            -97.374,
                            38.465
                        ],
                        [
                            -99.64,
                            36.805
                        ],
                        [
                            -100.568,
                            38.227
                        ],
                        [
                            -98.535,
                            39.632
                        ]
                    ]
                ]
            },
            "properties": {
                "airSigmetId": null,
                "airportIcao": "KKCI",
                "airSigmetType": "SIGMET",
                "hazard": "CONVECTIVE",
                "severity": 5,
                "altitudeLow1": null,
                "altitudeLow2": null,
                "altitudeHi1": 45000,
                "altitudeHi2": 60000,
                "movementDir": 250,
                "movementSpd": 10,
                "rawAirSigmet": "WSUS32 KKCI 052255\nSIGC \nCONVECTIVE SIGMET 53C\nVALID UNTIL 0055Z\nOK KS\nFROM 60NW SLN-30SSE SLN-30NNE MMB-20NNE GCK-60NW SLN\nAREA TS MOV FROM 25010KT. TOPS ABV FL450.\n\nOUTLOOK VALID 060055-060455\nFROM RAP-ONL-CDS-SPS-MLC-TUL-SGF-LIT-VUZ-70S CEW-150ESE\nLEV-LRD-DLF-50SSW MRF-ELP-SSO-PUB-RAP\nWST ISSUANCES EXPD. REFER TO MOST RECENT ACUS01 KWNS FROM STORM\nPREDICTION CENTER FOR SYNOPSIS AND METEOROLOGICAL DETAILS.",
                "validTimeTo": [
                    "2026-09-06T00:55"
                ]
            }
        },
        {
            "type": "Feature",
            "geometry": {
                "type": "Polygon",
                "coordinates": [
                    [
                        [
                            -100.404,
                            30.599
                        ],
                        [
                            -99.225,
                            29.638
                        ],
                        [
                            -100.363,
                            29.004
                        ],
                        [
                            -102.013,
                            29.801
                        ],
                        [
                            -101.91,
                            30.564
                        ],
                        [
                            -100.404,
                            30.599
                        ]
                    ]
                ]
            },
            "properties": {
                "airSigmetId": null,
                "airportIcao": "KKCI",
                "airSigmetType": "SIGMET",
                "hazard": "CONVECTIVE",
                "severity": 5,
                "altitudeLow1": null,
                "altitudeLow2": null,
                "altitudeHi1": 45000,
                "altitudeHi2": 60000,
                "movementDir": 70,
                "movementSpd": 5,
                "rawAirSigmet": "WSUS32 KKCI 052255\nSIGC \nCONVECTIVE SIGMET 54C\nVALID UNTIL 0055Z\nTX\nFROM 30W JCT-40W SAT-30SE DLF-70WNW DLF-60ESE FST-30W JCT\nAREA TS MOV FROM 07005KT. TOPS ABV FL450.\n\nOUTLOOK VALID 060055-060455\nFROM RAP-ONL-CDS-SPS-MLC-TUL-SGF-LIT-VUZ-70S CEW-150ESE\nLEV-LRD-DLF-50SSW MRF-ELP-SSO-PUB-RAP\nWST ISSUANCES EXPD. REFER TO MOST RECENT ACUS01 KWNS FROM STORM\nPREDICTION CENTER FOR SYNOPSIS AND METEOROLOGICAL DETAILS.",
                "validTimeTo": [
                    "2026-09-06T00:55"
                ]
            }
        }
    ],
    "metadata": {
        "creationTime": "2026-09-05T23:45"
    }
}