{
    "type": "FeatureCollection",
    "features": [
        {
            "type": "Feature",
            "geometry": {
                "type": "Polygon",
                "coordinates": [
                    [
                        [
                            -80.04,
                            33.393
                        ],
                        [
                            -76.89,
                            32.346
                        ],
                        [
                            -76.966,
                            27.79
                        ],
                        [
                            -80.09,
                            26.509
                        ],
                        [
                            -82.87,
                            31.412
                        ],
                        [
                            -80.04,
                            33.393
                        ]
                    ]
                ]
            },
            "properties": {
                "airSigmetId": null,
                "airportIcao": "KKCI",
                "airSigmetType": "SIGMET",
                "hazard": "CONVECTIVE",
                "severity": 5,
                "altitudeLow1": null,
                "altitudeLow2": null,
                "altitudeHi1": 45000,
                "altitudeHi2": 60000,
                "movementDir": 160,
                "movementSpd": 10,
                "rawAirSigmet": "WSUS31 KKCI 081255\nSIGE \nCONVECTIVE SIGMET 70E\nVALID UNTIL 1455Z\nSC FL GA AND NC FL SC GA CSTL WTRS\nFROM 30N CHS-130SSE ILM-180ENE PBI-10S PBI-20WSW AMG-30N CHS\nAREA TS MOV FROM 16010KT. TOPS ABV FL450.\nREF INTL SIGMET ECHO SERIES.\n\nOUTLOOK VALID 081455-081855\nAREA 1...FROM IRQ-80SSE ILM-220ENE PBI-160SE MIA-80WSW EYW-150S\nCEW-CEW-IRQ\nWST ISSUANCES EXPD. REFER TO MOST RECENT ACUS01 KWNS FROM STORM\nPREDICTION CENTER FOR SYNOPSIS AND METEOROLOGICAL DETAILS.\n\nAREA 2...FROM PQI-60WSW YSJ-150ENE ACK-40WNW CSN-50SE\nCVG-CLE-MSS-60NE MPV-PQI\nWST ISSUANCES EXPD. REFER TO MOST RECENT ACUS01 KWNS FROM STORM\nPREDICTION CENTER FOR SYNOPSIS AND METEOROLOGICAL DETAILS.",
                "validTimeTo": [
                    "2026-08-08T14:55"
                ]
            }
        },
        {
            "type": "Feature",
            "geometry": {
                "type": "Polygon",
                "coordinates": [
                    [
                        [
                            -76.2,
                            44.157
                        ],
                        [
                            -76.367,
                            39.968
                        ],
                        [
                            -79.945,
                            38.799
                        ],
                        [
                            -83.521,
                            38.632
                        ],
                        [
                            -80.747,
                            42.019
                        ],
                        [
                            -76.2,
                            44.157
                        ]
                    ]
                ]
            },
            "properties": {
                "airSigmetId": null,
                "airportIcao": "KKCI",
                "airSigmetType": "SIGMET",
                "hazard": "CONVECTIVE",
                "severity": 5,
                "altitudeLow1": null,
                "altitudeLow2": null,
                "altitudeHi1": 45000,
                "altitudeHi2": 45000,
                "movementDir": 240,
                "movementSpd": 25,
                "rawAirSigmet": "WSUS31 KKCI 081255\nSIGE \nCONVECTIVE SIGMET 71E\nVALID UNTIL 1455Z\nNY PA MD VA WV OH KY LO LE\nFROM 60N SYR-40NE EMI-10SE EKN-60ESE CVG-20W ERI-60N SYR\nAREA SEV TS MOV FROM 24025KT. TOPS TO FL450.\nWIND GUSTS TO 50KT POSS.\n\nOUTLOOK VALID 081455-081855\nAREA 1...FROM IRQ-80SSE ILM-220ENE PBI-160SE MIA-80WSW EYW-150S\nCEW-CEW-IRQ\nWST ISSUANCES EXPD. REFER TO MOST RECENT ACUS01 KWNS FROM STORM\nPREDICTION CENTER FOR SYNOPSIS AND METEOROLOGICAL DETAILS.\n\nAREA 2...FROM PQI-60WSW YSJ-150ENE ACK-40WNW CSN-50SE\nCVG-CLE-MSS-60NE MPV-PQI\nWST ISSUANCES EXPD. REFER TO MOST RECENT ACUS01 KWNS FROM STORM\nPREDICTION CENTER FOR SYNOPSIS AND METEOROLOGICAL DETAILS.",
                "validTimeTo": [
                    "2026-08-08T14:55"
                ]
            }
        },
        {
            "type": "Feature",
            "geometry": {
                "type": "Polygon",
                "coordinates": [
                    [
                        [
                            -68.273,
                            46.166
                        ],
                        [
                            -67.659,
                            42.684
                        ],
                        [
                            -67.944,
                            42.792
                        ],
                        [
                            -71.401,
                            45.04
                        ],
                        [
                            -68.273,
                            46.166
                        ]
                    ]
                ]
            },
            "properties": {
                "airSigmetId": null,
                "airportIcao": "KKCI",
                "airSigmetType": "SIGMET",
                "hazard": "CONVECTIVE",
                "severity": 5,
                "altitudeLow1": null,
                "altitudeLow2": null,
                "altitudeHi1": 43000,
                "altitudeHi2": 43000,
                "movementDir": 230,
                "movementSpd": 35,
                "rawAirSigmet": "WSUS31 KKCI 081255\nSIGE \nCONVECTIVE SIGMET 72E\nVALID UNTIL 1455Z\nME NH AND ME CSTL WTRS\nFROM 20WNW HUL-140SSE BGR-130NE ACK-70NE MPV-20WNW HUL\nAREA TS MOV FROM 23035KT. TOPS TO FL430.\n\nOUTLOOK VALID 081455-081855\nAREA 1...FROM IRQ-80SSE ILM-220ENE PBI-160SE MIA-80WSW EYW-150S\nCEW-CEW-IRQ\nWST ISSUANCES EXPD. REFER TO MOST RECENT ACUS01 KWNS FROM STORM\nPREDICTION CENTER FOR SYNOPSIS AND METEOROLOGICAL DETAILS.\n\nAREA 2...FROM PQI-60WSW YSJ-150ENE ACK-40WNW CSN-50SE\nCVG-CLE-MSS-60NE MPV-PQI\nWST ISSUANCES EXPD. REFER TO MOST RECENT ACUS01 KWNS FROM STORM\nPREDICTION CENTER FOR SYNOPSIS AND METEOROLOGICAL DETAILS.",
                "validTimeTo": [
                    "2026-08-08T14:55"
                ]
            }
        },
        {
            "type": "Feature",
            "geometry": {
                "type": "Polygon",
                "coordinates": [
                    [
                        [
                            -83.417,
                            27.078
                        ],
                        [
                            -82.179,
                            26.885
                        ],
                        [
                            -80.949,
                            24.907
                        ],
                        [
                            -82.477,
                            24.843
                        ],
                        [
                            -83.417,
                            27.078
                        ]
                    ]
                ]
            },
            "properties": {
                "airSigmetId": null,
                "airportIcao": "KKCI",
                "airSigmetType": "SIGMET",
                "hazard": "CONVECTIVE",
                "severity": 5,
                "altitudeLow1": null,
                "altitudeLow2": null,
                "altitudeHi1": 45000,
                "altitudeHi2": 60000,
                "movementDir": 150,
                "movementSpd": 10,
                "rawAirSigmet": "WSUS31 KKCI 081255\nSIGE \nCONVECTIVE SIGMET 73E\nVALID UNTIL 1455Z\nFL AND CSTL WTRS\nFROM 50WSW SRQ-30NW RSW-50ENE EYW-40WNW EYW-50WSW SRQ\nAREA TS MOV FROM 15010KT. TOPS ABV FL450.\n\nOUTLOOK VALID 081455-081855\nAREA 1...FROM IRQ-80SSE ILM-220ENE PBI-160SE MIA-80WSW EYW-150S\nCEW-CEW-IRQ\nWST ISSUANCES EXPD. REFER TO MOST RECENT ACUS01 KWNS FROM STORM\nPREDICTION CENTER FOR SYNOPSIS AND METEOROLOGICAL DETAILS.\n\nAREA 2...FROM PQI-60WSW YSJ-150ENE ACK-40WNW CSN-50SE\nCVG-CLE-MSS-60NE MPV-PQI\nWST ISSUANCES EXPD. REFER TO MOST RECENT ACUS01 KWNS FROM STORM\nPREDICTION CENTER FOR SYNOPSIS AND METEOROLOGICAL DETAILS.",
                "validTimeTo": [
                    "2026-08-08T14:55"
                ]
            }
        },
        {
            "type": "Feature",
            "geometry": {
                "type": "Polygon",
                "coordinates": [
                    [
                        [
                            -87.195,
                            29.75
                        ],
                        [
                            -82.904,
                            29.293
                        ],
                        [
                            -84.56,
                            27.897
                        ],
                        [
                            -86.97,
                            27.999
                        ],
                        [
                            -87.195,
                            29.75
                        ]
                    ]
                ]
            },
            "properties": {
                "airSigmetId": null,
                "airportIcao": "KKCI",
                "airSigmetType": "SIGMET",
                "hazard": "CONVECTIVE",
                "severity": 5,
                "altitudeLow1": null,
                "altitudeLow2": null,
                "altitudeHi1": 40000,
                "altitudeHi2": 40000,
                "movementDir": 150,
                "movementSpd": 10,
                "rawAirSigmet": "WSUS31 KKCI 081255\nSIGE \nCONVECTIVE SIGMET 74E\nVALID UNTIL 1455Z\nFL AND CSTL WTRS\nFROM 70SSW CEW-20SSE CTY-100W PIE-180ESE LEV-70SSW CEW\nAREA TS MOV FROM 15010KT. TOPS TO FL400.\n\nOUTLOOK VALID 081455-081855\nAREA 1...FROM IRQ-80SSE ILM-220ENE PBI-160SE MIA-80WSW EYW-150S\nCEW-CEW-IRQ\nWST ISSUANCES EXPD. REFER TO MOST RECENT ACUS01 KWNS FROM STORM\nPREDICTION CENTER FOR SYNOPSIS AND METEOROLOGICAL DETAILS.\n\nAREA 2...FROM PQI-60WSW YSJ-150ENE ACK-40WNW CSN-50SE\nCVG-CLE-MSS-60NE MPV-PQI\nWST ISSUANCES EXPD. REFER TO MOST RECENT ACUS01 KWNS FROM STORM\nPREDICTION CENTER FOR SYNOPSIS AND METEOROLOGICAL DETAILS.",
                "validTimeTo": [
                    "2026-08-08T14:55"
                ]
            }
        },
        {
            "type": "Feature",
            "geometry": {
                "type": "Polygon",
                "coordinates": [
                    [
                        [
                            -93.646,
                            29.946
                        ],
                        [
                            -91.739,
                            29.558
                        ],
                        [
                            -92.026,
                            28.465
                        ],
                        [
                            -97.38,
                            26.755
                        ],
                        [
                            -97.046,
                            28.255
                        ],
                        [
                            -93.646,
                            29.946
                        ]
                    ]
                ]
            },
            "properties": {
                "airSigmetId": null,
                "airportIcao": "KKCI",
                "airSigmetType": "SIGMET",
                "hazard": "CONVECTIVE",
                "severity": 5,
                "altitudeLow1": null,
                "altitudeLow2": null,
                "altitudeHi1": 45000,
                "altitudeHi2": 60000,
                "movementDir": null,
                "movementSpd": null,
                "rawAirSigmet": "WSUS32 KKCI 081255\nSIGC \nCONVECTIVE SIGMET 56C\nVALID UNTIL 1455Z\nLA TX AND CSTL WTRS\nFROM 30WSW LCH-60SSW LSU-110WSW LEV-50N BRO-30NE CRP-30WSW LCH\nAREA TS MOV LTL. TOPS ABV FL450.\nREF INTL SIGMET FOXTROT SERIES.\n\nOUTLOOK VALID 081455-081855\nAREA 1...FROM 40ENE FAM-130ESE LEV-130SSW LCH-70E\nBRO-BRO-RZC-40ENE FAM\nWST ISSUANCES EXPD. REFER TO MOST RECENT ACUS01 KWNS FROM STORM\nPREDICTION CENTER FOR SYNOPSIS AND METEOROLOGICAL DETAILS.\n\nAREA 2...FROM 30E PIR-40ESE OBH-LBF-40NE RAP-30E PIR\nWST ISSUANCES POSS. REFER TO MOST RECENT ACUS01 KWNS FROM STORM\nPREDICTION CENTER FOR SYNOPSIS AND METEOROLOGICAL DETAILS.",
                "validTimeTo": [
                    "2026-08-08T14:55"
                ]
            }
        },
        {
            "type": "Feature",
            "geometry": {
                "type": "Polygon",
                "coordinates": [
                    [
                        [
                            -100.17,
                            43.565
                        ],
                        [
                            -99.463,
                            41.375
                        ],
                        [
                            -100.633,
                            41.288
                        ],
                        [
                            -101.738,
                            43.591
                        ],
                        [
                            -100.17,
                            43.565
                        ]
                    ]
                ]
            },
            "properties": {
                "airSigmetId": null,
                "airportIcao": "KKCI",
                "airSigmetType": "SIGMET",
                "hazard": "CONVECTIVE",
                "severity": 5,
                "altitudeLow1": null,
                "altitudeLow2": null,
                "altitudeHi1": 45000,
                "altitudeHi2": 60000,
                "movementDir": 310,
                "movementSpd": 20,
                "rawAirSigmet": "WSUS32 KKCI 081255\nSIGC \nCONVECTIVE SIGMET 57C\nVALID UNTIL 1455Z\nNE SD\nFROM 50S PIR-50W OBH-10NNE LBF-60ESE RAP-50S PIR\nAREA SEV TS MOV FROM 31020KT. TOPS ABV FL450.\nHAIL TO 1.5 IN POSS.\n\nOUTLOOK VALID 081455-081855\nAREA 1...FROM 40ENE FAM-130ESE LEV-130SSW LCH-70E\nBRO-BRO-RZC-40ENE FAM\nWST ISSUANCES EXPD. REFER TO MOST RECENT ACUS01 KWNS FROM STORM\nPREDICTION CENTER FOR SYNOPSIS AND METEOROLOGICAL DETAILS.\n\nAREA 2...FROM 30E PIR-40ESE OBH-LBF-40NE RAP-30E PIR\nWST ISSUANCES POSS. REFER TO MOST RECENT ACUS01 KWNS FROM STORM\nPREDICTION CENTER FOR SYNOPSIS AND METEOROLOGICAL DETAILS.",
                "validTimeTo": [
                    "2026-08-08T14:55"
                ]
            }
        },
        {
            "type": "Feature",
            "geometry": {
                "type": "Polygon",
                "coordinates": [
                    [
                        [
                            -91.187,
                            35.645
                        ],
                        [
                            -90.551,
                            34.589
                        ],
                        [
                            -94.259,
                            33.445
                        ],
                        [
                            -94.783,
                            34.099
                        ],
                        [
                            -91.187,
                            35.645
                        ]
                    ]
                ]
            },
            "properties": {
                "airSigmetId": null,
                "airportIcao": "KKCI",
                "airSigmetType": "SIGMET",
                "hazard": "CONVECTIVE",
                "severity": 5,
                "altitudeLow1": null,
                "altitudeLow2": null,
                "altitudeHi1": 38000,
                "altitudeHi2": 38000,
                "movementDir": 270,
                "movementSpd": 20,
                "rawAirSigmet": "WSUS32 KKCI 081255\nSIGC \nCONVECTIVE SIGMET 58C\nVALID UNTIL 1455Z\nAR TX OK\nFROM 30SSW ARG-40SW MEM-10WSW TXK-50NW TXK-30SSW ARG\nAREA TS MOV FROM 27020KT. TOPS TO FL380.\n\nOUTLOOK VALID 081455-081855\nAREA 1...FROM 40ENE FAM-130ESE LEV-130SSW LCH-70E\nBRO-BRO-RZC-40ENE FAM\nWST ISSUANCES EXPD. REFER TO MOST RECENT ACUS01 KWNS FROM STORM\nPREDICTION CENTER FOR SYNOPSIS AND METEOROLOGICAL DETAILS.\n\nAREA 2...FROM 30E PIR-40ESE OBH-LBF-40NE RAP-30E PIR\nWST ISSUANCES POSS. REFER TO MOST RECENT ACUS01 KWNS FROM STORM\nPREDICTION CENTER FOR SYNOPSIS AND METEOROLOGICAL DETAILS.",
                "validTimeTo": [
                    "2026-08-08T14:55"
                ]
            }
        },
        {
            "type": "Feature",
            "geometry": {
                "type": "Polygon",
                "coordinates": [
                    [
                        [
                            -95.78,
                            34.185
                        ],
                        [
                            -95.78,
                            33.682
                        ],
                        [
                            -97.436,
                            32.869
                        ],
                        [
                            -97.882,
                            33.397
                        ],
                        [
                            -95.78,
                            34.185
                        ]
                    ]
                ]
            },
            "properties": {
                "airSigmetId": null,
                "airportIcao": "KKCI",
                "airSigmetType": "SIGMET",
                "hazard": "CONVECTIVE",
                "severity": 5,
                "altitudeLow1": null,
                "altitudeLow2": null,
                "altitudeHi1": 35000,
                "altitudeHi2": 35000,
                "movementDir": 30,
                "movementSpd": 30,
                "rawAirSigmet": "WSUS32 KKCI 081255\nSIGC \nCONVECTIVE SIGMET 59C\nVALID UNTIL 1455Z\nTX OK\nFROM 40S MLC-70S MLC-20W TTT-50SE SPS-40S MLC\nAREA TS MOV FROM 03030KT. TOPS TO FL350.\n\nOUTLOOK VALID 081455-081855\nAREA 1...FROM 40ENE FAM-130ESE LEV-130SSW LCH-70E\nBRO-BRO-RZC-40ENE FAM\nWST ISSUANCES EXPD. REFER TO MOST RECENT ACUS01 KWNS FROM STORM\nPREDICTION CENTER FOR SYNOPSIS AND METEOROLOGICAL DETAILS.\n\nAREA 2...FROM 30E PIR-40ESE OBH-LBF-40NE RAP-30E PIR\nWST ISSUANCES POSS. REFER TO MOST RECENT ACUS01 KWNS FROM STORM\nPREDICTION CENTER FOR SYNOPSIS AND METEOROLOGICAL DETAILS.",
                "validTimeTo": [
                    "2026-08-08T14:55"
                ]
            }
        }
    ],
    "metadata": {
        "creationTime": "2026-08-08T13:52"
    }
}