{
    "type": "FeatureCollection",
    "features": [
        {
            "type": "Feature",
            "geometry": {
                "type": "Polygon",
                "coordinates": [
                    [
                        [
                            -76.839,
                            42.688
                        ],
                        [
                            -74.696,
                            41.866
                        ],
                        [
                            -75.158,
                            41.261
                        ],
                        [
                            -77.018,
                            42.211
                        ],
                        [
                            -76.839,
                            42.688
                        ]
                    ]
                ]
            },
            "properties": {
                "airSigmetId": null,
                "airportIcao": "KKCI",
                "airSigmetType": "SIGMET",
                "hazard": "CONVECTIVE",
                "severity": 5,
                "altitudeLow1": null,
                "altitudeLow2": null,
                "altitudeHi1": 43000,
                "altitudeHi2": 43000,
                "movementDir": 300,
                "movementSpd": 35,
                "rawAirSigmet": "WSUS31 KKCI 011255\nSIGE \nCONVECTIVE SIGMET 31E\nVALID UNTIL 1455Z\nNY PA\nFROM 40SW SYR-30ESE HNK-30WNW SAX-60NE SLT-40SW SYR\nAREA TS MOV FROM 30035KT. TOPS TO FL430.\n\nOUTLOOK VALID 011455-011855\nAREA 1...FROM MSS-ACK-SIE-HAR-AIR-BVT-GIJ-CLE-MSS\nWST ISSUANCES EXPD. REFER TO MOST RECENT ACUS01 KWNS FROM STORM\nPREDICTION CENTER FOR SYNOPSIS AND METEOROLOGICAL DETAILS.\n\nAREA 2...FROM CHS-140SSE ILM-180ENE PBI-60E PBI-150SE MIA-70WSW\nEYW-100W PIE-160ESE LEV-CEW-40E TLH-30NNW SAV-CHS\nWST ISSUANCES EXPD. REFER TO MOST RECENT ACUS01 KWNS FROM STORM\nPREDICTION CENTER FOR SYNOPSIS AND METEOROLOGICAL DETAILS.",
                "validTimeTo": [
                    "2026-09-01T14:55"
                ]
            }
        },
        {
            "type": "Feature",
            "geometry": {
                "type": "Polygon",
                "coordinates": [
                    [
                        [
                            -86.32,
                            41.77
                        ],
                        [
                            -83.796,
                            41.437
                        ],
                        [
                            -82.122,
                            40.505
                        ],
                        [
                            -87.07,
                            41.225
                        ],
                        [
                            -86.32,
                            41.77
                        ]
                    ]
                ]
            },
            "properties": {
                "airSigmetId": null,
                "airportIcao": "KKCI",
                "airSigmetType": "SIGMET",
                "hazard": "CONVECTIVE",
                "severity": 5,
                "altitudeLow1": null,
                "altitudeLow2": null,
                "altitudeHi1": 45000,
                "altitudeHi2": 45000,
                "movementDir": 280,
                "movementSpd": 30,
                "rawAirSigmet": "WSUS31 KKCI 011255\nSIGE \nCONVECTIVE SIGMET 32E\nVALID UNTIL 1455Z\nOH MI IN\nFROM GIJ-50SSW DXO-30NE APE-40N BVT-GIJ\nAREA TS MOV FROM 28030KT. TOPS TO FL450.\n\nOUTLOOK VALID 011455-011855\nAREA 1...FROM MSS-ACK-SIE-HAR-AIR-BVT-GIJ-CLE-MSS\nWST ISSUANCES EXPD. REFER TO MOST RECENT ACUS01 KWNS FROM STORM\nPREDICTION CENTER FOR SYNOPSIS AND METEOROLOGICAL DETAILS.\n\nAREA 2...FROM CHS-140SSE ILM-180ENE PBI-60E PBI-150SE MIA-70WSW\nEYW-100W PIE-160ESE LEV-CEW-40E TLH-30NNW SAV-CHS\nWST ISSUANCES EXPD. REFER TO MOST RECENT ACUS01 KWNS FROM STORM\nPREDICTION CENTER FOR SYNOPSIS AND METEOROLOGICAL DETAILS.",
                "validTimeTo": [
                    "2026-09-01T14:55"
                ]
            }
        },
        {
            "type": "Feature",
            "geometry": {
                "type": "Polygon",
                "coordinates": [
                    [
                        [
                            -77.184,
                            30.642
                        ],
                        [
                            -76.966,
                            27.79
                        ],
                        [
                            -79.389,
                            24.971
                        ],
                        [
                            -80.158,
                            26.107
                        ],
                        [
                            -77.184,
                            30.642
                        ]
                    ]
                ]
            },
            "properties": {
                "airSigmetId": null,
                "airportIcao": "KKCI",
                "airSigmetType": "SIGMET",
                "hazard": "CONVECTIVE",
                "severity": 5,
                "altitudeLow1": null,
                "altitudeLow2": null,
                "altitudeHi1": 45000,
                "altitudeHi2": 60000,
                "movementDir": null,
                "movementSpd": null,
                "rawAirSigmet": "WSUS31 KKCI 011255\nSIGE \nCONVECTIVE SIGMET 33E\nVALID UNTIL 1455Z\nFL AND CSTL WTRS\nFROM 220ENE OMN-180ENE PBI-70SE MIA-20NNE MIA-220ENE OMN\nAREA TS MOV LTL. TOPS ABV FL450.\nREF INTL SIGMET LIMA SERIES.\n\nOUTLOOK VALID 011455-011855\nAREA 1...FROM MSS-ACK-SIE-HAR-AIR-BVT-GIJ-CLE-MSS\nWST ISSUANCES EXPD. REFER TO MOST RECENT ACUS01 KWNS FROM STORM\nPREDICTION CENTER FOR SYNOPSIS AND METEOROLOGICAL DETAILS.\n\nAREA 2...FROM CHS-140SSE ILM-180ENE PBI-60E PBI-150SE MIA-70WSW\nEYW-100W PIE-160ESE LEV-CEW-40E TLH-30NNW SAV-CHS\nWST ISSUANCES EXPD. REFER TO MOST RECENT ACUS01 KWNS FROM STORM\nPREDICTION CENTER FOR SYNOPSIS AND METEOROLOGICAL DETAILS.",
                "validTimeTo": [
                    "2026-09-01T14:55"
                ]
            }
        },
        {
            "type": "Feature",
            "geometry": {
                "type": "Polygon",
                "coordinates": [
                    [
                        [
                            -84.37,
                            30.057
                        ],
                        [
                            -83.27,
                            29.135
                        ],
                        [
                            -84.257,
                            28.534
                        ],
                        [
                            -84.883,
                            29.48
                        ],
                        [
                            -84.37,
                            30.057
                        ]
                    ]
                ]
            },
            "properties": {
                "airSigmetId": null,
                "airportIcao": "KKCI",
                "airSigmetType": "SIGMET",
                "hazard": "CONVECTIVE",
                "severity": 5,
                "altitudeLow1": null,
                "altitudeLow2": null,
                "altitudeHi1": 45000,
                "altitudeHi2": 60000,
                "movementDir": null,
                "movementSpd": null,
                "rawAirSigmet": "WSUS31 KKCI 011255\nSIGE \nCONVECTIVE SIGMET 34E\nVALID UNTIL 1455Z\nFL AND CSTL WTRS\nFROM 30S TLH-30SSW CTY-90SW CTY-70SSW TLH-30S TLH\nAREA TS MOV LTL. TOPS ABV FL450.\n\nOUTLOOK VALID 011455-011855\nAREA 1...FROM MSS-ACK-SIE-HAR-AIR-BVT-GIJ-CLE-MSS\nWST ISSUANCES EXPD. REFER TO MOST RECENT ACUS01 KWNS FROM STORM\nPREDICTION CENTER FOR SYNOPSIS AND METEOROLOGICAL DETAILS.\n\nAREA 2...FROM CHS-140SSE ILM-180ENE PBI-60E PBI-150SE MIA-70WSW\nEYW-100W PIE-160ESE LEV-CEW-40E TLH-30NNW SAV-CHS\nWST ISSUANCES EXPD. REFER TO MOST RECENT ACUS01 KWNS FROM STORM\nPREDICTION CENTER FOR SYNOPSIS AND METEOROLOGICAL DETAILS.",
                "validTimeTo": [
                    "2026-09-01T14:55"
                ]
            }
        },
        {
            "type": "Feature",
            "geometry": {
                "type": "Polygon",
                "coordinates": [
                    [
                        [
                            -80.927,
                            30.339
                        ],
                        [
                            -80.157,
                            30.333
                        ],
                        [
                            -79.586,
                            29.291
                        ],
                        [
                            -80.573,
                            28.829
                        ],
                        [
                            -80.927,
                            30.339
                        ]
                    ]
                ]
            },
            "properties": {
                "airSigmetId": null,
                "airportIcao": "KKCI",
                "airSigmetType": "SIGMET",
                "hazard": "CONVECTIVE",
                "severity": 5,
                "altitudeLow1": null,
                "altitudeLow2": null,
                "altitudeHi1": 42000,
                "altitudeHi2": 42000,
                "movementDir": 80,
                "movementSpd": 15,
                "rawAirSigmet": "WSUS31 KKCI 011255\nSIGE \nCONVECTIVE SIGMET 35E\nVALID UNTIL 1455Z\nFL CSTL WTRS\nFROM 30E CRG-70E CRG-80E OMN-40SE OMN-30E CRG\nAREA TS MOV FROM 08015KT. TOPS TO FL420.\n\nOUTLOOK VALID 011455-011855\nAREA 1...FROM MSS-ACK-SIE-HAR-AIR-BVT-GIJ-CLE-MSS\nWST ISSUANCES EXPD. REFER TO MOST RECENT ACUS01 KWNS FROM STORM\nPREDICTION CENTER FOR SYNOPSIS AND METEOROLOGICAL DETAILS.\n\nAREA 2...FROM CHS-140SSE ILM-180ENE PBI-60E PBI-150SE MIA-70WSW\nEYW-100W PIE-160ESE LEV-CEW-40E TLH-30NNW SAV-CHS\nWST ISSUANCES EXPD. REFER TO MOST RECENT ACUS01 KWNS FROM STORM\nPREDICTION CENTER FOR SYNOPSIS AND METEOROLOGICAL DETAILS.",
                "validTimeTo": [
                    "2026-09-01T14:55"
                ]
            }
        },
        {
            "type": "Feature",
            "geometry": {
                "type": "Polygon",
                "coordinates": [
                    [
                        [
                            -93.483,
                            30.911
                        ],
                        [
                            -91.657,
                            30.607
                        ],
                        [
                            -89.88,
                            28.715
                        ],
                        [
                            -93.11,
                            27.481
                        ],
                        [
                            -95.255,
                            29.137
                        ],
                        [
                            -93.483,
                            30.911
                        ]
                    ]
                ]
            },
            "properties": {
                "airSigmetId": null,
                "airportIcao": "KKCI",
                "airSigmetType": "SIGMET",
                "hazard": "CONVECTIVE",
                "severity": 5,
                "altitudeLow1": null,
                "altitudeLow2": null,
                "altitudeHi1": 45000,
                "altitudeHi2": 60000,
                "movementDir": 100,
                "movementSpd": 20,
                "rawAirSigmet": "WSUS32 KKCI 011255\nSIGC \nCONVECTIVE SIGMET 42C\nVALID UNTIL 1455Z\nLA TX AND CSTL WTRS\nFROM 50NNW LCH-20WNW LSU-30SSE LEV-160S LCH-60ENE PSX-50NNW LCH\nAREA TS MOV FROM 10020KT. TOPS ABV FL450.\nTS ASSOICATED WITH TC EDOUARD.\n\nOUTLOOK VALID 011455-011855\nAREA 1...FROM 50SSE BIS-RWF-ODI-DLL-GIJ-BVT-FOD-ONL-AKO-CYS-70NNW\nBFF-DDY-SHR-50SSE BIS\nWST ISSUANCES POSS. REFER TO MOST RECENT ACUS01 KWNS FROM STORM\nPREDICTION CENTER FOR SYNOPSIS AND METEOROLOGICAL DETAILS.\n\nAREA 2...FROM EIC-MCB-CEW-150ESE LEV-120SSW LCH-80E\nBRO-CRP-CWK-60ESE TTT-EIC\nWST ISSUANCES EXPD. REFER TO MOST RECENT ACUS01 KWNS FROM STORM\nPREDICTION CENTER FOR SYNOPSIS AND METEOROLOGICAL DETAILS.\nREFER TO MOST RECENT FORECAST FROM NATIONAL HURRICANE CENTER FOR\nDETAILS ON TC EDOUARD.\n\nAREA 3...FROM DEN-LAA-60SE TBE-70W INK-ELP-DMN-RSK-DEN\nWST ISSUANCES EXPD. REFER TO MOST RECENT ACUS01 KWNS FROM STORM\nPREDICTION CENTER FOR SYNOPSIS AND METEOROLOGICAL DETAILS.",
                "validTimeTo": [
                    "2026-09-01T14:55"
                ]
            }
        },
        {
            "type": "Feature",
            "geometry": {
                "type": "Polygon",
                "coordinates": [
                    [
                        [
                            -100.612,
                            43.627
                        ],
                        [
                            -99.99,
                            43.235
                        ],
                        [
                            -102.4,
                            42.899
                        ],
                        [
                            -102.745,
                            43.515
                        ],
                        [
                            -100.612,
                            43.627
                        ]
                    ]
                ]
            },
            "properties": {
                "airSigmetId": null,
                "airportIcao": "KKCI",
                "airSigmetType": "SIGMET",
                "hazard": "CONVECTIVE",
                "severity": 5,
                "altitudeLow1": null,
                "altitudeLow2": null,
                "altitudeHi1": 40000,
                "altitudeHi2": 40000,
                "movementDir": 230,
                "movementSpd": 25,
                "rawAirSigmet": "WSUS32 KKCI 011255\nSIGC \nCONVECTIVE SIGMET 43C\nVALID UNTIL 1455Z\nNE SD\nFROM 50SSW PIR-40N ANW-70SSE RAP-30SSE RAP-50SSW PIR\nAREA TS MOV FROM 23025KT. TOPS TO FL400.\n\nOUTLOOK VALID 011455-011855\nAREA 1...FROM 50SSE BIS-RWF-ODI-DLL-GIJ-BVT-FOD-ONL-AKO-CYS-70NNW\nBFF-DDY-SHR-50SSE BIS\nWST ISSUANCES POSS. REFER TO MOST RECENT ACUS01 KWNS FROM STORM\nPREDICTION CENTER FOR SYNOPSIS AND METEOROLOGICAL DETAILS.\n\nAREA 2...FROM EIC-MCB-CEW-150ESE LEV-120SSW LCH-80E\nBRO-CRP-CWK-60ESE TTT-EIC\nWST ISSUANCES EXPD. REFER TO MOST RECENT ACUS01 KWNS FROM STORM\nPREDICTION CENTER FOR SYNOPSIS AND METEOROLOGICAL DETAILS.\nREFER TO MOST RECENT FORECAST FROM NATIONAL HURRICANE CENTER FOR\nDETAILS ON TC EDOUARD.\n\nAREA 3...FROM DEN-LAA-60SE TBE-70W INK-ELP-DMN-RSK-DEN\nWST ISSUANCES EXPD. REFER TO MOST RECENT ACUS01 KWNS FROM STORM\nPREDICTION CENTER FOR SYNOPSIS AND METEOROLOGICAL DETAILS.",
                "validTimeTo": [
                    "2026-09-01T14:55"
                ]
            }
        }
    ],
    "metadata": {
        "creationTime": "2026-09-01T13:25"
    }
}