{
    "type": "FeatureCollection",
    "features": [
        {
            "type": "Feature",
            "geometry": {
                "type": "Polygon",
                "coordinates": [
                    [
                        [
                            -79.442,
                            31.66
                        ],
                        [
                            -78.387,
                            31.469
                        ],
                        [
                            -78.617,
                            30.308
                        ],
                        [
                            -79.719,
                            30.964
                        ],
                        [
                            -79.442,
                            31.66
                        ]
                    ]
                ]
            },
            "properties": {
                "airSigmetId": null,
                "airportIcao": "KKCI",
                "airSigmetType": "SIGMET",
                "hazard": "CONVECTIVE",
                "severity": 5,
                "altitudeLow1": null,
                "altitudeLow2": null,
                "altitudeHi1": 44000,
                "altitudeHi2": 44000,
                "movementDir": null,
                "movementSpd": null,
                "rawAirSigmet": "WSUS31 KKCI 312055\nSIGE \nCONVECTIVE SIGMET 64E\nVALID UNTIL 2255Z\nFL GA CSTL WTRS\nFROM 80SSE CHS-120SE CHS-150E CRG-100ENE CRG-80SSE CHS\nAREA TS MOV LTL. TOPS TO FL440.\n\nOUTLOOK VALID 312255-010255\nAREA 1...FROM 40WSW CHS-200SSE ILM-210E PBI-30S RSW-170S CEW-30N\nCEW-50NE TLH-40WSW CHS\nWST ISSUANCES EXPD. REFER TO MOST RECENT ACUS01 KWNS FROM STORM\nPREDICTION CENTER FOR SYNOPSIS AND METEOROLOGICAL DETAILS.\n\nAREA 2...FROM 30NW SSM-YVV-40S GRB-SAW-30NW SSM\nWST ISSUANCES POSS. REFER TO MOST RECENT ACUS01 KWNS FROM STORM\nPREDICTION CENTER FOR SYNOPSIS AND METEOROLOGICAL DETAILS.",
                "validTimeTo": [
                    "2026-07-31T22:55"
                ]
            }
        },
        {
            "type": "Feature",
            "geometry": {
                "type": "Polygon",
                "coordinates": [
                    [
                        [
                            -78.043,
                            28.549
                        ],
                        [
                            -78.878,
                            27.122
                        ],
                        [
                            -80.669,
                            25.8
                        ],
                        [
                            -81.78,
                            27.195
                        ],
                        [
                            -79.819,
                            28.269
                        ],
                        [
                            -78.043,
                            28.549
                        ]
                    ]
                ]
            },
            "properties": {
                "airSigmetId": null,
                "airportIcao": "KKCI",
                "airSigmetType": "SIGMET",
                "hazard": "CONVECTIVE",
                "severity": 5,
                "altitudeLow1": null,
                "altitudeLow2": null,
                "altitudeHi1": 45000,
                "altitudeHi2": 60000,
                "movementDir": 310,
                "movementSpd": 10,
                "rawAirSigmet": "WSUS31 KKCI 312055\nSIGE \nCONVECTIVE SIGMET 65E\nVALID UNTIL 2255Z\nFL AND CSTL WTRS\nFROM 140ENE TRV-70ENE PBI-20W MIA-40N RSW-50NE TRV-140ENE TRV\nAREA TS MOV FROM 31010KT. TOPS ABV FL450.\n\nOUTLOOK VALID 312255-010255\nAREA 1...FROM 40WSW CHS-200SSE ILM-210E PBI-30S RSW-170S CEW-30N\nCEW-50NE TLH-40WSW CHS\nWST ISSUANCES EXPD. REFER TO MOST RECENT ACUS01 KWNS FROM STORM\nPREDICTION CENTER FOR SYNOPSIS AND METEOROLOGICAL DETAILS.\n\nAREA 2...FROM 30NW SSM-YVV-40S GRB-SAW-30NW SSM\nWST ISSUANCES POSS. REFER TO MOST RECENT ACUS01 KWNS FROM STORM\nPREDICTION CENTER FOR SYNOPSIS AND METEOROLOGICAL DETAILS.",
                "validTimeTo": [
                    "2026-07-31T22:55"
                ]
            }
        },
        {
            "type": "Feature",
            "geometry": {
                "type": "Polygon",
                "coordinates": [
                    [
                        [
                            -81.035,
                            32.886
                        ],
                        [
                            -80.405,
                            32.762
                        ],
                        [
                            -81.155,
                            30.212
                        ],
                        [
                            -82.51,
                            30.705
                        ],
                        [
                            -81.035,
                            32.886
                        ]
                    ]
                ]
            },
            "properties": {
                "airSigmetId": null,
                "airportIcao": "KKCI",
                "airSigmetType": "SIGMET",
                "hazard": "CONVECTIVE",
                "severity": 5,
                "altitudeLow1": null,
                "altitudeLow2": null,
                "altitudeHi1": 45000,
                "altitudeHi2": 60000,
                "movementDir": 300,
                "movementSpd": 10,
                "rawAirSigmet": "WSUS31 KKCI 312055\nSIGE \nCONVECTIVE SIGMET 66E\nVALID UNTIL 2255Z\nSC FL GA AND CSTL WTRS\nFROM 50W CHS-20WSW CHS-20ESE CRG-50S AMG-50W CHS\nAREA TS MOV FROM 30010KT. TOPS ABV FL450.\n\nOUTLOOK VALID 312255-010255\nAREA 1...FROM 40WSW CHS-200SSE ILM-210E PBI-30S RSW-170S CEW-30N\nCEW-50NE TLH-40WSW CHS\nWST ISSUANCES EXPD. REFER TO MOST RECENT ACUS01 KWNS FROM STORM\nPREDICTION CENTER FOR SYNOPSIS AND METEOROLOGICAL DETAILS.\n\nAREA 2...FROM 30NW SSM-YVV-40S GRB-SAW-30NW SSM\nWST ISSUANCES POSS. REFER TO MOST RECENT ACUS01 KWNS FROM STORM\nPREDICTION CENTER FOR SYNOPSIS AND METEOROLOGICAL DETAILS.",
                "validTimeTo": [
                    "2026-07-31T22:55"
                ]
            }
        },
        {
            "type": "Feature",
            "geometry": {
                "type": "Polygon",
                "coordinates": [
                    [
                        [
                            -84.432,
                            31.539
                        ],
                        [
                            -83.593,
                            30.069
                        ],
                        [
                            -88.36,
                            29.895
                        ],
                        [
                            -89.261,
                            31.047
                        ],
                        [
                            -84.432,
                            31.539
                        ]
                    ]
                ]
            },
            "properties": {
                "airSigmetId": null,
                "airportIcao": "KKCI",
                "airSigmetType": "SIGMET",
                "hazard": "CONVECTIVE",
                "severity": 5,
                "altitudeLow1": null,
                "altitudeLow2": null,
                "altitudeHi1": 45000,
                "altitudeHi2": 60000,
                "movementDir": 300,
                "movementSpd": 10,
                "rawAirSigmet": "WSUS31 KKCI 312055\nSIGE \nCONVECTIVE SIGMET 67E\nVALID UNTIL 2255Z\nFL GA AL MS AND FL AL MS CSTL WTRS\nFROM 10SW PZD-40NW CTY-50S SJI-50WNW SJI-10SW PZD\nAREA SEV TS MOV FROM 30010KT. TOPS ABV FL450.\nWIND GUSTS TO 50KT POSS.\n\nOUTLOOK VALID 312255-010255\nAREA 1...FROM 40WSW CHS-200SSE ILM-210E PBI-30S RSW-170S CEW-30N\nCEW-50NE TLH-40WSW CHS\nWST ISSUANCES EXPD. REFER TO MOST RECENT ACUS01 KWNS FROM STORM\nPREDICTION CENTER FOR SYNOPSIS AND METEOROLOGICAL DETAILS.\n\nAREA 2...FROM 30NW SSM-YVV-40S GRB-SAW-30NW SSM\nWST ISSUANCES POSS. REFER TO MOST RECENT ACUS01 KWNS FROM STORM\nPREDICTION CENTER FOR SYNOPSIS AND METEOROLOGICAL DETAILS.",
                "validTimeTo": [
                    "2026-07-31T22:55"
                ]
            }
        },
        {
            "type": "Feature",
            "geometry": {
                "type": "Polygon",
                "coordinates": [
                    [
                        [
                            -87.119,
                            46.824
                        ],
                        [
                            -84.539,
                            46.475
                        ],
                        [
                            -84.033,
                            45.945
                        ],
                        [
                            -86.888,
                            46.003
                        ],
                        [
                            -87.119,
                            46.824
                        ]
                    ]
                ]
            },
            "properties": {
                "airSigmetId": null,
                "airportIcao": "KKCI",
                "airSigmetType": "SIGMET",
                "hazard": "CONVECTIVE",
                "severity": 5,
                "altitudeLow1": null,
                "altitudeLow2": null,
                "altitudeHi1": 35000,
                "altitudeHi2": 35000,
                "movementDir": 270,
                "movementSpd": 10,
                "rawAirSigmet": "WSUS31 KKCI 312055\nSIGE \nCONVECTIVE SIGMET 68E\nVALID UNTIL 2255Z\nMI LH LS LM\nFROM 30NNE SAW-10WNW SSM-30SSE SSM-30SE SAW-30NNE SAW\nAREA TS MOV FROM 27010KT. TOPS TO FL350.\n\nOUTLOOK VALID 312255-010255\nAREA 1...FROM 40WSW CHS-200SSE ILM-210E PBI-30S RSW-170S CEW-30N\nCEW-50NE TLH-40WSW CHS\nWST ISSUANCES EXPD. REFER TO MOST RECENT ACUS01 KWNS FROM STORM\nPREDICTION CENTER FOR SYNOPSIS AND METEOROLOGICAL DETAILS.\n\nAREA 2...FROM 30NW SSM-YVV-40S GRB-SAW-30NW SSM\nWST ISSUANCES POSS. REFER TO MOST RECENT ACUS01 KWNS FROM STORM\nPREDICTION CENTER FOR SYNOPSIS AND METEOROLOGICAL DETAILS.",
                "validTimeTo": [
                    "2026-07-31T22:55"
                ]
            }
        },
        {
            "type": "Feature",
            "geometry": {
                "type": "Polygon",
                "coordinates": [
                    [
                        [
                            -83.853,
                            45.637
                        ],
                        [
                            -82.936,
                            45.221
                        ],
                        [
                            -83.059,
                            44.685
                        ],
                        [
                            -84.69,
                            44.412
                        ],
                        [
                            -83.853,
                            45.637
                        ]
                    ]
                ]
            },
            "properties": {
                "airSigmetId": null,
                "airportIcao": "KKCI",
                "airSigmetType": "SIGMET",
                "hazard": "CONVECTIVE",
                "severity": 5,
                "altitudeLow1": null,
                "altitudeLow2": null,
                "altitudeHi1": 34000,
                "altitudeHi2": 34000,
                "movementDir": 280,
                "movementSpd": 15,
                "rawAirSigmet": "WSUS31 KKCI 312055\nSIGE \nCONVECTIVE SIGMET 69E\nVALID UNTIL 2255Z\nMI LH\nFROM 50SSE SSM-50NNE ASP-20NE ASP-40ESE TVC-50SSE SSM\nAREA TS MOV FROM 28015KT. TOPS TO FL340.\n\nOUTLOOK VALID 312255-010255\nAREA 1...FROM 40WSW CHS-200SSE ILM-210E PBI-30S RSW-170S CEW-30N\nCEW-50NE TLH-40WSW CHS\nWST ISSUANCES EXPD. REFER TO MOST RECENT ACUS01 KWNS FROM STORM\nPREDICTION CENTER FOR SYNOPSIS AND METEOROLOGICAL DETAILS.\n\nAREA 2...FROM 30NW SSM-YVV-40S GRB-SAW-30NW SSM\nWST ISSUANCES POSS. REFER TO MOST RECENT ACUS01 KWNS FROM STORM\nPREDICTION CENTER FOR SYNOPSIS AND METEOROLOGICAL DETAILS.",
                "validTimeTo": [
                    "2026-07-31T22:55"
                ]
            }
        },
        {
            "type": "Feature",
            "geometry": {
                "type": "Polygon",
                "coordinates": [
                    [
                        [
                            -108.038,
                            35.034
                        ],
                        [
                            -105.044,
                            32.984
                        ],
                        [
                            -108.665,
                            32.269
                        ],
                        [
                            -111.261,
                            34.138
                        ],
                        [
                            -108.038,
                            35.034
                        ]
                    ]
                ]
            },
            "properties": {
                "airSigmetId": null,
                "airportIcao": "KKCI",
                "airSigmetType": "SIGMET",
                "hazard": "CONVECTIVE",
                "severity": 5,
                "altitudeLow1": null,
                "altitudeLow2": null,
                "altitudeHi1": 45000,
                "altitudeHi2": 60000,
                "movementDir": 270,
                "movementSpd": 5,
                "rawAirSigmet": "WSUS33 KKCI 312055\nSIGW \nCONVECTIVE SIGMET 39W\nVALID UNTIL 2255Z\nNM AZ\nFROM 60W ABQ-30SW CME-30E SSO-60SSW INW-60W ABQ\nAREA TS MOV FROM 27005KT. TOPS ABV FL450.\n\nOUTLOOK VALID 312255-010255\nAREA 1...FROM ABQ-CME-50E ELP-40W DMN-70E PHX-40E DRK-ABQ\nWST ISSUANCES EXPD. REFER TO MOST RECENT ACUS01 KWNS FROM STORM\nPREDICTION CENTER FOR SYNOPSIS AND METEOROLOGICAL DETAILS.\n\nAREA 2...FROM 60WSW BIL-40SSW BIL-30N BOY-50S BOY-60E MTU-40WNW\nMTU-PIH-60WSW BIL\nWST ISSUANCES POSS. REFER TO MOST RECENT ACUS01 KWNS FROM STORM\nPREDICTION CENTER FOR SYNOPSIS AND METEOROLOGICAL DETAILS.",
                "validTimeTo": [
                    "2026-07-31T22:55"
                ]
            }
        },
        {
            "type": "Feature",
            "geometry": {
                "type": "Polygon",
                "coordinates": [
                    [
                        [
                            -112.73,
                            44.943
                        ],
                        [
                            -111.94,
                            44.554
                        ],
                        [
                            -113.484,
                            43.701
                        ],
                        [
                            -114.611,
                            44.098
                        ],
                        [
                            -112.73,
                            44.943
                        ]
                    ]
                ]
            },
            "properties": {
                "airSigmetId": null,
                "airportIcao": "KKCI",
                "airSigmetType": "SIGMET",
                "hazard": "CONVECTIVE",
                "severity": 5,
                "altitudeLow1": null,
                "altitudeLow2": null,
                "altitudeHi1": 34000,
                "altitudeHi2": 34000,
                "movementDir": null,
                "movementSpd": null,
                "rawAirSigmet": "WSUS33 KKCI 312055\nSIGW \nCONVECTIVE SIGMET 40W\nVALID UNTIL 2255Z\nMT ID\nFROM 20SSW DLN-30NNE DBS-60WSW DBS-60SSW LKT-20SSW DLN\nAREA TS MOV LTL. TOPS TO FL340.\n\nOUTLOOK VALID 312255-010255\nAREA 1...FROM ABQ-CME-50E ELP-40W DMN-70E PHX-40E DRK-ABQ\nWST ISSUANCES EXPD. REFER TO MOST RECENT ACUS01 KWNS FROM STORM\nPREDICTION CENTER FOR SYNOPSIS AND METEOROLOGICAL DETAILS.\n\nAREA 2...FROM 60WSW BIL-40SSW BIL-30N BOY-50S BOY-60E MTU-40WNW\nMTU-PIH-60WSW BIL\nWST ISSUANCES POSS. REFER TO MOST RECENT ACUS01 KWNS FROM STORM\nPREDICTION CENTER FOR SYNOPSIS AND METEOROLOGICAL DETAILS.",
                "validTimeTo": [
                    "2026-07-31T22:55"
                ]
            }
        },
        {
            "type": "Feature",
            "geometry": {
                "type": "Polygon",
                "coordinates": [
                    [
                        [
                            -88.176,
                            36.396
                        ],
                        [
                            -89.722,
                            33.651
                        ],
                        [
                            -91.726,
                            33.134
                        ],
                        [
                            -90.187,
                            36.362
                        ],
                        [
                            -88.176,
                            36.396
                        ]
                    ]
                ]
            },
            "properties": {
                "airSigmetId": null,
                "airportIcao": "KKCI",
                "airSigmetType": "SIGMET",
                "hazard": "CONVECTIVE",
                "severity": 5,
                "altitudeLow1": null,
                "altitudeLow2": null,
                "altitudeHi1": 45000,
                "altitudeHi2": 60000,
                "movementDir": 270,
                "movementSpd": 25,
                "rawAirSigmet": "WSUS32 KKCI 312055\nSIGC \nCONVECTIVE SIGMET 22C\nVALID UNTIL 2255Z\nTN MS MO AR\nFROM 60ENE DYR-30ENE SQS-40NNE MLU-40ENE ARG-60ENE DYR\nAREA SEV EMBD TS MOV FROM 27025KT. TOPS ABV FL450.\nHAIL TO 1 IN...WIND GUSTS TO 50KT POSS.\n\nOUTLOOK VALID 312255-010255\nAREA 1...FROM SAW-40S GRB-60NW PXV-30W IIU-30NW BNA-60E\nMEM-RZC-BUM-40NW COU-30NW IOW-30W DSM-40W FOD-40W MSP-SAW\nREF WW 536.\nWST ISSUANCES EXPD. REFER TO MOST RECENT ACUS01 KWNS FROM STORM\nPREDICTION CENTER FOR SYNOPSIS AND METEOROLOGICAL DETAILS.\n\nAREA 2...FROM 30NNE LIT-50ESE MEM-30SE VUZ-40N CEW-170S\nCEW-LEV-50NW MCB-50SW LIT-30NNE LIT\nWST ISSUANCES EXPD. REFER TO MOST RECENT ACUS01 KWNS FROM STORM\nPREDICTION CENTER FOR SYNOPSIS AND METEOROLOGICAL DETAILS.\n\nAREA 3...FROM SHR-50W RAP-30SE DEN-50NE PUB-50NE TCC-CME-ABQ-60NW\nFTI-60W ALS-30W LAR-40E BOY-SHR\nWST ISSUANCES EXPD. REFER TO MOST RECENT ACUS01 KWNS FROM STORM\nPREDICTION CENTER FOR SYNOPSIS AND METEOROLOGICAL DETAILS.\n\nAREA 4...FROM 30WSW RZC-30SW FSM-50N ABI-CME-50NE TCC-30N\nCDS-30WSW RZC\nWST ISSUANCES POSS. REFER TO MOST RECENT ACUS01 KWNS FROM STORM\nPREDICTION CENTER FOR SYNOPSIS AND METEOROLOGICAL DETAILS.",
                "validTimeTo": [
                    "2026-07-31T22:55"
                ]
            }
        },
        {
            "type": "Feature",
            "geometry": {
                "type": "Polygon",
                "coordinates": [
                    [
                        [
                            -89.233,
                            34.069
                        ],
                        [
                            -87.917,
                            33.479
                        ],
                        [
                            -88.775,
                            31.085
                        ],
                        [
                            -91.475,
                            32.049
                        ],
                        [
                            -89.233,
                            34.069
                        ]
                    ]
                ]
            },
            "properties": {
                "airSigmetId": null,
                "airportIcao": "KKCI",
                "airSigmetType": "SIGMET",
                "hazard": "CONVECTIVE",
                "severity": 5,
                "altitudeLow1": null,
                "altitudeLow2": null,
                "altitudeHi1": 45000,
                "altitudeHi2": 45000,
                "movementDir": 280,
                "movementSpd": 15,
                "rawAirSigmet": "WSUS32 KKCI 312055\nSIGC \nCONVECTIVE SIGMET 23C\nVALID UNTIL 2255Z\nAL MS LA\nFROM 50NW IGB-30E IGB-30NW SJI-40SE MLU-50NW IGB\nAREA TS MOV FROM 28015KT. TOPS TO FL450.\n\nOUTLOOK VALID 312255-010255\nAREA 1...FROM SAW-40S GRB-60NW PXV-30W IIU-30NW BNA-60E\nMEM-RZC-BUM-40NW COU-30NW IOW-30W DSM-40W FOD-40W MSP-SAW\nREF WW 536.\nWST ISSUANCES EXPD. REFER TO MOST RECENT ACUS01 KWNS FROM STORM\nPREDICTION CENTER FOR SYNOPSIS AND METEOROLOGICAL DETAILS.\n\nAREA 2...FROM 30NNE LIT-50ESE MEM-30SE VUZ-40N CEW-170S\nCEW-LEV-50NW MCB-50SW LIT-30NNE LIT\nWST ISSUANCES EXPD. REFER TO MOST RECENT ACUS01 KWNS FROM STORM\nPREDICTION CENTER FOR SYNOPSIS AND METEOROLOGICAL DETAILS.\n\nAREA 3...FROM SHR-50W RAP-30SE DEN-50NE PUB-50NE TCC-CME-ABQ-60NW\nFTI-60W ALS-30W LAR-40E BOY-SHR\nWST ISSUANCES EXPD. REFER TO MOST RECENT ACUS01 KWNS FROM STORM\nPREDICTION CENTER FOR SYNOPSIS AND METEOROLOGICAL DETAILS.\n\nAREA 4...FROM 30WSW RZC-30SW FSM-50N ABI-CME-50NE TCC-30N\nCDS-30WSW RZC\nWST ISSUANCES POSS. REFER TO MOST RECENT ACUS01 KWNS FROM STORM\nPREDICTION CENTER FOR SYNOPSIS AND METEOROLOGICAL DETAILS.",
                "validTimeTo": [
                    "2026-07-31T22:55"
                ]
            }
        },
        {
            "type": "Feature",
            "geometry": {
                "type": "Polygon",
                "coordinates": [
                    [
                        [
                            -105.361,
                            44.315
                        ],
                        [
                            -103.186,
                            43.673
                        ],
                        [
                            -107.19,
                            43.086
                        ],
                        [
                            -105.361,
                            44.315
                        ]
                    ]
                ]
            },
            "properties": {
                "airSigmetId": null,
                "airportIcao": "KKCI",
                "airSigmetType": "SIGMET",
                "hazard": "CONVECTIVE",
                "severity": 5,
                "altitudeLow1": null,
                "altitudeLow2": null,
                "altitudeHi1": 45000,
                "altitudeHi2": 45000,
                "movementDir": 280,
                "movementSpd": 20,
                "rawAirSigmet": "WSUS32 KKCI 312055\nSIGC \nCONVECTIVE SIGMET 24C\nVALID UNTIL 2255Z\nSD WY\nFROM 50ENE CZI-20SSW RAP-40W DDY-50ENE CZI\nAREA TS MOV FROM 28020KT. TOPS TO FL450.\n\nOUTLOOK VALID 312255-010255\nAREA 1...FROM SAW-40S GRB-60NW PXV-30W IIU-30NW BNA-60E\nMEM-RZC-BUM-40NW COU-30NW IOW-30W DSM-40W FOD-40W MSP-SAW\nREF WW 536.\nWST ISSUANCES EXPD. REFER TO MOST RECENT ACUS01 KWNS FROM STORM\nPREDICTION CENTER FOR SYNOPSIS AND METEOROLOGICAL DETAILS.\n\nAREA 2...FROM 30NNE LIT-50ESE MEM-30SE VUZ-40N CEW-170S\nCEW-LEV-50NW MCB-50SW LIT-30NNE LIT\nWST ISSUANCES EXPD. REFER TO MOST RECENT ACUS01 KWNS FROM STORM\nPREDICTION CENTER FOR SYNOPSIS AND METEOROLOGICAL DETAILS.\n\nAREA 3...FROM SHR-50W RAP-30SE DEN-50NE PUB-50NE TCC-CME-ABQ-60NW\nFTI-60W ALS-30W LAR-40E BOY-SHR\nWST ISSUANCES EXPD. REFER TO MOST RECENT ACUS01 KWNS FROM STORM\nPREDICTION CENTER FOR SYNOPSIS AND METEOROLOGICAL DETAILS.\n\nAREA 4...FROM 30WSW RZC-30SW FSM-50N ABI-CME-50NE TCC-30N\nCDS-30WSW RZC\nWST ISSUANCES POSS. REFER TO MOST RECENT ACUS01 KWNS FROM STORM\nPREDICTION CENTER FOR SYNOPSIS AND METEOROLOGICAL DETAILS.",
                "validTimeTo": [
                    "2026-07-31T22:55"
                ]
            }
        },
        {
            "type": "Feature",
            "geometry": {
                "type": "Polygon",
                "coordinates": [
                    [
                        [
                            -104.61,
                            41.089
                        ],
                        [
                            -104.745,
                            39.968
                        ],
                        [
                            -105.525,
                            39.807
                        ],
                        [
                            -106.535,
                            41.073
                        ],
                        [
                            -104.61,
                            41.089
                        ]
                    ]
                ]
            },
            "properties": {
                "airSigmetId": null,
                "airportIcao": "KKCI",
                "airSigmetType": "SIGMET",
                "hazard": "CONVECTIVE",
                "severity": 5,
                "altitudeLow1": null,
                "altitudeLow2": null,
                "altitudeHi1": 38000,
                "altitudeHi2": 38000,
                "movementDir": 300,
                "movementSpd": 15,
                "rawAirSigmet": "WSUS32 KKCI 312055\nSIGC \nCONVECTIVE SIGMET 25C\nVALID UNTIL 2255Z\nCO WY\nFROM 10SE CYS-10NNW DEN-40W DEN-40WSW LAR-10SE CYS\nAREA TS MOV FROM 30015KT. TOPS TO FL380.\n\nOUTLOOK VALID 312255-010255\nAREA 1...FROM SAW-40S GRB-60NW PXV-30W IIU-30NW BNA-60E\nMEM-RZC-BUM-40NW COU-30NW IOW-30W DSM-40W FOD-40W MSP-SAW\nREF WW 536.\nWST ISSUANCES EXPD. REFER TO MOST RECENT ACUS01 KWNS FROM STORM\nPREDICTION CENTER FOR SYNOPSIS AND METEOROLOGICAL DETAILS.\n\nAREA 2...FROM 30NNE LIT-50ESE MEM-30SE VUZ-40N CEW-170S\nCEW-LEV-50NW MCB-50SW LIT-30NNE LIT\nWST ISSUANCES EXPD. REFER TO MOST RECENT ACUS01 KWNS FROM STORM\nPREDICTION CENTER FOR SYNOPSIS AND METEOROLOGICAL DETAILS.\n\nAREA 3...FROM SHR-50W RAP-30SE DEN-50NE PUB-50NE TCC-CME-ABQ-60NW\nFTI-60W ALS-30W LAR-40E BOY-SHR\nWST ISSUANCES EXPD. REFER TO MOST RECENT ACUS01 KWNS FROM STORM\nPREDICTION CENTER FOR SYNOPSIS AND METEOROLOGICAL DETAILS.\n\nAREA 4...FROM 30WSW RZC-30SW FSM-50N ABI-CME-50NE TCC-30N\nCDS-30WSW RZC\nWST ISSUANCES POSS. REFER TO MOST RECENT ACUS01 KWNS FROM STORM\nPREDICTION CENTER FOR SYNOPSIS AND METEOROLOGICAL DETAILS.",
                "validTimeTo": [
                    "2026-07-31T22:55"
                ]
            }
        },
        {
            "type": "Feature",
            "geometry": {
                "type": "Polygon",
                "coordinates": [
                    [
                        [
                            -105.059,
                            39.682
                        ],
                        [
                            -104.018,
                            39.061
                        ],
                        [
                            -103.6,
                            35.845
                        ],
                        [
                            -105.881,
                            34.717
                        ],
                        [
                            -106.265,
                            36.993
                        ],
                        [
                            -105.059,
                            39.682
                        ]
                    ]
                ]
            },
            "properties": {
                "airSigmetId": null,
                "airportIcao": "KKCI",
                "airSigmetType": "SIGMET",
                "hazard": "CONVECTIVE",
                "severity": 5,
                "altitudeLow1": null,
                "altitudeLow2": null,
                "altitudeHi1": 45000,
                "altitudeHi2": 60000,
                "movementDir": 300,
                "movementSpd": 10,
                "rawAirSigmet": "WSUS32 KKCI 312055\nSIGC \nCONVECTIVE SIGMET 26C\nVALID UNTIL 2255Z\nCO NM\nFROM 20WSW DEN-50NNE PUB-40N TCC-50ESE ABQ-30SW ALS-20WSW DEN\nAREA SEV TS MOV FROM 30010KT. TOPS ABV FL450.\nHAIL TO 1 IN...WIND GUSTS TO 50KT POSS.\n\nOUTLOOK VALID 312255-010255\nAREA 1...FROM SAW-40S GRB-60NW PXV-30W IIU-30NW BNA-60E\nMEM-RZC-BUM-40NW COU-30NW IOW-30W DSM-40W FOD-40W MSP-SAW\nREF WW 536.\nWST ISSUANCES EXPD. REFER TO MOST RECENT ACUS01 KWNS FROM STORM\nPREDICTION CENTER FOR SYNOPSIS AND METEOROLOGICAL DETAILS.\n\nAREA 2...FROM 30NNE LIT-50ESE MEM-30SE VUZ-40N CEW-170S\nCEW-LEV-50NW MCB-50SW LIT-30NNE LIT\nWST ISSUANCES EXPD. REFER TO MOST RECENT ACUS01 KWNS FROM STORM\nPREDICTION CENTER FOR SYNOPSIS AND METEOROLOGICAL DETAILS.\n\nAREA 3...FROM SHR-50W RAP-30SE DEN-50NE PUB-50NE TCC-CME-ABQ-60NW\nFTI-60W ALS-30W LAR-40E BOY-SHR\nWST ISSUANCES EXPD. REFER TO MOST RECENT ACUS01 KWNS FROM STORM\nPREDICTION CENTER FOR SYNOPSIS AND METEOROLOGICAL DETAILS.\n\nAREA 4...FROM 30WSW RZC-30SW FSM-50N ABI-CME-50NE TCC-30N\nCDS-30WSW RZC\nWST ISSUANCES POSS. REFER TO MOST RECENT ACUS01 KWNS FROM STORM\nPREDICTION CENTER FOR SYNOPSIS AND METEOROLOGICAL DETAILS.",
                "validTimeTo": [
                    "2026-07-31T22:55"
                ]
            }
        },
        {
            "type": "Feature",
            "geometry": {
                "type": "Polygon",
                "coordinates": [
                    [
                        [
                            -92.423,
                            40.447
                        ],
                        [
                            -91.935,
                            39.848
                        ],
                        [
                            -91.814,
                            38.047
                        ],
                        [
                            -93.653,
                            37.974
                        ],
                        [
                            -92.423,
                            40.447
                        ]
                    ]
                ]
            },
            "properties": {
                "airSigmetId": null,
                "airportIcao": "KKCI",
                "airSigmetType": "SIGMET",
                "hazard": "CONVECTIVE",
                "severity": 5,
                "altitudeLow1": null,
                "altitudeLow2": null,
                "altitudeHi1": 45000,
                "altitudeHi2": 60000,
                "movementDir": 260,
                "movementSpd": 25,
                "rawAirSigmet": "WSUS32 KKCI 312055\nSIGC \nCONVECTIVE SIGMET 27C\nVALID UNTIL 2255Z\nMO\nFROM 20NNE IRK-30W UIN-50SSE COU-40NNW SGF-20NNE IRK\nAREA SEV EMBD TS MOV FROM 26025KT. TOPS ABV FL450.\nTORNADOES...HAIL TO 1 IN...WIND GUSTS TO 50KT POSS.\n\nOUTLOOK VALID 312255-010255\nAREA 1...FROM SAW-40S GRB-60NW PXV-30W IIU-30NW BNA-60E\nMEM-RZC-BUM-40NW COU-30NW IOW-30W DSM-40W FOD-40W MSP-SAW\nREF WW 536.\nWST ISSUANCES EXPD. REFER TO MOST RECENT ACUS01 KWNS FROM STORM\nPREDICTION CENTER FOR SYNOPSIS AND METEOROLOGICAL DETAILS.\n\nAREA 2...FROM 30NNE LIT-50ESE MEM-30SE VUZ-40N CEW-170S\nCEW-LEV-50NW MCB-50SW LIT-30NNE LIT\nWST ISSUANCES EXPD. REFER TO MOST RECENT ACUS01 KWNS FROM STORM\nPREDICTION CENTER FOR SYNOPSIS AND METEOROLOGICAL DETAILS.\n\nAREA 3...FROM SHR-50W RAP-30SE DEN-50NE PUB-50NE TCC-CME-ABQ-60NW\nFTI-60W ALS-30W LAR-40E BOY-SHR\nWST ISSUANCES EXPD. REFER TO MOST RECENT ACUS01 KWNS FROM STORM\nPREDICTION CENTER FOR SYNOPSIS AND METEOROLOGICAL DETAILS.\n\nAREA 4...FROM 30WSW RZC-30SW FSM-50N ABI-CME-50NE TCC-30N\nCDS-30WSW RZC\nWST ISSUANCES POSS. REFER TO MOST RECENT ACUS01 KWNS FROM STORM\nPREDICTION CENTER FOR SYNOPSIS AND METEOROLOGICAL DETAILS.",
                "validTimeTo": [
                    "2026-07-31T22:55"
                ]
            }
        },
        {
            "type": "Feature",
            "geometry": {
                "type": "Polygon",
                "coordinates": [
                    [
                        [
                            -101.353,
                            35.055
                        ],
                        [
                            -99.055,
                            34.91
                        ],
                        [
                            -98.899,
                            34.604
                        ],
                        [
                            -100.842,
                            34.176
                        ],
                        [
                            -101.353,
                            35.055
                        ]
                    ]
                ]
            },
            "properties": {
                "airSigmetId": null,
                "airportIcao": "KKCI",
                "airSigmetType": "SIGMET",
                "hazard": "CONVECTIVE",
                "severity": 5,
                "altitudeLow1": null,
                "altitudeLow2": null,
                "altitudeHi1": 45000,
                "altitudeHi2": 45000,
                "movementDir": 300,
                "movementSpd": 15,
                "rawAirSigmet": "WSUS32 KKCI 312055\nSIGC \nCONVECTIVE SIGMET 28C\nVALID UNTIL 2255Z\nTX OK\nFROM 20SE AMA-60NNW SPS-40NNW SPS-30WSW CDS-20SE AMA\nAREA TS MOV FROM 30015KT. TOPS TO FL450.\n\nOUTLOOK VALID 312255-010255\nAREA 1...FROM SAW-40S GRB-60NW PXV-30W IIU-30NW BNA-60E\nMEM-RZC-BUM-40NW COU-30NW IOW-30W DSM-40W FOD-40W MSP-SAW\nREF WW 536.\nWST ISSUANCES EXPD. REFER TO MOST RECENT ACUS01 KWNS FROM STORM\nPREDICTION CENTER FOR SYNOPSIS AND METEOROLOGICAL DETAILS.\n\nAREA 2...FROM 30NNE LIT-50ESE MEM-30SE VUZ-40N CEW-170S\nCEW-LEV-50NW MCB-50SW LIT-30NNE LIT\nWST ISSUANCES EXPD. REFER TO MOST RECENT ACUS01 KWNS FROM STORM\nPREDICTION CENTER FOR SYNOPSIS AND METEOROLOGICAL DETAILS.\n\nAREA 3...FROM SHR-50W RAP-30SE DEN-50NE PUB-50NE TCC-CME-ABQ-60NW\nFTI-60W ALS-30W LAR-40E BOY-SHR\nWST ISSUANCES EXPD. REFER TO MOST RECENT ACUS01 KWNS FROM STORM\nPREDICTION CENTER FOR SYNOPSIS AND METEOROLOGICAL DETAILS.\n\nAREA 4...FROM 30WSW RZC-30SW FSM-50N ABI-CME-50NE TCC-30N\nCDS-30WSW RZC\nWST ISSUANCES POSS. REFER TO MOST RECENT ACUS01 KWNS FROM STORM\nPREDICTION CENTER FOR SYNOPSIS AND METEOROLOGICAL DETAILS.",
                "validTimeTo": [
                    "2026-07-31T22:55"
                ]
            }
        }
    ],
    "metadata": {
        "creationTime": "2026-07-31T21:14"
    }
}