{
    "type": "FeatureCollection",
    "features": [
        {
            "type": "Feature",
            "geometry": {
                "type": "Polygon",
                "coordinates": [
                    [
                        [
                            -75.836,
                            33.632
                        ],
                        [
                            -79.364,
                            27.675
                        ],
                        [
                            -80.837,
                            27.807
                        ],
                        [
                            -82.093,
                            30.339
                        ],
                        [
                            -80.345,
                            33.504
                        ],
                        [
                            -75.836,
                            33.632
                        ]
                    ]
                ]
            },
            "properties": {
                "airSigmetId": null,
                "airportIcao": "KKCI",
                "airSigmetType": "SIGMET",
                "hazard": "CONVECTIVE",
                "severity": 5,
                "altitudeLow1": null,
                "altitudeLow2": null,
                "altitudeHi1": 45000,
                "altitudeHi2": 60000,
                "movementDir": null,
                "movementSpd": null,
                "rawAirSigmet": "WSUS31 KKCI 260855\nSIGE \nCONVECTIVE SIGMET 38E\nVALID UNTIL 1055Z\nSC FL GA AND NC FL SC GA CSTL WTRS\nFROM 110ESE ILM-60E TRV-20WNW TRV-30W CRG-40NNW CHS-110ESE ILM\nAREA TS MOV LTL. TOPS ABV FL450.\n\nOUTLOOK VALID 261055-261455\nFROM 130SE ECG-140SSE ILM-220E OMN-120SSE MIA-40S EYW-40WNW\nPIE-150SSE SJI-30WSW CEW-130SE ECG\nWST ISSUANCES EXPD. REFER TO MOST RECENT ACUS01 KWNS FROM STORM\nPREDICTION CENTER FOR SYNOPSIS AND METEOROLOGICAL DETAILS.",
                "validTimeTo": [
                    "2026-08-26T10:55"
                ]
            }
        },
        {
            "type": "Feature",
            "geometry": {
                "type": "Polygon",
                "coordinates": [
                    [
                        [
                            -82.679,
                            30.371
                        ],
                        [
                            -82.052,
                            29.869
                        ],
                        [
                            -83.377,
                            28.163
                        ],
                        [
                            -84.257,
                            28.475
                        ],
                        [
                            -84.37,
                            30.228
                        ],
                        [
                            -82.679,
                            30.371
                        ]
                    ]
                ]
            },
            "properties": {
                "airSigmetId": null,
                "airportIcao": "KKCI",
                "airSigmetType": "SIGMET",
                "hazard": "CONVECTIVE",
                "severity": 5,
                "altitudeLow1": null,
                "altitudeLow2": null,
                "altitudeHi1": 37000,
                "altitudeHi2": 37000,
                "movementDir": null,
                "movementSpd": null,
                "rawAirSigmet": "WSUS31 KKCI 260855\nSIGE \nCONVECTIVE SIGMET 39E\nVALID UNTIL 1055Z\nFL AND CSTL WTRS\nFROM 50NNE CTY-40SW CRG-40WNW PIE-90WNW PIE-20S TLH-50NNE CTY\nAREA TS MOV LTL. TOPS TO FL370.\n\nOUTLOOK VALID 261055-261455\nFROM 130SE ECG-140SSE ILM-220E OMN-120SSE MIA-40S EYW-40WNW\nPIE-150SSE SJI-30WSW CEW-130SE ECG\nWST ISSUANCES EXPD. REFER TO MOST RECENT ACUS01 KWNS FROM STORM\nPREDICTION CENTER FOR SYNOPSIS AND METEOROLOGICAL DETAILS.",
                "validTimeTo": [
                    "2026-08-26T10:55"
                ]
            }
        },
        {
            "type": "Feature",
            "geometry": {
                "type": "Polygon",
                "coordinates": [
                    [
                        [
                            -78.721,
                            26.165
                        ],
                        [
                            -79.465,
                            23.955
                        ],
                        [
                            -80.618,
                            24.138
                        ],
                        [
                            -79.783,
                            25.992
                        ],
                        [
                            -78.721,
                            26.165
                        ]
                    ]
                ]
            },
            "properties": {
                "airSigmetId": null,
                "airportIcao": "KKCI",
                "airSigmetType": "SIGMET",
                "hazard": "CONVECTIVE",
                "severity": 5,
                "altitudeLow1": null,
                "altitudeLow2": null,
                "altitudeHi1": 45000,
                "altitudeHi2": 60000,
                "movementDir": null,
                "movementSpd": null,
                "rawAirSigmet": "WSUS31 KKCI 260855\nSIGE \nCONVECTIVE SIGMET 40E\nVALID UNTIL 1055Z\nFL CSTL WTRS\nFROM 80ESE PBI-120SSE MIA-70ESE EYW-30ENE MIA-80ESE PBI\nAREA TS MOV LTL. TOPS ABV FL450.\nREF INTL SIGMET KILO SERIES.\n\nOUTLOOK VALID 261055-261455\nFROM 130SE ECG-140SSE ILM-220E OMN-120SSE MIA-40S EYW-40WNW\nPIE-150SSE SJI-30WSW CEW-130SE ECG\nWST ISSUANCES EXPD. REFER TO MOST RECENT ACUS01 KWNS FROM STORM\nPREDICTION CENTER FOR SYNOPSIS AND METEOROLOGICAL DETAILS.",
                "validTimeTo": [
                    "2026-08-26T10:55"
                ]
            }
        },
        {
            "type": "Feature",
            "geometry": {
                "type": "Polygon",
                "coordinates": [
                    [
                        [
                            -82.042,
                            26.295
                        ],
                        [
                            -81.153,
                            23.998
                        ],
                        [
                            -82.078,
                            23.976
                        ],
                        [
                            -83.497,
                            25.216
                        ],
                        [
                            -82.042,
                            26.295
                        ]
                    ]
                ]
            },
            "properties": {
                "airSigmetId": null,
                "airportIcao": "KKCI",
                "airSigmetType": "SIGMET",
                "hazard": "CONVECTIVE",
                "severity": 5,
                "altitudeLow1": null,
                "altitudeLow2": null,
                "altitudeHi1": 43000,
                "altitudeHi2": 43000,
                "movementDir": null,
                "movementSpd": null,
                "rawAirSigmet": "WSUS31 KKCI 260855\nSIGE \nCONVECTIVE SIGMET 41E\nVALID UNTIL 1055Z\nFL AND CSTL WTRS\nFROM 20SW RSW-50SE EYW-40SSW EYW-100WNW EYW-20SW RSW\nAREA TS MOV LTL. TOPS TO FL430.\n\nOUTLOOK VALID 261055-261455\nFROM 130SE ECG-140SSE ILM-220E OMN-120SSE MIA-40S EYW-40WNW\nPIE-150SSE SJI-30WSW CEW-130SE ECG\nWST ISSUANCES EXPD. REFER TO MOST RECENT ACUS01 KWNS FROM STORM\nPREDICTION CENTER FOR SYNOPSIS AND METEOROLOGICAL DETAILS.",
                "validTimeTo": [
                    "2026-08-26T10:55"
                ]
            }
        },
        {
            "type": "Feature",
            "geometry": {
                "type": "Polygon",
                "coordinates": [
                    [
                        [
                            -95.211,
                            35.729
                        ],
                        [
                            -93.551,
                            34.787
                        ],
                        [
                            -95.272,
                            31.629
                        ],
                        [
                            -96.85,
                            32.015
                        ],
                        [
                            -95.211,
                            35.729
                        ]
                    ]
                ]
            },
            "properties": {
                "airSigmetId": null,
                "airportIcao": "KKCI",
                "airSigmetType": "SIGMET",
                "hazard": "CONVECTIVE",
                "severity": 5,
                "altitudeLow1": null,
                "altitudeLow2": null,
                "altitudeHi1": 41000,
                "altitudeHi2": 41000,
                "movementDir": 330,
                "movementSpd": 5,
                "rawAirSigmet": "WSUS32 KKCI 260855\nSIGC \nCONVECTIVE SIGMET 46C\nVALID UNTIL 1055Z\nAR TX OK\nFROM 40SE TUL-50SE FSM-40NW LFK-30NE ACT-40SE TUL\nAREA TS MOV FROM 33005KT. TOPS TO FL410.\n\nOUTLOOK VALID 261055-261455\nAREA 1...FROM 40E YQT-70SE SSM-GIJ-30NNE IOW-50NNW RHI-40E YQT\nWST ISSUANCES EXPD. REFER TO MOST RECENT ACUS01 KWNS FROM STORM\nPREDICTION CENTER FOR SYNOPSIS AND METEOROLOGICAL DETAILS.\n\nAREA 2...FROM 40NE COU-PXV-VUZ-40WSW LIT-40NE COU\nWST ISSUANCES POSS. REFER TO MOST RECENT ACUS01 KWNS FROM STORM\nPREDICTION CENTER FOR SYNOPSIS AND METEOROLOGICAL DETAILS.",
                "validTimeTo": [
                    "2026-08-26T10:55"
                ]
            }
        },
        {
            "type": "Feature",
            "geometry": {
                "type": "Polygon",
                "coordinates": [
                    [
                        [
                            -86.185,
                            47.179
                        ],
                        [
                            -84.135,
                            46.289
                        ],
                        [
                            -86.206,
                            44.198
                        ],
                        [
                            -88.521,
                            44.795
                        ],
                        [
                            -86.185,
                            47.179
                        ]
                    ]
                ]
            },
            "properties": {
                "airSigmetId": null,
                "airportIcao": "KKCI",
                "airSigmetType": "SIGMET",
                "hazard": "CONVECTIVE",
                "severity": 5,
                "altitudeLow1": null,
                "altitudeLow2": null,
                "altitudeHi1": 33000,
                "altitudeHi2": 33000,
                "movementDir": 240,
                "movementSpd": 25,
                "rawAirSigmet": "WSUS32 KKCI 260855\nSIGC \nCONVECTIVE SIGMET 47C\nVALID UNTIL 1055Z\nMI WI LH LS LM\nFROM 70NE SAW-10SE SSM-40SW TVC-20NW GRB-70NE SAW\nDMSHG AREA TS MOV FROM 24025KT. TOPS TO FL330.\n\nOUTLOOK VALID 261055-261455\nAREA 1...FROM 40E YQT-70SE SSM-GIJ-30NNE IOW-50NNW RHI-40E YQT\nWST ISSUANCES EXPD. REFER TO MOST RECENT ACUS01 KWNS FROM STORM\nPREDICTION CENTER FOR SYNOPSIS AND METEOROLOGICAL DETAILS.\n\nAREA 2...FROM 40NE COU-PXV-VUZ-40WSW LIT-40NE COU\nWST ISSUANCES POSS. REFER TO MOST RECENT ACUS01 KWNS FROM STORM\nPREDICTION CENTER FOR SYNOPSIS AND METEOROLOGICAL DETAILS.",
                "validTimeTo": [
                    "2026-08-26T10:55"
                ]
            }
        },
        {
            "type": "Feature",
            "geometry": {
                "type": "Polygon",
                "coordinates": [
                    [
                        [
                            -87.113,
                            44.235
                        ],
                        [
                            -88.161,
                            42.444
                        ],
                        [
                            -90.881,
                            42.093
                        ],
                        [
                            -89.405,
                            44.164
                        ],
                        [
                            -87.113,
                            44.235
                        ]
                    ]
                ]
            },
            "properties": {
                "airSigmetId": null,
                "airportIcao": "KKCI",
                "airSigmetType": "SIGMET",
                "hazard": "CONVECTIVE",
                "severity": 5,
                "altitudeLow1": null,
                "altitudeLow2": null,
                "altitudeHi1": 45000,
                "altitudeHi2": 60000,
                "movementDir": 280,
                "movementSpd": 25,
                "rawAirSigmet": "WSUS32 KKCI 260855\nSIGC \nCONVECTIVE SIGMET 48C\nVALID UNTIL 1055Z\nWI IL IA LM\nFROM 50ESE GRB-30NNW ORD-20SSW DBQ-40NNE DLL-50ESE GRB\nAREA TS MOV FROM 28025KT. TOPS ABV FL450.\n\nOUTLOOK VALID 261055-261455\nAREA 1...FROM 40E YQT-70SE SSM-GIJ-30NNE IOW-50NNW RHI-40E YQT\nWST ISSUANCES EXPD. REFER TO MOST RECENT ACUS01 KWNS FROM STORM\nPREDICTION CENTER FOR SYNOPSIS AND METEOROLOGICAL DETAILS.\n\nAREA 2...FROM 40NE COU-PXV-VUZ-40WSW LIT-40NE COU\nWST ISSUANCES POSS. REFER TO MOST RECENT ACUS01 KWNS FROM STORM\nPREDICTION CENTER FOR SYNOPSIS AND METEOROLOGICAL DETAILS.",
                "validTimeTo": [
                    "2026-08-26T10:55"
                ]
            }
        },
        {
            "type": "Feature",
            "geometry": {
                "type": "Polygon",
                "coordinates": [
                    [
                        [
                            -99.466,
                            37.913
                        ],
                        [
                            -98.333,
                            36.349
                        ],
                        [
                            -100.834,
                            36.016
                        ],
                        [
                            -101.551,
                            36.846
                        ],
                        [
                            -99.466,
                            37.913
                        ]
                    ]
                ]
            },
            "properties": {
                "airSigmetId": null,
                "airportIcao": "KKCI",
                "airSigmetType": "SIGMET",
                "hazard": "CONVECTIVE",
                "severity": 5,
                "altitudeLow1": null,
                "altitudeLow2": null,
                "altitudeHi1": 31000,
                "altitudeHi2": 31000,
                "movementDir": 290,
                "movementSpd": 15,
                "rawAirSigmet": "WSUS32 KKCI 260855\nSIGC \nCONVECTIVE SIGMET 49C\nVALID UNTIL 1055Z\nTX OK KS\nFROM 60E GCK-20W END-50WSW MMB-30WSW LBL-60E GCK\nAREA TS MOV FROM 29015KT. TOPS TO FL310.\n\nOUTLOOK VALID 261055-261455\nAREA 1...FROM 40E YQT-70SE SSM-GIJ-30NNE IOW-50NNW RHI-40E YQT\nWST ISSUANCES EXPD. REFER TO MOST RECENT ACUS01 KWNS FROM STORM\nPREDICTION CENTER FOR SYNOPSIS AND METEOROLOGICAL DETAILS.\n\nAREA 2...FROM 40NE COU-PXV-VUZ-40WSW LIT-40NE COU\nWST ISSUANCES POSS. REFER TO MOST RECENT ACUS01 KWNS FROM STORM\nPREDICTION CENTER FOR SYNOPSIS AND METEOROLOGICAL DETAILS.",
                "validTimeTo": [
                    "2026-08-26T10:55"
                ]
            }
        },
        {
            "type": "Feature",
            "geometry": {
                "type": "Polygon",
                "coordinates": [
                    [
                        [
                            -105.496,
                            36.488
                        ],
                        [
                            -102.219,
                            35.759
                        ],
                        [
                            -102.23,
                            34.498
                        ],
                        [
                            -107.136,
                            33.159
                        ],
                        [
                            -108.038,
                            35.034
                        ],
                        [
                            -105.496,
                            36.488
                        ]
                    ]
                ]
            },
            "properties": {
                "airSigmetId": null,
                "airportIcao": "KKCI",
                "airSigmetType": "SIGMET",
                "hazard": "CONVECTIVE",
                "severity": 5,
                "altitudeLow1": null,
                "altitudeLow2": null,
                "altitudeHi1": 33000,
                "altitudeHi2": 33000,
                "movementDir": 290,
                "movementSpd": 15,
                "rawAirSigmet": "WSUS32 KKCI 260855\nSIGC \nCONVECTIVE SIGMET 50C\nVALID UNTIL 1055Z\nTX NM\nFROM 30W CIM-40NW AMA-30E TXO-10SE TCS-60W ABQ-30W CIM\nAREA TS MOV FROM 29015KT. TOPS TO FL330.\n\nOUTLOOK VALID 261055-261455\nAREA 1...FROM 40E YQT-70SE SSM-GIJ-30NNE IOW-50NNW RHI-40E YQT\nWST ISSUANCES EXPD. REFER TO MOST RECENT ACUS01 KWNS FROM STORM\nPREDICTION CENTER FOR SYNOPSIS AND METEOROLOGICAL DETAILS.\n\nAREA 2...FROM 40NE COU-PXV-VUZ-40WSW LIT-40NE COU\nWST ISSUANCES POSS. REFER TO MOST RECENT ACUS01 KWNS FROM STORM\nPREDICTION CENTER FOR SYNOPSIS AND METEOROLOGICAL DETAILS.",
                "validTimeTo": [
                    "2026-08-26T10:55"
                ]
            }
        },
        {
            "type": "Feature",
            "geometry": {
                "type": "Polygon",
                "coordinates": [
                    [
                        [
                            -103.915,
                            42.661
                        ],
                        [
                            -101.576,
                            42.559
                        ],
                        [
                            -102.745,
                            40.159
                        ],
                        [
                            -105.024,
                            40.745
                        ],
                        [
                            -103.915,
                            42.661
                        ]
                    ]
                ]
            },
            "properties": {
                "airSigmetId": null,
                "airportIcao": "KKCI",
                "airSigmetType": "SIGMET",
                "hazard": "CONVECTIVE",
                "severity": 5,
                "altitudeLow1": null,
                "altitudeLow2": null,
                "altitudeHi1": 45000,
                "altitudeHi2": 60000,
                "movementDir": 290,
                "movementSpd": 10,
                "rawAirSigmet": "WSUS33 KKCI 260855\nSIGW \nCONVECTIVE SIGMET 28W\nVALID UNTIL 1055Z\nNE CO WY\nFROM 50NNW BFF-70W ANW-20E AKO-30SSW CYS-50NNW BFF\nAREA TS MOV FROM 29010KT. TOPS ABV FL450.\n\nOUTLOOK VALID 261055-261455\nTS ARE NOT EXPD TO REQUIRE WST ISSUANCES.",
                "validTimeTo": [
                    "2026-08-26T10:55"
                ]
            }
        }
    ],
    "metadata": {
        "creationTime": "2026-08-26T09:50"
    }
}