{
    "type": "FeatureCollection",
    "features": [
        {
            "type": "Feature",
            "geometry": {
                "type": "Polygon",
                "coordinates": [
                    [
                        [
                            -92.79,
                            35.796
                        ],
                        [
                            -91.1,
                            34.673
                        ],
                        [
                            -90.983,
                            32.867
                        ],
                        [
                            -93.082,
                            32.514
                        ],
                        [
                            -94.658,
                            34.608
                        ],
                        [
                            -92.79,
                            35.796
                        ]
                    ]
                ]
            },
            "properties": {
                "airSigmetId": null,
                "airportIcao": "KKCI",
                "airSigmetType": "SIGMET",
                "hazard": "CONVECTIVE",
                "severity": 5,
                "altitudeLow1": null,
                "altitudeLow2": null,
                "altitudeHi1": 35000,
                "altitudeHi2": 35000,
                "movementDir": 300,
                "movementSpd": 20,
                "rawAirSigmet": "WSUS32 KKCI 241855\nSIGC \nCONVECTIVE SIGMET 83C\nVALID UNTIL 2055Z\nMS LA AR OK\nFROM 70ESE RZC-60WSW MEM-50SW SQS-40ESE EIC-50SSW FSM-70ESE RZC\nAREA TS MOV FROM 30020KT. TOPS TO FL350.\n\nOUTLOOK VALID 242055-250055\nAREA 1...FROM DYR-50S VUZ-170S CEW-110SSE LCH-MLC-DYR\nREF WW 622.\nWST ISSUANCES EXPD. REFER TO MOST RECENT ACUS01 KWNS FROM STORM\nPREDICTION CENTER FOR SYNOPSIS AND METEOROLOGICAL DETAILS.\n\nAREA 2...FROM 70NNE GFK-MMB-40WNW AMA-FTI-50N ABQ-40SW CZI-30NNE\nMOT-70NNE GFK\nWST ISSUANCES EXPD. REFER TO MOST RECENT ACUS01 KWNS FROM STORM\nPREDICTION CENTER FOR SYNOPSIS AND METEOROLOGICAL DETAILS.",
                "validTimeTo": [
                    "2026-08-24T20:55"
                ]
            }
        },
        {
            "type": "Feature",
            "geometry": {
                "type": "Polygon",
                "coordinates": [
                    [
                        [
                            -87.182,
                            33.435
                        ],
                        [
                            -85.633,
                            32.694
                        ],
                        [
                            -85.881,
                            27.873
                        ],
                        [
                            -90.39,
                            28.566
                        ],
                        [
                            -94.038,
                            32.305
                        ],
                        [
                            -87.182,
                            33.435
                        ]
                    ]
                ]
            },
            "properties": {
                "airSigmetId": null,
                "airportIcao": "KKCI",
                "airSigmetType": "SIGMET",
                "hazard": "CONVECTIVE",
                "severity": 5,
                "altitudeLow1": null,
                "altitudeLow2": null,
                "altitudeHi1": 45000,
                "altitudeHi2": 60000,
                "movementDir": 300,
                "movementSpd": 25,
                "rawAirSigmet": "WSUS32 KKCI 241855\nSIGC \nCONVECTIVE SIGMET 84C\nVALID UNTIL 2055Z\nFL AL MS LA AND CSTL WTRS\nFROM 20SW VUZ-30SW LGC-170W PIE-40SSW LEV-30SSW EIC-20SW VUZ\nAREA SEV EMBD TS MOV FROM 30025KT. TOPS ABV FL450.\nHAIL TO 1 IN...WIND GUSTS TO 55KT POSS.\n\nOUTLOOK VALID 242055-250055\nAREA 1...FROM DYR-50S VUZ-170S CEW-110SSE LCH-MLC-DYR\nREF WW 622.\nWST ISSUANCES EXPD. REFER TO MOST RECENT ACUS01 KWNS FROM STORM\nPREDICTION CENTER FOR SYNOPSIS AND METEOROLOGICAL DETAILS.\n\nAREA 2...FROM 70NNE GFK-MMB-40WNW AMA-FTI-50N ABQ-40SW CZI-30NNE\nMOT-70NNE GFK\nWST ISSUANCES EXPD. REFER TO MOST RECENT ACUS01 KWNS FROM STORM\nPREDICTION CENTER FOR SYNOPSIS AND METEOROLOGICAL DETAILS.",
                "validTimeTo": [
                    "2026-08-24T20:55"
                ]
            }
        },
        {
            "type": "Feature",
            "geometry": {
                "type": "Polygon",
                "coordinates": [
                    [
                        [
                            -105.276,
                            40.278
                        ],
                        [
                            -104.13,
                            38.525
                        ],
                        [
                            -106.787,
                            37.026
                        ],
                        [
                            -108.1,
                            37.082
                        ],
                        [
                            -108.625,
                            39.367
                        ],
                        [
                            -105.276,
                            40.278
                        ]
                    ]
                ]
            },
            "properties": {
                "airSigmetId": null,
                "airportIcao": "KKCI",
                "airSigmetType": "SIGMET",
                "hazard": "CONVECTIVE",
                "severity": 5,
                "altitudeLow1": null,
                "altitudeLow2": null,
                "altitudeHi1": 38000,
                "altitudeHi2": 38000,
                "movementDir": 280,
                "movementSpd": 5,
                "rawAirSigmet": "WSUS32 KKCI 241855\nSIGC \nCONVECTIVE SIGMET 85C\nVALID UNTIL 2055Z\nCO\nFROM 40NW DEN-20NE PUB-50WSW ALS-20N RSK-20NNE JNC-40NW DEN\nDVLPG AREA TS MOV FROM 28005KT. TOPS TO FL380.\n\nOUTLOOK VALID 242055-250055\nAREA 1...FROM DYR-50S VUZ-170S CEW-110SSE LCH-MLC-DYR\nREF WW 622.\nWST ISSUANCES EXPD. REFER TO MOST RECENT ACUS01 KWNS FROM STORM\nPREDICTION CENTER FOR SYNOPSIS AND METEOROLOGICAL DETAILS.\n\nAREA 2...FROM 70NNE GFK-MMB-40WNW AMA-FTI-50N ABQ-40SW CZI-30NNE\nMOT-70NNE GFK\nWST ISSUANCES EXPD. REFER TO MOST RECENT ACUS01 KWNS FROM STORM\nPREDICTION CENTER FOR SYNOPSIS AND METEOROLOGICAL DETAILS.",
                "validTimeTo": [
                    "2026-08-24T20:55"
                ]
            }
        },
        {
            "type": "Feature",
            "geometry": {
                "type": "Polygon",
                "coordinates": [
                    [
                        [
                            -71.574,
                            44.921
                        ],
                        [
                            -70.517,
                            44.828
                        ],
                        [
                            -70.777,
                            43.551
                        ],
                        [
                            -72.22,
                            43.411
                        ],
                        [
                            -73.54,
                            44.904
                        ],
                        [
                            -71.574,
                            44.921
                        ]
                    ]
                ]
            },
            "properties": {
                "airSigmetId": null,
                "airportIcao": "KKCI",
                "airSigmetType": "SIGMET",
                "hazard": "CONVECTIVE",
                "severity": 5,
                "altitudeLow1": null,
                "altitudeLow2": null,
                "altitudeHi1": 30000,
                "altitudeHi2": 30000,
                "movementDir": 190,
                "movementSpd": 15,
                "rawAirSigmet": "WSUS31 KKCI 241855\nSIGE \nCONVECTIVE SIGMET 99E\nVALID UNTIL 2055Z\nME NH VT NY\nFROM 60NE MPV-70W BGR-10NW ENE-30WNW CON-50E MSS-60NE MPV\nAREA TS MOV FROM 19015KT. TOPS TO FL300.\n\nOUTLOOK VALID 242055-250055\nAREA 1...FROM 60NW PQI-PQI-HUL-50WSW YSJ-ENE-50NW ALB-MSS-90SSE\nYQB-60NW PQI\nWST ISSUANCES POSS. REFER TO MOST RECENT ACUS01 KWNS FROM STORM\nPREDICTION CENTER FOR SYNOPSIS AND METEOROLOGICAL DETAILS.\n\nAREA 2...FROM 160E ECG-180ESE ECG-100E CRG-50SSE MIA-EYW-160S\nCEW-50NW MGM-CAE-160E ECG\nWST ISSUANCES EXPD. REFER TO MOST RECENT ACUS01 KWNS FROM STORM\nPREDICTION CENTER FOR SYNOPSIS AND METEOROLOGICAL DETAILS.",
                "validTimeTo": [
                    "2026-08-24T20:55"
                ]
            }
        },
        {
            "type": "Feature",
            "geometry": {
                "type": "Polygon",
                "coordinates": [
                    [
                        [
                            -109.498,
                            41.945
                        ],
                        [
                            -108.293,
                            37.808
                        ],
                        [
                            -110.563,
                            35.525
                        ],
                        [
                            -113.976,
                            35.264
                        ],
                        [
                            -115.236,
                            38.247
                        ],
                        [
                            -109.498,
                            41.945
                        ]
                    ]
                ]
            },
            "properties": {
                "airSigmetId": null,
                "airportIcao": "KKCI",
                "airSigmetType": "SIGMET",
                "hazard": "CONVECTIVE",
                "severity": 5,
                "altitudeLow1": null,
                "altitudeLow2": null,
                "altitudeHi1": 45000,
                "altitudeHi2": 60000,
                "movementDir": 230,
                "movementSpd": 20,
                "rawAirSigmet": "WSUS33 KKCI 241855\nSIGW \nCONVECTIVE SIGMET 77W\nVALID UNTIL 2055Z\nCO WY AZ UT NV\nFROM 30NW OCS-30E DVC-30NNE INW-30SW PGS-40W ILC-30NW OCS\nAREA TS MOV FROM 23020KT. TOPS ABV FL450.\n\nOUTLOOK VALID 242055-250055\nFROM BKE-40WSW CZI-50N ABQ-SSO-50S TUS-BZA-LKV-BKE\nWST ISSUANCES EXPD. REFER TO MOST RECENT ACUS01 KWNS FROM STORM\nPREDICTION CENTER FOR SYNOPSIS AND METEOROLOGICAL DETAILS.",
                "validTimeTo": [
                    "2026-08-24T20:55"
                ]
            }
        },
        {
            "type": "Feature",
            "geometry": {
                "type": "Polygon",
                "coordinates": [
                    [
                        [
                            -111.206,
                            35.059
                        ],
                        [
                            -109.451,
                            35.034
                        ],
                        [
                            -110.911,
                            33.807
                        ],
                        [
                            -112.02,
                            33.762
                        ],
                        [
                            -111.206,
                            35.059
                        ]
                    ]
                ]
            },
            "properties": {
                "airSigmetId": null,
                "airportIcao": "KKCI",
                "airSigmetType": "SIGMET",
                "hazard": "CONVECTIVE",
                "severity": 5,
                "altitudeLow1": null,
                "altitudeLow2": null,
                "altitudeHi1": 31000,
                "altitudeHi2": 31000,
                "movementDir": 180,
                "movementSpd": 15,
                "rawAirSigmet": "WSUS33 KKCI 241855\nSIGW \nCONVECTIVE SIGMET 78W\nVALID UNTIL 2055Z\nAZ\nFROM 20W INW-40NNW SJN-60ENE PHX-20N PHX-20W INW\nAREA TS MOV FROM 18015KT. TOPS TO FL310.\n\nOUTLOOK VALID 242055-250055\nFROM BKE-40WSW CZI-50N ABQ-SSO-50S TUS-BZA-LKV-BKE\nWST ISSUANCES EXPD. REFER TO MOST RECENT ACUS01 KWNS FROM STORM\nPREDICTION CENTER FOR SYNOPSIS AND METEOROLOGICAL DETAILS.",
                "validTimeTo": [
                    "2026-08-24T20:55"
                ]
            }
        },
        {
            "type": "Feature",
            "geometry": {
                "type": "Polygon",
                "coordinates": [
                    [
                        [
                            -75.62,
                            36.696
                        ],
                        [
                            -73.918,
                            35.465
                        ],
                        [
                            -81.286,
                            30.805
                        ],
                        [
                            -82.091,
                            31.895
                        ],
                        [
                            -79.171,
                            35.098
                        ],
                        [
                            -75.62,
                            36.696
                        ]
                    ]
                ]
            },
            "properties": {
                "airSigmetId": null,
                "airportIcao": "KKCI",
                "airSigmetType": "SIGMET",
                "hazard": "CONVECTIVE",
                "severity": 5,
                "altitudeLow1": null,
                "altitudeLow2": null,
                "altitudeHi1": 45000,
                "altitudeHi2": 60000,
                "movementDir": 220,
                "movementSpd": 15,
                "rawAirSigmet": "WSUS31 KKCI 241855\nSIGE \nCONVECTIVE SIGMET 01E\nVALID UNTIL 2055Z\nVA NC SC GA AND CSTL WTRS\nFROM 30ESE ORF-120ESE ECG-30NNE CRG-30NE AMG-50SSW RDU-30ESE ORF\nAREA SEV TS MOV FROM 22015KT. TOPS ABV FL450.\nHAIL TO 1 IN...WIND GUSTS TO 50KT POSS.\n\nOUTLOOK VALID 242055-250055\nAREA 1...FROM 60NW PQI-PQI-HUL-50WSW YSJ-ENE-50NW ALB-MSS-90SSE\nYQB-60NW PQI\nWST ISSUANCES POSS. REFER TO MOST RECENT ACUS01 KWNS FROM STORM\nPREDICTION CENTER FOR SYNOPSIS AND METEOROLOGICAL DETAILS.\n\nAREA 2...FROM 160E ECG-180ESE ECG-100E CRG-50SSE MIA-EYW-160S\nCEW-50NW MGM-CAE-160E ECG\nWST ISSUANCES EXPD. REFER TO MOST RECENT ACUS01 KWNS FROM STORM\nPREDICTION CENTER FOR SYNOPSIS AND METEOROLOGICAL DETAILS.",
                "validTimeTo": [
                    "2026-08-24T20:55"
                ]
            }
        },
        {
            "type": "Feature",
            "geometry": {
                "type": "Polygon",
                "coordinates": [
                    [
                        [
                            -76.383,
                            31.27
                        ],
                        [
                            -76.434,
                            27.97
                        ],
                        [
                            -78.602,
                            26.672
                        ],
                        [
                            -81.058,
                            27.679
                        ],
                        [
                            -76.383,
                            31.27
                        ]
                    ]
                ]
            },
            "properties": {
                "airSigmetId": null,
                "airportIcao": "KKCI",
                "airSigmetType": "SIGMET",
                "hazard": "CONVECTIVE",
                "severity": 5,
                "altitudeLow1": null,
                "altitudeLow2": null,
                "altitudeHi1": 45000,
                "altitudeHi2": 60000,
                "movementDir": 240,
                "movementSpd": 10,
                "rawAirSigmet": "WSUS31 KKCI 241855\nSIGE \nCONVECTIVE SIGMET 02E\nVALID UNTIL 2055Z\nFL AND FL GA CSTL WTRS\nFROM 200SSE ILM-210ENE PBI-80E PBI-30W TRV-200SSE ILM\nAREA TS MOV FROM 24010KT. TOPS ABV FL450.\nREF INTL SIGMET SERIES LIMA.\n\nOUTLOOK VALID 242055-250055\nAREA 1...FROM 60NW PQI-PQI-HUL-50WSW YSJ-ENE-50NW ALB-MSS-90SSE\nYQB-60NW PQI\nWST ISSUANCES POSS. REFER TO MOST RECENT ACUS01 KWNS FROM STORM\nPREDICTION CENTER FOR SYNOPSIS AND METEOROLOGICAL DETAILS.\n\nAREA 2...FROM 160E ECG-180ESE ECG-100E CRG-50SSE MIA-EYW-160S\nCEW-50NW MGM-CAE-160E ECG\nWST ISSUANCES EXPD. REFER TO MOST RECENT ACUS01 KWNS FROM STORM\nPREDICTION CENTER FOR SYNOPSIS AND METEOROLOGICAL DETAILS.",
                "validTimeTo": [
                    "2026-08-24T20:55"
                ]
            }
        },
        {
            "type": "Feature",
            "geometry": {
                "type": "Polygon",
                "coordinates": [
                    [
                        [
                            -82.949,
                            27.044
                        ],
                        [
                            -79.691,
                            27.035
                        ],
                        [
                            -79.389,
                            24.971
                        ],
                        [
                            -81.8,
                            24.922
                        ],
                        [
                            -82.949,
                            27.044
                        ]
                    ]
                ]
            },
            "properties": {
                "airSigmetId": null,
                "airportIcao": "KKCI",
                "airSigmetType": "SIGMET",
                "hazard": "CONVECTIVE",
                "severity": 5,
                "altitudeLow1": null,
                "altitudeLow2": null,
                "altitudeHi1": 45000,
                "altitudeHi2": 60000,
                "movementDir": null,
                "movementSpd": null,
                "rawAirSigmet": "WSUS31 KKCI 241855\nSIGE \nCONVECTIVE SIGMET 03E\nVALID UNTIL 2055Z\nFL AND CSTL WTRS\nFROM 30SW SRQ-30NE PBI-70SE MIA-20N EYW-30SW SRQ\nAREA TS MOV LTL. TOPS ABV FL450.\n\nOUTLOOK VALID 242055-250055\nAREA 1...FROM 60NW PQI-PQI-HUL-50WSW YSJ-ENE-50NW ALB-MSS-90SSE\nYQB-60NW PQI\nWST ISSUANCES POSS. REFER TO MOST RECENT ACUS01 KWNS FROM STORM\nPREDICTION CENTER FOR SYNOPSIS AND METEOROLOGICAL DETAILS.\n\nAREA 2...FROM 160E ECG-180ESE ECG-100E CRG-50SSE MIA-EYW-160S\nCEW-50NW MGM-CAE-160E ECG\nWST ISSUANCES EXPD. REFER TO MOST RECENT ACUS01 KWNS FROM STORM\nPREDICTION CENTER FOR SYNOPSIS AND METEOROLOGICAL DETAILS.",
                "validTimeTo": [
                    "2026-08-24T20:55"
                ]
            }
        },
        {
            "type": "Feature",
            "geometry": {
                "type": "Polygon",
                "coordinates": [
                    [
                        [
                            -85.596,
                            31.964
                        ],
                        [
                            -82.737,
                            32.005
                        ],
                        [
                            -81.34,
                            27.875
                        ],
                        [
                            -83.491,
                            27.397
                        ],
                        [
                            -85.727,
                            30.001
                        ],
                        [
                            -85.596,
                            31.964
                        ]
                    ]
                ]
            },
            "properties": {
                "airSigmetId": null,
                "airportIcao": "KKCI",
                "airSigmetType": "SIGMET",
                "hazard": "CONVECTIVE",
                "severity": 5,
                "altitudeLow1": null,
                "altitudeLow2": null,
                "altitudeHi1": 45000,
                "altitudeHi2": 60000,
                "movementDir": null,
                "movementSpd": null,
                "rawAirSigmet": "WSUS31 KKCI 241855\nSIGE \nCONVECTIVE SIGMET 04E\nVALID UNTIL 2055Z\nFL GA AL AND FL CSTL WTRS\nFROM 40ESE MGM-30NNW AMG-40S ORL-50W SRQ-70SE CEW-40ESE MGM\nAREA SEV TS MOV LTL. TOPS ABV FL450.\nHAIL TO 0.75 IN...WIND GUSTS TO 50KT POSS.\n\nOUTLOOK VALID 242055-250055\nAREA 1...FROM 60NW PQI-PQI-HUL-50WSW YSJ-ENE-50NW ALB-MSS-90SSE\nYQB-60NW PQI\nWST ISSUANCES POSS. REFER TO MOST RECENT ACUS01 KWNS FROM STORM\nPREDICTION CENTER FOR SYNOPSIS AND METEOROLOGICAL DETAILS.\n\nAREA 2...FROM 160E ECG-180ESE ECG-100E CRG-50SSE MIA-EYW-160S\nCEW-50NW MGM-CAE-160E ECG\nWST ISSUANCES EXPD. REFER TO MOST RECENT ACUS01 KWNS FROM STORM\nPREDICTION CENTER FOR SYNOPSIS AND METEOROLOGICAL DETAILS.",
                "validTimeTo": [
                    "2026-08-24T20:55"
                ]
            }
        },
        {
            "type": "Feature",
            "geometry": {
                "type": "Polygon",
                "coordinates": [
                    [
                        [
                            -117.87,
                            43.093
                        ],
                        [
                            -118.381,
                            41.668
                        ],
                        [
                            -120.51,
                            40.99
                        ],
                        [
                            -120.296,
                            42.555
                        ],
                        [
                            -117.87,
                            43.093
                        ]
                    ]
                ]
            },
            "properties": {
                "airSigmetId": null,
                "airportIcao": "KKCI",
                "airSigmetType": "SIGMET",
                "hazard": "CONVECTIVE",
                "severity": 5,
                "altitudeLow1": null,
                "altitudeLow2": null,
                "altitudeHi1": 33000,
                "altitudeHi2": 33000,
                "movementDir": 220,
                "movementSpd": 20,
                "rawAirSigmet": "WSUS33 KKCI 241855\nSIGW \nCONVECTIVE SIGMET 79W\nVALID UNTIL 2055Z\nNV CA OR\nFROM 30N REO-60SSW REO-90S LKV-10ENE LKV-30N REO\nAREA TS MOV FROM 22020KT. TOPS TO FL330.\n\nOUTLOOK VALID 242055-250055\nFROM BKE-40WSW CZI-50N ABQ-SSO-50S TUS-BZA-LKV-BKE\nWST ISSUANCES EXPD. REFER TO MOST RECENT ACUS01 KWNS FROM STORM\nPREDICTION CENTER FOR SYNOPSIS AND METEOROLOGICAL DETAILS.",
                "validTimeTo": [
                    "2026-08-24T20:55"
                ]
            }
        },
        {
            "type": "Feature",
            "geometry": {
                "type": "Polygon",
                "coordinates": [
                    [
                        [
                            -113.557,
                            42.866
                        ],
                        [
                            -111.98,
                            40.518
                        ],
                        [
                            -114.603,
                            38.835
                        ],
                        [
                            -117.228,
                            40.335
                        ],
                        [
                            -115.671,
                            42.628
                        ],
                        [
                            -113.557,
                            42.866
                        ]
                    ]
                ]
            },
            "properties": {
                "airSigmetId": null,
                "airportIcao": "KKCI",
                "airSigmetType": "SIGMET",
                "hazard": "CONVECTIVE",
                "severity": 5,
                "altitudeLow1": null,
                "altitudeLow2": null,
                "altitudeHi1": 43000,
                "altitudeHi2": 43000,
                "movementDir": 220,
                "movementSpd": 20,
                "rawAirSigmet": "WSUS33 KKCI 241855\nSIGW \nCONVECTIVE SIGMET 80W\nVALID UNTIL 2055Z\nUT ID NV\nFROM 40W PIH-20S SLC-30SSE ELY-20SW BAM-60SSE BOI-40W PIH\nAREA TS MOV FROM 22020KT. TOPS TO FL430.\n\nOUTLOOK VALID 242055-250055\nFROM BKE-40WSW CZI-50N ABQ-SSO-50S TUS-BZA-LKV-BKE\nWST ISSUANCES EXPD. REFER TO MOST RECENT ACUS01 KWNS FROM STORM\nPREDICTION CENTER FOR SYNOPSIS AND METEOROLOGICAL DETAILS.",
                "validTimeTo": [
                    "2026-08-24T20:55"
                ]
            }
        }
    ],
    "metadata": {
        "creationTime": "2026-08-24T19:35"
    }
}