{
    "type": "FeatureCollection",
    "features": [
        {
            "type": "Feature",
            "geometry": {
                "type": "Polygon",
                "coordinates": [
                    [
                        [
                            -114.08,
                            46.35
                        ],
                        [
                            -111.55,
                            44.558
                        ],
                        [
                            -112.859,
                            43.618
                        ],
                        [
                            -114.611,
                            44.098
                        ],
                        [
                            -114.924,
                            45.608
                        ],
                        [
                            -114.08,
                            46.35
                        ]
                    ]
                ]
            },
            "properties": {
                "airSigmetId": null,
                "airportIcao": "KKCI",
                "airSigmetType": "SIGMET",
                "hazard": "CONVECTIVE",
                "severity": 5,
                "altitudeLow1": null,
                "altitudeLow2": null,
                "altitudeHi1": 44000,
                "altitudeHi2": 44000,
                "movementDir": 270,
                "movementSpd": 15,
                "rawAirSigmet": "WSUS33 KKCI 302355\nSIGW \nCONVECTIVE SIGMET 62W\nVALID UNTIL 0155Z\nMT ID\nFROM 80N LKT-40NE DBS-40SW DBS-60SSW LKT-50NW LKT-80N LKT\nAREA TS MOV FROM 27015KT. TOPS TO FL440.\n\nOUTLOOK VALID 310155-310555\nAREA 1...FROM 50NE LWT-40SE HBU-40NE BOI-50S FCA-50NE LWT\nWST ISSUANCES POSS. REFER TO MOST RECENT ACUS01 KWNS FROM STORM\nPREDICTION CENTER FOR SYNOPSIS AND METEOROLOGICAL DETAILS.\n\nAREA 2...FROM 50E SJN-30W ELP-50S TUS-70WSW TUS-50E SJN\nWST ISSUANCES POSS. REFER TO MOST RECENT ACUS01 KWNS FROM STORM\nPREDICTION CENTER FOR SYNOPSIS AND METEOROLOGICAL DETAILS.",
                "validTimeTo": [
                    "2026-07-31T01:55"
                ]
            }
        },
        {
            "type": "Feature",
            "geometry": {
                "type": "Polygon",
                "coordinates": [
                    [
                        [
                            -111.561,
                            43.618
                        ],
                        [
                            -110.793,
                            42.578
                        ],
                        [
                            -112.876,
                            41.427
                        ],
                        [
                            -114.062,
                            41.707
                        ],
                        [
                            -111.561,
                            43.618
                        ]
                    ]
                ]
            },
            "properties": {
                "airSigmetId": null,
                "airportIcao": "KKCI",
                "airSigmetType": "SIGMET",
                "hazard": "CONVECTIVE",
                "severity": 5,
                "altitudeLow1": null,
                "altitudeLow2": null,
                "altitudeHi1": 42000,
                "altitudeHi2": 42000,
                "movementDir": 250,
                "movementSpd": 15,
                "rawAirSigmet": "WSUS33 KKCI 302355\nSIGW \nCONVECTIVE SIGMET 63W\nVALID UNTIL 0155Z\nWY UT ID NV\nFROM 40SE DBS-30W BPI-50SSW MLD-50SSE TWF-40SE DBS\nAREA TS MOV FROM 25015KT. TOPS TO FL420.\n\nOUTLOOK VALID 310155-310555\nAREA 1...FROM 50NE LWT-40SE HBU-40NE BOI-50S FCA-50NE LWT\nWST ISSUANCES POSS. REFER TO MOST RECENT ACUS01 KWNS FROM STORM\nPREDICTION CENTER FOR SYNOPSIS AND METEOROLOGICAL DETAILS.\n\nAREA 2...FROM 50E SJN-30W ELP-50S TUS-70WSW TUS-50E SJN\nWST ISSUANCES POSS. REFER TO MOST RECENT ACUS01 KWNS FROM STORM\nPREDICTION CENTER FOR SYNOPSIS AND METEOROLOGICAL DETAILS.",
                "validTimeTo": [
                    "2026-07-31T01:55"
                ]
            }
        },
        {
            "type": "Feature",
            "geometry": {
                "type": "Polygon",
                "coordinates": [
                    [
                        [
                            -99.903,
                            43.935
                        ],
                        [
                            -97.338,
                            42.462
                        ],
                        [
                            -101.469,
                            39.39
                        ],
                        [
                            -101.511,
                            41.718
                        ],
                        [
                            -99.903,
                            43.935
                        ]
                    ]
                ]
            },
            "properties": {
                "airSigmetId": null,
                "airportIcao": "KKCI",
                "airSigmetType": "SIGMET",
                "hazard": "CONVECTIVE",
                "severity": 5,
                "altitudeLow1": null,
                "altitudeLow2": null,
                "altitudeHi1": 45000,
                "altitudeHi2": 60000,
                "movementDir": 270,
                "movementSpd": 20,
                "rawAirSigmet": "WSUS32 KKCI 302355\nSIGC \nCONVECTIVE SIGMET 63C\nVALID UNTIL 0155Z\nKS NE SD\nFROM 30SSE PIR-60E ONL-10E GLD-50NW LBF-30SSE PIR\nAREA SEV EMBD TS MOV FROM 27020KT. TOPS ABV FL450.\nHAIL TO 1.5 IN...WIND GUSTS TO 65KT POSS.\n\nOUTLOOK VALID 310155-310555\nAREA 1...FROM 30SSW LIT-50NW IGB-50S VUZ-80S\nCEW-HRV-AEX-EIC-30SSW LIT\nWST ISSUANCES POSS. REFER TO MOST RECENT ACUS01 KWNS FROM STORM\nPREDICTION CENTER FOR SYNOPSIS AND METEOROLOGICAL DETAILS.\n\nAREA 2...FROM 40NE HVR-ISN-40WNW INL-80N SAW-30ESE BRD-40NNE\nSGF-ICT-AMA-50SSW ALS-40NE HVR\nREF WW 533 534 535.\nWST ISSUANCES EXPD. REFER TO MOST RECENT ACUS01 KWNS FROM STORM\nPREDICTION CENTER FOR SYNOPSIS AND METEOROLOGICAL DETAILS.",
                "validTimeTo": [
                    "2026-07-31T01:55"
                ]
            }
        },
        {
            "type": "Feature",
            "geometry": {
                "type": "Polygon",
                "coordinates": [
                    [
                        [
                            -96.39,
                            45.977
                        ],
                        [
                            -96.304,
                            45.29
                        ],
                        [
                            -98.37,
                            44.252
                        ],
                        [
                            -100.17,
                            45.065
                        ],
                        [
                            -96.39,
                            45.977
                        ]
                    ]
                ]
            },
            "properties": {
                "airSigmetId": null,
                "airportIcao": "KKCI",
                "airSigmetType": "SIGMET",
                "hazard": "CONVECTIVE",
                "severity": 5,
                "altitudeLow1": null,
                "altitudeLow2": null,
                "altitudeHi1": 45000,
                "altitudeHi2": 60000,
                "movementDir": 220,
                "movementSpd": 15,
                "rawAirSigmet": "WSUS32 KKCI 302355\nSIGC \nCONVECTIVE SIGMET 64C\nVALID UNTIL 0155Z\nMN SD\nFROM 50SSE FAR-70NW RWF-70S ABR-40N PIR-50SSE FAR\nAREA EMBD TS MOV FROM 22015KT. TOPS ABV FL450.\n\nOUTLOOK VALID 310155-310555\nAREA 1...FROM 30SSW LIT-50NW IGB-50S VUZ-80S\nCEW-HRV-AEX-EIC-30SSW LIT\nWST ISSUANCES POSS. REFER TO MOST RECENT ACUS01 KWNS FROM STORM\nPREDICTION CENTER FOR SYNOPSIS AND METEOROLOGICAL DETAILS.\n\nAREA 2...FROM 40NE HVR-ISN-40WNW INL-80N SAW-30ESE BRD-40NNE\nSGF-ICT-AMA-50SSW ALS-40NE HVR\nREF WW 533 534 535.\nWST ISSUANCES EXPD. REFER TO MOST RECENT ACUS01 KWNS FROM STORM\nPREDICTION CENTER FOR SYNOPSIS AND METEOROLOGICAL DETAILS.",
                "validTimeTo": [
                    "2026-07-31T01:55"
                ]
            }
        },
        {
            "type": "Feature",
            "geometry": {
                "type": "Polygon",
                "coordinates": [
                    [
                        [
                            -89.925,
                            45.629
                        ],
                        [
                            -89.206,
                            45.63
                        ],
                        [
                            -88.369,
                            44.867
                        ],
                        [
                            -88.844,
                            44.751
                        ],
                        [
                            -89.925,
                            45.629
                        ]
                    ]
                ]
            },
            "properties": {
                "airSigmetId": null,
                "airportIcao": "KKCI",
                "airSigmetType": "SIGMET",
                "hazard": "CONVECTIVE",
                "severity": 5,
                "altitudeLow1": null,
                "altitudeLow2": null,
                "altitudeHi1": 34000,
                "altitudeHi2": 34000,
                "movementDir": 320,
                "movementSpd": 15,
                "rawAirSigmet": "WSUS32 KKCI 302355\nSIGC \nCONVECTIVE SIGMET 65C\nVALID UNTIL 0155Z\nWI\nFROM 20W RHI-10E RHI-20NNW GRB-30WNW GRB-20W RHI\nAREA TS MOV FROM 32015KT. TOPS TO FL340.\n\nOUTLOOK VALID 310155-310555\nAREA 1...FROM 30SSW LIT-50NW IGB-50S VUZ-80S\nCEW-HRV-AEX-EIC-30SSW LIT\nWST ISSUANCES POSS. REFER TO MOST RECENT ACUS01 KWNS FROM STORM\nPREDICTION CENTER FOR SYNOPSIS AND METEOROLOGICAL DETAILS.\n\nAREA 2...FROM 40NE HVR-ISN-40WNW INL-80N SAW-30ESE BRD-40NNE\nSGF-ICT-AMA-50SSW ALS-40NE HVR\nREF WW 533 534 535.\nWST ISSUANCES EXPD. REFER TO MOST RECENT ACUS01 KWNS FROM STORM\nPREDICTION CENTER FOR SYNOPSIS AND METEOROLOGICAL DETAILS.",
                "validTimeTo": [
                    "2026-07-31T01:55"
                ]
            }
        },
        {
            "type": "Feature",
            "geometry": {
                "type": "Polygon",
                "coordinates": [
                    [
                        [
                            -93.593,
                            48.877
                        ],
                        [
                            -93.4,
                            47.573
                        ],
                        [
                            -98.438,
                            47.186
                        ],
                        [
                            -99.293,
                            48.243
                        ],
                        [
                            -95.937,
                            48.769
                        ],
                        [
                            -93.593,
                            48.877
                        ]
                    ]
                ]
            },
            "properties": {
                "airSigmetId": null,
                "airportIcao": "KKCI",
                "airSigmetType": "SIGMET",
                "hazard": "CONVECTIVE",
                "severity": 5,
                "altitudeLow1": null,
                "altitudeLow2": null,
                "altitudeHi1": 41000,
                "altitudeHi2": 41000,
                "movementDir": 270,
                "movementSpd": 10,
                "rawAirSigmet": "WSUS32 KKCI 302355\nSIGC \nCONVECTIVE SIGMET 66C\nVALID UNTIL 0155Z\nMN ND\nFROM 20NNW INL-60S INL-70WNW FAR-80E MOT-70NE GFK-20NNW INL\nAREA EMBD TS MOV FROM 27010KT. TOPS TO FL410.\n\nOUTLOOK VALID 310155-310555\nAREA 1...FROM 30SSW LIT-50NW IGB-50S VUZ-80S\nCEW-HRV-AEX-EIC-30SSW LIT\nWST ISSUANCES POSS. REFER TO MOST RECENT ACUS01 KWNS FROM STORM\nPREDICTION CENTER FOR SYNOPSIS AND METEOROLOGICAL DETAILS.\n\nAREA 2...FROM 40NE HVR-ISN-40WNW INL-80N SAW-30ESE BRD-40NNE\nSGF-ICT-AMA-50SSW ALS-40NE HVR\nREF WW 533 534 535.\nWST ISSUANCES EXPD. REFER TO MOST RECENT ACUS01 KWNS FROM STORM\nPREDICTION CENTER FOR SYNOPSIS AND METEOROLOGICAL DETAILS.",
                "validTimeTo": [
                    "2026-07-31T01:55"
                ]
            }
        },
        {
            "type": "Feature",
            "geometry": {
                "type": "Polygon",
                "coordinates": [
                    [
                        [
                            -109.02,
                            41.922
                        ],
                        [
                            -107.298,
                            39.567
                        ],
                        [
                            -108.625,
                            39.367
                        ],
                        [
                            -110.749,
                            40.618
                        ],
                        [
                            -109.02,
                            41.922
                        ]
                    ]
                ]
            },
            "properties": {
                "airSigmetId": null,
                "airportIcao": "KKCI",
                "airSigmetType": "SIGMET",
                "hazard": "CONVECTIVE",
                "severity": 5,
                "altitudeLow1": null,
                "altitudeLow2": null,
                "altitudeHi1": 38000,
                "altitudeHi2": 38000,
                "movementDir": 270,
                "movementSpd": 15,
                "rawAirSigmet": "WSUS33 KKCI 302355\nSIGW \nCONVECTIVE SIGMET 64W\nVALID UNTIL 0155Z\nCO WY UT\nFROM 20N OCS-20WNW DBL-20NNE JNC-40NW MTU-20N OCS\nAREA TS MOV FROM 27015KT. TOPS TO FL380.\n\nOUTLOOK VALID 310155-310555\nAREA 1...FROM 50NE LWT-40SE HBU-40NE BOI-50S FCA-50NE LWT\nWST ISSUANCES POSS. REFER TO MOST RECENT ACUS01 KWNS FROM STORM\nPREDICTION CENTER FOR SYNOPSIS AND METEOROLOGICAL DETAILS.\n\nAREA 2...FROM 50E SJN-30W ELP-50S TUS-70WSW TUS-50E SJN\nWST ISSUANCES POSS. REFER TO MOST RECENT ACUS01 KWNS FROM STORM\nPREDICTION CENTER FOR SYNOPSIS AND METEOROLOGICAL DETAILS.",
                "validTimeTo": [
                    "2026-07-31T01:55"
                ]
            }
        },
        {
            "type": "Feature",
            "geometry": {
                "type": "Polygon",
                "coordinates": [
                    [
                        [
                            -107.94,
                            34.653
                        ],
                        [
                            -107.051,
                            32.815
                        ],
                        [
                            -108.047,
                            31.358
                        ],
                        [
                            -109.26,
                            31.273
                        ],
                        [
                            -109.946,
                            34.417
                        ],
                        [
                            -107.94,
                            34.653
                        ]
                    ]
                ]
            },
            "properties": {
                "airSigmetId": null,
                "airportIcao": "KKCI",
                "airSigmetType": "SIGMET",
                "hazard": "CONVECTIVE",
                "severity": 5,
                "altitudeLow1": null,
                "altitudeLow2": null,
                "altitudeHi1": 45000,
                "altitudeHi2": 60000,
                "movementDir": 180,
                "movementSpd": 10,
                "rawAirSigmet": "WSUS33 KKCI 302355\nSIGW \nCONVECTIVE SIGMET 65W\nVALID UNTIL 0155Z\nNM AZ\nFROM 60WSW ABQ-30SSE TCS-60SSW DMN-60S SSO-40W SJN-60WSW ABQ\nAREA TS MOV FROM 18010KT. TOPS ABV FL450.\n\nOUTLOOK VALID 310155-310555\nAREA 1...FROM 50NE LWT-40SE HBU-40NE BOI-50S FCA-50NE LWT\nWST ISSUANCES POSS. REFER TO MOST RECENT ACUS01 KWNS FROM STORM\nPREDICTION CENTER FOR SYNOPSIS AND METEOROLOGICAL DETAILS.\n\nAREA 2...FROM 50E SJN-30W ELP-50S TUS-70WSW TUS-50E SJN\nWST ISSUANCES POSS. REFER TO MOST RECENT ACUS01 KWNS FROM STORM\nPREDICTION CENTER FOR SYNOPSIS AND METEOROLOGICAL DETAILS.",
                "validTimeTo": [
                    "2026-07-31T01:55"
                ]
            }
        },
        {
            "type": "Feature",
            "geometry": {
                "type": "Polygon",
                "coordinates": [
                    [
                        [
                            -108.484,
                            46.725
                        ],
                        [
                            -108.3,
                            43.128
                        ],
                        [
                            -109.449,
                            43.994
                        ],
                        [
                            -109.828,
                            45.804
                        ],
                        [
                            -108.484,
                            46.725
                        ]
                    ]
                ]
            },
            "properties": {
                "airSigmetId": null,
                "airportIcao": "KKCI",
                "airSigmetType": "SIGMET",
                "hazard": "CONVECTIVE",
                "severity": 5,
                "altitudeLow1": null,
                "altitudeLow2": null,
                "altitudeHi1": 44000,
                "altitudeHi2": 44000,
                "movementDir": 250,
                "movementSpd": 15,
                "rawAirSigmet": "WSUS33 KKCI 302355\nSIGW \nCONVECTIVE SIGMET 66W\nVALID UNTIL 0155Z\nMT WY\nFROM 50ESE LWT-20S BOY-60ENE JAC-50W BIL-50ESE LWT\nAREA TS MOV FROM 25015KT. TOPS TO FL440.\n\nOUTLOOK VALID 310155-310555\nAREA 1...FROM 50NE LWT-40SE HBU-40NE BOI-50S FCA-50NE LWT\nWST ISSUANCES POSS. REFER TO MOST RECENT ACUS01 KWNS FROM STORM\nPREDICTION CENTER FOR SYNOPSIS AND METEOROLOGICAL DETAILS.\n\nAREA 2...FROM 50E SJN-30W ELP-50S TUS-70WSW TUS-50E SJN\nWST ISSUANCES POSS. REFER TO MOST RECENT ACUS01 KWNS FROM STORM\nPREDICTION CENTER FOR SYNOPSIS AND METEOROLOGICAL DETAILS.",
                "validTimeTo": [
                    "2026-07-31T01:55"
                ]
            }
        },
        {
            "type": "Feature",
            "geometry": {
                "type": "Polygon",
                "coordinates": [
                    [
                        [
                            -112.808,
                            36.209
                        ],
                        [
                            -110.608,
                            34.995
                        ],
                        [
                            -110.413,
                            34.288
                        ],
                        [
                            -112.634,
                            34.393
                        ],
                        [
                            -112.808,
                            36.209
                        ]
                    ]
                ]
            },
            "properties": {
                "airSigmetId": null,
                "airportIcao": "KKCI",
                "airSigmetType": "SIGMET",
                "hazard": "CONVECTIVE",
                "severity": 5,
                "altitudeLow1": null,
                "altitudeLow2": null,
                "altitudeHi1": 45000,
                "altitudeHi2": 60000,
                "movementDir": null,
                "movementSpd": null,
                "rawAirSigmet": "WSUS33 KKCI 302355\nSIGW \nCONVECTIVE SIGMET 67W\nVALID UNTIL 0155Z\nAZ\nFROM 50NE PGS-10ESE INW-50SSE INW-20SSW DRK-50NE PGS\nAREA TS MOV LTL. TOPS ABV FL450.\n\nOUTLOOK VALID 310155-310555\nAREA 1...FROM 50NE LWT-40SE HBU-40NE BOI-50S FCA-50NE LWT\nWST ISSUANCES POSS. REFER TO MOST RECENT ACUS01 KWNS FROM STORM\nPREDICTION CENTER FOR SYNOPSIS AND METEOROLOGICAL DETAILS.\n\nAREA 2...FROM 50E SJN-30W ELP-50S TUS-70WSW TUS-50E SJN\nWST ISSUANCES POSS. REFER TO MOST RECENT ACUS01 KWNS FROM STORM\nPREDICTION CENTER FOR SYNOPSIS AND METEOROLOGICAL DETAILS.",
                "validTimeTo": [
                    "2026-07-31T01:55"
                ]
            }
        },
        {
            "type": "Feature",
            "geometry": {
                "type": "Polygon",
                "coordinates": [
                    [
                        [
                            -99.45,
                            46.764
                        ],
                        [
                            -99.045,
                            45.888
                        ],
                        [
                            -102.488,
                            43.058
                        ],
                        [
                            -103.319,
                            45.937
                        ],
                        [
                            -99.45,
                            46.764
                        ]
                    ]
                ]
            },
            "properties": {
                "airSigmetId": null,
                "airportIcao": "KKCI",
                "airSigmetType": "SIGMET",
                "hazard": "CONVECTIVE",
                "severity": 5,
                "altitudeLow1": null,
                "altitudeLow2": null,
                "altitudeHi1": 45000,
                "altitudeHi2": 45000,
                "movementDir": 280,
                "movementSpd": 15,
                "rawAirSigmet": "WSUS32 KKCI 302355\nSIGC \nCONVECTIVE SIGMET 67C\nVALID UNTIL 0155Z\nNE SD ND\nFROM 50E BIS-40NW ABR-60SSE RAP-60SSW DIK-50E BIS\nAREA SEV EMBD TS MOV FROM 28015KT. TOPS TO FL450.\nHAIL TO 1.5 IN...WIND GUSTS TO 65KT POSS.\n\nOUTLOOK VALID 310155-310555\nAREA 1...FROM 30SSW LIT-50NW IGB-50S VUZ-80S\nCEW-HRV-AEX-EIC-30SSW LIT\nWST ISSUANCES POSS. REFER TO MOST RECENT ACUS01 KWNS FROM STORM\nPREDICTION CENTER FOR SYNOPSIS AND METEOROLOGICAL DETAILS.\n\nAREA 2...FROM 40NE HVR-ISN-40WNW INL-80N SAW-30ESE BRD-40NNE\nSGF-ICT-AMA-50SSW ALS-40NE HVR\nREF WW 533 534 535.\nWST ISSUANCES EXPD. REFER TO MOST RECENT ACUS01 KWNS FROM STORM\nPREDICTION CENTER FOR SYNOPSIS AND METEOROLOGICAL DETAILS.",
                "validTimeTo": [
                    "2026-07-31T01:55"
                ]
            }
        },
        {
            "type": "Feature",
            "geometry": {
                "type": "Polygon",
                "coordinates": [
                    [
                        [
                            -94.563,
                            36.605
                        ],
                        [
                            -93.296,
                            36.247
                        ],
                        [
                            -92.025,
                            34.987
                        ],
                        [
                            -92.884,
                            33.139
                        ],
                        [
                            -94.07,
                            33.51
                        ],
                        [
                            -94.563,
                            36.605
                        ]
                    ]
                ]
            },
            "properties": {
                "airSigmetId": null,
                "airportIcao": "KKCI",
                "airSigmetType": "SIGMET",
                "hazard": "CONVECTIVE",
                "severity": 5,
                "altitudeLow1": null,
                "altitudeLow2": null,
                "altitudeHi1": 45000,
                "altitudeHi2": 60000,
                "movementDir": 330,
                "movementSpd": 10,
                "rawAirSigmet": "WSUS32 KKCI 302355\nSIGC \nCONVECTIVE SIGMET 68C\nVALID UNTIL 0155Z\nMO AR TX OK\nFROM 30NW RZC-40E RZC-20NNE LIT-10SW ELD-TXK-30NW RZC\nAREA TS MOV FROM 33010KT. TOPS ABV FL450.\n\nOUTLOOK VALID 310155-310555\nAREA 1...FROM 30SSW LIT-50NW IGB-50S VUZ-80S\nCEW-HRV-AEX-EIC-30SSW LIT\nWST ISSUANCES POSS. REFER TO MOST RECENT ACUS01 KWNS FROM STORM\nPREDICTION CENTER FOR SYNOPSIS AND METEOROLOGICAL DETAILS.\n\nAREA 2...FROM 40NE HVR-ISN-40WNW INL-80N SAW-30ESE BRD-40NNE\nSGF-ICT-AMA-50SSW ALS-40NE HVR\nREF WW 533 534 535.\nWST ISSUANCES EXPD. REFER TO MOST RECENT ACUS01 KWNS FROM STORM\nPREDICTION CENTER FOR SYNOPSIS AND METEOROLOGICAL DETAILS.",
                "validTimeTo": [
                    "2026-07-31T01:55"
                ]
            }
        },
        {
            "type": "Feature",
            "geometry": {
                "type": "Polygon",
                "coordinates": [
                    [
                        [
                            -87.605,
                            33.077
                        ],
                        [
                            -89.255,
                            30.407
                        ],
                        [
                            -91.117,
                            30.545
                        ],
                        [
                            -91.805,
                            31.849
                        ],
                        [
                            -90.432,
                            33.153
                        ],
                        [
                            -87.605,
                            33.077
                        ]
                    ]
                ]
            },
            "properties": {
                "airSigmetId": null,
                "airportIcao": "KKCI",
                "airSigmetType": "SIGMET",
                "hazard": "CONVECTIVE",
                "severity": 5,
                "altitudeLow1": null,
                "altitudeLow2": null,
                "altitudeHi1": 45000,
                "altitudeHi2": 60000,
                "movementDir": 360,
                "movementSpd": 10,
                "rawAirSigmet": "WSUS32 KKCI 302355\nSIGC \nCONVECTIVE SIGMET 69C\nVALID UNTIL 0155Z\nAL MS LA AND MS CSTL WTRS\nFROM 50SW VUZ-50WSW SJI-10ENE LSU-50NE AEX-20SSW SQS-50SW VUZ\nAREA TS MOV FROM 36010KT. TOPS ABV FL450.\n\nOUTLOOK VALID 310155-310555\nAREA 1...FROM 30SSW LIT-50NW IGB-50S VUZ-80S\nCEW-HRV-AEX-EIC-30SSW LIT\nWST ISSUANCES POSS. REFER TO MOST RECENT ACUS01 KWNS FROM STORM\nPREDICTION CENTER FOR SYNOPSIS AND METEOROLOGICAL DETAILS.\n\nAREA 2...FROM 40NE HVR-ISN-40WNW INL-80N SAW-30ESE BRD-40NNE\nSGF-ICT-AMA-50SSW ALS-40NE HVR\nREF WW 533 534 535.\nWST ISSUANCES EXPD. REFER TO MOST RECENT ACUS01 KWNS FROM STORM\nPREDICTION CENTER FOR SYNOPSIS AND METEOROLOGICAL DETAILS.",
                "validTimeTo": [
                    "2026-07-31T01:55"
                ]
            }
        },
        {
            "type": "Feature",
            "geometry": {
                "type": "Polygon",
                "coordinates": [
                    [
                        [
                            -103.751,
                            39.101
                        ],
                        [
                            -101.354,
                            36.912
                        ],
                        [
                            -105.028,
                            36.183
                        ],
                        [
                            -105.225,
                            37.819
                        ],
                        [
                            -103.751,
                            39.101
                        ]
                    ]
                ]
            },
            "properties": {
                "airSigmetId": null,
                "airportIcao": "KKCI",
                "airSigmetType": "SIGMET",
                "hazard": "CONVECTIVE",
                "severity": 5,
                "altitudeLow1": null,
                "altitudeLow2": null,
                "altitudeHi1": 45000,
                "altitudeHi2": 60000,
                "movementDir": 270,
                "movementSpd": 25,
                "rawAirSigmet": "WSUS32 KKCI 302355\nSIGC \nCONVECTIVE SIGMET 70C\nVALID UNTIL 0155Z\nOK KS CO NM\nFROM 60SE DEN-20WSW LBL-20SSW CIM-40NE ALS-60SE DEN\nAREA SEV TS MOV FROM 27025KT. TOPS ABV FL450.\nHAIL TO 1 IN...WIND GUSTS TO 50KT POSS.\n\nOUTLOOK VALID 310155-310555\nAREA 1...FROM 30SSW LIT-50NW IGB-50S VUZ-80S\nCEW-HRV-AEX-EIC-30SSW LIT\nWST ISSUANCES POSS. REFER TO MOST RECENT ACUS01 KWNS FROM STORM\nPREDICTION CENTER FOR SYNOPSIS AND METEOROLOGICAL DETAILS.\n\nAREA 2...FROM 40NE HVR-ISN-40WNW INL-80N SAW-30ESE BRD-40NNE\nSGF-ICT-AMA-50SSW ALS-40NE HVR\nREF WW 533 534 535.\nWST ISSUANCES EXPD. REFER TO MOST RECENT ACUS01 KWNS FROM STORM\nPREDICTION CENTER FOR SYNOPSIS AND METEOROLOGICAL DETAILS.",
                "validTimeTo": [
                    "2026-07-31T01:55"
                ]
            }
        },
        {
            "type": "Feature",
            "geometry": {
                "type": "Polygon",
                "coordinates": [
                    [
                        [
                            -105.471,
                            34.042
                        ],
                        [
                            -105.444,
                            32.522
                        ],
                        [
                            -106.353,
                            33.596
                        ],
                        [
                            -105.471,
                            34.042
                        ]
                    ]
                ]
            },
            "properties": {
                "airSigmetId": null,
                "airportIcao": "KKCI",
                "airSigmetType": "SIGMET",
                "hazard": "CONVECTIVE",
                "severity": 5,
                "altitudeLow1": null,
                "altitudeLow2": null,
                "altitudeHi1": 45000,
                "altitudeHi2": 60000,
                "movementDir": 270,
                "movementSpd": 5,
                "rawAirSigmet": "WSUS32 KKCI 302355\nSIGC \nCONVECTIVE SIGMET 71C\nVALID UNTIL 0155Z\nNM\nFROM 60NW CME-60NE ELP-50ENE TCS-60NW CME\nAREA TS MOV FROM 27005KT. TOPS ABV FL450.\n\nOUTLOOK VALID 310155-310555\nAREA 1...FROM 30SSW LIT-50NW IGB-50S VUZ-80S\nCEW-HRV-AEX-EIC-30SSW LIT\nWST ISSUANCES POSS. REFER TO MOST RECENT ACUS01 KWNS FROM STORM\nPREDICTION CENTER FOR SYNOPSIS AND METEOROLOGICAL DETAILS.\n\nAREA 2...FROM 40NE HVR-ISN-40WNW INL-80N SAW-30ESE BRD-40NNE\nSGF-ICT-AMA-50SSW ALS-40NE HVR\nREF WW 533 534 535.\nWST ISSUANCES EXPD. REFER TO MOST RECENT ACUS01 KWNS FROM STORM\nPREDICTION CENTER FOR SYNOPSIS AND METEOROLOGICAL DETAILS.",
                "validTimeTo": [
                    "2026-07-31T01:55"
                ]
            }
        },
        {
            "type": "Feature",
            "geometry": {
                "type": "Polygon",
                "coordinates": [
                    [
                        [
                            -76.791,
                            31.703
                        ],
                        [
                            -76.434,
                            27.97
                        ],
                        [
                            -80.429,
                            29.889
                        ],
                        [
                            -76.791,
                            31.703
                        ]
                    ]
                ]
            },
            "properties": {
                "airSigmetId": null,
                "airportIcao": "KKCI",
                "airSigmetType": "SIGMET",
                "hazard": "CONVECTIVE",
                "severity": 5,
                "altitudeLow1": null,
                "altitudeLow2": null,
                "altitudeHi1": 45000,
                "altitudeHi2": 60000,
                "movementDir": 260,
                "movementSpd": 15,
                "rawAirSigmet": "WSUS31 KKCI 302355\nSIGE \nCONVECTIVE SIGMET 10E\nVALID UNTIL 0155Z\nFL GA CSTL WTRS\nFROM 180ESE CHS-210ENE PBI-50NE OMN-180ESE CHS\nAREA TS MOV FROM 26015KT. TOPS ABV FL450.\nREF INTL SIGMET FOXTROT SERIES.\n\nOUTLOOK VALID 310155-310555\nFROM 50S VUZ-60SSE SAV-130SSE ILM-220ENE PBI-60ESE MIA-100SW\nSRQ-80S CEW-50S VUZ\nWST ISSUANCES EXPD. REFER TO MOST RECENT ACUS01 KWNS FROM STORM\nPREDICTION CENTER FOR SYNOPSIS AND METEOROLOGICAL DETAILS.",
                "validTimeTo": [
                    "2026-07-31T01:55"
                ]
            }
        },
        {
            "type": "Feature",
            "geometry": {
                "type": "Polygon",
                "coordinates": [
                    [
                        [
                            -86.133,
                            32.285
                        ],
                        [
                            -81.249,
                            29.421
                        ],
                        [
                            -82.759,
                            28.986
                        ],
                        [
                            -86.829,
                            31.137
                        ],
                        [
                            -86.133,
                            32.285
                        ]
                    ]
                ]
            },
            "properties": {
                "airSigmetId": null,
                "airportIcao": "KKCI",
                "airSigmetType": "SIGMET",
                "hazard": "CONVECTIVE",
                "severity": 5,
                "altitudeLow1": null,
                "altitudeLow2": null,
                "altitudeHi1": 45000,
                "altitudeHi2": 60000,
                "movementDir": 330,
                "movementSpd": 10,
                "rawAirSigmet": "WSUS31 KKCI 302355\nSIGE \nCONVECTIVE SIGMET 11E\nVALID UNTIL 0155Z\nFL GA AL AND FL CSTL WTRS\nFROM 10ENE MGM-10NW OMN-40SSE CTY-20NNW CEW-10ENE MGM\nAREA TS MOV FROM 33010KT. TOPS ABV FL450.\n\nOUTLOOK VALID 310155-310555\nFROM 50S VUZ-60SSE SAV-130SSE ILM-220ENE PBI-60ESE MIA-100SW\nSRQ-80S CEW-50S VUZ\nWST ISSUANCES EXPD. REFER TO MOST RECENT ACUS01 KWNS FROM STORM\nPREDICTION CENTER FOR SYNOPSIS AND METEOROLOGICAL DETAILS.",
                "validTimeTo": [
                    "2026-07-31T01:55"
                ]
            }
        }
    ],
    "metadata": {
        "creationTime": "2026-07-31T00:10"
    }
}