{
    "type": "FeatureCollection",
    "features": [
        {
            "type": "Feature",
            "geometry": {
                "type": "Polygon",
                "coordinates": [
                    [
                        [
                            -81.266,
                            28.382
                        ],
                        [
                            -79.957,
                            28.149
                        ],
                        [
                            -80.442,
                            26.107
                        ],
                        [
                            -82.465,
                            26.274
                        ],
                        [
                            -82.68,
                            27.91
                        ],
                        [
                            -81.266,
                            28.382
                        ]
                    ]
                ]
            },
            "properties": {
                "airSigmetId": null,
                "airportIcao": "KKCI",
                "airSigmetType": "SIGMET",
                "hazard": "CONVECTIVE",
                "severity": 5,
                "altitudeLow1": null,
                "altitudeLow2": null,
                "altitudeHi1": 45000,
                "altitudeHi2": 45000,
                "movementDir": 270,
                "movementSpd": 30,
                "rawAirSigmet": "WSUS31 KKCI 291655\nSIGE \nCONVECTIVE SIGMET 67E\nVALID UNTIL 1855Z\nFL AND CSTL WTRS\nFROM 10SSE ORL-40NE TRV-20NNW MIA-40WSW RSW-PIE-10SSE ORL\nDVLPG AREA TS MOV FROM 27030KT. TOPS TO FL450.\n\nOUTLOOK VALID 291855-292255\nAREA 1...FROM MSS-60NE MPV-200SE ACK-180S ACK-180ESE SIE-60NE\nSLT-40NW SYR-MSS\nWST ISSUANCES POSS. REFER TO MOST RECENT ACUS01 KWNS FROM STORM\nPREDICTION CENTER FOR SYNOPSIS AND METEOROLOGICAL DETAILS.\n\nAREA 2...FROM 40NW MGM-130SSE ILM-220ENE OMN-60E PBI-100SE\nMIA-40SSW EYW-100WSW PIE-140W PIE-170S CEW-SJI-40NW MGM\nWST ISSUANCES EXPD. REFER TO MOST RECENT ACUS01 KWNS FROM STORM\nPREDICTION CENTER FOR SYNOPSIS AND METEOROLOGICAL DETAILS.",
                "validTimeTo": [
                    "2026-07-29T18:55"
                ]
            }
        },
        {
            "type": "Feature",
            "geometry": {
                "type": "Polygon",
                "coordinates": [
                    [
                        [
                            -83.27,
                            29.135
                        ],
                        [
                            -82.64,
                            26.208
                        ],
                        [
                            -84.952,
                            26.489
                        ],
                        [
                            -86.68,
                            28.333
                        ],
                        [
                            -83.27,
                            29.135
                        ]
                    ]
                ]
            },
            "properties": {
                "airSigmetId": null,
                "airportIcao": "KKCI",
                "airSigmetType": "SIGMET",
                "hazard": "CONVECTIVE",
                "severity": 5,
                "altitudeLow1": null,
                "altitudeLow2": null,
                "altitudeHi1": 45000,
                "altitudeHi2": 60000,
                "movementDir": null,
                "movementSpd": null,
                "rawAirSigmet": "WSUS31 KKCI 291655\nSIGE \nCONVECTIVE SIGMET 68E\nVALID UNTIL 1855Z\nFL CSTL WTRS\nFROM 30SSW CTY-50WSW RSW-140WSW SRQ-150S CEW-30SSW CTY\nAREA TS MOV LTL. TOPS ABV FL450.\n\nOUTLOOK VALID 291855-292255\nAREA 1...FROM MSS-60NE MPV-200SE ACK-180S ACK-180ESE SIE-60NE\nSLT-40NW SYR-MSS\nWST ISSUANCES POSS. REFER TO MOST RECENT ACUS01 KWNS FROM STORM\nPREDICTION CENTER FOR SYNOPSIS AND METEOROLOGICAL DETAILS.\n\nAREA 2...FROM 40NW MGM-130SSE ILM-220ENE OMN-60E PBI-100SE\nMIA-40SSW EYW-100WSW PIE-140W PIE-170S CEW-SJI-40NW MGM\nWST ISSUANCES EXPD. REFER TO MOST RECENT ACUS01 KWNS FROM STORM\nPREDICTION CENTER FOR SYNOPSIS AND METEOROLOGICAL DETAILS.",
                "validTimeTo": [
                    "2026-07-29T18:55"
                ]
            }
        },
        {
            "type": "Feature",
            "geometry": {
                "type": "Polygon",
                "coordinates": [
                    [
                        [
                            -75.709,
                            43.515
                        ],
                        [
                            -75.492,
                            42.367
                        ],
                        [
                            -77.156,
                            42.451
                        ],
                        [
                            -77.111,
                            43.156
                        ],
                        [
                            -75.709,
                            43.515
                        ]
                    ]
                ]
            },
            "properties": {
                "airSigmetId": null,
                "airportIcao": "KKCI",
                "airSigmetType": "SIGMET",
                "hazard": "CONVECTIVE",
                "severity": 5,
                "altitudeLow1": null,
                "altitudeLow2": null,
                "altitudeHi1": 31000,
                "altitudeHi2": 31000,
                "movementDir": 250,
                "movementSpd": 15,
                "rawAirSigmet": "WSUS31 KKCI 291655\nSIGE \nCONVECTIVE SIGMET 69E\nVALID UNTIL 1855Z\nNY\nFROM 30NE SYR-20NNW HNK-60SW SYR-40W SYR-30NE SYR\nAREA EMBD TS MOV FROM 25015KT. TOPS TO FL310.\n\nOUTLOOK VALID 291855-292255\nAREA 1...FROM MSS-60NE MPV-200SE ACK-180S ACK-180ESE SIE-60NE\nSLT-40NW SYR-MSS\nWST ISSUANCES POSS. REFER TO MOST RECENT ACUS01 KWNS FROM STORM\nPREDICTION CENTER FOR SYNOPSIS AND METEOROLOGICAL DETAILS.\n\nAREA 2...FROM 40NW MGM-130SSE ILM-220ENE OMN-60E PBI-100SE\nMIA-40SSW EYW-100WSW PIE-140W PIE-170S CEW-SJI-40NW MGM\nWST ISSUANCES EXPD. REFER TO MOST RECENT ACUS01 KWNS FROM STORM\nPREDICTION CENTER FOR SYNOPSIS AND METEOROLOGICAL DETAILS.",
                "validTimeTo": [
                    "2026-07-29T18:55"
                ]
            }
        },
        {
            "type": "Feature",
            "geometry": {
                "type": "Polygon",
                "coordinates": [
                    [
                        [
                            -79.566,
                            26.209
                        ],
                        [
                            -79.906,
                            25.444
                        ],
                        [
                            -81.8,
                            25.255
                        ],
                        [
                            -81.038,
                            25.798
                        ],
                        [
                            -79.566,
                            26.209
                        ]
                    ]
                ]
            },
            "properties": {
                "airSigmetId": null,
                "airportIcao": "KKCI",
                "airSigmetType": "SIGMET",
                "hazard": "CONVECTIVE",
                "severity": 5,
                "altitudeLow1": null,
                "altitudeLow2": null,
                "altitudeHi1": 39000,
                "altitudeHi2": 39000,
                "movementDir": 220,
                "movementSpd": 5,
                "rawAirSigmet": "WSUS31 KKCI 291655\nSIGE \nCONVECTIVE SIGMET 70E\nVALID UNTIL 1855Z\nFL AND CSTL WTRS\nFROM 40SE PBI-30SE MIA-40N EYW-40W MIA-40SE PBI\nDVLPG AREA TS MOV FROM 22005KT. TOPS TO FL390.\n\nOUTLOOK VALID 291855-292255\nAREA 1...FROM MSS-60NE MPV-200SE ACK-180S ACK-180ESE SIE-60NE\nSLT-40NW SYR-MSS\nWST ISSUANCES POSS. REFER TO MOST RECENT ACUS01 KWNS FROM STORM\nPREDICTION CENTER FOR SYNOPSIS AND METEOROLOGICAL DETAILS.\n\nAREA 2...FROM 40NW MGM-130SSE ILM-220ENE OMN-60E PBI-100SE\nMIA-40SSW EYW-100WSW PIE-140W PIE-170S CEW-SJI-40NW MGM\nWST ISSUANCES EXPD. REFER TO MOST RECENT ACUS01 KWNS FROM STORM\nPREDICTION CENTER FOR SYNOPSIS AND METEOROLOGICAL DETAILS.",
                "validTimeTo": [
                    "2026-07-29T18:55"
                ]
            }
        },
        {
            "type": "Feature",
            "geometry": {
                "type": "Polygon",
                "coordinates": [
                    [
                        [
                            -113.113,
                            38.828
                        ],
                        [
                            -111.091,
                            38.292
                        ],
                        [
                            -113.384,
                            35.313
                        ],
                        [
                            -114.843,
                            36.694
                        ],
                        [
                            -113.113,
                            38.828
                        ]
                    ]
                ]
            },
            "properties": {
                "airSigmetId": null,
                "airportIcao": "KKCI",
                "airSigmetType": "SIGMET",
                "hazard": "CONVECTIVE",
                "severity": 5,
                "altitudeLow1": null,
                "altitudeLow2": null,
                "altitudeHi1": 45000,
                "altitudeHi2": 60000,
                "movementDir": 20,
                "movementSpd": 15,
                "rawAirSigmet": "WSUS33 KKCI 291655\nSIGW \nCONVECTIVE SIGMET 60W\nVALID UNTIL 1855Z\nAZ UT NV\nFROM 40SW DTA-20WSW HVE-20SSE PGS-40NNE LAS-40SW DTA\nAREA TS MOV FROM 02015KT. TOPS ABV FL450.\n\nOUTLOOK VALID 291855-292255\nFROM 40S LWT-30W CZI-TCS-70SSW DMN-50SSW TUS-DRK-40WNW ILC-80WSW\nTWF-50NW PIH-30WSW LKT-40S LWT\nWST ISSUANCES EXPD. REFER TO MOST RECENT ACUS01 KWNS FROM STORM\nPREDICTION CENTER FOR SYNOPSIS AND METEOROLOGICAL DETAILS.",
                "validTimeTo": [
                    "2026-07-29T18:55"
                ]
            }
        },
        {
            "type": "Feature",
            "geometry": {
                "type": "Polygon",
                "coordinates": [
                    [
                        [
                            -112.386,
                            43.783
                        ],
                        [
                            -111.374,
                            43.148
                        ],
                        [
                            -112.45,
                            42.532
                        ],
                        [
                            -113.681,
                            43.068
                        ],
                        [
                            -112.386,
                            43.783
                        ]
                    ]
                ]
            },
            "properties": {
                "airSigmetId": null,
                "airportIcao": "KKCI",
                "airSigmetType": "SIGMET",
                "hazard": "CONVECTIVE",
                "severity": 5,
                "altitudeLow1": null,
                "altitudeLow2": null,
                "altitudeHi1": 32000,
                "altitudeHi2": 32000,
                "movementDir": 200,
                "movementSpd": 20,
                "rawAirSigmet": "WSUS33 KKCI 291655\nSIGW \nCONVECTIVE SIGMET 61W\nVALID UNTIL 1855Z\nID\nFROM 20SSW DBS-40SW JAC-20N MLD-50NE TWF-20SSW DBS\nAREA TS MOV FROM 20020KT. TOPS TO FL320.\n\nOUTLOOK VALID 291855-292255\nFROM 40S LWT-30W CZI-TCS-70SSW DMN-50SSW TUS-DRK-40WNW ILC-80WSW\nTWF-50NW PIH-30WSW LKT-40S LWT\nWST ISSUANCES EXPD. REFER TO MOST RECENT ACUS01 KWNS FROM STORM\nPREDICTION CENTER FOR SYNOPSIS AND METEOROLOGICAL DETAILS.",
                "validTimeTo": [
                    "2026-07-29T18:55"
                ]
            }
        },
        {
            "type": "Feature",
            "geometry": {
                "type": "Polygon",
                "coordinates": [
                    [
                        [
                            -104.627,
                            48.176
                        ],
                        [
                            -103.625,
                            46.266
                        ],
                        [
                            -106.218,
                            45.428
                        ],
                        [
                            -107.103,
                            47.447
                        ],
                        [
                            -104.627,
                            48.176
                        ]
                    ]
                ]
            },
            "properties": {
                "airSigmetId": null,
                "airportIcao": "KKCI",
                "airSigmetType": "SIGMET",
                "hazard": "CONVECTIVE",
                "severity": 5,
                "altitudeLow1": null,
                "altitudeLow2": null,
                "altitudeHi1": 45000,
                "altitudeHi2": 60000,
                "movementDir": 250,
                "movementSpd": 25,
                "rawAirSigmet": "WSUS32 KKCI 291655\nSIGC \nCONVECTIVE SIGMET 45C\nVALID UNTIL 1855Z\nND MT\nFROM 40W ISN-50SW DIK-50NE SHR-50SSW GGW-40W ISN\nAREA TS MOV FROM 25025KT. TOPS ABV FL450.\n\nOUTLOOK VALID 291855-292255\nFROM 30ESE ISN-50N TCC-TCS-CZI-50WSW ISN-30ESE ISN\nWST ISSUANCES EXPD. REFER TO MOST RECENT ACUS01 KWNS FROM STORM\nPREDICTION CENTER FOR SYNOPSIS AND METEOROLOGICAL DETAILS.",
                "validTimeTo": [
                    "2026-07-29T18:55"
                ]
            }
        },
        {
            "type": "Feature",
            "geometry": {
                "type": "Polygon",
                "coordinates": [
                    [
                        [
                            -89.98,
                            34.728
                        ],
                        [
                            -87.964,
                            33.286
                        ],
                        [
                            -89.72,
                            32.989
                        ],
                        [
                            -90.993,
                            34.049
                        ],
                        [
                            -89.98,
                            34.728
                        ]
                    ]
                ]
            },
            "properties": {
                "airSigmetId": null,
                "airportIcao": "KKCI",
                "airSigmetType": "SIGMET",
                "hazard": "CONVECTIVE",
                "severity": 5,
                "altitudeLow1": null,
                "altitudeLow2": null,
                "altitudeHi1": 37000,
                "altitudeHi2": 37000,
                "movementDir": 330,
                "movementSpd": 10,
                "rawAirSigmet": "WSUS32 KKCI 291655\nSIGC \nCONVECTIVE SIGMET 46C\nVALID UNTIL 1855Z\nAL MS AR\nFROM 20S MEM-30ESE IGB-40SE SQS-50NW SQS-20S MEM\nAREA TS MOV FROM 33010KT. TOPS TO FL370.\n\nOUTLOOK VALID 291855-292255\nFROM 30ESE ISN-50N TCC-TCS-CZI-50WSW ISN-30ESE ISN\nWST ISSUANCES EXPD. REFER TO MOST RECENT ACUS01 KWNS FROM STORM\nPREDICTION CENTER FOR SYNOPSIS AND METEOROLOGICAL DETAILS.",
                "validTimeTo": [
                    "2026-07-29T18:55"
                ]
            }
        },
        {
            "type": "Feature",
            "geometry": {
                "type": "Polygon",
                "coordinates": [
                    [
                        [
                            -91.984,
                            36.106
                        ],
                        [
                            -89.98,
                            34.728
                        ],
                        [
                            -92.175,
                            33.729
                        ],
                        [
                            -92.988,
                            34.677
                        ],
                        [
                            -91.984,
                            36.106
                        ]
                    ]
                ]
            },
            "properties": {
                "airSigmetId": null,
                "airportIcao": "KKCI",
                "airSigmetType": "SIGMET",
                "hazard": "CONVECTIVE",
                "severity": 5,
                "altitudeLow1": null,
                "altitudeLow2": null,
                "altitudeHi1": 41000,
                "altitudeHi2": 41000,
                "movementDir": 330,
                "movementSpd": 20,
                "rawAirSigmet": "WSUS32 KKCI 291655\nSIGC \nCONVECTIVE SIGMET 47C\nVALID UNTIL 1855Z\nTN MS AR\nFROM 50W ARG-20S MEM-40NE ELD-40W LIT-50W ARG\nAREA TS MOV FROM 33020KT. TOPS TO FL410.\n\nOUTLOOK VALID 291855-292255\nFROM 30ESE ISN-50N TCC-TCS-CZI-50WSW ISN-30ESE ISN\nWST ISSUANCES EXPD. REFER TO MOST RECENT ACUS01 KWNS FROM STORM\nPREDICTION CENTER FOR SYNOPSIS AND METEOROLOGICAL DETAILS.",
                "validTimeTo": [
                    "2026-07-29T18:55"
                ]
            }
        },
        {
            "type": "Feature",
            "geometry": {
                "type": "Polygon",
                "coordinates": [
                    [
                        [
                            -82.433,
                            31.382
                        ],
                        [
                            -81.288,
                            29.875
                        ],
                        [
                            -82.041,
                            28.793
                        ],
                        [
                            -83.196,
                            29.293
                        ],
                        [
                            -82.433,
                            31.382
                        ]
                    ]
                ]
            },
            "properties": {
                "airSigmetId": null,
                "airportIcao": "KKCI",
                "airSigmetType": "SIGMET",
                "hazard": "CONVECTIVE",
                "severity": 5,
                "altitudeLow1": null,
                "altitudeLow2": null,
                "altitudeHi1": 45000,
                "altitudeHi2": 45000,
                "movementDir": 290,
                "movementSpd": 10,
                "rawAirSigmet": "WSUS31 KKCI 291655\nSIGE \nCONVECTIVE SIGMET 71E\nVALID UNTIL 1855Z\nFL GA AND FL CSTL WTRS\nFROM 10SSE AMG-30SSE CRG-40WNW ORL-20SSW CTY-10SSE AMG\nDVLPG AREA TS MOV FROM 29010KT. TOPS TO FL450.\n\nOUTLOOK VALID 291855-292255\nAREA 1...FROM MSS-60NE MPV-200SE ACK-180S ACK-180ESE SIE-60NE\nSLT-40NW SYR-MSS\nWST ISSUANCES POSS. REFER TO MOST RECENT ACUS01 KWNS FROM STORM\nPREDICTION CENTER FOR SYNOPSIS AND METEOROLOGICAL DETAILS.\n\nAREA 2...FROM 40NW MGM-130SSE ILM-220ENE OMN-60E PBI-100SE\nMIA-40SSW EYW-100WSW PIE-140W PIE-170S CEW-SJI-40NW MGM\nWST ISSUANCES EXPD. REFER TO MOST RECENT ACUS01 KWNS FROM STORM\nPREDICTION CENTER FOR SYNOPSIS AND METEOROLOGICAL DETAILS.",
                "validTimeTo": [
                    "2026-07-29T18:55"
                ]
            }
        }
    ],
    "metadata": {
        "creationTime": "2026-07-29T17:22"
    }
}