{
    "type": "FeatureCollection",
    "features": [
        {
            "type": "Feature",
            "geometry": {
                "type": "Polygon",
                "coordinates": [
                    [
                        [
                            -95.045,
                            49.005
                        ],
                        [
                            -94.1,
                            48.375
                        ],
                        [
                            -97.19,
                            47.447
                        ],
                        [
                            -98.182,
                            47.946
                        ],
                        [
                            -95.045,
                            49.005
                        ]
                    ]
                ]
            },
            "properties": {
                "airSigmetId": null,
                "airportIcao": "KKCI",
                "airSigmetType": "SIGMET",
                "hazard": "CONVECTIVE",
                "severity": 5,
                "altitudeLow1": null,
                "altitudeLow2": null,
                "altitudeHi1": 45000,
                "altitudeHi2": 60000,
                "movementDir": 260,
                "movementSpd": 15,
                "rawAirSigmet": "WSUS32 KKCI 030755\nSIGC \nCONVECTIVE SIGMET 13C\nVALID UNTIL 0955Z\nMN ND\nFROM 70WNW INL-30WSW INL-30S GFK-40W GFK-70WNW INL\nAREA TS MOV FROM 26015KT. TOPS ABV FL450.\n\nOUTLOOK VALID 030955-031355\nTS ARE NOT EXPD TO REQUIRE WST ISSUNACES.",
                "validTimeTo": [
                    "2026-08-03T09:55"
                ]
            }
        },
        {
            "type": "Feature",
            "geometry": {
                "type": "Polygon",
                "coordinates": [
                    [
                        [
                            -98.069,
                            46.744
                        ],
                        [
                            -97.366,
                            46.393
                        ],
                        [
                            -98.37,
                            45.591
                        ],
                        [
                            -98.736,
                            46.034
                        ],
                        [
                            -98.069,
                            46.744
                        ]
                    ]
                ]
            },
            "properties": {
                "airSigmetId": null,
                "airportIcao": "KKCI",
                "airSigmetType": "SIGMET",
                "hazard": "CONVECTIVE",
                "severity": 5,
                "altitudeLow1": null,
                "altitudeLow2": null,
                "altitudeHi1": 45000,
                "altitudeHi2": 45000,
                "movementDir": 280,
                "movementSpd": 15,
                "rawAirSigmet": "WSUS32 KKCI 030755\nSIGC \nCONVECTIVE SIGMET 14C\nVALID UNTIL 0955Z\nSD ND\nFROM 50W FAR-30SW FAR-10N ABR-40NNW ABR-50W FAR\nAREA TS MOV FROM 28015KT. TOPS TO FL450.\n\nOUTLOOK VALID 030955-031355\nTS ARE NOT EXPD TO REQUIRE WST ISSUNACES.",
                "validTimeTo": [
                    "2026-08-03T09:55"
                ]
            }
        },
        {
            "type": "Feature",
            "geometry": {
                "type": "Polygon",
                "coordinates": [
                    [
                        [
                            -101.542,
                            47.357
                        ],
                        [
                            -100.67,
                            46.267
                        ],
                        [
                            -103.827,
                            45.363
                        ],
                        [
                            -104.108,
                            46.471
                        ],
                        [
                            -101.542,
                            47.357
                        ]
                    ]
                ]
            },
            "properties": {
                "airSigmetId": null,
                "airportIcao": "KKCI",
                "airSigmetType": "SIGMET",
                "hazard": "CONVECTIVE",
                "severity": 5,
                "altitudeLow1": null,
                "altitudeLow2": null,
                "altitudeHi1": 37000,
                "altitudeHi2": 37000,
                "movementDir": 250,
                "movementSpd": 15,
                "rawAirSigmet": "WSUS32 KKCI 030755\nSIGC \nCONVECTIVE SIGMET 15C\nVALID UNTIL 0955Z\nSD ND MT\nFROM 50NW BIS-30S BIS-90NNW RAP-60WSW DIK-50NW BIS\nAREA TS MOV FROM 25015KT. TOPS TO FL370.\n\nOUTLOOK VALID 030955-031355\nTS ARE NOT EXPD TO REQUIRE WST ISSUNACES.",
                "validTimeTo": [
                    "2026-08-03T09:55"
                ]
            }
        },
        {
            "type": "Feature",
            "geometry": {
                "type": "Polygon",
                "coordinates": [
                    [
                        [
                            -105.557,
                            48.92
                        ],
                        [
                            -104.117,
                            48.951
                        ],
                        [
                            -108.165,
                            46.581
                        ],
                        [
                            -109.61,
                            47.05
                        ],
                        [
                            -105.557,
                            48.92
                        ]
                    ]
                ]
            },
            "properties": {
                "airSigmetId": null,
                "airportIcao": "KKCI",
                "airSigmetType": "SIGMET",
                "hazard": "CONVECTIVE",
                "severity": 5,
                "altitudeLow1": null,
                "altitudeLow2": null,
                "altitudeHi1": 33000,
                "altitudeHi2": 33000,
                "movementDir": 250,
                "movementSpd": 15,
                "rawAirSigmet": "WSUS33 KKCI 030755\nSIGW \nCONVECTIVE SIGMET 15W\nVALID UNTIL 0955Z\nND MT\nFROM 60NE GGW-50NNW ISN-50NNE BIL-LWT-60NE GGW\nAREA TS MOV FROM 25015KT. TOPS TO FL330.\n\nOUTLOOK VALID 030955-031355\nTS ARE NOT EXPD TO REQUIRE WST ISSUANCES.",
                "validTimeTo": [
                    "2026-08-03T09:55"
                ]
            }
        },
        {
            "type": "Feature",
            "geometry": {
                "type": "Polygon",
                "coordinates": [
                    [
                        [
                            -76.18,
                            36.25
                        ],
                        [
                            -73.296,
                            36.215
                        ],
                        [
                            -74.744,
                            33.227
                        ],
                        [
                            -76.818,
                            32.196
                        ],
                        [
                            -76.18,
                            36.25
                        ]
                    ]
                ]
            },
            "properties": {
                "airSigmetId": null,
                "airportIcao": "KKCI",
                "airSigmetType": "SIGMET",
                "hazard": "CONVECTIVE",
                "severity": 5,
                "altitudeLow1": null,
                "altitudeLow2": null,
                "altitudeHi1": 45000,
                "altitudeHi2": 60000,
                "movementDir": 220,
                "movementSpd": 20,
                "rawAirSigmet": "WSUS31 KKCI 030755\nSIGE \nCONVECTIVE SIGMET 57E\nVALID UNTIL 0955Z\nNC AND NC SC CSTL WTRS\nFROM ECG-140E ECG-170ESE ILM-140SSE ILM-ECG\nAREA TS MOV FROM 22020KT. TOPS ABV FL450.\n\nOUTLOOK VALID 030955-031355\nAREA 1...FROM MSS-60WSW YSJ-190SE ACK-CAE-ERI-BUF-30ESE YYZ-40NW\nSYR-MSS\nWST ISSUANCES EXPD. REFER TO MOST RECENT ACUS01 KWNS FROM STORM\nPREDICTION CENTER FOR SYNOPSIS AND METEOROLOGICAL DETAILS.\n\nAREA 2...FROM 160SE SIE-180ESE ECG-130SSE ILM-60ENE PBI-120SE\nMIA-170S CEW-CEW-AMG-CAE-160SE SIE\nWST ISSUANCES EXPD. REFER TO MOST RECENT ACUS01 KWNS FROM STORM\nPREDICTION CENTER FOR SYNOPSIS AND METEOROLOGICAL DETAILS.",
                "validTimeTo": [
                    "2026-08-03T09:55"
                ]
            }
        },
        {
            "type": "Feature",
            "geometry": {
                "type": "Polygon",
                "coordinates": [
                    [
                        [
                            -79.35,
                            34.844
                        ],
                        [
                            -77.87,
                            34.35
                        ],
                        [
                            -77.184,
                            30.642
                        ],
                        [
                            -80.05,
                            29.677
                        ],
                        [
                            -80.773,
                            33.142
                        ],
                        [
                            -79.35,
                            34.844
                        ]
                    ]
                ]
            },
            "properties": {
                "airSigmetId": null,
                "airportIcao": "KKCI",
                "airSigmetType": "SIGMET",
                "hazard": "CONVECTIVE",
                "severity": 5,
                "altitudeLow1": null,
                "altitudeLow2": null,
                "altitudeHi1": 45000,
                "altitudeHi2": 60000,
                "movementDir": 210,
                "movementSpd": 25,
                "rawAirSigmet": "WSUS31 KKCI 030755\nSIGE \nCONVECTIVE SIGMET 58E\nVALID UNTIL 0955Z\nNC SC AND NC FL SC GA CSTL WTRS\nFROM 40NNE FLO-ILM-220ENE OMN-60ENE OMN-40WNW CHS-40NNE FLO\nAREA TS MOV FROM 21025KT. TOPS ABV FL450.\n\nOUTLOOK VALID 030955-031355\nAREA 1...FROM MSS-60WSW YSJ-190SE ACK-CAE-ERI-BUF-30ESE YYZ-40NW\nSYR-MSS\nWST ISSUANCES EXPD. REFER TO MOST RECENT ACUS01 KWNS FROM STORM\nPREDICTION CENTER FOR SYNOPSIS AND METEOROLOGICAL DETAILS.\n\nAREA 2...FROM 160SE SIE-180ESE ECG-130SSE ILM-60ENE PBI-120SE\nMIA-170S CEW-CEW-AMG-CAE-160SE SIE\nWST ISSUANCES EXPD. REFER TO MOST RECENT ACUS01 KWNS FROM STORM\nPREDICTION CENTER FOR SYNOPSIS AND METEOROLOGICAL DETAILS.",
                "validTimeTo": [
                    "2026-08-03T09:55"
                ]
            }
        },
        {
            "type": "Feature",
            "geometry": {
                "type": "Polygon",
                "coordinates": [
                    [
                        [
                            -73.359,
                            43.521
                        ],
                        [
                            -71.474,
                            42.715
                        ],
                        [
                            -72.32,
                            40.92
                        ],
                        [
                            -74.8,
                            39.1
                        ],
                        [
                            -75.68,
                            40.58
                        ],
                        [
                            -73.359,
                            43.521
                        ]
                    ]
                ]
            },
            "properties": {
                "airSigmetId": null,
                "airportIcao": "KKCI",
                "airSigmetType": "SIGMET",
                "hazard": "CONVECTIVE",
                "severity": 5,
                "altitudeLow1": null,
                "altitudeLow2": null,
                "altitudeHi1": 44000,
                "altitudeHi2": 44000,
                "movementDir": 190,
                "movementSpd": 30,
                "rawAirSigmet": "WSUS31 KKCI 030755\nSIGE \nCONVECTIVE SIGMET 59E\nVALID UNTIL 0955Z\nMA NH RI VT CT NY NJ PA AND NJ NY CT CSTL WTRS\nFROM 50NNE ALB-30NW BOS-HTO-SIE-ETX-50NNE ALB\nAREA TS MOV FROM 19030KT. TOPS TO FL440.\n\nOUTLOOK VALID 030955-031355\nAREA 1...FROM MSS-60WSW YSJ-190SE ACK-CAE-ERI-BUF-30ESE YYZ-40NW\nSYR-MSS\nWST ISSUANCES EXPD. REFER TO MOST RECENT ACUS01 KWNS FROM STORM\nPREDICTION CENTER FOR SYNOPSIS AND METEOROLOGICAL DETAILS.\n\nAREA 2...FROM 160SE SIE-180ESE ECG-130SSE ILM-60ENE PBI-120SE\nMIA-170S CEW-CEW-AMG-CAE-160SE SIE\nWST ISSUANCES EXPD. REFER TO MOST RECENT ACUS01 KWNS FROM STORM\nPREDICTION CENTER FOR SYNOPSIS AND METEOROLOGICAL DETAILS.",
                "validTimeTo": [
                    "2026-08-03T09:55"
                ]
            }
        },
        {
            "type": "Feature",
            "geometry": {
                "type": "Polygon",
                "coordinates": [
                    [
                        [
                            -85.493,
                            31.512
                        ],
                        [
                            -82.052,
                            29.869
                        ],
                        [
                            -83.927,
                            26.884
                        ],
                        [
                            -86.68,
                            28.665
                        ],
                        [
                            -85.493,
                            31.512
                        ]
                    ]
                ]
            },
            "properties": {
                "airSigmetId": null,
                "airportIcao": "KKCI",
                "airSigmetType": "SIGMET",
                "hazard": "CONVECTIVE",
                "severity": 5,
                "altitudeLow1": null,
                "altitudeLow2": null,
                "altitudeHi1": 42000,
                "altitudeHi2": 42000,
                "movementDir": 210,
                "movementSpd": 20,
                "rawAirSigmet": "WSUS31 KKCI 030755\nSIGE \nCONVECTIVE SIGMET 60E\nVALID UNTIL 0955Z\nFL GA AL AND FL CSTL WTRS\nFROM 60SE MGM-40SW CRG-80WSW SRQ-130S CEW-60SE MGM\nAREA TS MOV FROM 21020KT. TOPS TO FL420.\n\nOUTLOOK VALID 030955-031355\nAREA 1...FROM MSS-60WSW YSJ-190SE ACK-CAE-ERI-BUF-30ESE YYZ-40NW\nSYR-MSS\nWST ISSUANCES EXPD. REFER TO MOST RECENT ACUS01 KWNS FROM STORM\nPREDICTION CENTER FOR SYNOPSIS AND METEOROLOGICAL DETAILS.\n\nAREA 2...FROM 160SE SIE-180ESE ECG-130SSE ILM-60ENE PBI-120SE\nMIA-170S CEW-CEW-AMG-CAE-160SE SIE\nWST ISSUANCES EXPD. REFER TO MOST RECENT ACUS01 KWNS FROM STORM\nPREDICTION CENTER FOR SYNOPSIS AND METEOROLOGICAL DETAILS.",
                "validTimeTo": [
                    "2026-08-03T09:55"
                ]
            }
        },
        {
            "type": "Feature",
            "geometry": {
                "type": "Polygon",
                "coordinates": [
                    [
                        [
                            -66.915,
                            42.194
                        ],
                        [
                            -67.15,
                            41.244
                        ],
                        [
                            -70.472,
                            41.279
                        ],
                        [
                            -70.575,
                            42.232
                        ],
                        [
                            -66.915,
                            42.194
                        ]
                    ]
                ]
            },
            "properties": {
                "airSigmetId": null,
                "airportIcao": "KKCI",
                "airSigmetType": "SIGMET",
                "hazard": "CONVECTIVE",
                "severity": 5,
                "altitudeLow1": null,
                "altitudeLow2": null,
                "altitudeHi1": 36000,
                "altitudeHi2": 36000,
                "movementDir": 190,
                "movementSpd": 35,
                "rawAirSigmet": "WSUS31 KKCI 030755\nSIGE \nCONVECTIVE SIGMET 61E\nVALID UNTIL 0955Z\nMA AND ME MA NH CSTL WTRS\nFROM 150ENE ACK-130E ACK-20W ACK-20ESE BOS-150ENE ACK\nAREA TS MOV FROM 19035KT. TOPS TO FL360.\n\nOUTLOOK VALID 030955-031355\nAREA 1...FROM MSS-60WSW YSJ-190SE ACK-CAE-ERI-BUF-30ESE YYZ-40NW\nSYR-MSS\nWST ISSUANCES EXPD. REFER TO MOST RECENT ACUS01 KWNS FROM STORM\nPREDICTION CENTER FOR SYNOPSIS AND METEOROLOGICAL DETAILS.\n\nAREA 2...FROM 160SE SIE-180ESE ECG-130SSE ILM-60ENE PBI-120SE\nMIA-170S CEW-CEW-AMG-CAE-160SE SIE\nWST ISSUANCES EXPD. REFER TO MOST RECENT ACUS01 KWNS FROM STORM\nPREDICTION CENTER FOR SYNOPSIS AND METEOROLOGICAL DETAILS.",
                "validTimeTo": [
                    "2026-08-03T09:55"
                ]
            }
        },
        {
            "type": "Feature",
            "geometry": {
                "type": "Polygon",
                "coordinates": [
                    [
                        [
                            -77.04,
                            38.357
                        ],
                        [
                            -76.2,
                            36.89
                        ],
                        [
                            -78.569,
                            35.87
                        ],
                        [
                            -77.87,
                            38.308
                        ],
                        [
                            -77.04,
                            38.357
                        ]
                    ]
                ]
            },
            "properties": {
                "airSigmetId": null,
                "airportIcao": "KKCI",
                "airSigmetType": "SIGMET",
                "hazard": "CONVECTIVE",
                "severity": 5,
                "altitudeLow1": null,
                "altitudeLow2": null,
                "altitudeHi1": 40000,
                "altitudeHi2": 40000,
                "movementDir": 200,
                "movementSpd": 20,
                "rawAirSigmet": "WSUS31 KKCI 030755\nSIGE \nCONVECTIVE SIGMET 62E\nVALID UNTIL 0955Z\nVA NC\nFROM 30S DCA-ORF-10E RDU-20S CSN-30S DCA\nAREA TS MOV FROM 20020KT. TOPS TO FL400.\n\nOUTLOOK VALID 030955-031355\nAREA 1...FROM MSS-60WSW YSJ-190SE ACK-CAE-ERI-BUF-30ESE YYZ-40NW\nSYR-MSS\nWST ISSUANCES EXPD. REFER TO MOST RECENT ACUS01 KWNS FROM STORM\nPREDICTION CENTER FOR SYNOPSIS AND METEOROLOGICAL DETAILS.\n\nAREA 2...FROM 160SE SIE-180ESE ECG-130SSE ILM-60ENE PBI-120SE\nMIA-170S CEW-CEW-AMG-CAE-160SE SIE\nWST ISSUANCES EXPD. REFER TO MOST RECENT ACUS01 KWNS FROM STORM\nPREDICTION CENTER FOR SYNOPSIS AND METEOROLOGICAL DETAILS.",
                "validTimeTo": [
                    "2026-08-03T09:55"
                ]
            }
        },
        {
            "type": "Feature",
            "geometry": {
                "type": "Polygon",
                "coordinates": [
                    [
                        [
                            -79.029,
                            27.616
                        ],
                        [
                            -79.003,
                            25.794
                        ],
                        [
                            -82.474,
                            24.334
                        ],
                        [
                            -82.991,
                            25.032
                        ],
                        [
                            -79.029,
                            27.616
                        ]
                    ]
                ]
            },
            "properties": {
                "airSigmetId": null,
                "airportIcao": "KKCI",
                "airSigmetType": "SIGMET",
                "hazard": "CONVECTIVE",
                "severity": 5,
                "altitudeLow1": null,
                "altitudeLow2": null,
                "altitudeHi1": 34000,
                "altitudeHi2": 34000,
                "movementDir": 230,
                "movementSpd": 10,
                "rawAirSigmet": "WSUS31 KKCI 030755\nSIGE \nCONVECTIVE SIGMET 63E\nVALID UNTIL 0955Z\nFL AND CSTL WTRS\nFROM 80NE PBI-70E MIA-40WSW EYW-70WNW EYW-80NE PBI\nAREA TS MOV FROM 23010KT. TOPS TO FL340.\nREF INTL SIGMET HOTEL SERIES.\n\nOUTLOOK VALID 030955-031355\nAREA 1...FROM MSS-60WSW YSJ-190SE ACK-CAE-ERI-BUF-30ESE YYZ-40NW\nSYR-MSS\nWST ISSUANCES EXPD. REFER TO MOST RECENT ACUS01 KWNS FROM STORM\nPREDICTION CENTER FOR SYNOPSIS AND METEOROLOGICAL DETAILS.\n\nAREA 2...FROM 160SE SIE-180ESE ECG-130SSE ILM-60ENE PBI-120SE\nMIA-170S CEW-CEW-AMG-CAE-160SE SIE\nWST ISSUANCES EXPD. REFER TO MOST RECENT ACUS01 KWNS FROM STORM\nPREDICTION CENTER FOR SYNOPSIS AND METEOROLOGICAL DETAILS.",
                "validTimeTo": [
                    "2026-08-03T09:55"
                ]
            }
        }
    ],
    "metadata": {
        "creationTime": "2026-08-03T08:36"
    }
}