{
    "type": "FeatureCollection",
    "features": [
        {
            "type": "Feature",
            "geometry": {
                "type": "Polygon",
                "coordinates": [
                    [
                        [
                            -76.743,
                            32.038
                        ],
                        [
                            -76.786,
                            27.852
                        ],
                        [
                            -78.878,
                            27.122
                        ],
                        [
                            -80.613,
                            30.657
                        ],
                        [
                            -76.743,
                            32.038
                        ]
                    ]
                ]
            },
            "properties": {
                "airSigmetId": null,
                "airportIcao": "KKCI",
                "airSigmetType": "SIGMET",
                "hazard": "CONVECTIVE",
                "severity": 5,
                "altitudeLow1": null,
                "altitudeLow2": null,
                "altitudeHi1": 45000,
                "altitudeHi2": 60000,
                "movementDir": null,
                "movementSpd": null,
                "rawAirSigmet": "WSUS31 KKCI 310955\nSIGE \nCONVECTIVE SIGMET 21E\nVALID UNTIL 1155Z\nFL SC GA CSTL WTRS\nFROM 150SSE ILM-190ENE PBI-70ENE PBI-50ENE CRG-150SSE ILM\nAREA TS MOV LTL. TOPS ABV FL450.\nREF INTL SIGMET FOXTROT SERIES.\n\nOUTLOOK VALID 311155-311555\nFROM 130SSE ILM-170E PBI-140WSW SRQ-CEW-130SSE ILM\nWST ISSUANCES POSS. REFER TO MOST RECENT ACUS01 KWNS FROM STORM\nPREDICTION CENTER FOR SYNOPSIS AND METEOROLOGICAL DETAILS.",
                "validTimeTo": [
                    "2026-07-31T11:55"
                ]
            }
        },
        {
            "type": "Feature",
            "geometry": {
                "type": "Polygon",
                "coordinates": [
                    [
                        [
                            -83.05,
                            30.265
                        ],
                        [
                            -81.78,
                            27.033
                        ],
                        [
                            -83.212,
                            26.808
                        ],
                        [
                            -84.37,
                            30.228
                        ],
                        [
                            -83.05,
                            30.265
                        ]
                    ]
                ]
            },
            "properties": {
                "airSigmetId": null,
                "airportIcao": "KKCI",
                "airSigmetType": "SIGMET",
                "hazard": "CONVECTIVE",
                "severity": 5,
                "altitudeLow1": null,
                "altitudeLow2": null,
                "altitudeHi1": 37000,
                "altitudeHi2": 37000,
                "movementDir": null,
                "movementSpd": null,
                "rawAirSigmet": "WSUS31 KKCI 310955\nSIGE \nCONVECTIVE SIGMET 22E\nVALID UNTIL 1155Z\nFL AND CSTL WTRS\nFROM 40N CTY-30N RSW-50SW SRQ-20S TLH-40N CTY\nAREA TS MOV LTL. TOPS TO FL370.\n\nOUTLOOK VALID 311155-311555\nFROM 130SSE ILM-170E PBI-140WSW SRQ-CEW-130SSE ILM\nWST ISSUANCES POSS. REFER TO MOST RECENT ACUS01 KWNS FROM STORM\nPREDICTION CENTER FOR SYNOPSIS AND METEOROLOGICAL DETAILS.",
                "validTimeTo": [
                    "2026-07-31T11:55"
                ]
            }
        },
        {
            "type": "Feature",
            "geometry": {
                "type": "Polygon",
                "coordinates": [
                    [
                        [
                            -85.368,
                            31.274
                        ],
                        [
                            -84.809,
                            29.638
                        ],
                        [
                            -88.763,
                            29.173
                        ],
                        [
                            -88.36,
                            30.901
                        ],
                        [
                            -85.368,
                            31.274
                        ]
                    ]
                ]
            },
            "properties": {
                "airSigmetId": null,
                "airportIcao": "KKCI",
                "airSigmetType": "SIGMET",
                "hazard": "CONVECTIVE",
                "severity": 5,
                "altitudeLow1": null,
                "altitudeLow2": null,
                "altitudeHi1": 45000,
                "altitudeHi2": 60000,
                "movementDir": null,
                "movementSpd": null,
                "rawAirSigmet": "WSUS31 KKCI 310955\nSIGE \nCONVECTIVE SIGMET 23E\nVALID UNTIL 1155Z\nFL AL MS AND CSTL WTRS\nFROM 60WSW PZD-60SSW TLH-70E LEV-10N SJI-60WSW PZD\nAREA TS MOV LTL. TOPS ABV FL450.\n\nOUTLOOK VALID 311155-311555\nFROM 130SSE ILM-170E PBI-140WSW SRQ-CEW-130SSE ILM\nWST ISSUANCES POSS. REFER TO MOST RECENT ACUS01 KWNS FROM STORM\nPREDICTION CENTER FOR SYNOPSIS AND METEOROLOGICAL DETAILS.",
                "validTimeTo": [
                    "2026-07-31T11:55"
                ]
            }
        },
        {
            "type": "Feature",
            "geometry": {
                "type": "Polygon",
                "coordinates": [
                    [
                        [
                            -91.965,
                            42.775
                        ],
                        [
                            -91.028,
                            40.314
                        ],
                        [
                            -92.076,
                            37.353
                        ],
                        [
                            -96.451,
                            37.143
                        ],
                        [
                            -99.619,
                            39.728
                        ],
                        [
                            -91.965,
                            42.775
                        ]
                    ]
                ]
            },
            "properties": {
                "airSigmetId": null,
                "airportIcao": "KKCI",
                "airSigmetType": "SIGMET",
                "hazard": "CONVECTIVE",
                "severity": 5,
                "altitudeLow1": null,
                "altitudeLow2": null,
                "altitudeHi1": 45000,
                "altitudeHi2": 60000,
                "movementDir": 270,
                "movementSpd": 25,
                "rawAirSigmet": "WSUS32 KKCI 310955\nSIGC \nCONVECTIVE SIGMET 55C\nVALID UNTIL 1155Z\nIL MO IA KS NE\nFROM 60WNW DBQ-30NNE UIN-60E SGF-60W OSW-40NE HLC-60WNW DBQ\nAREA EMBD TS MOV FROM 27025KT. TOPS ABV FL450.\n\nOUTLOOK VALID 311155-311555\nFROM 70SW YQT-BDF-ARG-AMA-70ENE BIS-70SW YQT\nWST ISSUANCES EXPD. REFER TO MOST RECENT ACUS01 KWNS FROM STORM\nPREDICTION CENTER FOR SYNOPSIS AND METEOROLOGICAL DETAILS.",
                "validTimeTo": [
                    "2026-07-31T11:55"
                ]
            }
        },
        {
            "type": "Feature",
            "geometry": {
                "type": "Polygon",
                "coordinates": [
                    [
                        [
                            -92.683,
                            45.8
                        ],
                        [
                            -92.681,
                            43.558
                        ],
                        [
                            -96.085,
                            43.648
                        ],
                        [
                            -95.768,
                            45.547
                        ],
                        [
                            -92.683,
                            45.8
                        ]
                    ]
                ]
            },
            "properties": {
                "airSigmetId": null,
                "airportIcao": "KKCI",
                "airSigmetType": "SIGMET",
                "hazard": "CONVECTIVE",
                "severity": 5,
                "altitudeLow1": null,
                "altitudeLow2": null,
                "altitudeHi1": 40000,
                "altitudeHi2": 40000,
                "movementDir": 210,
                "movementSpd": 15,
                "rawAirSigmet": "WSUS32 KKCI 310955\nSIGC \nCONVECTIVE SIGMET 56C\nVALID UNTIL 1155Z\nWI MN\nFROM 60NNE MSP-40NE MCW-30E FSD-70NNW RWF-60NNE MSP\nAREA EMBD TS MOV FROM 21015KT. TOPS TO FL400.\n\nOUTLOOK VALID 311155-311555\nFROM 70SW YQT-BDF-ARG-AMA-70ENE BIS-70SW YQT\nWST ISSUANCES EXPD. REFER TO MOST RECENT ACUS01 KWNS FROM STORM\nPREDICTION CENTER FOR SYNOPSIS AND METEOROLOGICAL DETAILS.",
                "validTimeTo": [
                    "2026-07-31T11:55"
                ]
            }
        },
        {
            "type": "Feature",
            "geometry": {
                "type": "Polygon",
                "coordinates": [
                    [
                        [
                            -103.474,
                            38.452
                        ],
                        [
                            -99.013,
                            35.632
                        ],
                        [
                            -100.737,
                            33.448
                        ],
                        [
                            -105.191,
                            32.197
                        ],
                        [
                            -105.981,
                            37.657
                        ],
                        [
                            -103.474,
                            38.452
                        ]
                    ]
                ]
            },
            "properties": {
                "airSigmetId": null,
                "airportIcao": "KKCI",
                "airSigmetType": "SIGMET",
                "hazard": "CONVECTIVE",
                "severity": 5,
                "altitudeLow1": null,
                "altitudeLow2": null,
                "altitudeHi1": 45000,
                "altitudeHi2": 60000,
                "movementDir": 290,
                "movementSpd": 15,
                "rawAirSigmet": "WSUS32 KKCI 310955\nSIGC \nCONVECTIVE SIGMET 57C\nVALID UNTIL 1155Z\nTX OK KS CO NM\nFROM 40WNW LAA-60SE MMB-60SSW CDS-60ENE ELP-20NNW ALS-40WNW LAA\nAREA TS MOV FROM 29015KT. TOPS ABV FL450.\n\nOUTLOOK VALID 311155-311555\nFROM 70SW YQT-BDF-ARG-AMA-70ENE BIS-70SW YQT\nWST ISSUANCES EXPD. REFER TO MOST RECENT ACUS01 KWNS FROM STORM\nPREDICTION CENTER FOR SYNOPSIS AND METEOROLOGICAL DETAILS.",
                "validTimeTo": [
                    "2026-07-31T11:55"
                ]
            }
        },
        {
            "type": "Feature",
            "geometry": {
                "type": "Polygon",
                "coordinates": [
                    [
                        [
                            -98.56,
                            38.066
                        ],
                        [
                            -95.632,
                            36.507
                        ],
                        [
                            -97.61,
                            35.36
                        ],
                        [
                            -99.88,
                            37.005
                        ],
                        [
                            -98.56,
                            38.066
                        ]
                    ]
                ]
            },
            "properties": {
                "airSigmetId": null,
                "airportIcao": "KKCI",
                "airSigmetType": "SIGMET",
                "hazard": "CONVECTIVE",
                "severity": 5,
                "altitudeLow1": null,
                "altitudeLow2": null,
                "altitudeHi1": 41000,
                "altitudeHi2": 41000,
                "movementDir": 290,
                "movementSpd": 15,
                "rawAirSigmet": "WSUS32 KKCI 310955\nSIGC \nCONVECTIVE SIGMET 58C\nVALID UNTIL 1155Z\nOK KS\nFROM 50WNW ICT-20NNE TUL-OKC-40N MMB-50WNW ICT\nAREA TS MOV FROM 29015KT. TOPS TO FL410.\n\nOUTLOOK VALID 311155-311555\nFROM 70SW YQT-BDF-ARG-AMA-70ENE BIS-70SW YQT\nWST ISSUANCES EXPD. REFER TO MOST RECENT ACUS01 KWNS FROM STORM\nPREDICTION CENTER FOR SYNOPSIS AND METEOROLOGICAL DETAILS.",
                "validTimeTo": [
                    "2026-07-31T11:55"
                ]
            }
        },
        {
            "type": "Feature",
            "geometry": {
                "type": "Polygon",
                "coordinates": [
                    [
                        [
                            -105.557,
                            48.92
                        ],
                        [
                            -107.24,
                            45.147
                        ],
                        [
                            -110.165,
                            45.353
                        ],
                        [
                            -109.77,
                            48.872
                        ],
                        [
                            -105.557,
                            48.92
                        ]
                    ]
                ]
            },
            "properties": {
                "airSigmetId": null,
                "airportIcao": "KKCI",
                "airSigmetType": "SIGMET",
                "hazard": "CONVECTIVE",
                "severity": 5,
                "altitudeLow1": null,
                "altitudeLow2": null,
                "altitudeHi1": 41000,
                "altitudeHi2": 41000,
                "movementDir": 280,
                "movementSpd": 15,
                "rawAirSigmet": "WSUS33 KKCI 310955\nSIGW \nCONVECTIVE SIGMET 28W\nVALID UNTIL 1155Z\nMT\nFROM 60NE GGW-20NNW SHR-70WSW BIL-20N HVR-60NE GGW\nAREA TS MOV FROM 28015KT. TOPS TO FL410.\n\nOUTLOOK VALID 311155-311555\nTS ARE NOT EXPD TO REQUIRE WST ISSUANCES.",
                "validTimeTo": [
                    "2026-07-31T11:55"
                ]
            }
        },
        {
            "type": "Feature",
            "geometry": {
                "type": "Polygon",
                "coordinates": [
                    [
                        [
                            -106.9,
                            34.882
                        ],
                        [
                            -106.173,
                            33.657
                        ],
                        [
                            -108.701,
                            32.739
                        ],
                        [
                            -109.14,
                            33.755
                        ],
                        [
                            -106.9,
                            34.882
                        ]
                    ]
                ]
            },
            "properties": {
                "airSigmetId": null,
                "airportIcao": "KKCI",
                "airSigmetType": "SIGMET",
                "hazard": "CONVECTIVE",
                "severity": 5,
                "altitudeLow1": null,
                "altitudeLow2": null,
                "altitudeHi1": 39000,
                "altitudeHi2": 39000,
                "movementDir": null,
                "movementSpd": null,
                "rawAirSigmet": "WSUS33 KKCI 310955\nSIGW \nCONVECTIVE SIGMET 29W\nVALID UNTIL 1155Z\nNM AZ\nFROM 10SSW ABQ-60ENE TCS-40NE SSO-40S SJN-10SSW ABQ\nAREA TS MOV LTL. TOPS TO FL390.\n\nOUTLOOK VALID 311155-311555\nTS ARE NOT EXPD TO REQUIRE WST ISSUANCES.",
                "validTimeTo": [
                    "2026-07-31T11:55"
                ]
            }
        }
    ],
    "metadata": {
        "creationTime": "2026-07-31T10:48"
    }
}