{
    "type": "FeatureCollection",
    "features": [
        {
            "type": "Feature",
            "geometry": {
                "type": "Polygon",
                "coordinates": [
                    [
                        [
                            -75.8,
                            36.122
                        ],
                        [
                            -73.76,
                            34.225
                        ],
                        [
                            -76.049,
                            32.806
                        ],
                        [
                            -77.479,
                            35.121
                        ],
                        [
                            -75.8,
                            36.122
                        ]
                    ]
                ]
            },
            "properties": {
                "airSigmetId": null,
                "airportIcao": "KKCI",
                "airSigmetType": "SIGMET",
                "hazard": "CONVECTIVE",
                "severity": 5,
                "altitudeLow1": null,
                "altitudeLow2": null,
                "altitudeHi1": 45000,
                "altitudeHi2": 60000,
                "movementDir": 270,
                "movementSpd": 20,
                "rawAirSigmet": "WSUS31 KKCI 152255\nSIGE \nCONVECTIVE SIGMET 15E\nVALID UNTIL 0055Z\nNC AND CSTL WTRS\nFROM 20ESE ECG-170SE ECG-130SE ILM-50NNE ILM-20ESE ECG\nAREA TS MOV FROM 27020KT. TOPS ABV FL450.\nREFER INTL SIGMET KILO SERIES.\n\nOUTLOOK VALID 160055-160455\nTS ARE NOT EXPD TO REQUIRE WST ISSUANCES.",
                "validTimeTo": [
                    "2026-08-16T00:55"
                ]
            }
        },
        {
            "type": "Feature",
            "geometry": {
                "type": "Polygon",
                "coordinates": [
                    [
                        [
                            -81.494,
                            27.144
                        ],
                        [
                            -80.3,
                            25.468
                        ],
                        [
                            -81.94,
                            24.897
                        ],
                        [
                            -82.908,
                            26.628
                        ],
                        [
                            -81.494,
                            27.144
                        ]
                    ]
                ]
            },
            "properties": {
                "airSigmetId": null,
                "airportIcao": "KKCI",
                "airSigmetType": "SIGMET",
                "hazard": "CONVECTIVE",
                "severity": 5,
                "altitudeLow1": null,
                "altitudeLow2": null,
                "altitudeHi1": 45000,
                "altitudeHi2": 60000,
                "movementDir": null,
                "movementSpd": null,
                "rawAirSigmet": "WSUS31 KKCI 152255\nSIGE \nCONVECTIVE SIGMET 16E\nVALID UNTIL 0055Z\nFL AND CSTL WTRS\nFROM 40NNE RSW-20S MIA-20NNW EYW-50SSW SRQ-40NNE RSW\nAREA TS MOV LTL. TOPS ABV FL450.\n\nOUTLOOK VALID 160055-160455\nTS ARE NOT EXPD TO REQUIRE WST ISSUANCES.",
                "validTimeTo": [
                    "2026-08-16T00:55"
                ]
            }
        },
        {
            "type": "Feature",
            "geometry": {
                "type": "Polygon",
                "coordinates": [
                    [
                        [
                            -85.467,
                            39.608
                        ],
                        [
                            -82.359,
                            39.364
                        ],
                        [
                            -78.645,
                            37.441
                        ],
                        [
                            -78.932,
                            31.945
                        ],
                        [
                            -85.368,
                            31.274
                        ],
                        [
                            -85.467,
                            39.608
                        ]
                    ]
                ]
            },
            "properties": {
                "airSigmetId": null,
                "airportIcao": "KKCI",
                "airSigmetType": "SIGMET",
                "hazard": "CONVECTIVE",
                "severity": 5,
                "altitudeLow1": null,
                "altitudeLow2": null,
                "altitudeHi1": 45000,
                "altitudeHi2": 60000,
                "movementDir": 350,
                "movementSpd": 15,
                "rawAirSigmet": "WSUS31 KKCI 152255\nSIGE \nCONVECTIVE SIGMET 17E\nVALID UNTIL 0055Z\nVA NC WV SC OH GA TN KY IN AL AND SC GA CSTL WTRS\nFROM 50NW CVG-40NNW HNN-30ENE LYH-80SE CHS-60WSW PZD-50NW CVG\nAREA TS MOV FROM 35015KT. TOPS ABV FL450.\n\nOUTLOOK VALID 160055-160455\nTS ARE NOT EXPD TO REQUIRE WST ISSUANCES.",
                "validTimeTo": [
                    "2026-08-16T00:55"
                ]
            }
        },
        {
            "type": "Feature",
            "geometry": {
                "type": "Polygon",
                "coordinates": [
                    [
                        [
                            -85.354,
                            32.929
                        ],
                        [
                            -85.436,
                            30.174
                        ],
                        [
                            -89.728,
                            30.085
                        ],
                        [
                            -89.671,
                            31.299
                        ],
                        [
                            -87.023,
                            32.809
                        ],
                        [
                            -85.354,
                            32.929
                        ]
                    ]
                ]
            },
            "properties": {
                "airSigmetId": null,
                "airportIcao": "KKCI",
                "airSigmetType": "SIGMET",
                "hazard": "CONVECTIVE",
                "severity": 5,
                "altitudeLow1": null,
                "altitudeLow2": null,
                "altitudeHi1": 45000,
                "altitudeHi2": 60000,
                "movementDir": 310,
                "movementSpd": 15,
                "rawAirSigmet": "WSUS31 KKCI 152255\nSIGE \nCONVECTIVE SIGMET 18E\nVALID UNTIL 0055Z\nFL AL MS LA AND CSTL WTRS\nFROM 10SW LGC-60WSW TLH-20NE HRV-30E MCB-50NW MGM-10SW LGC\nAREA TS MOV FROM 31015KT. TOPS ABV FL450.\n\nOUTLOOK VALID 160055-160455\nTS ARE NOT EXPD TO REQUIRE WST ISSUANCES.",
                "validTimeTo": [
                    "2026-08-16T00:55"
                ]
            }
        },
        {
            "type": "Feature",
            "geometry": {
                "type": "Polygon",
                "coordinates": [
                    [
                        [
                            -94.093,
                            44.622
                        ],
                        [
                            -92.681,
                            43.558
                        ],
                        [
                            -95.74,
                            41.835
                        ],
                        [
                            -96.344,
                            42.877
                        ],
                        [
                            -94.093,
                            44.622
                        ]
                    ]
                ]
            },
            "properties": {
                "airSigmetId": null,
                "airportIcao": "KKCI",
                "airSigmetType": "SIGMET",
                "hazard": "CONVECTIVE",
                "severity": 5,
                "altitudeLow1": null,
                "altitudeLow2": null,
                "altitudeHi1": 36000,
                "altitudeHi2": 36000,
                "movementDir": 250,
                "movementSpd": 20,
                "rawAirSigmet": "WSUS32 KKCI 152255\nSIGC \nCONVECTIVE SIGMET 28C\nVALID UNTIL 0055Z\nMN IA\nFROM 40WSW MSP-40NE MCW-40N OVR-50SSE FSD-40WSW MSP\nAREA TS MOV FROM 25020KT. TOPS TO FL360.\n\nOUTLOOK VALID 160055-160455\nTS ARE NOT EXPD TO REQUIRE WST ISSUANCES.",
                "validTimeTo": [
                    "2026-08-16T00:55"
                ]
            }
        },
        {
            "type": "Feature",
            "geometry": {
                "type": "Polygon",
                "coordinates": [
                    [
                        [
                            -115.78,
                            48.935
                        ],
                        [
                            -110.06,
                            46.922
                        ],
                        [
                            -106.407,
                            44.646
                        ],
                        [
                            -110.876,
                            40.845
                        ],
                        [
                            -119.275,
                            45.464
                        ],
                        [
                            -115.78,
                            48.935
                        ]
                    ]
                ]
            },
            "properties": {
                "airSigmetId": null,
                "airportIcao": "KKCI",
                "airSigmetType": "SIGMET",
                "hazard": "CONVECTIVE",
                "severity": 5,
                "altitudeLow1": null,
                "altitudeLow2": null,
                "altitudeHi1": 44000,
                "altitudeHi2": 44000,
                "movementDir": 210,
                "movementSpd": 20,
                "rawAirSigmet": "WSUS33 KKCI 152255\nSIGW \nCONVECTIVE SIGMET 14W\nVALID UNTIL 0055Z\nMT WY UT ID OR WA\nFROM 40S YXC-20WSW LWT-30ESE SHR-50E SLC-20SW PDT-40S YXC\nAREA TS MOV FROM 21020KT. TOPS TO FL440.\n\nOUTLOOK VALID 160055-160455\nTS ARE NOT EXPD TO REQUIRE WST ISSUANCES.",
                "validTimeTo": [
                    "2026-08-16T00:55"
                ]
            }
        },
        {
            "type": "Feature",
            "geometry": {
                "type": "Polygon",
                "coordinates": [
                    [
                        [
                            -118.68,
                            45.091
                        ],
                        [
                            -112.899,
                            42.199
                        ],
                        [
                            -115.35,
                            40.22
                        ],
                        [
                            -120.162,
                            43.104
                        ],
                        [
                            -118.68,
                            45.091
                        ]
                    ]
                ]
            },
            "properties": {
                "airSigmetId": null,
                "airportIcao": "KKCI",
                "airSigmetType": "SIGMET",
                "hazard": "CONVECTIVE",
                "severity": 5,
                "altitudeLow1": null,
                "altitudeLow2": null,
                "altitudeHi1": 40000,
                "altitudeHi2": 40000,
                "movementDir": 210,
                "movementSpd": 20,
                "rawAirSigmet": "WSUS33 KKCI 152255\nSIGW \nCONVECTIVE SIGMET 15W\nVALID UNTIL 0055Z\nUT ID NV OR\nFROM 40WNW BKE-20W MLD-60NNW ELY-40NNE LKV-40WNW BKE\nAREA TS MOV FROM 21020KT. TOPS TO FL400.\n\nOUTLOOK VALID 160055-160455\nTS ARE NOT EXPD TO REQUIRE WST ISSUANCES.",
                "validTimeTo": [
                    "2026-08-16T00:55"
                ]
            }
        },
        {
            "type": "Feature",
            "geometry": {
                "type": "Polygon",
                "coordinates": [
                    [
                        [
                            -113.271,
                            37.366
                        ],
                        [
                            -111.27,
                            35.949
                        ],
                        [
                            -112.325,
                            35.007
                        ],
                        [
                            -113.54,
                            35.449
                        ],
                        [
                            -114.338,
                            36.077
                        ],
                        [
                            -113.271,
                            37.366
                        ]
                    ]
                ]
            },
            "properties": {
                "airSigmetId": null,
                "airportIcao": "KKCI",
                "airSigmetType": "SIGMET",
                "hazard": "CONVECTIVE",
                "severity": 5,
                "altitudeLow1": null,
                "altitudeLow2": null,
                "altitudeHi1": 32000,
                "altitudeHi2": 32000,
                "movementDir": null,
                "movementSpd": null,
                "rawAirSigmet": "WSUS33 KKCI 152255\nSIGW \nCONVECTIVE SIGMET 16W\nVALID UNTIL 0055Z\nAZ UT NV\nFROM 50WSW BCE-10S TBC-20NNE DRK-10S PGS-40E LAS-50WSW BCE\nAREA TS MOV LTL. TOPS TO FL320.\n\nOUTLOOK VALID 160055-160455\nTS ARE NOT EXPD TO REQUIRE WST ISSUANCES.",
                "validTimeTo": [
                    "2026-08-16T00:55"
                ]
            }
        },
        {
            "type": "Feature",
            "geometry": {
                "type": "Polygon",
                "coordinates": [
                    [
                        [
                            -105.185,
                            44.825
                        ],
                        [
                            -101.628,
                            44.922
                        ],
                        [
                            -101.444,
                            42.114
                        ],
                        [
                            -104.438,
                            42.591
                        ],
                        [
                            -106.44,
                            44.503
                        ],
                        [
                            -105.185,
                            44.825
                        ]
                    ]
                ]
            },
            "properties": {
                "airSigmetId": null,
                "airportIcao": "KKCI",
                "airSigmetType": "SIGMET",
                "hazard": "CONVECTIVE",
                "severity": 5,
                "altitudeLow1": null,
                "altitudeLow2": null,
                "altitudeHi1": 37000,
                "altitudeHi2": 37000,
                "movementDir": 260,
                "movementSpd": 20,
                "rawAirSigmet": "WSUS32 KKCI 152255\nSIGC \nCONVECTIVE SIGMET 29C\nVALID UNTIL 0055Z\nNE SD MT WY\nFROM 80E SHR-10SSE DPR-70WSW ANW-60NW BFF-30N CZI-80E SHR\nAREA TS MOV FROM 26020KT. TOPS TO FL370.\n\nOUTLOOK VALID 160055-160455\nTS ARE NOT EXPD TO REQUIRE WST ISSUANCES.",
                "validTimeTo": [
                    "2026-08-16T00:55"
                ]
            }
        },
        {
            "type": "Feature",
            "geometry": {
                "type": "Polygon",
                "coordinates": [
                    [
                        [
                            -96.833,
                            38.673
                        ],
                        [
                            -96.528,
                            36.788
                        ],
                        [
                            -99.255,
                            36.338
                        ],
                        [
                            -102.369,
                            35.879
                        ],
                        [
                            -102.392,
                            37.965
                        ],
                        [
                            -96.833,
                            38.673
                        ]
                    ]
                ]
            },
            "properties": {
                "airSigmetId": null,
                "airportIcao": "KKCI",
                "airSigmetType": "SIGMET",
                "hazard": "CONVECTIVE",
                "severity": 5,
                "altitudeLow1": null,
                "altitudeLow2": null,
                "altitudeHi1": 45000,
                "altitudeHi2": 60000,
                "movementDir": 160,
                "movementSpd": 15,
                "rawAirSigmet": "WSUS32 KKCI 152255\nSIGC \nCONVECTIVE SIGMET 30C\nVALID UNTIL 0055Z\nTX OK KS CO\nFROM 40ESE SLN-50NW TUL-30E MMB-50NW AMA-20SE LAA-40ESE SLN\nAREA TS MOV FROM 16015KT. TOPS ABV FL450.\n\nOUTLOOK VALID 160055-160455\nTS ARE NOT EXPD TO REQUIRE WST ISSUANCES.",
                "validTimeTo": [
                    "2026-08-16T00:55"
                ]
            }
        },
        {
            "type": "Feature",
            "geometry": {
                "type": "Polygon",
                "coordinates": [
                    [
                        [
                            -94.662,
                            48.563
                        ],
                        [
                            -92.898,
                            48.569
                        ],
                        [
                            -91.534,
                            47.877
                        ],
                        [
                            -92.66,
                            46.027
                        ],
                        [
                            -95.142,
                            46.025
                        ],
                        [
                            -94.662,
                            48.563
                        ]
                    ]
                ]
            },
            "properties": {
                "airSigmetId": null,
                "airportIcao": "KKCI",
                "airSigmetType": "SIGMET",
                "hazard": "CONVECTIVE",
                "severity": 5,
                "altitudeLow1": null,
                "altitudeLow2": null,
                "altitudeHi1": 43000,
                "altitudeHi2": 43000,
                "movementDir": 290,
                "movementSpd": 30,
                "rawAirSigmet": "WSUS32 KKCI 152255\nSIGC \nCONVECTIVE SIGMET 31C\nVALID UNTIL 0055Z\nWI MN LS\nFROM 50W INL-20E INL-70NNE DLH-50SSW DLH-50WSW BRD-50W INL\nAREA TS MOV FROM 29030KT. TOPS TO FL430.\n\nOUTLOOK VALID 160055-160455\nTS ARE NOT EXPD TO REQUIRE WST ISSUANCES.",
                "validTimeTo": [
                    "2026-08-16T00:55"
                ]
            }
        },
        {
            "type": "Feature",
            "geometry": {
                "type": "Polygon",
                "coordinates": [
                    [
                        [
                            -103.18,
                            30.298
                        ],
                        [
                            -102.465,
                            29.87
                        ],
                        [
                            -103.294,
                            28.912
                        ],
                        [
                            -103.95,
                            29.303
                        ],
                        [
                            -104.317,
                            29.528
                        ],
                        [
                            -103.18,
                            30.298
                        ]
                    ]
                ]
            },
            "properties": {
                "airSigmetId": null,
                "airportIcao": "KKCI",
                "airSigmetType": "SIGMET",
                "hazard": "CONVECTIVE",
                "severity": 5,
                "altitudeLow1": null,
                "altitudeLow2": null,
                "altitudeHi1": 40000,
                "altitudeHi2": 40000,
                "movementDir": 90,
                "movementSpd": 10,
                "rawAirSigmet": "WSUS32 KKCI 152255\nSIGC \nCONVECTIVE SIGMET 32C\nVALID UNTIL 0055Z\nTX\nFROM 40E MRF-70SSE FST-90SSE MRF-60S MRF-50SSW MRF-40E MRF\nAREA TS MOV FROM 09010KT. TOPS TO FL400.\n\nOUTLOOK VALID 160055-160455\nTS ARE NOT EXPD TO REQUIRE WST ISSUANCES.",
                "validTimeTo": [
                    "2026-08-16T00:55"
                ]
            }
        },
        {
            "type": "Feature",
            "geometry": {
                "type": "Polygon",
                "coordinates": [
                    [
                        [
                            -95.74,
                            41.673
                        ],
                        [
                            -94.138,
                            39.481
                        ],
                        [
                            -96.125,
                            38.835
                        ],
                        [
                            -97.879,
                            41.023
                        ],
                        [
                            -95.74,
                            41.673
                        ]
                    ]
                ]
            },
            "properties": {
                "airSigmetId": null,
                "airportIcao": "KKCI",
                "airSigmetType": "SIGMET",
                "hazard": "CONVECTIVE",
                "severity": 5,
                "altitudeLow1": null,
                "altitudeLow2": null,
                "altitudeHi1": 45000,
                "altitudeHi2": 45000,
                "movementDir": 290,
                "movementSpd": 10,
                "rawAirSigmet": "WSUS32 KKCI 152255\nSIGC \nCONVECTIVE SIGMET 33C\nVALID UNTIL 0055Z\nMO IA KS NE\nFROM 30N OVR-30ENE MCI-70WSW MCI-30SE OBH-30N OVR\nAREA TS MOV FROM 29010KT. TOPS TO FL450.\n\nOUTLOOK VALID 160055-160455\nTS ARE NOT EXPD TO REQUIRE WST ISSUANCES.",
                "validTimeTo": [
                    "2026-08-16T00:55"
                ]
            }
        },
        {
            "type": "Feature",
            "geometry": {
                "type": "Polygon",
                "coordinates": [
                    [
                        [
                            -106.407,
                            44.646
                        ],
                        [
                            -104.438,
                            42.591
                        ],
                        [
                            -109.524,
                            39.956
                        ],
                        [
                            -110.876,
                            40.845
                        ],
                        [
                            -106.407,
                            44.646
                        ]
                    ]
                ]
            },
            "properties": {
                "airSigmetId": null,
                "airportIcao": "KKCI",
                "airSigmetType": "SIGMET",
                "hazard": "CONVECTIVE",
                "severity": 5,
                "altitudeLow1": null,
                "altitudeLow2": null,
                "altitudeHi1": 41000,
                "altitudeHi2": 41000,
                "movementDir": 210,
                "movementSpd": 20,
                "rawAirSigmet": "WSUS33 KKCI 152255\nSIGW \nCONVECTIVE SIGMET 17W\nVALID UNTIL 0055Z\nCO WY UT\nFROM 30ESE SHR-60NW BFF-30ESE MTU-50E SLC-30ESE SHR\nAREA TS MOV FROM 21020KT. TOPS TO FL410.\n\nOUTLOOK VALID 160055-160455\nTS ARE NOT EXPD TO REQUIRE WST ISSUANCES.",
                "validTimeTo": [
                    "2026-08-16T00:55"
                ]
            }
        },
        {
            "type": "Feature",
            "geometry": {
                "type": "Polygon",
                "coordinates": [
                    [
                        [
                            -115.395,
                            37.239
                        ],
                        [
                            -114.015,
                            36.54
                        ],
                        [
                            -115.22,
                            35.022
                        ],
                        [
                            -116.75,
                            36.135
                        ],
                        [
                            -115.395,
                            37.239
                        ]
                    ]
                ]
            },
            "properties": {
                "airSigmetId": null,
                "airportIcao": "KKCI",
                "airSigmetType": "SIGMET",
                "hazard": "CONVECTIVE",
                "severity": 5,
                "altitudeLow1": null,
                "altitudeLow2": null,
                "altitudeHi1": 43000,
                "altitudeHi2": 43000,
                "movementDir": null,
                "movementSpd": null,
                "rawAirSigmet": "WSUS33 KKCI 152255\nSIGW \nCONVECTIVE SIGMET 18W\nVALID UNTIL 0055Z\nAZ NV CA\nFROM 70ENE BTY-60NNW PGS-40WNW EED-40S BTY-70ENE BTY\nAREA TS MOV LTL. TOPS TO FL430.\n\nOUTLOOK VALID 160055-160455\nTS ARE NOT EXPD TO REQUIRE WST ISSUANCES.",
                "validTimeTo": [
                    "2026-08-16T00:55"
                ]
            }
        },
        {
            "type": "Feature",
            "geometry": {
                "type": "Polygon",
                "coordinates": [
                    [
                        [
                            -113.76,
                            40.398
                        ],
                        [
                            -112.053,
                            38.943
                        ],
                        [
                            -114.39,
                            37.082
                        ],
                        [
                            -116.049,
                            38.354
                        ],
                        [
                            -113.76,
                            40.398
                        ]
                    ]
                ]
            },
            "properties": {
                "airSigmetId": null,
                "airportIcao": "KKCI",
                "airSigmetType": "SIGMET",
                "hazard": "CONVECTIVE",
                "severity": 5,
                "altitudeLow1": null,
                "altitudeLow2": null,
                "altitudeHi1": 37000,
                "altitudeHi2": 37000,
                "movementDir": 230,
                "movementSpd": 10,
                "rawAirSigmet": "WSUS33 KKCI 152255\nSIGW \nCONVECTIVE SIGMET 19W\nVALID UNTIL 0055Z\nUT NV\nFROM 20S BVL-30SE DTA-70S ILC-80SW ELY-20S BVL\nAREA TS MOV FROM 23010KT. TOPS TO FL370.\n\nOUTLOOK VALID 160055-160455\nTS ARE NOT EXPD TO REQUIRE WST ISSUANCES.",
                "validTimeTo": [
                    "2026-08-16T00:55"
                ]
            }
        },
        {
            "type": "Feature",
            "geometry": {
                "type": "Polygon",
                "coordinates": [
                    [
                        [
                            -104.438,
                            42.591
                        ],
                        [
                            -102.021,
                            42.328
                        ],
                        [
                            -102.598,
                            31.664
                        ],
                        [
                            -107.827,
                            31.815
                        ],
                        [
                            -108.121,
                            40.772
                        ],
                        [
                            -104.438,
                            42.591
                        ]
                    ]
                ]
            },
            "properties": {
                "airSigmetId": null,
                "airportIcao": "KKCI",
                "airSigmetType": "SIGMET",
                "hazard": "CONVECTIVE",
                "severity": 5,
                "altitudeLow1": null,
                "altitudeLow2": null,
                "altitudeHi1": 45000,
                "altitudeHi2": 60000,
                "movementDir": 270,
                "movementSpd": 15,
                "rawAirSigmet": "WSUS33 KKCI 152255\nSIGW \nCONVECTIVE SIGMET 20W\nVALID UNTIL 0055Z\nTX OK NE CO NM WY\nFROM 60NW BFF-70ENE BFF-30SW MAF-30SSW DMN-40WNW CHE-60NW BFF\nAREA SEV TS MOV FROM 27015KT. TOPS ABV FL450.\nHAIL TO 1.5 IN...WIND GUSTS TO 60KT POSS.\n\nOUTLOOK VALID 160055-160455\nTS ARE NOT EXPD TO REQUIRE WST ISSUANCES.",
                "validTimeTo": [
                    "2026-08-16T00:55"
                ]
            }
        },
        {
            "type": "Feature",
            "geometry": {
                "type": "Polygon",
                "coordinates": [
                    [
                        [
                            -103.601,
                            31.742
                        ],
                        [
                            -103.413,
                            30.106
                        ],
                        [
                            -104.317,
                            29.528
                        ],
                        [
                            -105.021,
                            30.677
                        ],
                        [
                            -106.465,
                            31.755
                        ],
                        [
                            -103.601,
                            31.742
                        ]
                    ]
                ]
            },
            "properties": {
                "airSigmetId": null,
                "airportIcao": "KKCI",
                "airSigmetType": "SIGMET",
                "hazard": "CONVECTIVE",
                "severity": 5,
                "altitudeLow1": null,
                "altitudeLow2": null,
                "altitudeHi1": 45000,
                "altitudeHi2": 60000,
                "movementDir": null,
                "movementSpd": null,
                "rawAirSigmet": "WSUS33 KKCI 152255\nSIGW \nCONVECTIVE SIGMET 21W\nVALID UNTIL 0055Z\nTX\nFROM 20WSW INK-30ESE MRF-50SSW MRF-60WNW MRF-10WSW ELP-20WSW INK\nAREA TS MOV LTL. TOPS ABV FL450.\n\nOUTLOOK VALID 160055-160455\nTS ARE NOT EXPD TO REQUIRE WST ISSUANCES.",
                "validTimeTo": [
                    "2026-08-16T00:55"
                ]
            }
        },
        {
            "type": "Feature",
            "geometry": {
                "type": "Polygon",
                "coordinates": [
                    [
                        [
                            -116.772,
                            35.414
                        ],
                        [
                            -114.47,
                            33.935
                        ],
                        [
                            -115.162,
                            33.239
                        ],
                        [
                            -117.477,
                            34.796
                        ],
                        [
                            -116.772,
                            35.414
                        ]
                    ]
                ]
            },
            "properties": {
                "airSigmetId": null,
                "airportIcao": "KKCI",
                "airSigmetType": "SIGMET",
                "hazard": "CONVECTIVE",
                "severity": 5,
                "altitudeLow1": null,
                "altitudeLow2": null,
                "altitudeHi1": 45000,
                "altitudeHi2": 45000,
                "movementDir": null,
                "movementSpd": null,
                "rawAirSigmet": "WSUS33 KKCI 152255\nSIGW \nCONVECTIVE SIGMET 22W\nVALID UNTIL 0055Z\nCA\nFROM 40NNW HEC-50S EED-40NW BZA-50W HEC-40NNW HEC\nAREA TS MOV LTL. TOPS TO FL450.\n\nOUTLOOK VALID 160055-160455\nTS ARE NOT EXPD TO REQUIRE WST ISSUANCES.",
                "validTimeTo": [
                    "2026-08-16T00:55"
                ]
            }
        },
        {
            "type": "Feature",
            "geometry": {
                "type": "Polygon",
                "coordinates": [
                    [
                        [
                            -113.021,
                            33.426
                        ],
                        [
                            -110.362,
                            32.569
                        ],
                        [
                            -110.92,
                            31.265
                        ],
                        [
                            -113.768,
                            32.062
                        ],
                        [
                            -113.021,
                            33.426
                        ]
                    ]
                ]
            },
            "properties": {
                "airSigmetId": null,
                "airportIcao": "KKCI",
                "airSigmetType": "SIGMET",
                "hazard": "CONVECTIVE",
                "severity": 5,
                "altitudeLow1": null,
                "altitudeLow2": null,
                "altitudeHi1": 37000,
                "altitudeHi2": 37000,
                "movementDir": 220,
                "movementSpd": 15,
                "rawAirSigmet": "WSUS33 KKCI 152255\nSIGW \nCONVECTIVE SIGMET 23W\nVALID UNTIL 0055Z\nAZ\nFROM 50W PHX-40NE TUS-50S TUS-60SE BZA-50W PHX\nAREA TS MOV FROM 22015KT. TOPS TO FL370.\n\nOUTLOOK VALID 160055-160455\nTS ARE NOT EXPD TO REQUIRE WST ISSUANCES.",
                "validTimeTo": [
                    "2026-08-16T00:55"
                ]
            }
        },
        {
            "type": "Feature",
            "geometry": {
                "type": "Polygon",
                "coordinates": [
                    [
                        [
                            -90.722,
                            41.517
                        ],
                        [
                            -90.673,
                            40.041
                        ],
                        [
                            -93.46,
                            40.137
                        ],
                        [
                            -93.489,
                            41.561
                        ],
                        [
                            -90.722,
                            41.517
                        ]
                    ]
                ]
            },
            "properties": {
                "airSigmetId": null,
                "airportIcao": "KKCI",
                "airSigmetType": "SIGMET",
                "hazard": "CONVECTIVE",
                "severity": 5,
                "altitudeLow1": null,
                "altitudeLow2": null,
                "altitudeHi1": 45000,
                "altitudeHi2": 60000,
                "movementDir": 290,
                "movementSpd": 15,
                "rawAirSigmet": "WSUS32 KKCI 152255\nSIGC \nCONVECTIVE SIGMET 34C\nVALID UNTIL 0055Z\nIL MO IA\nFROM 40E IOW-30ENE UIN-40W IRK-10NE DSM-40E IOW\nAREA TS MOV FROM 29015KT. TOPS ABV FL450.\n\nOUTLOOK VALID 160055-160455\nTS ARE NOT EXPD TO REQUIRE WST ISSUANCES.",
                "validTimeTo": [
                    "2026-08-16T00:55"
                ]
            }
        }
    ],
    "metadata": {
        "creationTime": "2026-08-15T23:26"
    }
}