{
    "type": "FeatureCollection",
    "features": [
        {
            "type": "Feature",
            "geometry": {
                "type": "Polygon",
                "coordinates": [
                    [
                        [
                            -98.511,
                            41.501
                        ],
                        [
                            -95.91,
                            41.477
                        ],
                        [
                            -97.226,
                            38.802
                        ],
                        [
                            -101.364,
                            38.775
                        ],
                        [
                            -101.197,
                            40.006
                        ],
                        [
                            -98.511,
                            41.501
                        ]
                    ]
                ]
            },
            "properties": {
                "airSigmetId": null,
                "airportIcao": "KKCI",
                "airSigmetType": "SIGMET",
                "hazard": "CONVECTIVE",
                "severity": 5,
                "altitudeLow1": null,
                "altitudeLow2": null,
                "altitudeHi1": 45000,
                "altitudeHi2": 60000,
                "movementDir": 220,
                "movementSpd": 30,
                "rawAirSigmet": "WSUS32 KKCI 010155\nSIGC \nCONVECTIVE SIGMET 6C\nVALID UNTIL 0355Z\nIA KS NE\nFROM 10NW OBH-20NNW OVR-20ESE SLN-40SSE GLD-30WSW MCK-10NW OBH\nAREA SEV TS MOV FROM 22030KT. TOPS ABV FL450.\nHAIL TO 1 IN...WIND GUSTS TO 60KT POSS.\n\nOUTLOOK VALID 010355-010755\nTS ARE NOT EXPD TO REQUIRE WST ISSUANCES.",
                "validTimeTo": [
                    "2026-10-01T03:55"
                ]
            }
        },
        {
            "type": "Feature",
            "geometry": {
                "type": "Polygon",
                "coordinates": [
                    [
                        [
                            -94.637,
                            33.979
                        ],
                        [
                            -94.75,
                            32.591
                        ],
                        [
                            -96.761,
                            32.635
                        ],
                        [
                            -96.609,
                            34.016
                        ],
                        [
                            -94.637,
                            33.979
                        ]
                    ]
                ]
            },
            "properties": {
                "airSigmetId": null,
                "airportIcao": "KKCI",
                "airSigmetType": "SIGMET",
                "hazard": "CONVECTIVE",
                "severity": 5,
                "altitudeLow1": null,
                "altitudeLow2": null,
                "altitudeHi1": 40000,
                "altitudeHi2": 40000,
                "movementDir": 220,
                "movementSpd": 25,
                "rawAirSigmet": "WSUS32 KKCI 010155\nSIGC \nCONVECTIVE SIGMET 7C\nVALID UNTIL 0355Z\nTX OK\nFROM 40NW TXK-10N GGG-20SE TTT-30ESE ADM-40NW TXK\nAREA TS MOV FROM 22025KT. TOPS TO FL400.\n\nOUTLOOK VALID 010355-010755\nTS ARE NOT EXPD TO REQUIRE WST ISSUANCES.",
                "validTimeTo": [
                    "2026-10-01T03:55"
                ]
            }
        },
        {
            "type": "Feature",
            "geometry": {
                "type": "Polygon",
                "coordinates": [
                    [
                        [
                            -101.055,
                            38.534
                        ],
                        [
                            -101.21,
                            36.575
                        ],
                        [
                            -104.674,
                            36.425
                        ],
                        [
                            -104.87,
                            37.325
                        ],
                        [
                            -103.645,
                            38.542
                        ],
                        [
                            -101.055,
                            38.534
                        ]
                    ]
                ]
            },
            "properties": {
                "airSigmetId": null,
                "airportIcao": "KKCI",
                "airSigmetType": "SIGMET",
                "hazard": "CONVECTIVE",
                "severity": 5,
                "altitudeLow1": null,
                "altitudeLow2": null,
                "altitudeHi1": 36000,
                "altitudeHi2": 36000,
                "movementDir": 230,
                "movementSpd": 15,
                "rawAirSigmet": "WSUS32 KKCI 010155\nSIGC \nCONVECTIVE SIGMET 8C\nVALID UNTIL 0355Z\nTX OK KS CO NM\nFROM 40NNW GCK-30SSW LBL-10ESE CIM-50N CIM-40ENE PUB-40NNW GCK\nAREA TS MOV FROM 23015KT. TOPS TO FL360.\n\nOUTLOOK VALID 010355-010755\nTS ARE NOT EXPD TO REQUIRE WST ISSUANCES.",
                "validTimeTo": [
                    "2026-10-01T03:55"
                ]
            }
        },
        {
            "type": "Feature",
            "geometry": {
                "type": "Polygon",
                "coordinates": [
                    [
                        [
                            -100.911,
                            35.879
                        ],
                        [
                            -97.03,
                            35.829
                        ],
                        [
                            -97.406,
                            32.997
                        ],
                        [
                            -100.228,
                            29.829
                        ],
                        [
                            -102.887,
                            29.914
                        ],
                        [
                            -100.911,
                            35.879
                        ]
                    ]
                ]
            },
            "properties": {
                "airSigmetId": null,
                "airportIcao": "KKCI",
                "airSigmetType": "SIGMET",
                "hazard": "CONVECTIVE",
                "severity": 5,
                "altitudeLow1": null,
                "altitudeLow2": null,
                "altitudeHi1": 45000,
                "altitudeHi2": 60000,
                "movementDir": 240,
                "movementSpd": 25,
                "rawAirSigmet": "WSUS32 KKCI 010155\nSIGC \nCONVECTIVE SIGMET 9C\nVALID UNTIL 0355Z\nTX OK\nFROM 50NE AMA-40NE OKC-20WNW TTT-40NE DLF-60ESE MRF-50NE AMA\nAREA SEV TS MOV FROM 24025KT. TOPS ABV FL450.\nHAIL TO 1.5 IN...WIND GUSTS TO 60KT POSS.\n\nOUTLOOK VALID 010355-010755\nTS ARE NOT EXPD TO REQUIRE WST ISSUANCES.",
                "validTimeTo": [
                    "2026-10-01T03:55"
                ]
            }
        },
        {
            "type": "Feature",
            "geometry": {
                "type": "Polygon",
                "coordinates": [
                    [
                        [
                            -78.062,
                            29.265
                        ],
                        [
                            -78.043,
                            28.549
                        ],
                        [
                            -78.411,
                            26.67
                        ],
                        [
                            -80.158,
                            26.107
                        ],
                        [
                            -79.867,
                            29.741
                        ],
                        [
                            -78.062,
                            29.265
                        ]
                    ]
                ]
            },
            "properties": {
                "airSigmetId": null,
                "airportIcao": "KKCI",
                "airSigmetType": "SIGMET",
                "hazard": "CONVECTIVE",
                "severity": 5,
                "altitudeLow1": null,
                "altitudeLow2": null,
                "altitudeHi1": 40000,
                "altitudeHi2": 40000,
                "movementDir": 160,
                "movementSpd": 10,
                "rawAirSigmet": "WSUS31 KKCI 010155\nSIGE \nCONVECTIVE SIGMET 3E\nVALID UNTIL 0355Z\nFL AND CSTL WTRS\nFROM 160E OMN-140ENE TRV-90E PBI-20NNE MIA-70ENE OMN-160E OMN\nAREA TS MOV FROM 16010KT. TOPS TO FL400.\nREF INTL SIGMET LIMA SERIES.\n\nOUTLOOK VALID 010355-010755\nTS ARE NOT EXPD TO REQUIRE WST ISSUANCES.",
                "validTimeTo": [
                    "2026-10-01T03:55"
                ]
            }
        },
        {
            "type": "Feature",
            "geometry": {
                "type": "Polygon",
                "coordinates": [
                    [
                        [
                            -82.39,
                            28.524
                        ],
                        [
                            -81.983,
                            27.399
                        ],
                        [
                            -83.417,
                            27.078
                        ],
                        [
                            -83.808,
                            27.905
                        ],
                        [
                            -82.39,
                            28.524
                        ]
                    ]
                ]
            },
            "properties": {
                "airSigmetId": null,
                "airportIcao": "KKCI",
                "airSigmetType": "SIGMET",
                "hazard": "CONVECTIVE",
                "severity": 5,
                "altitudeLow1": null,
                "altitudeLow2": null,
                "altitudeHi1": 39000,
                "altitudeHi2": 39000,
                "movementDir": 160,
                "movementSpd": 10,
                "rawAirSigmet": "WSUS31 KKCI 010155\nSIGE \nCONVECTIVE SIGMET 4E\nVALID UNTIL 0355Z\nFL AND CSTL WTRS\nFROM 40NNE PIE-30E SRQ-50WSW SRQ-60W PIE-40NNE PIE\nAREA TS MOV FROM 16010KT. TOPS TO FL390.\n\nOUTLOOK VALID 010355-010755\nTS ARE NOT EXPD TO REQUIRE WST ISSUANCES.",
                "validTimeTo": [
                    "2026-10-01T03:55"
                ]
            }
        }
    ],
    "metadata": {
        "creationTime": "2026-10-01T01:59"
    }
}