{
    "type": "FeatureCollection",
    "features": [
        {
            "type": "Feature",
            "geometry": {
                "type": "Polygon",
                "coordinates": [
                    [
                        [
                            -75.107,
                            33.363
                        ],
                        [
                            -77.69,
                            28.669
                        ],
                        [
                            -79.586,
                            29.291
                        ],
                        [
                            -78.762,
                            32.437
                        ],
                        [
                            -75.107,
                            33.363
                        ]
                    ]
                ]
            },
            "properties": {
                "airSigmetId": null,
                "airportIcao": "KKCI",
                "airSigmetType": "SIGMET",
                "hazard": "CONVECTIVE",
                "severity": 5,
                "altitudeLow1": null,
                "altitudeLow2": null,
                "altitudeHi1": 45000,
                "altitudeHi2": 60000,
                "movementDir": 250,
                "movementSpd": 15,
                "rawAirSigmet": "WSUS31 KKCI 252055\nSIGE \nCONVECTIVE SIGMET 02E\nVALID UNTIL 2255Z\nNC FL SC GA CSTL WTRS\nFROM 150ESE ILM-160ENE TRV-80E OMN-70ESE CHS-150ESE ILM\nAREA TS MOV FROM 25015KT. TOPS ABV FL450.\nREF INTL SIGMET INDIA SERIES.\n\nOUTLOOK VALID 252255-260255\nFROM MCN-130SSE ILM-220E OMN-80ESE EYW-40SW EYW-100W PIE-200ESE\nLEV-30NW CEW-MCN\nWST ISSUANCES EXPD. REFER TO MOST RECENT ACUS01 KWNS FROM STORM\nPREDICTION CENTER FOR SYNOPSIS AND METEOROLOGICAL DETAILS.",
                "validTimeTo": [
                    "2026-08-25T22:55"
                ]
            }
        },
        {
            "type": "Feature",
            "geometry": {
                "type": "Polygon",
                "coordinates": [
                    [
                        [
                            -81.34,
                            28.037
                        ],
                        [
                            -80.115,
                            27.679
                        ],
                        [
                            -79.747,
                            26.552
                        ],
                        [
                            -81.123,
                            24.843
                        ],
                        [
                            -82.407,
                            27.093
                        ],
                        [
                            -81.34,
                            28.037
                        ]
                    ]
                ]
            },
            "properties": {
                "airSigmetId": null,
                "airportIcao": "KKCI",
                "airSigmetType": "SIGMET",
                "hazard": "CONVECTIVE",
                "severity": 5,
                "altitudeLow1": null,
                "altitudeLow2": null,
                "altitudeHi1": 45000,
                "altitudeHi2": 60000,
                "movementDir": 150,
                "movementSpd": 5,
                "rawAirSigmet": "WSUS31 KKCI 252055\nSIGE \nCONVECTIVE SIGMET 03E\nVALID UNTIL 2255Z\nFL AND CSTL WTRS\nFROM 30S ORL-20E TRV-20ESE PBI-40ENE EYW-20SSE SRQ-30S ORL\nAREA TS MOV FROM 15005KT. TOPS ABV FL450.\n\nOUTLOOK VALID 252255-260255\nFROM MCN-130SSE ILM-220E OMN-80ESE EYW-40SW EYW-100W PIE-200ESE\nLEV-30NW CEW-MCN\nWST ISSUANCES EXPD. REFER TO MOST RECENT ACUS01 KWNS FROM STORM\nPREDICTION CENTER FOR SYNOPSIS AND METEOROLOGICAL DETAILS.",
                "validTimeTo": [
                    "2026-08-25T22:55"
                ]
            }
        },
        {
            "type": "Feature",
            "geometry": {
                "type": "Polygon",
                "coordinates": [
                    [
                        [
                            -83.37,
                            32.925
                        ],
                        [
                            -80.884,
                            31.695
                        ],
                        [
                            -80.126,
                            28.451
                        ],
                        [
                            -82.304,
                            27.909
                        ],
                        [
                            -85.865,
                            30.122
                        ],
                        [
                            -83.37,
                            32.925
                        ]
                    ]
                ]
            },
            "properties": {
                "airSigmetId": null,
                "airportIcao": "KKCI",
                "airSigmetType": "SIGMET",
                "hazard": "CONVECTIVE",
                "severity": 5,
                "altitudeLow1": null,
                "altitudeLow2": null,
                "altitudeHi1": 45000,
                "altitudeHi2": 60000,
                "movementDir": null,
                "movementSpd": null,
                "rawAirSigmet": "WSUS31 KKCI 252055\nSIGE \nCONVECTIVE SIGMET 04E\nVALID UNTIL 2255Z\nFL GA AL AND FL GA CSTL WTRS\nFROM 20NE MCN-30SSE SAV-50NNE TRV-20E PIE-60SE CEW-20NE MCN\nAREA SEV TS MOV LTL. TOPS ABV FL450.\nWIND GUSTS TO 50KT POSS.\n\nOUTLOOK VALID 252255-260255\nFROM MCN-130SSE ILM-220E OMN-80ESE EYW-40SW EYW-100W PIE-200ESE\nLEV-30NW CEW-MCN\nWST ISSUANCES EXPD. REFER TO MOST RECENT ACUS01 KWNS FROM STORM\nPREDICTION CENTER FOR SYNOPSIS AND METEOROLOGICAL DETAILS.",
                "validTimeTo": [
                    "2026-08-25T22:55"
                ]
            }
        },
        {
            "type": "Feature",
            "geometry": {
                "type": "Polygon",
                "coordinates": [
                    [
                        [
                            -86.264,
                            31.185
                        ],
                        [
                            -86.386,
                            30.216
                        ],
                        [
                            -87.948,
                            30.374
                        ],
                        [
                            -87.459,
                            31.047
                        ],
                        [
                            -86.264,
                            31.185
                        ]
                    ]
                ]
            },
            "properties": {
                "airSigmetId": null,
                "airportIcao": "KKCI",
                "airSigmetType": "SIGMET",
                "hazard": "CONVECTIVE",
                "severity": 5,
                "altitudeLow1": null,
                "altitudeLow2": null,
                "altitudeHi1": 43000,
                "altitudeHi2": 43000,
                "movementDir": 340,
                "movementSpd": 5,
                "rawAirSigmet": "WSUS31 KKCI 252055\nSIGE \nCONVECTIVE SIGMET 05E\nVALID UNTIL 2255Z\nFL AL AND FL CSTL WTRS\nFROM 30NE CEW-40SSE CEW-30SE SJI-50ENE SJI-30NE CEW\nAREA TS MOV FROM 34005KT. TOPS TO FL430.\n\nOUTLOOK VALID 252255-260255\nFROM MCN-130SSE ILM-220E OMN-80ESE EYW-40SW EYW-100W PIE-200ESE\nLEV-30NW CEW-MCN\nWST ISSUANCES EXPD. REFER TO MOST RECENT ACUS01 KWNS FROM STORM\nPREDICTION CENTER FOR SYNOPSIS AND METEOROLOGICAL DETAILS.",
                "validTimeTo": [
                    "2026-08-25T22:55"
                ]
            }
        },
        {
            "type": "Feature",
            "geometry": {
                "type": "Polygon",
                "coordinates": [
                    [
                        [
                            -67.903,
                            47.077
                        ],
                        [
                            -67.83,
                            45.537
                        ],
                        [
                            -70.617,
                            45.336
                        ],
                        [
                            -69.546,
                            46.761
                        ],
                        [
                            -67.903,
                            47.077
                        ]
                    ]
                ]
            },
            "properties": {
                "airSigmetId": null,
                "airportIcao": "KKCI",
                "airSigmetType": "SIGMET",
                "hazard": "CONVECTIVE",
                "severity": 5,
                "altitudeLow1": null,
                "altitudeLow2": null,
                "altitudeHi1": 34000,
                "altitudeHi2": 34000,
                "movementDir": 250,
                "movementSpd": 15,
                "rawAirSigmet": "WSUS31 KKCI 252055\nSIGE \nCONVECTIVE SIGMET 06E\nVALID UNTIL 2255Z\nME\nFROM 20NNE PQI-30S HUL-80WNW BGR-60W PQI-20NNE PQI\nAREA TS MOV FROM 25015KT. TOPS TO FL340.\n\nOUTLOOK VALID 252255-260255\nFROM MCN-130SSE ILM-220E OMN-80ESE EYW-40SW EYW-100W PIE-200ESE\nLEV-30NW CEW-MCN\nWST ISSUANCES EXPD. REFER TO MOST RECENT ACUS01 KWNS FROM STORM\nPREDICTION CENTER FOR SYNOPSIS AND METEOROLOGICAL DETAILS.",
                "validTimeTo": [
                    "2026-08-25T22:55"
                ]
            }
        },
        {
            "type": "Feature",
            "geometry": {
                "type": "Polygon",
                "coordinates": [
                    [
                        [
                            -79.888,
                            33.197
                        ],
                        [
                            -79.311,
                            32.633
                        ],
                        [
                            -80.884,
                            31.695
                        ],
                        [
                            -82.657,
                            32.686
                        ],
                        [
                            -79.888,
                            33.197
                        ]
                    ]
                ]
            },
            "properties": {
                "airSigmetId": null,
                "airportIcao": "KKCI",
                "airSigmetType": "SIGMET",
                "hazard": "CONVECTIVE",
                "severity": 5,
                "altitudeLow1": null,
                "altitudeLow2": null,
                "altitudeHi1": 45000,
                "altitudeHi2": 60000,
                "movementDir": null,
                "movementSpd": null,
                "rawAirSigmet": "WSUS31 KKCI 252055\nSIGE \nCONVECTIVE SIGMET 07E\nVALID UNTIL 2255Z\nSC GA AND CSTL WTRS\nFROM 20NNE CHS-40ESE CHS-30SSE SAV-50E MCN-20NNE CHS\nAREA SEV TS MOV LTL. TOPS ABV FL450.\nWIND GUSTS TO 50KT POSS.\n\nOUTLOOK VALID 252255-260255\nFROM MCN-130SSE ILM-220E OMN-80ESE EYW-40SW EYW-100W PIE-200ESE\nLEV-30NW CEW-MCN\nWST ISSUANCES EXPD. REFER TO MOST RECENT ACUS01 KWNS FROM STORM\nPREDICTION CENTER FOR SYNOPSIS AND METEOROLOGICAL DETAILS.",
                "validTimeTo": [
                    "2026-08-25T22:55"
                ]
            }
        },
        {
            "type": "Feature",
            "geometry": {
                "type": "Polygon",
                "coordinates": [
                    [
                        [
                            -72.921,
                            43.605
                        ],
                        [
                            -72.951,
                            42.404
                        ],
                        [
                            -74.199,
                            41.684
                        ],
                        [
                            -75.948,
                            42.251
                        ],
                        [
                            -72.921,
                            43.605
                        ]
                    ]
                ]
            },
            "properties": {
                "airSigmetId": null,
                "airportIcao": "KKCI",
                "airSigmetType": "SIGMET",
                "hazard": "CONVECTIVE",
                "severity": 5,
                "altitudeLow1": null,
                "altitudeLow2": null,
                "altitudeHi1": 30000,
                "altitudeHi2": 30000,
                "movementDir": 290,
                "movementSpd": 15,
                "rawAirSigmet": "WSUS31 KKCI 252055\nSIGE \nCONVECTIVE SIGMET 08E\nVALID UNTIL 2255Z\nMA VT CT NY PA\nFROM 40SSW MPV-30NNW BDL-40NNE SAX-30WNW HNK-40SSW MPV\nAREA TS MOV FROM 29015KT. TOPS TO FL300.\n\nOUTLOOK VALID 252255-260255\nFROM MCN-130SSE ILM-220E OMN-80ESE EYW-40SW EYW-100W PIE-200ESE\nLEV-30NW CEW-MCN\nWST ISSUANCES EXPD. REFER TO MOST RECENT ACUS01 KWNS FROM STORM\nPREDICTION CENTER FOR SYNOPSIS AND METEOROLOGICAL DETAILS.",
                "validTimeTo": [
                    "2026-08-25T22:55"
                ]
            }
        },
        {
            "type": "Feature",
            "geometry": {
                "type": "Polygon",
                "coordinates": [
                    [
                        [
                            -111.214,
                            41.812
                        ],
                        [
                            -109.02,
                            41.258
                        ],
                        [
                            -108.79,
                            39.392
                        ],
                        [
                            -113.302,
                            36.085
                        ],
                        [
                            -115.707,
                            36.795
                        ],
                        [
                            -111.214,
                            41.812
                        ]
                    ]
                ]
            },
            "properties": {
                "airSigmetId": null,
                "airportIcao": "KKCI",
                "airSigmetType": "SIGMET",
                "hazard": "CONVECTIVE",
                "severity": 5,
                "altitudeLow1": null,
                "altitudeLow2": null,
                "altitudeHi1": 45000,
                "altitudeHi2": 45000,
                "movementDir": 240,
                "movementSpd": 5,
                "rawAirSigmet": "WSUS33 KKCI 252055\nSIGW \nCONVECTIVE SIGMET 42W\nVALID UNTIL 2255Z\nCO WY AZ UT NV\nFROM 60ESE MLD-20S OCS-20N JNC-30NNE PGS-50E BTY-60ESE MLD\nAREA TS MOV FROM 24005KT. TOPS TO FL450.\n\nOUTLOOK VALID 252255-260255\nFROM 30NE GEG-50NW MLS-CZI-ABQ-60SSW TUS-BZA-30SSE BTY-30NE GEG\nWST ISSUANCES EXPD. REFER TO MOST RECENT ACUS01 KWNS FROM STORM\nPREDICTION CENTER FOR SYNOPSIS AND METEOROLOGICAL DETAILS.",
                "validTimeTo": [
                    "2026-08-25T22:55"
                ]
            }
        },
        {
            "type": "Feature",
            "geometry": {
                "type": "Polygon",
                "coordinates": [
                    [
                        [
                            -107.717,
                            36.622
                        ],
                        [
                            -105.604,
                            34.738
                        ],
                        [
                            -108.022,
                            32.635
                        ],
                        [
                            -113.193,
                            34.107
                        ],
                        [
                            -112.48,
                            35.535
                        ],
                        [
                            -107.717,
                            36.622
                        ]
                    ]
                ]
            },
            "properties": {
                "airSigmetId": null,
                "airportIcao": "KKCI",
                "airSigmetType": "SIGMET",
                "hazard": "CONVECTIVE",
                "severity": 5,
                "altitudeLow1": null,
                "altitudeLow2": null,
                "altitudeHi1": 42000,
                "altitudeHi2": 42000,
                "movementDir": 250,
                "movementSpd": 5,
                "rawAirSigmet": "WSUS33 KKCI 252055\nSIGW \nCONVECTIVE SIGMET 43W\nVALID UNTIL 2255Z\nNM AZ\nFROM 20ESE RSK-60SSW FTI-30NW DMN-50SW DRK-50N DRK-20ESE RSK\nAREA TS MOV FROM 25005KT. TOPS TO FL420.\n\nOUTLOOK VALID 252255-260255\nFROM 30NE GEG-50NW MLS-CZI-ABQ-60SSW TUS-BZA-30SSE BTY-30NE GEG\nWST ISSUANCES EXPD. REFER TO MOST RECENT ACUS01 KWNS FROM STORM\nPREDICTION CENTER FOR SYNOPSIS AND METEOROLOGICAL DETAILS.",
                "validTimeTo": [
                    "2026-08-25T22:55"
                ]
            }
        },
        {
            "type": "Feature",
            "geometry": {
                "type": "Polygon",
                "coordinates": [
                    [
                        [
                            -115.095,
                            46.537
                        ],
                        [
                            -108.969,
                            46.045
                        ],
                        [
                            -107.865,
                            42.687
                        ],
                        [
                            -110.452,
                            41.965
                        ],
                        [
                            -115.119,
                            43.865
                        ],
                        [
                            -115.095,
                            46.537
                        ]
                    ]
                ]
            },
            "properties": {
                "airSigmetId": null,
                "airportIcao": "KKCI",
                "airSigmetType": "SIGMET",
                "hazard": "CONVECTIVE",
                "severity": 5,
                "altitudeLow1": null,
                "altitudeLow2": null,
                "altitudeHi1": 42000,
                "altitudeHi2": 42000,
                "movementDir": 270,
                "movementSpd": 5,
                "rawAirSigmet": "WSUS33 KKCI 252055\nSIGW \nCONVECTIVE SIGMET 44W\nVALID UNTIL 2255Z\nMT WY ID\nFROM 60SSE MLP-20NW BIL-50SSE BOY-40SSW BPI-50ENE BOI-60SSE MLP\nAREA TS MOV FROM 27005KT. TOPS TO FL420.\n\nOUTLOOK VALID 252255-260255\nFROM 30NE GEG-50NW MLS-CZI-ABQ-60SSW TUS-BZA-30SSE BTY-30NE GEG\nWST ISSUANCES EXPD. REFER TO MOST RECENT ACUS01 KWNS FROM STORM\nPREDICTION CENTER FOR SYNOPSIS AND METEOROLOGICAL DETAILS.",
                "validTimeTo": [
                    "2026-08-25T22:55"
                ]
            }
        },
        {
            "type": "Feature",
            "geometry": {
                "type": "Polygon",
                "coordinates": [
                    [
                        [
                            -116.829,
                            43.356
                        ],
                        [
                            -112.331,
                            42.635
                        ],
                        [
                            -111.821,
                            42.391
                        ],
                        [
                            -114.248,
                            39.491
                        ],
                        [
                            -117.454,
                            42.462
                        ],
                        [
                            -116.829,
                            43.356
                        ]
                    ]
                ]
            },
            "properties": {
                "airSigmetId": null,
                "airportIcao": "KKCI",
                "airSigmetType": "SIGMET",
                "hazard": "CONVECTIVE",
                "severity": 5,
                "altitudeLow1": null,
                "altitudeLow2": null,
                "altitudeHi1": 40000,
                "altitudeHi2": 40000,
                "movementDir": 230,
                "movementSpd": 20,
                "rawAirSigmet": "WSUS33 KKCI 252055\nSIGW \nCONVECTIVE SIGMET 45W\nVALID UNTIL 2255Z\nUT ID NV OR\nFROM 30WSW BOI-20SE PIH-30ENE MLD-30ENE ELY-20ESE REO-30WSW BOI\nAREA TS MOV FROM 23020KT. TOPS TO FL400.\n\nOUTLOOK VALID 252255-260255\nFROM 30NE GEG-50NW MLS-CZI-ABQ-60SSW TUS-BZA-30SSE BTY-30NE GEG\nWST ISSUANCES EXPD. REFER TO MOST RECENT ACUS01 KWNS FROM STORM\nPREDICTION CENTER FOR SYNOPSIS AND METEOROLOGICAL DETAILS.",
                "validTimeTo": [
                    "2026-08-25T22:55"
                ]
            }
        },
        {
            "type": "Feature",
            "geometry": {
                "type": "Polygon",
                "coordinates": [
                    [
                        [
                            -89.715,
                            31.491
                        ],
                        [
                            -88.729,
                            29.958
                        ],
                        [
                            -90.1,
                            28.183
                        ],
                        [
                            -93.11,
                            28.307
                        ],
                        [
                            -93.11,
                            28.81
                        ],
                        [
                            -89.715,
                            31.491
                        ]
                    ]
                ]
            },
            "properties": {
                "airSigmetId": null,
                "airportIcao": "KKCI",
                "airSigmetType": "SIGMET",
                "hazard": "CONVECTIVE",
                "severity": 5,
                "altitudeLow1": null,
                "altitudeLow2": null,
                "altitudeHi1": 45000,
                "altitudeHi2": 60000,
                "movementDir": null,
                "movementSpd": null,
                "rawAirSigmet": "WSUS32 KKCI 252055\nSIGC \nCONVECTIVE SIGMET 05C\nVALID UNTIL 2255Z\nMS LA AND CSTL WTRS\nFROM 30ENE MCB-50SSW SJI-60S LEV-110S LCH-80S LCH-30ENE MCB\nAREA TS MOV LTL. TOPS ABV FL450.\nREF INTL SIGMET MIKE SERIES.\n\nOUTLOOK VALID 252255-260255\nAREA 1...FROM 50N DYR-CEW-190ESE LEV-160SE LEV-130ESE LEV-120ESE\nPSX-100SE PSX-40S GGG-70W ARG-50N DYR\nWST ISSUANCES EXPD. REFER TO MOST RECENT ACUS01 KWNS FROM STORM\nPREDICTION CENTER FOR SYNOPSIS AND METEOROLOGICAL DETAILS.\n\nAREA 2...FROM 70WNW INL-30SSW YQT-40E YQT-40NNW SSM-50ENE BAE-40W\nMSP-70WNW INL\nWST ISSUANCES EXPD. REFER TO MOST RECENT ACUS01 KWNS FROM STORM\nPREDICTION CENTER FOR SYNOPSIS AND METEOROLOGICAL DETAILS.\nREF WW 626.\n\nAREA 3...FROM CZI-ONL-ICT-CDS-CME-ABQ-CZI\nWST ISSUANCES EXPD. REFER TO MOST RECENT ACUS01 KWNS FROM STORM\nPREDICTION CENTER FOR SYNOPSIS AND METEOROLOGICAL DETAILS.",
                "validTimeTo": [
                    "2026-08-25T22:55"
                ]
            }
        },
        {
            "type": "Feature",
            "geometry": {
                "type": "Polygon",
                "coordinates": [
                    [
                        [
                            -105.37,
                            43.086
                        ],
                        [
                            -102.574,
                            36.44
                        ],
                        [
                            -105.604,
                            34.738
                        ],
                        [
                            -108.93,
                            37.81
                        ],
                        [
                            -108.79,
                            39.563
                        ],
                        [
                            -105.37,
                            43.086
                        ]
                    ]
                ]
            },
            "properties": {
                "airSigmetId": null,
                "airportIcao": "KKCI",
                "airSigmetType": "SIGMET",
                "hazard": "CONVECTIVE",
                "severity": 5,
                "altitudeLow1": null,
                "altitudeLow2": null,
                "altitudeHi1": 45000,
                "altitudeHi2": 60000,
                "movementDir": 270,
                "movementSpd": 10,
                "rawAirSigmet": "WSUS32 KKCI 252055\nSIGC \nCONVECTIVE SIGMET 06C\nVALID UNTIL 2255Z\nTX OK CO NM WY\nFROM 40E DDY-70SE TBE-60SSW FTI-DVC-30N JNC-40E DDY\nAREA SEV TS MOV FROM 27010KT. TOPS ABV FL450.\nHAIL TO 1 IN...WIND GUSTS TO 50KT POSS.\n\nOUTLOOK VALID 252255-260255\nAREA 1...FROM 50N DYR-CEW-190ESE LEV-160SE LEV-130ESE LEV-120ESE\nPSX-100SE PSX-40S GGG-70W ARG-50N DYR\nWST ISSUANCES EXPD. REFER TO MOST RECENT ACUS01 KWNS FROM STORM\nPREDICTION CENTER FOR SYNOPSIS AND METEOROLOGICAL DETAILS.\n\nAREA 2...FROM 70WNW INL-30SSW YQT-40E YQT-40NNW SSM-50ENE BAE-40W\nMSP-70WNW INL\nWST ISSUANCES EXPD. REFER TO MOST RECENT ACUS01 KWNS FROM STORM\nPREDICTION CENTER FOR SYNOPSIS AND METEOROLOGICAL DETAILS.\nREF WW 626.\n\nAREA 3...FROM CZI-ONL-ICT-CDS-CME-ABQ-CZI\nWST ISSUANCES EXPD. REFER TO MOST RECENT ACUS01 KWNS FROM STORM\nPREDICTION CENTER FOR SYNOPSIS AND METEOROLOGICAL DETAILS.",
                "validTimeTo": [
                    "2026-08-25T22:55"
                ]
            }
        },
        {
            "type": "Feature",
            "geometry": {
                "type": "Polygon",
                "coordinates": [
                    [
                        [
                            -99.799,
                            36.182
                        ],
                        [
                            -99.559,
                            34.959
                        ],
                        [
                            -100.515,
                            34.835
                        ],
                        [
                            -100.834,
                            36.016
                        ],
                        [
                            -99.799,
                            36.182
                        ]
                    ]
                ]
            },
            "properties": {
                "airSigmetId": null,
                "airportIcao": "KKCI",
                "airSigmetType": "SIGMET",
                "hazard": "CONVECTIVE",
                "severity": 5,
                "altitudeLow1": null,
                "altitudeLow2": null,
                "altitudeHi1": 45000,
                "altitudeHi2": 60000,
                "movementDir": 300,
                "movementSpd": 15,
                "rawAirSigmet": "WSUS32 KKCI 252055\nSIGC \nCONVECTIVE SIGMET 07C\nVALID UNTIL 2255Z\nTX OK\nFROM 10SSE MMB-50NE CDS-30NNW CDS-50WSW MMB-10SSE MMB\nAREA SEV TS MOV FROM 30015KT. TOPS ABV FL450.\nHAIL TO 1.5 IN...WIND GUSTS TO 50KT POSS.\n\nOUTLOOK VALID 252255-260255\nAREA 1...FROM 50N DYR-CEW-190ESE LEV-160SE LEV-130ESE LEV-120ESE\nPSX-100SE PSX-40S GGG-70W ARG-50N DYR\nWST ISSUANCES EXPD. REFER TO MOST RECENT ACUS01 KWNS FROM STORM\nPREDICTION CENTER FOR SYNOPSIS AND METEOROLOGICAL DETAILS.\n\nAREA 2...FROM 70WNW INL-30SSW YQT-40E YQT-40NNW SSM-50ENE BAE-40W\nMSP-70WNW INL\nWST ISSUANCES EXPD. REFER TO MOST RECENT ACUS01 KWNS FROM STORM\nPREDICTION CENTER FOR SYNOPSIS AND METEOROLOGICAL DETAILS.\nREF WW 626.\n\nAREA 3...FROM CZI-ONL-ICT-CDS-CME-ABQ-CZI\nWST ISSUANCES EXPD. REFER TO MOST RECENT ACUS01 KWNS FROM STORM\nPREDICTION CENTER FOR SYNOPSIS AND METEOROLOGICAL DETAILS.",
                "validTimeTo": [
                    "2026-08-25T22:55"
                ]
            }
        },
        {
            "type": "Feature",
            "geometry": {
                "type": "Polygon",
                "coordinates": [
                    [
                        [
                            -90.611,
                            47.236
                        ],
                        [
                            -87.4,
                            47.025
                        ],
                        [
                            -89.45,
                            45.298
                        ],
                        [
                            -90.975,
                            45.255
                        ],
                        [
                            -90.611,
                            47.236
                        ]
                    ]
                ]
            },
            "properties": {
                "airSigmetId": null,
                "airportIcao": "KKCI",
                "airSigmetType": "SIGMET",
                "hazard": "CONVECTIVE",
                "severity": 5,
                "altitudeLow1": null,
                "altitudeLow2": null,
                "altitudeHi1": 42000,
                "altitudeHi2": 42000,
                "movementDir": 260,
                "movementSpd": 30,
                "rawAirSigmet": "WSUS32 KKCI 252055\nSIGC \nCONVECTIVE SIGMET 08C\nVALID UNTIL 2255Z\nMI WI LS\nFROM 70ENE DLH-40N SAW-20S RHI-30NE EAU-70ENE DLH\nAREA TS MOV FROM 26030KT. TOPS TO FL420.\n\nOUTLOOK VALID 252255-260255\nAREA 1...FROM 50N DYR-CEW-190ESE LEV-160SE LEV-130ESE LEV-120ESE\nPSX-100SE PSX-40S GGG-70W ARG-50N DYR\nWST ISSUANCES EXPD. REFER TO MOST RECENT ACUS01 KWNS FROM STORM\nPREDICTION CENTER FOR SYNOPSIS AND METEOROLOGICAL DETAILS.\n\nAREA 2...FROM 70WNW INL-30SSW YQT-40E YQT-40NNW SSM-50ENE BAE-40W\nMSP-70WNW INL\nWST ISSUANCES EXPD. REFER TO MOST RECENT ACUS01 KWNS FROM STORM\nPREDICTION CENTER FOR SYNOPSIS AND METEOROLOGICAL DETAILS.\nREF WW 626.\n\nAREA 3...FROM CZI-ONL-ICT-CDS-CME-ABQ-CZI\nWST ISSUANCES EXPD. REFER TO MOST RECENT ACUS01 KWNS FROM STORM\nPREDICTION CENTER FOR SYNOPSIS AND METEOROLOGICAL DETAILS.",
                "validTimeTo": [
                    "2026-08-25T22:55"
                ]
            }
        },
        {
            "type": "Feature",
            "geometry": {
                "type": "Polygon",
                "coordinates": [
                    [
                        [
                            -94.16,
                            48.567
                        ],
                        [
                            -91.784,
                            48.112
                        ],
                        [
                            -91.677,
                            47.155
                        ],
                        [
                            -93.067,
                            46.346
                        ],
                        [
                            -94.03,
                            46.682
                        ],
                        [
                            -94.16,
                            48.567
                        ]
                    ]
                ]
            },
            "properties": {
                "airSigmetId": null,
                "airportIcao": "KKCI",
                "airSigmetType": "SIGMET",
                "hazard": "CONVECTIVE",
                "severity": 5,
                "altitudeLow1": null,
                "altitudeLow2": null,
                "altitudeHi1": 45000,
                "altitudeHi2": 45000,
                "movementDir": 250,
                "movementSpd": 20,
                "rawAirSigmet": "WSUS32 KKCI 252055\nSIGC \nCONVECTIVE SIGMET 09C\nVALID UNTIL 2255Z\nMN\nFROM 30W INL-70ESE INL-30NE DLH-40E BRD-20N BRD-30W INL\nAREA SEV TS MOV FROM 25020KT. TOPS TO FL450.\nHAIL TO 1.5 IN...WIND GUSTS TO 55KT POSS.\n\nOUTLOOK VALID 252255-260255\nAREA 1...FROM 50N DYR-CEW-190ESE LEV-160SE LEV-130ESE LEV-120ESE\nPSX-100SE PSX-40S GGG-70W ARG-50N DYR\nWST ISSUANCES EXPD. REFER TO MOST RECENT ACUS01 KWNS FROM STORM\nPREDICTION CENTER FOR SYNOPSIS AND METEOROLOGICAL DETAILS.\n\nAREA 2...FROM 70WNW INL-30SSW YQT-40E YQT-40NNW SSM-50ENE BAE-40W\nMSP-70WNW INL\nWST ISSUANCES EXPD. REFER TO MOST RECENT ACUS01 KWNS FROM STORM\nPREDICTION CENTER FOR SYNOPSIS AND METEOROLOGICAL DETAILS.\nREF WW 626.\n\nAREA 3...FROM CZI-ONL-ICT-CDS-CME-ABQ-CZI\nWST ISSUANCES EXPD. REFER TO MOST RECENT ACUS01 KWNS FROM STORM\nPREDICTION CENTER FOR SYNOPSIS AND METEOROLOGICAL DETAILS.",
                "validTimeTo": [
                    "2026-08-25T22:55"
                ]
            }
        },
        {
            "type": "Feature",
            "geometry": {
                "type": "Polygon",
                "coordinates": [
                    [
                        [
                            -105.14,
                            34.663
                        ],
                        [
                            -104.922,
                            32.725
                        ],
                        [
                            -105.979,
                            32.434
                        ],
                        [
                            -105.821,
                            34.21
                        ],
                        [
                            -105.14,
                            34.663
                        ]
                    ]
                ]
            },
            "properties": {
                "airSigmetId": null,
                "airportIcao": "KKCI",
                "airSigmetType": "SIGMET",
                "hazard": "CONVECTIVE",
                "severity": 5,
                "altitudeLow1": null,
                "altitudeLow2": null,
                "altitudeHi1": 41000,
                "altitudeHi2": 41000,
                "movementDir": null,
                "movementSpd": null,
                "rawAirSigmet": "WSUS32 KKCI 252055\nSIGC \nCONVECTIVE SIGMET 10C\nVALID UNTIL 2255Z\nNM\nFROM 60S FTI-40SSW CME-40NNE ELP-70SE ABQ-60S FTI\nAREA TS MOV LTL. TOPS TO FL410.\n\nOUTLOOK VALID 252255-260255\nAREA 1...FROM 50N DYR-CEW-190ESE LEV-160SE LEV-130ESE LEV-120ESE\nPSX-100SE PSX-40S GGG-70W ARG-50N DYR\nWST ISSUANCES EXPD. REFER TO MOST RECENT ACUS01 KWNS FROM STORM\nPREDICTION CENTER FOR SYNOPSIS AND METEOROLOGICAL DETAILS.\n\nAREA 2...FROM 70WNW INL-30SSW YQT-40E YQT-40NNW SSM-50ENE BAE-40W\nMSP-70WNW INL\nWST ISSUANCES EXPD. REFER TO MOST RECENT ACUS01 KWNS FROM STORM\nPREDICTION CENTER FOR SYNOPSIS AND METEOROLOGICAL DETAILS.\nREF WW 626.\n\nAREA 3...FROM CZI-ONL-ICT-CDS-CME-ABQ-CZI\nWST ISSUANCES EXPD. REFER TO MOST RECENT ACUS01 KWNS FROM STORM\nPREDICTION CENTER FOR SYNOPSIS AND METEOROLOGICAL DETAILS.",
                "validTimeTo": [
                    "2026-08-25T22:55"
                ]
            }
        },
        {
            "type": "Feature",
            "geometry": {
                "type": "Polygon",
                "coordinates": [
                    [
                        [
                            -89.547,
                            34.704
                        ],
                        [
                            -88.693,
                            34.694
                        ],
                        [
                            -88.436,
                            32.507
                        ],
                        [
                            -89.163,
                            32.252
                        ],
                        [
                            -89.547,
                            34.704
                        ]
                    ]
                ]
            },
            "properties": {
                "airSigmetId": null,
                "airportIcao": "KKCI",
                "airSigmetType": "SIGMET",
                "hazard": "CONVECTIVE",
                "severity": 5,
                "altitudeLow1": null,
                "altitudeLow2": null,
                "altitudeHi1": 45000,
                "altitudeHi2": 60000,
                "movementDir": 340,
                "movementSpd": 5,
                "rawAirSigmet": "WSUS32 KKCI 252055\nSIGC \nCONVECTIVE SIGMET 11C\nVALID UNTIL 2255Z\nMS\nFROM 30SE MEM-60W MSL-20ENE MEI-20WSW MEI-30SE MEM\nAREA TS MOV FROM 34005KT. TOPS ABV FL450.\n\nOUTLOOK VALID 252255-260255\nAREA 1...FROM 50N DYR-CEW-190ESE LEV-160SE LEV-130ESE LEV-120ESE\nPSX-100SE PSX-40S GGG-70W ARG-50N DYR\nWST ISSUANCES EXPD. REFER TO MOST RECENT ACUS01 KWNS FROM STORM\nPREDICTION CENTER FOR SYNOPSIS AND METEOROLOGICAL DETAILS.\n\nAREA 2...FROM 70WNW INL-30SSW YQT-40E YQT-40NNW SSM-50ENE BAE-40W\nMSP-70WNW INL\nWST ISSUANCES EXPD. REFER TO MOST RECENT ACUS01 KWNS FROM STORM\nPREDICTION CENTER FOR SYNOPSIS AND METEOROLOGICAL DETAILS.\nREF WW 626.\n\nAREA 3...FROM CZI-ONL-ICT-CDS-CME-ABQ-CZI\nWST ISSUANCES EXPD. REFER TO MOST RECENT ACUS01 KWNS FROM STORM\nPREDICTION CENTER FOR SYNOPSIS AND METEOROLOGICAL DETAILS.",
                "validTimeTo": [
                    "2026-08-25T22:55"
                ]
            }
        },
        {
            "type": "Feature",
            "geometry": {
                "type": "Polygon",
                "coordinates": [
                    [
                        [
                            -95.204,
                            29.653
                        ],
                        [
                            -94.984,
                            29.188
                        ],
                        [
                            -95.608,
                            29.013
                        ],
                        [
                            -96.089,
                            29.225
                        ],
                        [
                            -95.204,
                            29.653
                        ]
                    ]
                ]
            },
            "properties": {
                "airSigmetId": null,
                "airportIcao": "KKCI",
                "airSigmetType": "SIGMET",
                "hazard": "CONVECTIVE",
                "severity": 5,
                "altitudeLow1": null,
                "altitudeLow2": null,
                "altitudeHi1": 34000,
                "altitudeHi2": 34000,
                "movementDir": null,
                "movementSpd": null,
                "rawAirSigmet": "WSUS32 KKCI 252055\nSIGC \nCONVECTIVE SIGMET 12C\nVALID UNTIL 2255Z\nTX AND CSTL WTRS\nFROM 20SSE IAH-50SSE IAH-40ENE PSX-30NNE PSX-20SSE IAH\nAREA TS MOV LTL. TOPS TO FL340.\n\nOUTLOOK VALID 252255-260255\nAREA 1...FROM 50N DYR-CEW-190ESE LEV-160SE LEV-130ESE LEV-120ESE\nPSX-100SE PSX-40S GGG-70W ARG-50N DYR\nWST ISSUANCES EXPD. REFER TO MOST RECENT ACUS01 KWNS FROM STORM\nPREDICTION CENTER FOR SYNOPSIS AND METEOROLOGICAL DETAILS.\n\nAREA 2...FROM 70WNW INL-30SSW YQT-40E YQT-40NNW SSM-50ENE BAE-40W\nMSP-70WNW INL\nWST ISSUANCES EXPD. REFER TO MOST RECENT ACUS01 KWNS FROM STORM\nPREDICTION CENTER FOR SYNOPSIS AND METEOROLOGICAL DETAILS.\nREF WW 626.\n\nAREA 3...FROM CZI-ONL-ICT-CDS-CME-ABQ-CZI\nWST ISSUANCES EXPD. REFER TO MOST RECENT ACUS01 KWNS FROM STORM\nPREDICTION CENTER FOR SYNOPSIS AND METEOROLOGICAL DETAILS.",
                "validTimeTo": [
                    "2026-08-25T22:55"
                ]
            }
        }
    ],
    "metadata": {
        "creationTime": "2026-08-25T21:35"
    }
}