{
    "type": "FeatureCollection",
    "features": [
        {
            "type": "Feature",
            "geometry": {
                "type": "Polygon",
                "coordinates": [
                    [
                        [
                            -74.283,
                            41.534
                        ],
                        [
                            -73.515,
                            41.094
                        ],
                        [
                            -73.311,
                            37.915
                        ],
                        [
                            -74.882,
                            35.182
                        ],
                        [
                            -79.581,
                            34.388
                        ],
                        [
                            -74.283,
                            41.534
                        ]
                    ]
                ]
            },
            "properties": {
                "airSigmetId": null,
                "airportIcao": "KKCI",
                "airSigmetType": "SIGMET",
                "hazard": "CONVECTIVE",
                "severity": 5,
                "altitudeLow1": null,
                "altitudeLow2": null,
                "altitudeHi1": 45000,
                "altitudeHi2": 60000,
                "movementDir": 270,
                "movementSpd": 20,
                "rawAirSigmet": "WSUS31 KKCI 290255\nSIGE \nCONVECTIVE SIGMET 13E\nVALID UNTIL 0455Z\nCT NY NJ PA DE MD VA NC SC AND DE NJ NY MD CT NC VA CSTL WTRS\nFROM 30NNE SAX-30NNE JFK-100SE SIE-90SE ECG-10NNE FLO-30NNE SAX\nAREA SEV EMBD TS MOV FROM 27020KT. TOPS ABV FL450.\nHAIL TO 2 IN POSS...WIND GUSTS TO 60KT POSS.\n\nOUTLOOK VALID 290455-290855\nFROM 30W ALB-40WNW BOS-180SSE HTO-190ESE ECG-140SSE ILM-ATL-50WNW\nODF-60SW RIC-30W ALB\nREF WW 527 530 531.\nWST ISSUANCES EXPD. REFER TO MOST RECENT ACUS01 KWNS FROM STORM\nPREDICTION CENTER FOR SYNOPSIS AND METEOROLOGICAL DETAILS.",
                "validTimeTo": [
                    "2026-07-29T04:55"
                ]
            }
        },
        {
            "type": "Feature",
            "geometry": {
                "type": "Polygon",
                "coordinates": [
                    [
                        [
                            -84.994,
                            35.267
                        ],
                        [
                            -81.05,
                            34.031
                        ],
                        [
                            -83.507,
                            32.569
                        ],
                        [
                            -85.15,
                            34.295
                        ],
                        [
                            -84.994,
                            35.267
                        ]
                    ]
                ]
            },
            "properties": {
                "airSigmetId": null,
                "airportIcao": "KKCI",
                "airSigmetType": "SIGMET",
                "hazard": "CONVECTIVE",
                "severity": 5,
                "altitudeLow1": null,
                "altitudeLow2": null,
                "altitudeHi1": 45000,
                "altitudeHi2": 60000,
                "movementDir": 300,
                "movementSpd": 30,
                "rawAirSigmet": "WSUS31 KKCI 290255\nSIGE \nCONVECTIVE SIGMET 14E\nVALID UNTIL 0455Z\nNC SC GA TN\nFROM 20NNE GQO-10N CAE-10SE MCN-40S GQO-20NNE GQO\nAREA SEV EMBD TS MOV FROM 30030KT. TOPS ABV FL450.\nHAIL TO 1 IN...WIND GUSTS TO 55KT POSS.\n\nOUTLOOK VALID 290455-290855\nFROM 30W ALB-40WNW BOS-180SSE HTO-190ESE ECG-140SSE ILM-ATL-50WNW\nODF-60SW RIC-30W ALB\nREF WW 527 530 531.\nWST ISSUANCES EXPD. REFER TO MOST RECENT ACUS01 KWNS FROM STORM\nPREDICTION CENTER FOR SYNOPSIS AND METEOROLOGICAL DETAILS.",
                "validTimeTo": [
                    "2026-07-29T04:55"
                ]
            }
        },
        {
            "type": "Feature",
            "geometry": {
                "type": "Polygon",
                "coordinates": [
                    [
                        [
                            -84.805,
                            28.952
                        ],
                        [
                            -83.551,
                            27.588
                        ],
                        [
                            -84.24,
                            27.327
                        ],
                        [
                            -85.312,
                            27.885
                        ],
                        [
                            -84.805,
                            28.952
                        ]
                    ]
                ]
            },
            "properties": {
                "airSigmetId": null,
                "airportIcao": "KKCI",
                "airSigmetType": "SIGMET",
                "hazard": "CONVECTIVE",
                "severity": 5,
                "altitudeLow1": null,
                "altitudeLow2": null,
                "altitudeHi1": 43000,
                "altitudeHi2": 43000,
                "movementDir": null,
                "movementSpd": null,
                "rawAirSigmet": "WSUS31 KKCI 290255\nSIGE \nCONVECTIVE SIGMET 15E\nVALID UNTIL 0455Z\nFL CSTL WTRS\nFROM 100WSW CTY-50WSW PIE-90WSW PIE-140W PIE-100WSW CTY\nAREA TS MOV LTL. TOPS TO FL430.\n\nOUTLOOK VALID 290455-290855\nFROM 30W ALB-40WNW BOS-180SSE HTO-190ESE ECG-140SSE ILM-ATL-50WNW\nODF-60SW RIC-30W ALB\nREF WW 527 530 531.\nWST ISSUANCES EXPD. REFER TO MOST RECENT ACUS01 KWNS FROM STORM\nPREDICTION CENTER FOR SYNOPSIS AND METEOROLOGICAL DETAILS.",
                "validTimeTo": [
                    "2026-07-29T04:55"
                ]
            }
        },
        {
            "type": "Feature",
            "geometry": {
                "type": "Polygon",
                "coordinates": [
                    [
                        [
                            -77.679,
                            40.436
                        ],
                        [
                            -77.486,
                            40.375
                        ],
                        [
                            -77.407,
                            40.228
                        ],
                        [
                            -77.487,
                            40.081
                        ],
                        [
                            -77.679,
                            40.02
                        ],
                        [
                            -77.871,
                            40.081
                        ],
                        [
                            -77.951,
                            40.228
                        ],
                        [
                            -77.872,
                            40.375
                        ],
                        [
                            -77.679,
                            40.436
                        ]
                    ]
                ]
            },
            "properties": {
                "airSigmetId": null,
                "airportIcao": "KKCI",
                "airSigmetType": "SIGMET",
                "hazard": "CONVECTIVE",
                "severity": 5,
                "altitudeLow1": null,
                "altitudeLow2": null,
                "altitudeHi1": 30000,
                "altitudeHi2": 30000,
                "movementDir": 350,
                "movementSpd": 10,
                "rawAirSigmet": "WSUS31 KKCI 290255\nSIGE \nCONVECTIVE SIGMET 16E\nVALID UNTIL 0455Z\nPA\n30W HAR\nISOL EMBD TS D25 MOV FROM 35010KT. TOPS TO FL300.\n\nOUTLOOK VALID 290455-290855\nFROM 30W ALB-40WNW BOS-180SSE HTO-190ESE ECG-140SSE ILM-ATL-50WNW\nODF-60SW RIC-30W ALB\nREF WW 527 530 531.\nWST ISSUANCES EXPD. REFER TO MOST RECENT ACUS01 KWNS FROM STORM\nPREDICTION CENTER FOR SYNOPSIS AND METEOROLOGICAL DETAILS.",
                "validTimeTo": [
                    "2026-07-29T04:55"
                ]
            }
        },
        {
            "type": "Feature",
            "geometry": {
                "type": "Polygon",
                "coordinates": [
                    [
                        [
                            -110.244,
                            38.775
                        ],
                        [
                            -106.415,
                            37.819
                        ],
                        [
                            -105.814,
                            33.334
                        ],
                        [
                            -107.647,
                            33.152
                        ],
                        [
                            -110.135,
                            35.733
                        ],
                        [
                            -110.244,
                            38.775
                        ]
                    ]
                ]
            },
            "properties": {
                "airSigmetId": null,
                "airportIcao": "KKCI",
                "airSigmetType": "SIGMET",
                "hazard": "CONVECTIVE",
                "severity": 5,
                "altitudeLow1": null,
                "altitudeLow2": null,
                "altitudeHi1": 45000,
                "altitudeHi2": 60000,
                "movementDir": 180,
                "movementSpd": 15,
                "rawAirSigmet": "WSUS33 KKCI 290255\nSIGW \nCONVECTIVE SIGMET 12W\nVALID UNTIL 0455Z\nCO NM AZ UT\nFROM 30NE HVE-40NW ALS-60W CME-20WSW TCS-60ESE TBC-30NE HVE\nAREA TS MOV FROM 18015KT. TOPS ABV FL450.\n\nOUTLOOK VALID 290455-290855\nFROM 60SSW GGW-40W ELP-70SSW DMN-50S TUS-EED-60SSW GGW\nWST ISSUANCES EXPD. REFER TO MOST RECENT ACUS01 KWNS FROM STORM\nPREDICTION CENTER FOR SYNOPSIS AND METEOROLOGICAL DETAILS.",
                "validTimeTo": [
                    "2026-07-29T04:55"
                ]
            }
        },
        {
            "type": "Feature",
            "geometry": {
                "type": "Polygon",
                "coordinates": [
                    [
                        [
                            -102.362,
                            44.171
                        ],
                        [
                            -98.845,
                            39.864
                        ],
                        [
                            -105.162,
                            34.418
                        ],
                        [
                            -106.605,
                            41.327
                        ],
                        [
                            -105.436,
                            43.341
                        ],
                        [
                            -102.362,
                            44.171
                        ]
                    ]
                ]
            },
            "properties": {
                "airSigmetId": null,
                "airportIcao": "KKCI",
                "airSigmetType": "SIGMET",
                "hazard": "CONVECTIVE",
                "severity": 5,
                "altitudeLow1": null,
                "altitudeLow2": null,
                "altitudeHi1": 45000,
                "altitudeHi2": 60000,
                "movementDir": 270,
                "movementSpd": 15,
                "rawAirSigmet": "WSUS32 KKCI 290255\nSIGC \nCONVECTIVE SIGMET 7C\nVALID UNTIL 0455Z\nTX OK KS NE SD CO NM WY\nFROM 30ENE RAP-80NW SLN-70NNW CME-40W LAR-40ENE DDY-30ENE RAP\nAREA SEV TS MOV FROM 27015KT. TOPS ABV FL450.\nHAIL TO 2 IN...WIND GUSTS TO 60KT POSS.\n\nOUTLOOK VALID 290455-290855\nFROM 50SW FAR-50SE RWF-50N ONL-30NE SLN-30WNW ELP-40NNW SHR-50SW\nFAR\nWST ISSUANCES EXPD. REFER TO MOST RECENT ACUS01 KWNS FROM STORM\nPREDICTION CENTER FOR SYNOPSIS AND METEOROLOGICAL DETAILS.",
                "validTimeTo": [
                    "2026-07-29T04:55"
                ]
            }
        },
        {
            "type": "Feature",
            "geometry": {
                "type": "Polygon",
                "coordinates": [
                    [
                        [
                            -109.037,
                            40.145
                        ],
                        [
                            -107.205,
                            39.675
                        ],
                        [
                            -111.093,
                            38.547
                        ],
                        [
                            -111.043,
                            39.441
                        ],
                        [
                            -109.037,
                            40.145
                        ]
                    ]
                ]
            },
            "properties": {
                "airSigmetId": null,
                "airportIcao": "KKCI",
                "airSigmetType": "SIGMET",
                "hazard": "CONVECTIVE",
                "severity": 5,
                "altitudeLow1": null,
                "altitudeLow2": null,
                "altitudeHi1": 40000,
                "altitudeHi2": 40000,
                "movementDir": 230,
                "movementSpd": 15,
                "rawAirSigmet": "WSUS33 KKCI 290255\nSIGW \nCONVECTIVE SIGMET 13W\nVALID UNTIL 0455Z\nCO UT\nFROM 50E MTU-20NW DBL-20WNW HVE-60SW MTU-50E MTU\nAREA TS MOV FROM 23015KT. TOPS TO FL400.\n\nOUTLOOK VALID 290455-290855\nFROM 60SSW GGW-40W ELP-70SSW DMN-50S TUS-EED-60SSW GGW\nWST ISSUANCES EXPD. REFER TO MOST RECENT ACUS01 KWNS FROM STORM\nPREDICTION CENTER FOR SYNOPSIS AND METEOROLOGICAL DETAILS.",
                "validTimeTo": [
                    "2026-07-29T04:55"
                ]
            }
        },
        {
            "type": "Feature",
            "geometry": {
                "type": "Polygon",
                "coordinates": [
                    [
                        [
                            -112.65,
                            42.538
                        ],
                        [
                            -114.375,
                            40.921
                        ],
                        [
                            -114.01,
                            42.123
                        ],
                        [
                            -112.65,
                            42.538
                        ]
                    ]
                ]
            },
            "properties": {
                "airSigmetId": null,
                "airportIcao": "KKCI",
                "airSigmetType": "SIGMET",
                "hazard": "CONVECTIVE",
                "severity": 5,
                "altitudeLow1": null,
                "altitudeLow2": null,
                "altitudeHi1": 37000,
                "altitudeHi2": 37000,
                "movementDir": 230,
                "movementSpd": 20,
                "rawAirSigmet": "WSUS33 KKCI 290255\nSIGW \nCONVECTIVE SIGMET 14W\nVALID UNTIL 0455Z\nUT ID NV\nFROM 20S PIH-30WNW BVL-30SE TWF-20S PIH\nAREA TS MOV FROM 23020KT. TOPS TO FL370.\n\nOUTLOOK VALID 290455-290855\nFROM 60SSW GGW-40W ELP-70SSW DMN-50S TUS-EED-60SSW GGW\nWST ISSUANCES EXPD. REFER TO MOST RECENT ACUS01 KWNS FROM STORM\nPREDICTION CENTER FOR SYNOPSIS AND METEOROLOGICAL DETAILS.",
                "validTimeTo": [
                    "2026-07-29T04:55"
                ]
            }
        },
        {
            "type": "Feature",
            "geometry": {
                "type": "Polygon",
                "coordinates": [
                    [
                        [
                            -110.073,
                            46.277
                        ],
                        [
                            -109.507,
                            45.552
                        ],
                        [
                            -111.55,
                            44.558
                        ],
                        [
                            -112.21,
                            44.593
                        ],
                        [
                            -110.073,
                            46.277
                        ]
                    ]
                ]
            },
            "properties": {
                "airSigmetId": null,
                "airportIcao": "KKCI",
                "airSigmetType": "SIGMET",
                "hazard": "CONVECTIVE",
                "severity": 5,
                "altitudeLow1": null,
                "altitudeLow2": null,
                "altitudeHi1": 39000,
                "altitudeHi2": 39000,
                "movementDir": 250,
                "movementSpd": 20,
                "rawAirSigmet": "WSUS33 KKCI 290255\nSIGW \nCONVECTIVE SIGMET 15W\nVALID UNTIL 0455Z\nMT WY ID\nFROM 50SSW LWT-40WSW BIL-40NE DBS-30N DBS-50SSW LWT\nAREA TS MOV FROM 25020KT. TOPS TO FL390.\n\nOUTLOOK VALID 290455-290855\nFROM 60SSW GGW-40W ELP-70SSW DMN-50S TUS-EED-60SSW GGW\nWST ISSUANCES EXPD. REFER TO MOST RECENT ACUS01 KWNS FROM STORM\nPREDICTION CENTER FOR SYNOPSIS AND METEOROLOGICAL DETAILS.",
                "validTimeTo": [
                    "2026-07-29T04:55"
                ]
            }
        },
        {
            "type": "Feature",
            "geometry": {
                "type": "Polygon",
                "coordinates": [
                    [
                        [
                            -101.72,
                            45.915
                        ],
                        [
                            -102.38,
                            44.608
                        ],
                        [
                            -103.46,
                            44.751
                        ],
                        [
                            -103.319,
                            45.937
                        ],
                        [
                            -101.72,
                            45.915
                        ]
                    ]
                ]
            },
            "properties": {
                "airSigmetId": null,
                "airportIcao": "KKCI",
                "airSigmetType": "SIGMET",
                "hazard": "CONVECTIVE",
                "severity": 5,
                "altitudeLow1": null,
                "altitudeLow2": null,
                "altitudeHi1": 37000,
                "altitudeHi2": 37000,
                "movementDir": 260,
                "movementSpd": 20,
                "rawAirSigmet": "WSUS32 KKCI 290255\nSIGC \nCONVECTIVE SIGMET 8C\nVALID UNTIL 0455Z\nSD ND\nFROM 50N DPR-40SW DPR-50NNW RAP-60SSW DIK-50N DPR\nAREA SEV TS MOV FROM 26020KT. TOPS TO FL370.\nWIND GUSTS TO 50KT POSS.\n\nOUTLOOK VALID 290455-290855\nFROM 50SW FAR-50SE RWF-50N ONL-30NE SLN-30WNW ELP-40NNW SHR-50SW\nFAR\nWST ISSUANCES EXPD. REFER TO MOST RECENT ACUS01 KWNS FROM STORM\nPREDICTION CENTER FOR SYNOPSIS AND METEOROLOGICAL DETAILS.",
                "validTimeTo": [
                    "2026-07-29T04:55"
                ]
            }
        }
    ],
    "metadata": {
        "creationTime": "2026-07-29T03:30"
    }
}