{
    "type": "FeatureCollection",
    "features": [
        {
            "type": "Feature",
            "geometry": {
                "type": "Polygon",
                "coordinates": [
                    [
                        [
                            -90.71,
                            43.065
                        ],
                        [
                            -87.737,
                            42.101
                        ],
                        [
                            -89.12,
                            40.803
                        ],
                        [
                            -91.027,
                            42.165
                        ],
                        [
                            -90.71,
                            43.065
                        ]
                    ]
                ]
            },
            "properties": {
                "airSigmetId": null,
                "airportIcao": "KKCI",
                "airSigmetType": "SIGMET",
                "hazard": "CONVECTIVE",
                "severity": 5,
                "altitudeLow1": null,
                "altitudeLow2": null,
                "altitudeHi1": 44000,
                "altitudeHi2": 44000,
                "movementDir": 270,
                "movementSpd": 35,
                "rawAirSigmet": "WSUS32 KKCI 092055\nSIGC \nCONVECTIVE SIGMET 26C\nVALID UNTIL 2255Z\nWI IL IA LM\nFROM 40N DBQ-10NE ORD-30SE BDF-20SW DBQ-40N DBQ\nAREA TS MOV FROM 27035KT. TOPS TO FL440.\n\nOUTLOOK VALID 092255-100255\nAREA 1...FROM 60WSW TVC-TTH-40W COU-30SE OVR-30WSW DBQ-60WSW TVC\nREF WW 546 547.\nWST ISSUANCES EXPD. REFER TO MOST RECENT ACUS01 KWNS FROM STORM\nPREDICTION CENTER FOR SYNOPSIS AND METEOROLOGICAL DETAILS.\n\nAREA 2...FROM 30NW BWG-90S CEW-40S LEV-120ESE PSX-70E BRO-70SSE\nLRD-60S SPS-LIT-30NW BWG\nWST ISSUANCES EXPD. REFER TO MOST RECENT ACUS01 KWNS FROM STORM\nPREDICTION CENTER FOR SYNOPSIS AND METEOROLOGICAL DETAILS.\n\nAREA 3...FROM 60NNE BFF-40SW ONL-40W LBL-50N CME-TCS-50NNE\nCHE-60NNE BFF\nWST ISSUANCES POSS. REFER TO MOST RECENT ACUS01 KWNS FROM STORM\nPREDICTION CENTER FOR SYNOPSIS AND METEOROLOGICAL DETAILS.\n\nAREA 4...FROM 90WSW YWG-50SSW PIR-RAP-60NE GGW-60NE ISN-90WSW YWG\nWST ISSUANCES POSS. REFER TO MOST RECENT ACUS01 KWNS FROM STORM\nPREDICTION CENTER FOR SYNOPSIS AND METEOROLOGICAL DETAILS.",
                "validTimeTo": [
                    "2026-08-09T22:55"
                ]
            }
        },
        {
            "type": "Feature",
            "geometry": {
                "type": "Polygon",
                "coordinates": [
                    [
                        [
                            -91.614,
                            34.871
                        ],
                        [
                            -90.705,
                            33.104
                        ],
                        [
                            -95.304,
                            31.949
                        ],
                        [
                            -97.184,
                            32.991
                        ],
                        [
                            -91.614,
                            34.871
                        ]
                    ]
                ]
            },
            "properties": {
                "airSigmetId": null,
                "airportIcao": "KKCI",
                "airSigmetType": "SIGMET",
                "hazard": "CONVECTIVE",
                "severity": 5,
                "altitudeLow1": null,
                "altitudeLow2": null,
                "altitudeHi1": 35000,
                "altitudeHi2": 35000,
                "movementDir": null,
                "movementSpd": null,
                "rawAirSigmet": "WSUS32 KKCI 092055\nSIGC \nCONVECTIVE SIGMET 27C\nVALID UNTIL 2255Z\nMS LA AR TX OK\nFROM 30ENE LIT-30SW SQS-40SW GGG-10NW TTT-30ENE LIT\nAREA TS MOV LTL. TOPS TO FL350.\n\nOUTLOOK VALID 092255-100255\nAREA 1...FROM 60WSW TVC-TTH-40W COU-30SE OVR-30WSW DBQ-60WSW TVC\nREF WW 546 547.\nWST ISSUANCES EXPD. REFER TO MOST RECENT ACUS01 KWNS FROM STORM\nPREDICTION CENTER FOR SYNOPSIS AND METEOROLOGICAL DETAILS.\n\nAREA 2...FROM 30NW BWG-90S CEW-40S LEV-120ESE PSX-70E BRO-70SSE\nLRD-60S SPS-LIT-30NW BWG\nWST ISSUANCES EXPD. REFER TO MOST RECENT ACUS01 KWNS FROM STORM\nPREDICTION CENTER FOR SYNOPSIS AND METEOROLOGICAL DETAILS.\n\nAREA 3...FROM 60NNE BFF-40SW ONL-40W LBL-50N CME-TCS-50NNE\nCHE-60NNE BFF\nWST ISSUANCES POSS. REFER TO MOST RECENT ACUS01 KWNS FROM STORM\nPREDICTION CENTER FOR SYNOPSIS AND METEOROLOGICAL DETAILS.\n\nAREA 4...FROM 90WSW YWG-50SSW PIR-RAP-60NE GGW-60NE ISN-90WSW YWG\nWST ISSUANCES POSS. REFER TO MOST RECENT ACUS01 KWNS FROM STORM\nPREDICTION CENTER FOR SYNOPSIS AND METEOROLOGICAL DETAILS.",
                "validTimeTo": [
                    "2026-08-09T22:55"
                ]
            }
        },
        {
            "type": "Feature",
            "geometry": {
                "type": "Polygon",
                "coordinates": [
                    [
                        [
                            -95.375,
                            27.931
                        ],
                        [
                            -95.712,
                            25.91
                        ],
                        [
                            -97.555,
                            25.855
                        ],
                        [
                            -98.921,
                            26.4
                        ],
                        [
                            -98.671,
                            27.478
                        ],
                        [
                            -95.375,
                            27.931
                        ]
                    ]
                ]
            },
            "properties": {
                "airSigmetId": null,
                "airportIcao": "KKCI",
                "airSigmetType": "SIGMET",
                "hazard": "CONVECTIVE",
                "severity": 5,
                "altitudeLow1": null,
                "altitudeLow2": null,
                "altitudeHi1": 45000,
                "altitudeHi2": 45000,
                "movementDir": null,
                "movementSpd": null,
                "rawAirSigmet": "WSUS32 KKCI 092055\nSIGC \nCONVECTIVE SIGMET 28C\nVALID UNTIL 2255Z\nTX AND CSTL WTRS\nFROM 70SE PSX-90E BRO-10WSW BRO-70SSE LRD-40E LRD-70SE PSX\nDVLPG AREA TS MOV LTL. TOPS TO FL450.\nREF INTL SIGMET MIKE SERIES.\n\nOUTLOOK VALID 092255-100255\nAREA 1...FROM 60WSW TVC-TTH-40W COU-30SE OVR-30WSW DBQ-60WSW TVC\nREF WW 546 547.\nWST ISSUANCES EXPD. REFER TO MOST RECENT ACUS01 KWNS FROM STORM\nPREDICTION CENTER FOR SYNOPSIS AND METEOROLOGICAL DETAILS.\n\nAREA 2...FROM 30NW BWG-90S CEW-40S LEV-120ESE PSX-70E BRO-70SSE\nLRD-60S SPS-LIT-30NW BWG\nWST ISSUANCES EXPD. REFER TO MOST RECENT ACUS01 KWNS FROM STORM\nPREDICTION CENTER FOR SYNOPSIS AND METEOROLOGICAL DETAILS.\n\nAREA 3...FROM 60NNE BFF-40SW ONL-40W LBL-50N CME-TCS-50NNE\nCHE-60NNE BFF\nWST ISSUANCES POSS. REFER TO MOST RECENT ACUS01 KWNS FROM STORM\nPREDICTION CENTER FOR SYNOPSIS AND METEOROLOGICAL DETAILS.\n\nAREA 4...FROM 90WSW YWG-50SSW PIR-RAP-60NE GGW-60NE ISN-90WSW YWG\nWST ISSUANCES POSS. REFER TO MOST RECENT ACUS01 KWNS FROM STORM\nPREDICTION CENTER FOR SYNOPSIS AND METEOROLOGICAL DETAILS.",
                "validTimeTo": [
                    "2026-08-09T22:55"
                ]
            }
        },
        {
            "type": "Feature",
            "geometry": {
                "type": "Polygon",
                "coordinates": [
                    [
                        [
                            -88.585,
                            31.195
                        ],
                        [
                            -88.521,
                            28.597
                        ],
                        [
                            -93.11,
                            28.307
                        ],
                        [
                            -92.838,
                            30.375
                        ],
                        [
                            -88.585,
                            31.195
                        ]
                    ]
                ]
            },
            "properties": {
                "airSigmetId": null,
                "airportIcao": "KKCI",
                "airSigmetType": "SIGMET",
                "hazard": "CONVECTIVE",
                "severity": 5,
                "altitudeLow1": null,
                "altitudeLow2": null,
                "altitudeHi1": 45000,
                "altitudeHi2": 60000,
                "movementDir": 150,
                "movementSpd": 5,
                "rawAirSigmet": "WSUS32 KKCI 092055\nSIGC \nCONVECTIVE SIGMET 29C\nVALID UNTIL 2255Z\nMS LA AND CSTL WTRS\nFROM 30NNW SJI-90ESE LEV-110S LCH-20NE LCH-30NNW SJI\nAREA TS MOV FROM 15005KT. TOPS ABV FL450.\nREF INTL SIGMET MIKE SERIES.\n\nOUTLOOK VALID 092255-100255\nAREA 1...FROM 60WSW TVC-TTH-40W COU-30SE OVR-30WSW DBQ-60WSW TVC\nREF WW 546 547.\nWST ISSUANCES EXPD. REFER TO MOST RECENT ACUS01 KWNS FROM STORM\nPREDICTION CENTER FOR SYNOPSIS AND METEOROLOGICAL DETAILS.\n\nAREA 2...FROM 30NW BWG-90S CEW-40S LEV-120ESE PSX-70E BRO-70SSE\nLRD-60S SPS-LIT-30NW BWG\nWST ISSUANCES EXPD. REFER TO MOST RECENT ACUS01 KWNS FROM STORM\nPREDICTION CENTER FOR SYNOPSIS AND METEOROLOGICAL DETAILS.\n\nAREA 3...FROM 60NNE BFF-40SW ONL-40W LBL-50N CME-TCS-50NNE\nCHE-60NNE BFF\nWST ISSUANCES POSS. REFER TO MOST RECENT ACUS01 KWNS FROM STORM\nPREDICTION CENTER FOR SYNOPSIS AND METEOROLOGICAL DETAILS.\n\nAREA 4...FROM 90WSW YWG-50SSW PIR-RAP-60NE GGW-60NE ISN-90WSW YWG\nWST ISSUANCES POSS. REFER TO MOST RECENT ACUS01 KWNS FROM STORM\nPREDICTION CENTER FOR SYNOPSIS AND METEOROLOGICAL DETAILS.",
                "validTimeTo": [
                    "2026-08-09T22:55"
                ]
            }
        },
        {
            "type": "Feature",
            "geometry": {
                "type": "Polygon",
                "coordinates": [
                    [
                        [
                            -89.559,
                            36.485
                        ],
                        [
                            -86.095,
                            35.276
                        ],
                        [
                            -88.8,
                            32.38
                        ],
                        [
                            -90.83,
                            32.682
                        ],
                        [
                            -89.559,
                            36.485
                        ]
                    ]
                ]
            },
            "properties": {
                "airSigmetId": null,
                "airportIcao": "KKCI",
                "airSigmetType": "SIGMET",
                "hazard": "CONVECTIVE",
                "severity": 5,
                "altitudeLow1": null,
                "altitudeLow2": null,
                "altitudeHi1": 45000,
                "altitudeHi2": 60000,
                "movementDir": 230,
                "movementSpd": 10,
                "rawAirSigmet": "WSUS32 KKCI 092055\nSIGC \nCONVECTIVE SIGMET 30C\nVALID UNTIL 2255Z\nTN AL MS MO AR\nFROM 30NNW DYR-50WNW GQO-MEI-40WNW MHZ-30NNW DYR\nAREA SEV TS MOV FROM 23010KT. TOPS ABV FL450.\nWIND GUSTS TO 50KT POSS.\n\nOUTLOOK VALID 092255-100255\nAREA 1...FROM 60WSW TVC-TTH-40W COU-30SE OVR-30WSW DBQ-60WSW TVC\nREF WW 546 547.\nWST ISSUANCES EXPD. REFER TO MOST RECENT ACUS01 KWNS FROM STORM\nPREDICTION CENTER FOR SYNOPSIS AND METEOROLOGICAL DETAILS.\n\nAREA 2...FROM 30NW BWG-90S CEW-40S LEV-120ESE PSX-70E BRO-70SSE\nLRD-60S SPS-LIT-30NW BWG\nWST ISSUANCES EXPD. REFER TO MOST RECENT ACUS01 KWNS FROM STORM\nPREDICTION CENTER FOR SYNOPSIS AND METEOROLOGICAL DETAILS.\n\nAREA 3...FROM 60NNE BFF-40SW ONL-40W LBL-50N CME-TCS-50NNE\nCHE-60NNE BFF\nWST ISSUANCES POSS. REFER TO MOST RECENT ACUS01 KWNS FROM STORM\nPREDICTION CENTER FOR SYNOPSIS AND METEOROLOGICAL DETAILS.\n\nAREA 4...FROM 90WSW YWG-50SSW PIR-RAP-60NE GGW-60NE ISN-90WSW YWG\nWST ISSUANCES POSS. REFER TO MOST RECENT ACUS01 KWNS FROM STORM\nPREDICTION CENTER FOR SYNOPSIS AND METEOROLOGICAL DETAILS.",
                "validTimeTo": [
                    "2026-08-09T22:55"
                ]
            }
        },
        {
            "type": "Feature",
            "geometry": {
                "type": "Polygon",
                "coordinates": [
                    [
                        [
                            -93.082,
                            32.514
                        ],
                        [
                            -91.597,
                            31.094
                        ],
                        [
                            -96.923,
                            28.092
                        ],
                        [
                            -98.169,
                            29.026
                        ],
                        [
                            -95.304,
                            31.949
                        ],
                        [
                            -93.082,
                            32.514
                        ]
                    ]
                ]
            },
            "properties": {
                "airSigmetId": null,
                "airportIcao": "KKCI",
                "airSigmetType": "SIGMET",
                "hazard": "CONVECTIVE",
                "severity": 5,
                "altitudeLow1": null,
                "altitudeLow2": null,
                "altitudeHi1": 45000,
                "altitudeHi2": 60000,
                "movementDir": null,
                "movementSpd": null,
                "rawAirSigmet": "WSUS32 KKCI 092055\nSIGC \nCONVECTIVE SIGMET 31C\nVALID UNTIL 2255Z\nLA TX\nFROM 40ESE EIC-40NNW LSU-30ENE CRP-40SSE SAT-40SW GGG-40ESE EIC\nAREA TS MOV LTL. TOPS ABV FL450.\n\nOUTLOOK VALID 092255-100255\nAREA 1...FROM 60WSW TVC-TTH-40W COU-30SE OVR-30WSW DBQ-60WSW TVC\nREF WW 546 547.\nWST ISSUANCES EXPD. REFER TO MOST RECENT ACUS01 KWNS FROM STORM\nPREDICTION CENTER FOR SYNOPSIS AND METEOROLOGICAL DETAILS.\n\nAREA 2...FROM 30NW BWG-90S CEW-40S LEV-120ESE PSX-70E BRO-70SSE\nLRD-60S SPS-LIT-30NW BWG\nWST ISSUANCES EXPD. REFER TO MOST RECENT ACUS01 KWNS FROM STORM\nPREDICTION CENTER FOR SYNOPSIS AND METEOROLOGICAL DETAILS.\n\nAREA 3...FROM 60NNE BFF-40SW ONL-40W LBL-50N CME-TCS-50NNE\nCHE-60NNE BFF\nWST ISSUANCES POSS. REFER TO MOST RECENT ACUS01 KWNS FROM STORM\nPREDICTION CENTER FOR SYNOPSIS AND METEOROLOGICAL DETAILS.\n\nAREA 4...FROM 90WSW YWG-50SSW PIR-RAP-60NE GGW-60NE ISN-90WSW YWG\nWST ISSUANCES POSS. REFER TO MOST RECENT ACUS01 KWNS FROM STORM\nPREDICTION CENTER FOR SYNOPSIS AND METEOROLOGICAL DETAILS.",
                "validTimeTo": [
                    "2026-08-09T22:55"
                ]
            }
        },
        {
            "type": "Feature",
            "geometry": {
                "type": "Polygon",
                "coordinates": [
                    [
                        [
                            -113.589,
                            42.476
                        ],
                        [
                            -112.768,
                            41.438
                        ],
                        [
                            -115.607,
                            40.563
                        ],
                        [
                            -115.665,
                            41.503
                        ],
                        [
                            -113.589,
                            42.476
                        ]
                    ]
                ]
            },
            "properties": {
                "airSigmetId": null,
                "airportIcao": "KKCI",
                "airSigmetType": "SIGMET",
                "hazard": "CONVECTIVE",
                "severity": 5,
                "altitudeLow1": null,
                "altitudeLow2": null,
                "altitudeHi1": 39000,
                "altitudeHi2": 39000,
                "movementDir": 240,
                "movementSpd": 15,
                "rawAirSigmet": "WSUS33 KKCI 092055\nSIGW \nCONVECTIVE SIGMET 36W\nVALID UNTIL 2255Z\nUT ID NV\nFROM 40E TWF-50NW SLC-60E BAM-80NE BAM-40E TWF\nAREA EMBD TS MOV FROM 24015KT. TOPS TO FL390.\n\nOUTLOOK VALID 092255-100255\nFROM 40WSW DDY-30SSE TCS-60SSE SSO-50SSW TUS-MZB-FMG-30NE\nTWF-40WSW DDY\nWST ISSUANCES EXPD. REFER TO MOST RECENT ACUS01 KWNS FROM STORM\nPREDICTION CENTER FOR SYNOPSIS AND METEOROLOGICAL DETAILS.",
                "validTimeTo": [
                    "2026-08-09T22:55"
                ]
            }
        },
        {
            "type": "Feature",
            "geometry": {
                "type": "Polygon",
                "coordinates": [
                    [
                        [
                            -113.288,
                            41.085
                        ],
                        [
                            -113.301,
                            39.043
                        ],
                        [
                            -119.076,
                            37.468
                        ],
                        [
                            -119.987,
                            38.915
                        ],
                        [
                            -113.288,
                            41.085
                        ]
                    ]
                ]
            },
            "properties": {
                "airSigmetId": null,
                "airportIcao": "KKCI",
                "airSigmetType": "SIGMET",
                "hazard": "CONVECTIVE",
                "severity": 5,
                "altitudeLow1": null,
                "altitudeLow2": null,
                "altitudeHi1": 43000,
                "altitudeHi2": 43000,
                "movementDir": 240,
                "movementSpd": 15,
                "rawAirSigmet": "WSUS33 KKCI 092055\nSIGW \nCONVECTIVE SIGMET 37W\nVALID UNTIL 2255Z\nUT NV CA\nFROM 30NE BVL-40WSW DTA-50NE CZQ-40SSW FMG-30NE BVL\nAREA EMBD TS MOV FROM 24015KT. TOPS TO FL430.\n\nOUTLOOK VALID 092255-100255\nFROM 40WSW DDY-30SSE TCS-60SSE SSO-50SSW TUS-MZB-FMG-30NE\nTWF-40WSW DDY\nWST ISSUANCES EXPD. REFER TO MOST RECENT ACUS01 KWNS FROM STORM\nPREDICTION CENTER FOR SYNOPSIS AND METEOROLOGICAL DETAILS.",
                "validTimeTo": [
                    "2026-08-09T22:55"
                ]
            }
        },
        {
            "type": "Feature",
            "geometry": {
                "type": "Polygon",
                "coordinates": [
                    [
                        [
                            -105.825,
                            43.089
                        ],
                        [
                            -104.308,
                            42.141
                        ],
                        [
                            -112.205,
                            39.535
                        ],
                        [
                            -112.795,
                            41.102
                        ],
                        [
                            -105.825,
                            43.089
                        ]
                    ]
                ]
            },
            "properties": {
                "airSigmetId": null,
                "airportIcao": "KKCI",
                "airSigmetType": "SIGMET",
                "hazard": "CONVECTIVE",
                "severity": 5,
                "altitudeLow1": null,
                "altitudeLow2": null,
                "altitudeHi1": 38000,
                "altitudeHi2": 38000,
                "movementDir": 290,
                "movementSpd": 15,
                "rawAirSigmet": "WSUS33 KKCI 092055\nSIGW \nCONVECTIVE SIGMET 38W\nVALID UNTIL 2255Z\nCO WY UT\nFROM 20E DDY-40WNW BFF-20NE DTA-40WNW SLC-20E DDY\nAREA EMBD TS MOV FROM 29015KT. TOPS TO FL380.\n\nOUTLOOK VALID 092255-100255\nFROM 40WSW DDY-30SSE TCS-60SSE SSO-50SSW TUS-MZB-FMG-30NE\nTWF-40WSW DDY\nWST ISSUANCES EXPD. REFER TO MOST RECENT ACUS01 KWNS FROM STORM\nPREDICTION CENTER FOR SYNOPSIS AND METEOROLOGICAL DETAILS.",
                "validTimeTo": [
                    "2026-08-09T22:55"
                ]
            }
        },
        {
            "type": "Feature",
            "geometry": {
                "type": "Polygon",
                "coordinates": [
                    [
                        [
                            -110.13,
                            39.485
                        ],
                        [
                            -111.142,
                            37.303
                        ],
                        [
                            -114.39,
                            37.585
                        ],
                        [
                            -113.503,
                            38.976
                        ],
                        [
                            -110.13,
                            39.485
                        ]
                    ]
                ]
            },
            "properties": {
                "airSigmetId": null,
                "airportIcao": "KKCI",
                "airSigmetType": "SIGMET",
                "hazard": "CONVECTIVE",
                "severity": 5,
                "altitudeLow1": null,
                "altitudeLow2": null,
                "altitudeHi1": 41000,
                "altitudeHi2": 41000,
                "movementDir": 270,
                "movementSpd": 15,
                "rawAirSigmet": "WSUS33 KKCI 092055\nSIGW \nCONVECTIVE SIGMET 39W\nVALID UNTIL 2255Z\nUT NV\nFROM 40S MTU-60ESE BCE-40S ILC-50WSW DTA-40S MTU\nAREA EMBD TS MOV FROM 27015KT. TOPS TO FL410.\n\nOUTLOOK VALID 092255-100255\nFROM 40WSW DDY-30SSE TCS-60SSE SSO-50SSW TUS-MZB-FMG-30NE\nTWF-40WSW DDY\nWST ISSUANCES EXPD. REFER TO MOST RECENT ACUS01 KWNS FROM STORM\nPREDICTION CENTER FOR SYNOPSIS AND METEOROLOGICAL DETAILS.",
                "validTimeTo": [
                    "2026-08-09T22:55"
                ]
            }
        },
        {
            "type": "Feature",
            "geometry": {
                "type": "Polygon",
                "coordinates": [
                    [
                        [
                            -115.279,
                            37.542
                        ],
                        [
                            -114.682,
                            37
                        ],
                        [
                            -114.923,
                            35.615
                        ],
                        [
                            -117.027,
                            34.991
                        ],
                        [
                            -115.279,
                            37.542
                        ]
                    ]
                ]
            },
            "properties": {
                "airSigmetId": null,
                "airportIcao": "KKCI",
                "airSigmetType": "SIGMET",
                "hazard": "CONVECTIVE",
                "severity": 5,
                "altitudeLow1": null,
                "altitudeLow2": null,
                "altitudeHi1": 39000,
                "altitudeHi2": 39000,
                "movementDir": 200,
                "movementSpd": 10,
                "rawAirSigmet": "WSUS33 KKCI 092055\nSIGW \nCONVECTIVE SIGMET 40W\nVALID UNTIL 2255Z\nNV CA\nFROM 60SW ILC-60NNE LAS-30SSE LAS-30WNW HEC-60SW ILC\nAREA EMBD TS MOV FROM 20010KT. TOPS TO FL390.\n\nOUTLOOK VALID 092255-100255\nFROM 40WSW DDY-30SSE TCS-60SSE SSO-50SSW TUS-MZB-FMG-30NE\nTWF-40WSW DDY\nWST ISSUANCES EXPD. REFER TO MOST RECENT ACUS01 KWNS FROM STORM\nPREDICTION CENTER FOR SYNOPSIS AND METEOROLOGICAL DETAILS.",
                "validTimeTo": [
                    "2026-08-09T22:55"
                ]
            }
        },
        {
            "type": "Feature",
            "geometry": {
                "type": "Polygon",
                "coordinates": [
                    [
                        [
                            -116.46,
                            35.132
                        ],
                        [
                            -116.16,
                            32.633
                        ],
                        [
                            -116.951,
                            32.545
                        ],
                        [
                            -117.713,
                            34.519
                        ],
                        [
                            -116.46,
                            35.132
                        ]
                    ]
                ]
            },
            "properties": {
                "airSigmetId": null,
                "airportIcao": "KKCI",
                "airSigmetType": "SIGMET",
                "hazard": "CONVECTIVE",
                "severity": 5,
                "altitudeLow1": null,
                "altitudeLow2": null,
                "altitudeHi1": 42000,
                "altitudeHi2": 42000,
                "movementDir": 160,
                "movementSpd": 10,
                "rawAirSigmet": "WSUS33 KKCI 092055\nSIGW \nCONVECTIVE SIGMET 41W\nVALID UNTIL 2255Z\nCA\nFROM 20N HEC-60S TRM-20SE MZB-50NE LAX-20N HEC\nAREA EMBD TS MOV FROM 16010KT. TOPS TO FL420.\n\nOUTLOOK VALID 092255-100255\nFROM 40WSW DDY-30SSE TCS-60SSE SSO-50SSW TUS-MZB-FMG-30NE\nTWF-40WSW DDY\nWST ISSUANCES EXPD. REFER TO MOST RECENT ACUS01 KWNS FROM STORM\nPREDICTION CENTER FOR SYNOPSIS AND METEOROLOGICAL DETAILS.",
                "validTimeTo": [
                    "2026-08-09T22:55"
                ]
            }
        },
        {
            "type": "Feature",
            "geometry": {
                "type": "Polygon",
                "coordinates": [
                    [
                        [
                            -113.829,
                            37.17
                        ],
                        [
                            -111.559,
                            37.097
                        ],
                        [
                            -110.072,
                            34.097
                        ],
                        [
                            -112.787,
                            34.085
                        ],
                        [
                            -113.829,
                            37.17
                        ]
                    ]
                ]
            },
            "properties": {
                "airSigmetId": null,
                "airportIcao": "KKCI",
                "airSigmetType": "SIGMET",
                "hazard": "CONVECTIVE",
                "severity": 5,
                "altitudeLow1": null,
                "altitudeLow2": null,
                "altitudeHi1": 40000,
                "altitudeHi2": 40000,
                "movementDir": 160,
                "movementSpd": 10,
                "rawAirSigmet": "WSUS33 KKCI 092055\nSIGW \nCONVECTIVE SIGMET 42W\nVALID UNTIL 2255Z\nAZ UT\nFROM 70SSE ILC-50SE BCE-50WSW SJN-40SSW DRK-70SSE ILC\nAREA EMBD TS MOV FROM 16010KT. TOPS TO FL400.\n\nOUTLOOK VALID 092255-100255\nFROM 40WSW DDY-30SSE TCS-60SSE SSO-50SSW TUS-MZB-FMG-30NE\nTWF-40WSW DDY\nWST ISSUANCES EXPD. REFER TO MOST RECENT ACUS01 KWNS FROM STORM\nPREDICTION CENTER FOR SYNOPSIS AND METEOROLOGICAL DETAILS.",
                "validTimeTo": [
                    "2026-08-09T22:55"
                ]
            }
        },
        {
            "type": "Feature",
            "geometry": {
                "type": "Polygon",
                "coordinates": [
                    [
                        [
                            -104.353,
                            40.045
                        ],
                        [
                            -103.017,
                            37.076
                        ],
                        [
                            -108.386,
                            32.278
                        ],
                        [
                            -110.825,
                            33.424
                        ],
                        [
                            -104.353,
                            40.045
                        ]
                    ]
                ]
            },
            "properties": {
                "airSigmetId": null,
                "airportIcao": "KKCI",
                "airSigmetType": "SIGMET",
                "hazard": "CONVECTIVE",
                "severity": 5,
                "altitudeLow1": null,
                "altitudeLow2": null,
                "altitudeHi1": 45000,
                "altitudeHi2": 45000,
                "movementDir": 160,
                "movementSpd": 10,
                "rawAirSigmet": "WSUS33 KKCI 092055\nSIGW \nCONVECTIVE SIGMET 43W\nVALID UNTIL 2255Z\nCO NM AZ\nFROM 20NE DEN-30ESE TBE-40W DMN-60E PHX-20NE DEN\nAREA EMBD TS MOV FROM 16010KT. TOPS TO FL450.\n\nOUTLOOK VALID 092255-100255\nFROM 40WSW DDY-30SSE TCS-60SSE SSO-50SSW TUS-MZB-FMG-30NE\nTWF-40WSW DDY\nWST ISSUANCES EXPD. REFER TO MOST RECENT ACUS01 KWNS FROM STORM\nPREDICTION CENTER FOR SYNOPSIS AND METEOROLOGICAL DETAILS.",
                "validTimeTo": [
                    "2026-08-09T22:55"
                ]
            }
        },
        {
            "type": "Feature",
            "geometry": {
                "type": "Polygon",
                "coordinates": [
                    [
                        [
                            -78.541,
                            36.335
                        ],
                        [
                            -77.87,
                            35.185
                        ],
                        [
                            -79.097,
                            34.421
                        ],
                        [
                            -79.98,
                            35.547
                        ],
                        [
                            -78.541,
                            36.335
                        ]
                    ]
                ]
            },
            "properties": {
                "airSigmetId": null,
                "airportIcao": "KKCI",
                "airSigmetType": "SIGMET",
                "hazard": "CONVECTIVE",
                "severity": 5,
                "altitudeLow1": null,
                "altitudeLow2": null,
                "altitudeHi1": 44000,
                "altitudeHi2": 44000,
                "movementDir": 250,
                "movementSpd": 10,
                "rawAirSigmet": "WSUS31 KKCI 092110\nSIGE \nCONVECTIVE SIGMET 25E\nVALID UNTIL 2255Z\nNC\nFROM 30NNE RDU-50N ILM-30ENE FLO-30S GSO-30NNE RDU\nAREA SEV TS MOV FROM 25010KT. TOPS TO FL440.\nWIND GUSTS TO 50KT POSS.\n...SPECIAL FOR SEV TS CRITERIA...\n\nOUTLOOK VALID 092255-100255\nAREA 1...FROM 160SSE ILM-170ENE TRV-60NE TRV-70ENE OMN-110SE\nSAV-160SSE ILM\nWST ISSUANCES EXPD. REFER TO MOST RECENT ACUS01 KWNS FROM STORM\nPREDICTION CENTER FOR SYNOPSIS AND METEOROLOGICAL DETAILS.\n\nAREA 2...FROM 30ESE APE-60ENE ORF-100SE ECG-ILM-SAV-120SSE\nMIA-EYW-50W CTY-40SSW CEW-30WNW BWG-30ESE APE\nWST ISSUANCES EXPD. REFER TO MOST RECENT ACUS01 KWNS FROM STORM\nPREDICTION CENTER FOR SYNOPSIS AND METEOROLOGICAL DETAILS.\n\nAREA 3...FROM 70NW PQI-40NNE PQI-50SW YSJ-30SE BGR-70NW PQI\nWST ISSUANCES EXPD. REFER TO MOST RECENT ACUS01 KWNS FROM STORM\nPREDICTION CENTER FOR SYNOPSIS AND METEOROLOGICAL DETAILS.\n\nAREA 4...FROM 40W ASP-DXO-ROD-BVT-60WSW TVC-40W ASP\nWST ISSUANCES POSS. REFER TO MOST RECENT ACUS01 KWNS FROM STORM\nPREDICTION CENTER FOR SYNOPSIS AND METEOROLOGICAL DETAILS.",
                "validTimeTo": [
                    "2026-08-09T22:55"
                ]
            }
        },
        {
            "type": "Feature",
            "geometry": {
                "type": "Polygon",
                "coordinates": [
                    [
                        [
                            -80.65,
                            33.859
                        ],
                        [
                            -78.749,
                            33.33
                        ],
                        [
                            -81.099,
                            29.984
                        ],
                        [
                            -82.759,
                            28.986
                        ],
                        [
                            -83.984,
                            30.559
                        ],
                        [
                            -80.65,
                            33.859
                        ]
                    ]
                ]
            },
            "properties": {
                "airSigmetId": null,
                "airportIcao": "KKCI",
                "airSigmetType": "SIGMET",
                "hazard": "CONVECTIVE",
                "severity": 5,
                "altitudeLow1": null,
                "altitudeLow2": null,
                "altitudeHi1": 45000,
                "altitudeHi2": 60000,
                "movementDir": 250,
                "movementSpd": 15,
                "rawAirSigmet": "WSUS31 KKCI 092110\nSIGE \nCONVECTIVE SIGMET 24E\nVALID UNTIL 2255Z\nSC FL GA AND CSTL WTRS\nFROM 20E CAE-70ENE CHS-30SE CRG-40SSE CTY-20E TLH-20E CAE\nAREA TS MOV FROM 25015KT. TOPS ABV FL450.\n\nOUTLOOK VALID 092255-100255\nAREA 1...FROM 160SSE ILM-170ENE TRV-60NE TRV-70ENE OMN-110SE\nSAV-160SSE ILM\nWST ISSUANCES EXPD. REFER TO MOST RECENT ACUS01 KWNS FROM STORM\nPREDICTION CENTER FOR SYNOPSIS AND METEOROLOGICAL DETAILS.\n\nAREA 2...FROM 30ESE APE-60ENE ORF-100SE ECG-ILM-SAV-120SSE\nMIA-EYW-50W CTY-40SSW CEW-30WNW BWG-30ESE APE\nWST ISSUANCES EXPD. REFER TO MOST RECENT ACUS01 KWNS FROM STORM\nPREDICTION CENTER FOR SYNOPSIS AND METEOROLOGICAL DETAILS.\n\nAREA 3...FROM 70NW PQI-40NNE PQI-50SW YSJ-30SE BGR-70NW PQI\nWST ISSUANCES EXPD. REFER TO MOST RECENT ACUS01 KWNS FROM STORM\nPREDICTION CENTER FOR SYNOPSIS AND METEOROLOGICAL DETAILS.\n\nAREA 4...FROM 40W ASP-DXO-ROD-BVT-60WSW TVC-40W ASP\nWST ISSUANCES POSS. REFER TO MOST RECENT ACUS01 KWNS FROM STORM\nPREDICTION CENTER FOR SYNOPSIS AND METEOROLOGICAL DETAILS.",
                "validTimeTo": [
                    "2026-08-09T22:55"
                ]
            }
        },
        {
            "type": "Feature",
            "geometry": {
                "type": "Polygon",
                "coordinates": [
                    [
                        [
                            -80.817,
                            29.914
                        ],
                        [
                            -80.305,
                            26.215
                        ],
                        [
                            -81.8,
                            25.425
                        ],
                        [
                            -83.117,
                            27.399
                        ],
                        [
                            -82.375,
                            29.008
                        ],
                        [
                            -80.817,
                            29.914
                        ]
                    ]
                ]
            },
            "properties": {
                "airSigmetId": null,
                "airportIcao": "KKCI",
                "airSigmetType": "SIGMET",
                "hazard": "CONVECTIVE",
                "severity": 5,
                "altitudeLow1": null,
                "altitudeLow2": null,
                "altitudeHi1": 45000,
                "altitudeHi2": 60000,
                "movementDir": 120,
                "movementSpd": 10,
                "rawAirSigmet": "WSUS31 KKCI 092110\nSIGE \nCONVECTIVE SIGMET 26E\nVALID UNTIL 2255Z\nFL AND CSTL WTRS\nFROM 40NNE OMN-30SSW PBI-50N EYW-30W SRQ-50SE CTY-40NNE OMN\nAREA TS MOV FROM 12010KT. TOPS ABV FL450.\n\nOUTLOOK VALID 092255-100255\nAREA 1...FROM 160SSE ILM-170ENE TRV-60NE TRV-70ENE OMN-110SE\nSAV-160SSE ILM\nWST ISSUANCES EXPD. REFER TO MOST RECENT ACUS01 KWNS FROM STORM\nPREDICTION CENTER FOR SYNOPSIS AND METEOROLOGICAL DETAILS.\n\nAREA 2...FROM 30ESE APE-60ENE ORF-100SE ECG-ILM-SAV-120SSE\nMIA-EYW-50W CTY-40SSW CEW-30WNW BWG-30ESE APE\nWST ISSUANCES EXPD. REFER TO MOST RECENT ACUS01 KWNS FROM STORM\nPREDICTION CENTER FOR SYNOPSIS AND METEOROLOGICAL DETAILS.\n\nAREA 3...FROM 70NW PQI-40NNE PQI-50SW YSJ-30SE BGR-70NW PQI\nWST ISSUANCES EXPD. REFER TO MOST RECENT ACUS01 KWNS FROM STORM\nPREDICTION CENTER FOR SYNOPSIS AND METEOROLOGICAL DETAILS.\n\nAREA 4...FROM 40W ASP-DXO-ROD-BVT-60WSW TVC-40W ASP\nWST ISSUANCES POSS. REFER TO MOST RECENT ACUS01 KWNS FROM STORM\nPREDICTION CENTER FOR SYNOPSIS AND METEOROLOGICAL DETAILS.",
                "validTimeTo": [
                    "2026-08-09T22:55"
                ]
            }
        },
        {
            "type": "Feature",
            "geometry": {
                "type": "Polygon",
                "coordinates": [
                    [
                        [
                            -79.28,
                            25.415
                        ],
                        [
                            -79.395,
                            23.797
                        ],
                        [
                            -81.8,
                            24.087
                        ],
                        [
                            -81.587,
                            25.055
                        ],
                        [
                            -79.28,
                            25.415
                        ]
                    ]
                ]
            },
            "properties": {
                "airSigmetId": null,
                "airportIcao": "KKCI",
                "airSigmetType": "SIGMET",
                "hazard": "CONVECTIVE",
                "severity": 5,
                "altitudeLow1": null,
                "altitudeLow2": null,
                "altitudeHi1": 45000,
                "altitudeHi2": 60000,
                "movementDir": 90,
                "movementSpd": 20,
                "rawAirSigmet": "WSUS31 KKCI 092110\nSIGE \nCONVECTIVE SIGMET 27E\nVALID UNTIL 2255Z\nFL AND CSTL WTRS\nFROM 60ESE MIA-130SSE MIA-30S EYW-30NNE EYW-60ESE MIA\nAREA TS MOV FROM 09020KT. TOPS ABV FL450.\n\nOUTLOOK VALID 092255-100255\nAREA 1...FROM 160SSE ILM-170ENE TRV-60NE TRV-70ENE OMN-110SE\nSAV-160SSE ILM\nWST ISSUANCES EXPD. REFER TO MOST RECENT ACUS01 KWNS FROM STORM\nPREDICTION CENTER FOR SYNOPSIS AND METEOROLOGICAL DETAILS.\n\nAREA 2...FROM 30ESE APE-60ENE ORF-100SE ECG-ILM-SAV-120SSE\nMIA-EYW-50W CTY-40SSW CEW-30WNW BWG-30ESE APE\nWST ISSUANCES EXPD. REFER TO MOST RECENT ACUS01 KWNS FROM STORM\nPREDICTION CENTER FOR SYNOPSIS AND METEOROLOGICAL DETAILS.\n\nAREA 3...FROM 70NW PQI-40NNE PQI-50SW YSJ-30SE BGR-70NW PQI\nWST ISSUANCES EXPD. REFER TO MOST RECENT ACUS01 KWNS FROM STORM\nPREDICTION CENTER FOR SYNOPSIS AND METEOROLOGICAL DETAILS.\n\nAREA 4...FROM 40W ASP-DXO-ROD-BVT-60WSW TVC-40W ASP\nWST ISSUANCES POSS. REFER TO MOST RECENT ACUS01 KWNS FROM STORM\nPREDICTION CENTER FOR SYNOPSIS AND METEOROLOGICAL DETAILS.",
                "validTimeTo": [
                    "2026-08-09T22:55"
                ]
            }
        },
        {
            "type": "Feature",
            "geometry": {
                "type": "Polygon",
                "coordinates": [
                    [
                        [
                            -86.215,
                            43.477
                        ],
                        [
                            -83.905,
                            43.091
                        ],
                        [
                            -84.524,
                            40.978
                        ],
                        [
                            -88.633,
                            41.315
                        ],
                        [
                            -86.215,
                            43.477
                        ]
                    ]
                ]
            },
            "properties": {
                "airSigmetId": null,
                "airportIcao": "KKCI",
                "airSigmetType": "SIGMET",
                "hazard": "CONVECTIVE",
                "severity": 5,
                "altitudeLow1": null,
                "altitudeLow2": null,
                "altitudeHi1": 45000,
                "altitudeHi2": 60000,
                "movementDir": 270,
                "movementSpd": 35,
                "rawAirSigmet": "WSUS31 KKCI 092110\nSIGE \nCONVECTIVE SIGMET 28E\nVALID UNTIL 2255Z\nOH MI IN IL LM\nFROM 20NNW MKG-10NW FNT-30E FWA-20SW JOT-20NNW MKG\nAREA SEV TS MOV FROM 27035KT. TOPS ABV FL450.\nHAIL TO 1 IN...WIND GUSTS TO 50KT POSS.\n\nOUTLOOK VALID 092255-100255\nAREA 1...FROM 160SSE ILM-170ENE TRV-60NE TRV-70ENE OMN-110SE\nSAV-160SSE ILM\nWST ISSUANCES EXPD. REFER TO MOST RECENT ACUS01 KWNS FROM STORM\nPREDICTION CENTER FOR SYNOPSIS AND METEOROLOGICAL DETAILS.\n\nAREA 2...FROM 30ESE APE-60ENE ORF-100SE ECG-ILM-SAV-120SSE\nMIA-EYW-50W CTY-40SSW CEW-30WNW BWG-30ESE APE\nWST ISSUANCES EXPD. REFER TO MOST RECENT ACUS01 KWNS FROM STORM\nPREDICTION CENTER FOR SYNOPSIS AND METEOROLOGICAL DETAILS.\n\nAREA 3...FROM 70NW PQI-40NNE PQI-50SW YSJ-30SE BGR-70NW PQI\nWST ISSUANCES EXPD. REFER TO MOST RECENT ACUS01 KWNS FROM STORM\nPREDICTION CENTER FOR SYNOPSIS AND METEOROLOGICAL DETAILS.\n\nAREA 4...FROM 40W ASP-DXO-ROD-BVT-60WSW TVC-40W ASP\nWST ISSUANCES POSS. REFER TO MOST RECENT ACUS01 KWNS FROM STORM\nPREDICTION CENTER FOR SYNOPSIS AND METEOROLOGICAL DETAILS.",
                "validTimeTo": [
                    "2026-08-09T22:55"
                ]
            }
        },
        {
            "type": "Feature",
            "geometry": {
                "type": "Polygon",
                "coordinates": [
                    [
                        [
                            -84.158,
                            33.395
                        ],
                        [
                            -83.226,
                            33.045
                        ],
                        [
                            -85.263,
                            30.237
                        ],
                        [
                            -87.82,
                            30.536
                        ],
                        [
                            -87.23,
                            31.299
                        ],
                        [
                            -84.158,
                            33.395
                        ]
                    ]
                ]
            },
            "properties": {
                "airSigmetId": null,
                "airportIcao": "KKCI",
                "airSigmetType": "SIGMET",
                "hazard": "CONVECTIVE",
                "severity": 5,
                "altitudeLow1": null,
                "altitudeLow2": null,
                "altitudeHi1": 45000,
                "altitudeHi2": 60000,
                "movementDir": 230,
                "movementSpd": 10,
                "rawAirSigmet": "WSUS31 KKCI 092110\nSIGE \nCONVECTIVE SIGMET 29E\nVALID UNTIL 2255Z\nFL GA AL\nFROM 20SE ATL-30NE MCN-50WSW TLH-30ESE SJI-40NW CEW-20SE ATL\nAREA TS MOV FROM 23010KT. TOPS ABV FL450.\n\nOUTLOOK VALID 092255-100255\nAREA 1...FROM 160SSE ILM-170ENE TRV-60NE TRV-70ENE OMN-110SE\nSAV-160SSE ILM\nWST ISSUANCES EXPD. REFER TO MOST RECENT ACUS01 KWNS FROM STORM\nPREDICTION CENTER FOR SYNOPSIS AND METEOROLOGICAL DETAILS.\n\nAREA 2...FROM 30ESE APE-60ENE ORF-100SE ECG-ILM-SAV-120SSE\nMIA-EYW-50W CTY-40SSW CEW-30WNW BWG-30ESE APE\nWST ISSUANCES EXPD. REFER TO MOST RECENT ACUS01 KWNS FROM STORM\nPREDICTION CENTER FOR SYNOPSIS AND METEOROLOGICAL DETAILS.\n\nAREA 3...FROM 70NW PQI-40NNE PQI-50SW YSJ-30SE BGR-70NW PQI\nWST ISSUANCES EXPD. REFER TO MOST RECENT ACUS01 KWNS FROM STORM\nPREDICTION CENTER FOR SYNOPSIS AND METEOROLOGICAL DETAILS.\n\nAREA 4...FROM 40W ASP-DXO-ROD-BVT-60WSW TVC-40W ASP\nWST ISSUANCES POSS. REFER TO MOST RECENT ACUS01 KWNS FROM STORM\nPREDICTION CENTER FOR SYNOPSIS AND METEOROLOGICAL DETAILS.",
                "validTimeTo": [
                    "2026-08-09T22:55"
                ]
            }
        },
        {
            "type": "Feature",
            "geometry": {
                "type": "Polygon",
                "coordinates": [
                    [
                        [
                            -81.425,
                            39.826
                        ],
                        [
                            -77.615,
                            37.265
                        ],
                        [
                            -87.23,
                            31.299
                        ],
                        [
                            -88.8,
                            32.38
                        ],
                        [
                            -81.425,
                            39.826
                        ]
                    ]
                ]
            },
            "properties": {
                "airSigmetId": null,
                "airportIcao": "KKCI",
                "airSigmetType": "SIGMET",
                "hazard": "CONVECTIVE",
                "severity": 5,
                "altitudeLow1": null,
                "altitudeLow2": null,
                "altitudeHi1": 45000,
                "altitudeHi2": 60000,
                "movementDir": 250,
                "movementSpd": 10,
                "rawAirSigmet": "WSUS31 KKCI 092110\nSIGE \nCONVECTIVE SIGMET 30E\nVALID UNTIL 2255Z\nVA NC WV SC OH GA TN KY AL MS\nFROM 30WSW AIR-20SW RIC-40NW CEW-MEI-30WSW AIR\nAREA SEV TS MOV FROM 25010KT. TOPS ABV FL450.\nHAIL TO 1 IN...WIND GUSTS TO 50KT POSS.\n\nOUTLOOK VALID 092255-100255\nAREA 1...FROM 160SSE ILM-170ENE TRV-60NE TRV-70ENE OMN-110SE\nSAV-160SSE ILM\nWST ISSUANCES EXPD. REFER TO MOST RECENT ACUS01 KWNS FROM STORM\nPREDICTION CENTER FOR SYNOPSIS AND METEOROLOGICAL DETAILS.\n\nAREA 2...FROM 30ESE APE-60ENE ORF-100SE ECG-ILM-SAV-120SSE\nMIA-EYW-50W CTY-40SSW CEW-30WNW BWG-30ESE APE\nWST ISSUANCES EXPD. REFER TO MOST RECENT ACUS01 KWNS FROM STORM\nPREDICTION CENTER FOR SYNOPSIS AND METEOROLOGICAL DETAILS.\n\nAREA 3...FROM 70NW PQI-40NNE PQI-50SW YSJ-30SE BGR-70NW PQI\nWST ISSUANCES EXPD. REFER TO MOST RECENT ACUS01 KWNS FROM STORM\nPREDICTION CENTER FOR SYNOPSIS AND METEOROLOGICAL DETAILS.\n\nAREA 4...FROM 40W ASP-DXO-ROD-BVT-60WSW TVC-40W ASP\nWST ISSUANCES POSS. REFER TO MOST RECENT ACUS01 KWNS FROM STORM\nPREDICTION CENTER FOR SYNOPSIS AND METEOROLOGICAL DETAILS.",
                "validTimeTo": [
                    "2026-08-09T22:55"
                ]
            }
        },
        {
            "type": "Feature",
            "geometry": {
                "type": "Polygon",
                "coordinates": [
                    [
                        [
                            -82.796,
                            40.215
                        ],
                        [
                            -82.26,
                            39.535
                        ],
                        [
                            -83.218,
                            39.126
                        ],
                        [
                            -83.789,
                            39.825
                        ],
                        [
                            -82.796,
                            40.215
                        ]
                    ]
                ]
            },
            "properties": {
                "airSigmetId": null,
                "airportIcao": "KKCI",
                "airSigmetType": "SIGMET",
                "hazard": "CONVECTIVE",
                "severity": 5,
                "altitudeLow1": null,
                "altitudeLow2": null,
                "altitudeHi1": 45000,
                "altitudeHi2": 60000,
                "movementDir": 260,
                "movementSpd": 20,
                "rawAirSigmet": "WSUS31 KKCI 092110\nSIGE \nCONVECTIVE SIGMET 31E\nVALID UNTIL 2255Z\nOH\nFROM 10WNW APE-40SSE APE-60WNW HNN-30SSE ROD-10WNW APE\nAREA TS MOV FROM 26020KT. TOPS ABV FL450.\n\nOUTLOOK VALID 092255-100255\nAREA 1...FROM 160SSE ILM-170ENE TRV-60NE TRV-70ENE OMN-110SE\nSAV-160SSE ILM\nWST ISSUANCES EXPD. REFER TO MOST RECENT ACUS01 KWNS FROM STORM\nPREDICTION CENTER FOR SYNOPSIS AND METEOROLOGICAL DETAILS.\n\nAREA 2...FROM 30ESE APE-60ENE ORF-100SE ECG-ILM-SAV-120SSE\nMIA-EYW-50W CTY-40SSW CEW-30WNW BWG-30ESE APE\nWST ISSUANCES EXPD. REFER TO MOST RECENT ACUS01 KWNS FROM STORM\nPREDICTION CENTER FOR SYNOPSIS AND METEOROLOGICAL DETAILS.\n\nAREA 3...FROM 70NW PQI-40NNE PQI-50SW YSJ-30SE BGR-70NW PQI\nWST ISSUANCES EXPD. REFER TO MOST RECENT ACUS01 KWNS FROM STORM\nPREDICTION CENTER FOR SYNOPSIS AND METEOROLOGICAL DETAILS.\n\nAREA 4...FROM 40W ASP-DXO-ROD-BVT-60WSW TVC-40W ASP\nWST ISSUANCES POSS. REFER TO MOST RECENT ACUS01 KWNS FROM STORM\nPREDICTION CENTER FOR SYNOPSIS AND METEOROLOGICAL DETAILS.",
                "validTimeTo": [
                    "2026-08-09T22:55"
                ]
            }
        },
        {
            "type": "Feature",
            "geometry": {
                "type": "Polygon",
                "coordinates": [
                    [
                        [
                            -68.09,
                            47.435
                        ],
                        [
                            -67.163,
                            45.846
                        ],
                        [
                            -68.701,
                            45.273
                        ],
                        [
                            -68.962,
                            47.357
                        ],
                        [
                            -68.09,
                            47.435
                        ]
                    ]
                ]
            },
            "properties": {
                "airSigmetId": null,
                "airportIcao": "KKCI",
                "airSigmetType": "SIGMET",
                "hazard": "CONVECTIVE",
                "severity": 5,
                "altitudeLow1": null,
                "altitudeLow2": null,
                "altitudeHi1": 40000,
                "altitudeHi2": 40000,
                "movementDir": 260,
                "movementSpd": 15,
                "rawAirSigmet": "WSUS31 KKCI 092110\nSIGE \nCONVECTIVE SIGMET 32E\nVALID UNTIL 2255Z\nME\nFROM 40N PQI-30ESE HUL-20SSW MLT-50NW PQI-40N PQI\nAREA TS MOV FROM 26015KT. TOPS TO FL400.\n\nOUTLOOK VALID 092255-100255\nAREA 1...FROM 160SSE ILM-170ENE TRV-60NE TRV-70ENE OMN-110SE\nSAV-160SSE ILM\nWST ISSUANCES EXPD. REFER TO MOST RECENT ACUS01 KWNS FROM STORM\nPREDICTION CENTER FOR SYNOPSIS AND METEOROLOGICAL DETAILS.\n\nAREA 2...FROM 30ESE APE-60ENE ORF-100SE ECG-ILM-SAV-120SSE\nMIA-EYW-50W CTY-40SSW CEW-30WNW BWG-30ESE APE\nWST ISSUANCES EXPD. REFER TO MOST RECENT ACUS01 KWNS FROM STORM\nPREDICTION CENTER FOR SYNOPSIS AND METEOROLOGICAL DETAILS.\n\nAREA 3...FROM 70NW PQI-40NNE PQI-50SW YSJ-30SE BGR-70NW PQI\nWST ISSUANCES EXPD. REFER TO MOST RECENT ACUS01 KWNS FROM STORM\nPREDICTION CENTER FOR SYNOPSIS AND METEOROLOGICAL DETAILS.\n\nAREA 4...FROM 40W ASP-DXO-ROD-BVT-60WSW TVC-40W ASP\nWST ISSUANCES POSS. REFER TO MOST RECENT ACUS01 KWNS FROM STORM\nPREDICTION CENTER FOR SYNOPSIS AND METEOROLOGICAL DETAILS.",
                "validTimeTo": [
                    "2026-08-09T22:55"
                ]
            }
        }
    ],
    "metadata": {
        "creationTime": "2026-08-09T21:39"
    }
}