{
    "type": "FeatureCollection",
    "features": [
        {
            "type": "Feature",
            "geometry": {
                "type": "Polygon",
                "coordinates": [
                    [
                        [
                            -80.004,
                            37.502
                        ],
                        [
                            -79.019,
                            36.335
                        ],
                        [
                            -83.88,
                            33.155
                        ],
                        [
                            -84.722,
                            33.395
                        ],
                        [
                            -84.465,
                            36.091
                        ],
                        [
                            -80.004,
                            37.502
                        ]
                    ]
                ]
            },
            "properties": {
                "airSigmetId": null,
                "airportIcao": "KKCI",
                "airSigmetType": "SIGMET",
                "hazard": "CONVECTIVE",
                "severity": 5,
                "altitudeLow1": null,
                "altitudeLow2": null,
                "altitudeHi1": 45000,
                "altitudeHi2": 45000,
                "movementDir": 230,
                "movementSpd": 10,
                "rawAirSigmet": "WSUS31 KKCI 221355\nSIGE \nCONVECTIVE SIGMET 96E\nVALID UNTIL 1555Z\nVA NC SC GA TN\nFROM 40WNW LYH-30NNW RDU-30NNW MCN-20SW ATL-30WNW VXV-40WNW LYH\nAREA EMBD TS MOV FROM 23010KT. TOPS TO FL450.\n\nOUTLOOK VALID 221555-221955\nFROM EWC-HAR-180ESE ECG-140SSE ILM-180ENE PBI-130SSE MIA-60SW\nEYW-80WSW SRQ-50SW CEW-30N GQO-EWC\nWST ISSUANCES EXPD. REFER TO MOST RECENT ACUS01 KWNS FROM STORM\nPREDICTION CENTER FOR SYNOPSIS AND METEOROLOGICAL DETAILS.",
                "validTimeTo": [
                    "2026-09-22T15:55"
                ]
            }
        },
        {
            "type": "Feature",
            "geometry": {
                "type": "Polygon",
                "coordinates": [
                    [
                        [
                            -77.184,
                            30.642
                        ],
                        [
                            -76.434,
                            27.97
                        ],
                        [
                            -80.038,
                            26.035
                        ],
                        [
                            -80.639,
                            28.793
                        ],
                        [
                            -77.184,
                            30.642
                        ]
                    ]
                ]
            },
            "properties": {
                "airSigmetId": null,
                "airportIcao": "KKCI",
                "airSigmetType": "SIGMET",
                "hazard": "CONVECTIVE",
                "severity": 5,
                "altitudeLow1": null,
                "altitudeLow2": null,
                "altitudeHi1": 45000,
                "altitudeHi2": 60000,
                "movementDir": null,
                "movementSpd": null,
                "rawAirSigmet": "WSUS31 KKCI 221355\nSIGE \nCONVECTIVE SIGMET 97E\nVALID UNTIL 1555Z\nFL AND CSTL WTRS\nFROM 220ENE OMN-210ENE PBI-20NE MIA-40ENE ORL-220ENE OMN\nAREA TS MOV LTL. TOPS ABV FL450.\nREFER INTL SIGMET GOLF SERIES.\n\nOUTLOOK VALID 221555-221955\nFROM EWC-HAR-180ESE ECG-140SSE ILM-180ENE PBI-130SSE MIA-60SW\nEYW-80WSW SRQ-50SW CEW-30N GQO-EWC\nWST ISSUANCES EXPD. REFER TO MOST RECENT ACUS01 KWNS FROM STORM\nPREDICTION CENTER FOR SYNOPSIS AND METEOROLOGICAL DETAILS.",
                "validTimeTo": [
                    "2026-09-22T15:55"
                ]
            }
        },
        {
            "type": "Feature",
            "geometry": {
                "type": "Polygon",
                "coordinates": [
                    [
                        [
                            -110.875,
                            41.671
                        ],
                        [
                            -111.104,
                            37.647
                        ],
                        [
                            -112.14,
                            37.383
                        ],
                        [
                            -114.099,
                            41.344
                        ],
                        [
                            -110.875,
                            41.671
                        ]
                    ]
                ]
            },
            "properties": {
                "airSigmetId": null,
                "airportIcao": "KKCI",
                "airSigmetType": "SIGMET",
                "hazard": "CONVECTIVE",
                "severity": 5,
                "altitudeLow1": null,
                "altitudeLow2": null,
                "altitudeHi1": 39000,
                "altitudeHi2": 39000,
                "movementDir": 180,
                "movementSpd": 30,
                "rawAirSigmet": "WSUS33 KKCI 221355\nSIGW \nCONVECTIVE SIGMET 23W\nVALID UNTIL 1555Z\nUT NV\nFROM 70NE SLC-50SSW HVE-20SSE BCE-40NNW BVL-70NE SLC\nAREA TS MOV FROM 18030KT. TOPS TO FL390.\n\nOUTLOOK VALID 221555-221955\nAREA 1...FROM 70ENE BOI-BOY-70SSE HVE-60SSW ILC-70ENE BOI\nWST ISSUANCES POSS. REFER TO MOST RECENT ACUS01 KWNS FROM STORM\nPREDICTION CENTER FOR SYNOPSIS AND METEOROLOGICAL DETAILS.\n\nAREA 2...FROM 30SW CYS-40SE PUB-40SE ELP-50SSW TUS-70ENE\nTBC-30WNW CHE-30SW CYS\nWST ISSUANCES POSS. REFER TO MOST RECENT ACUS01 KWNS FROM STORM\nPREDICTION CENTER FOR SYNOPSIS AND METEOROLOGICAL DETAILS.",
                "validTimeTo": [
                    "2026-09-22T15:55"
                ]
            }
        },
        {
            "type": "Feature",
            "geometry": {
                "type": "Polygon",
                "coordinates": [
                    [
                        [
                            -88.209,
                            37.573
                        ],
                        [
                            -87.092,
                            36.139
                        ],
                        [
                            -92.755,
                            35.149
                        ],
                        [
                            -93.296,
                            36.247
                        ],
                        [
                            -88.209,
                            37.573
                        ]
                    ]
                ]
            },
            "properties": {
                "airSigmetId": null,
                "airportIcao": "KKCI",
                "airSigmetType": "SIGMET",
                "hazard": "CONVECTIVE",
                "severity": 5,
                "altitudeLow1": null,
                "altitudeLow2": null,
                "altitudeHi1": 45000,
                "altitudeHi2": 45000,
                "movementDir": 270,
                "movementSpd": 20,
                "rawAirSigmet": "WSUS32 KKCI 221355\nSIGC \nCONVECTIVE SIGMET 79C\nVALID UNTIL 1555Z\nTN KY IL MO AR\nFROM 30SW PXV-20W BNA-40NW LIT-40E RZC-30SW PXV\nAREA TS MOV FROM 27020KT. TOPS TO FL450.\n\nOUTLOOK VALID 221555-221955\nTS ARE NOT EXPD TO REQUIRE WST ISSUANCES.",
                "validTimeTo": [
                    "2026-09-22T15:55"
                ]
            }
        },
        {
            "type": "Feature",
            "geometry": {
                "type": "Polygon",
                "coordinates": [
                    [
                        [
                            -89.85,
                            43.708
                        ],
                        [
                            -87.9,
                            42.483
                        ],
                        [
                            -90.414,
                            39.847
                        ],
                        [
                            -92.59,
                            40.975
                        ],
                        [
                            -89.85,
                            43.708
                        ]
                    ]
                ]
            },
            "properties": {
                "airSigmetId": null,
                "airportIcao": "KKCI",
                "airSigmetType": "SIGMET",
                "hazard": "CONVECTIVE",
                "severity": 5,
                "altitudeLow1": null,
                "altitudeLow2": null,
                "altitudeHi1": 37000,
                "altitudeHi2": 37000,
                "movementDir": 220,
                "movementSpd": 10,
                "rawAirSigmet": "WSUS32 KKCI 221355\nSIGC \nCONVECTIVE SIGMET 80C\nVALID UNTIL 1555Z\nWI IL MO IA\nFROM 10NNW DLL-30N ORD-40E UIN-50N IRK-10NNW DLL\nAREA TS MOV FROM 22010KT. TOPS TO FL370.\n\nOUTLOOK VALID 221555-221955\nTS ARE NOT EXPD TO REQUIRE WST ISSUANCES.",
                "validTimeTo": [
                    "2026-09-22T15:55"
                ]
            }
        },
        {
            "type": "Feature",
            "geometry": {
                "type": "Polygon",
                "coordinates": [
                    [
                        [
                            -101.64,
                            35.29
                        ],
                        [
                            -99.419,
                            35.072
                        ],
                        [
                            -101.842,
                            33.542
                        ],
                        [
                            -102.525,
                            33.699
                        ],
                        [
                            -101.64,
                            35.29
                        ]
                    ]
                ]
            },
            "properties": {
                "airSigmetId": null,
                "airportIcao": "KKCI",
                "airSigmetType": "SIGMET",
                "hazard": "CONVECTIVE",
                "severity": 5,
                "altitudeLow1": null,
                "altitudeLow2": null,
                "altitudeHi1": 41000,
                "altitudeHi2": 41000,
                "movementDir": 230,
                "movementSpd": 5,
                "rawAirSigmet": "WSUS32 KKCI 221355\nSIGC \nCONVECTIVE SIGMET 81C\nVALID UNTIL 1555Z\nTX OK\nFROM AMA-60NE CDS-10SSE LBB-30W LBB-AMA\nAREA TS MOV FROM 23005KT. TOPS TO FL410.\n\nOUTLOOK VALID 221555-221955\nTS ARE NOT EXPD TO REQUIRE WST ISSUANCES.",
                "validTimeTo": [
                    "2026-09-22T15:55"
                ]
            }
        },
        {
            "type": "Feature",
            "geometry": {
                "type": "Polygon",
                "coordinates": [
                    [
                        [
                            -98.788,
                            35.642
                        ],
                        [
                            -96.855,
                            35.612
                        ],
                        [
                            -97.17,
                            34.381
                        ],
                        [
                            -99.055,
                            34.91
                        ],
                        [
                            -98.788,
                            35.642
                        ]
                    ]
                ]
            },
            "properties": {
                "airSigmetId": null,
                "airportIcao": "KKCI",
                "airSigmetType": "SIGMET",
                "hazard": "CONVECTIVE",
                "severity": 5,
                "altitudeLow1": null,
                "altitudeLow2": null,
                "altitudeHi1": 35000,
                "altitudeHi2": 35000,
                "movementDir": 270,
                "movementSpd": 15,
                "rawAirSigmet": "WSUS32 KKCI 221355\nSIGC \nCONVECTIVE SIGMET 82C\nVALID UNTIL 1555Z\nOK\nFROM 60SW END-40ENE OKC-10N ADM-60NNW SPS-60SW END\nAREA TS MOV FROM 27015KT. TOPS TO FL350.\n\nOUTLOOK VALID 221555-221955\nTS ARE NOT EXPD TO REQUIRE WST ISSUANCES.",
                "validTimeTo": [
                    "2026-09-22T15:55"
                ]
            }
        },
        {
            "type": "Feature",
            "geometry": {
                "type": "Polygon",
                "coordinates": [
                    [
                        [
                            -106.595,
                            37.602
                        ],
                        [
                            -104.43,
                            36.133
                        ],
                        [
                            -105.296,
                            35.353
                        ],
                        [
                            -107.331,
                            37.002
                        ],
                        [
                            -106.595,
                            37.602
                        ]
                    ]
                ]
            },
            "properties": {
                "airSigmetId": null,
                "airportIcao": "KKCI",
                "airSigmetType": "SIGMET",
                "hazard": "CONVECTIVE",
                "severity": 5,
                "altitudeLow1": null,
                "altitudeLow2": null,
                "altitudeHi1": 34000,
                "altitudeHi2": 34000,
                "movementDir": null,
                "movementSpd": null,
                "rawAirSigmet": "WSUS32 KKCI 221355\nSIGC \nCONVECTIVE SIGMET 83C\nVALID UNTIL 1555Z\nCO NM\nFROM 40WNW ALS-30SE CIM-20SSW FTI-40ENE RSK-40WNW ALS\nAREA TS MOV LTL. TOPS TO FL340.\n\nOUTLOOK VALID 221555-221955\nTS ARE NOT EXPD TO REQUIRE WST ISSUANCES.",
                "validTimeTo": [
                    "2026-09-22T15:55"
                ]
            }
        },
        {
            "type": "Feature",
            "geometry": {
                "type": "Polygon",
                "coordinates": [
                    [
                        [
                            -88.729,
                            29.958
                        ],
                        [
                            -87.846,
                            29.65
                        ],
                        [
                            -88.521,
                            28.597
                        ],
                        [
                            -89.113,
                            29.527
                        ],
                        [
                            -88.729,
                            29.958
                        ]
                    ]
                ]
            },
            "properties": {
                "airSigmetId": null,
                "airportIcao": "KKCI",
                "airSigmetType": "SIGMET",
                "hazard": "CONVECTIVE",
                "severity": 5,
                "altitudeLow1": null,
                "altitudeLow2": null,
                "altitudeHi1": 36000,
                "altitudeHi2": 36000,
                "movementDir": 20,
                "movementSpd": 10,
                "rawAirSigmet": "WSUS32 KKCI 221355\nSIGC \nCONVECTIVE SIGMET 84C\nVALID UNTIL 1555Z\nLA AND AL MS LA CSTL WTRS\nFROM 50SSW SJI-70SSE SJI-90ESE LEV-50ESE HRV-50SSW SJI\nAREA TS MOV FROM 02010KT. TOPS TO FL360.\n\nOUTLOOK VALID 221555-221955\nTS ARE NOT EXPD TO REQUIRE WST ISSUANCES.",
                "validTimeTo": [
                    "2026-09-22T15:55"
                ]
            }
        },
        {
            "type": "Feature",
            "geometry": {
                "type": "Polygon",
                "coordinates": [
                    [
                        [
                            -78.366,
                            39.963
                        ],
                        [
                            -77.625,
                            38.175
                        ],
                        [
                            -81.509,
                            37.907
                        ],
                        [
                            -80.82,
                            39.355
                        ],
                        [
                            -78.366,
                            39.963
                        ]
                    ]
                ]
            },
            "properties": {
                "airSigmetId": null,
                "airportIcao": "KKCI",
                "airSigmetType": "SIGMET",
                "hazard": "CONVECTIVE",
                "severity": 5,
                "altitudeLow1": null,
                "altitudeLow2": null,
                "altitudeHi1": 33000,
                "altitudeHi2": 33000,
                "movementDir": 240,
                "movementSpd": 20,
                "rawAirSigmet": "WSUS31 KKCI 221355\nSIGE \nCONVECTIVE SIGMET 98E\nVALID UNTIL 1555Z\nPA MD VA WV\nFROM 30SE JST-30SSE CSN-20WNW BKW-40S AIR-30SE JST\nAREA EMBD TS MOV FROM 24020KT. TOPS TO FL330.\n\nOUTLOOK VALID 221555-221955\nFROM EWC-HAR-180ESE ECG-140SSE ILM-180ENE PBI-130SSE MIA-60SW\nEYW-80WSW SRQ-50SW CEW-30N GQO-EWC\nWST ISSUANCES EXPD. REFER TO MOST RECENT ACUS01 KWNS FROM STORM\nPREDICTION CENTER FOR SYNOPSIS AND METEOROLOGICAL DETAILS.",
                "validTimeTo": [
                    "2026-09-22T15:55"
                ]
            }
        },
        {
            "type": "Feature",
            "geometry": {
                "type": "Polygon",
                "coordinates": [
                    [
                        [
                            -83.992,
                            28.771
                        ],
                        [
                            -81.038,
                            25.798
                        ],
                        [
                            -82.137,
                            24.462
                        ],
                        [
                            -84.257,
                            28.534
                        ],
                        [
                            -83.992,
                            28.771
                        ]
                    ]
                ]
            },
            "properties": {
                "airSigmetId": null,
                "airportIcao": "KKCI",
                "airSigmetType": "SIGMET",
                "hazard": "CONVECTIVE",
                "severity": 5,
                "altitudeLow1": null,
                "altitudeLow2": null,
                "altitudeHi1": 43000,
                "altitudeHi2": 43000,
                "movementDir": 170,
                "movementSpd": 10,
                "rawAirSigmet": "WSUS31 KKCI 221355\nSIGE \nCONVECTIVE SIGMET 99E\nVALID UNTIL 1555Z\nFL AND CSTL WTRS\nFROM 70SW CTY-40W MIA-20WSW EYW-90SW CTY-70SW CTY\nAREA TS MOV FROM 17010KT. TOPS TO FL430.\n\nOUTLOOK VALID 221555-221955\nFROM EWC-HAR-180ESE ECG-140SSE ILM-180ENE PBI-130SSE MIA-60SW\nEYW-80WSW SRQ-50SW CEW-30N GQO-EWC\nWST ISSUANCES EXPD. REFER TO MOST RECENT ACUS01 KWNS FROM STORM\nPREDICTION CENTER FOR SYNOPSIS AND METEOROLOGICAL DETAILS.",
                "validTimeTo": [
                    "2026-09-22T15:55"
                ]
            }
        },
        {
            "type": "Feature",
            "geometry": {
                "type": "Polygon",
                "coordinates": [
                    [
                        [
                            -74.454,
                            37.451
                        ],
                        [
                            -73.496,
                            36.22
                        ],
                        [
                            -77.579,
                            30.751
                        ],
                        [
                            -81.11,
                            32.663
                        ],
                        [
                            -74.454,
                            37.451
                        ]
                    ]
                ]
            },
            "properties": {
                "airSigmetId": null,
                "airportIcao": "KKCI",
                "airSigmetType": "SIGMET",
                "hazard": "CONVECTIVE",
                "severity": 5,
                "altitudeLow1": null,
                "altitudeLow2": null,
                "altitudeHi1": 41000,
                "altitudeHi2": 41000,
                "movementDir": 170,
                "movementSpd": 10,
                "rawAirSigmet": "WSUS31 KKCI 221355\nSIGE \nCONVECTIVE SIGMET 01E\nVALID UNTIL 1555Z\nNC SC AND NC VA SC GA CSTL WTRS\nFROM 90ENE ORF-130E ECG-180SE CHS-30N SAV-90ENE ORF\nAREA TS MOV FROM 17010KT. TOPS TO FL410.\nREFER INTL SIGMET DELTA SERIES.\n\nOUTLOOK VALID 221555-221955\nFROM EWC-HAR-180ESE ECG-140SSE ILM-180ENE PBI-130SSE MIA-60SW\nEYW-80WSW SRQ-50SW CEW-30N GQO-EWC\nWST ISSUANCES EXPD. REFER TO MOST RECENT ACUS01 KWNS FROM STORM\nPREDICTION CENTER FOR SYNOPSIS AND METEOROLOGICAL DETAILS.",
                "validTimeTo": [
                    "2026-09-22T15:55"
                ]
            }
        },
        {
            "type": "Feature",
            "geometry": {
                "type": "Polygon",
                "coordinates": [
                    [
                        [
                            -86.386,
                            30.216
                        ],
                        [
                            -83.272,
                            30.065
                        ],
                        [
                            -83.855,
                            28.892
                        ],
                        [
                            -86.68,
                            29.5
                        ],
                        [
                            -86.386,
                            30.216
                        ]
                    ]
                ]
            },
            "properties": {
                "airSigmetId": null,
                "airportIcao": "KKCI",
                "airSigmetType": "SIGMET",
                "hazard": "CONVECTIVE",
                "severity": 5,
                "altitudeLow1": null,
                "altitudeLow2": null,
                "altitudeHi1": 45000,
                "altitudeHi2": 60000,
                "movementDir": null,
                "movementSpd": null,
                "rawAirSigmet": "WSUS31 KKCI 221355\nSIGE \nCONVECTIVE SIGMET 02E\nVALID UNTIL 1555Z\nFL AND CSTL WTRS\nFROM 40SSE CEW-30NNW CTY-60SW CTY-80S CEW-40SSE CEW\nAREA TS MOV LTL. TOPS ABV FL450.\n\nOUTLOOK VALID 221555-221955\nFROM EWC-HAR-180ESE ECG-140SSE ILM-180ENE PBI-130SSE MIA-60SW\nEYW-80WSW SRQ-50SW CEW-30N GQO-EWC\nWST ISSUANCES EXPD. REFER TO MOST RECENT ACUS01 KWNS FROM STORM\nPREDICTION CENTER FOR SYNOPSIS AND METEOROLOGICAL DETAILS.",
                "validTimeTo": [
                    "2026-09-22T15:55"
                ]
            }
        },
        {
            "type": "Feature",
            "geometry": {
                "type": "Polygon",
                "coordinates": [
                    [
                        [
                            -80.441,
                            25.493
                        ],
                        [
                            -79.007,
                            24.619
                        ],
                        [
                            -79.395,
                            23.797
                        ],
                        [
                            -80.283,
                            24.008
                        ],
                        [
                            -80.441,
                            25.493
                        ]
                    ]
                ]
            },
            "properties": {
                "airSigmetId": null,
                "airportIcao": "KKCI",
                "airSigmetType": "SIGMET",
                "hazard": "CONVECTIVE",
                "severity": 5,
                "altitudeLow1": null,
                "altitudeLow2": null,
                "altitudeHi1": 40000,
                "altitudeHi2": 40000,
                "movementDir": 160,
                "movementSpd": 10,
                "rawAirSigmet": "WSUS31 KKCI 221355\nSIGE \nCONVECTIVE SIGMET 03E\nVALID UNTIL 1555Z\nFL AND CSTL WTRS\nFROM 20SSW MIA-100SE MIA-130SSE MIA-90ESE EYW-20SSW MIA\nAREA TS MOV FROM 16010KT. TOPS TO FL400.\n\nOUTLOOK VALID 221555-221955\nFROM EWC-HAR-180ESE ECG-140SSE ILM-180ENE PBI-130SSE MIA-60SW\nEYW-80WSW SRQ-50SW CEW-30N GQO-EWC\nWST ISSUANCES EXPD. REFER TO MOST RECENT ACUS01 KWNS FROM STORM\nPREDICTION CENTER FOR SYNOPSIS AND METEOROLOGICAL DETAILS.",
                "validTimeTo": [
                    "2026-09-22T15:55"
                ]
            }
        }
    ],
    "metadata": {
        "creationTime": "2026-09-22T14:38"
    }
}