{
    "type": "FeatureCollection",
    "features": [
        {
            "type": "Feature",
            "geometry": {
                "type": "Polygon",
                "coordinates": [
                    [
                        [
                            -89.234,
                            29.848
                        ],
                        [
                            -84.37,
                            29.895
                        ],
                        [
                            -84.257,
                            28.534
                        ],
                        [
                            -87.659,
                            28.268
                        ],
                        [
                            -89.234,
                            29.848
                        ]
                    ]
                ]
            },
            "properties": {
                "airSigmetId": null,
                "airportIcao": "KKCI",
                "airSigmetType": "SIGMET",
                "hazard": "CONVECTIVE",
                "severity": 5,
                "altitudeLow1": null,
                "altitudeLow2": null,
                "altitudeHi1": 35000,
                "altitudeHi2": 35000,
                "movementDir": 350,
                "movementSpd": 15,
                "rawAirSigmet": "WSUS31 KKCI 181855\nSIGE \nCONVECTIVE SIGMET 39E\nVALID UNTIL 2055Z\nFL LA AND FL AL MS LA CSTL WTRS\nFROM 40E HRV-40S TLH-90SW CTY-140ESE LEV-40E HRV\nAREA TS MOV FROM 35015KT. TOPS TO FL350.\n\nOUTLOOK VALID 182055-190055\nFROM 30SE SQS-50SSW VUZ-40WNW TLH-30ENE CRG-50E TRV-110WSW\nRSW-100WSW PIE-120ESE LEV-40E HRV-30SE SQS\nWST ISSUANCES POSS. REFER TO MOST RECENT ACUS01 KWNS FROM STORM\nPREDICTION CENTER FOR SYNOPSIS AND METEOROLOGICAL DETAILS.",
                "validTimeTo": [
                    "2026-08-18T20:55"
                ]
            }
        },
        {
            "type": "Feature",
            "geometry": {
                "type": "Polygon",
                "coordinates": [
                    [
                        [
                            -81.816,
                            29.553
                        ],
                        [
                            -80.228,
                            28.977
                        ],
                        [
                            -80.297,
                            27.68
                        ],
                        [
                            -82.111,
                            27.909
                        ],
                        [
                            -82.512,
                            29.129
                        ],
                        [
                            -81.816,
                            29.553
                        ]
                    ]
                ]
            },
            "properties": {
                "airSigmetId": null,
                "airportIcao": "KKCI",
                "airSigmetType": "SIGMET",
                "hazard": "CONVECTIVE",
                "severity": 5,
                "altitudeLow1": null,
                "altitudeLow2": null,
                "altitudeHi1": 45000,
                "altitudeHi2": 60000,
                "movementDir": 320,
                "movementSpd": 15,
                "rawAirSigmet": "WSUS31 KKCI 181855\nSIGE \nCONVECTIVE SIGMET 40E\nVALID UNTIL 2055Z\nFL AND CSTL WTRS\nFROM 40WNW OMN-50ESE OMN-10E TRV-30E PIE-40SE CTY-40WNW OMN\nAREA TS MOV FROM 32015KT. TOPS ABV FL450.\n\nOUTLOOK VALID 182055-190055\nFROM 30SE SQS-50SSW VUZ-40WNW TLH-30ENE CRG-50E TRV-110WSW\nRSW-100WSW PIE-120ESE LEV-40E HRV-30SE SQS\nWST ISSUANCES POSS. REFER TO MOST RECENT ACUS01 KWNS FROM STORM\nPREDICTION CENTER FOR SYNOPSIS AND METEOROLOGICAL DETAILS.",
                "validTimeTo": [
                    "2026-08-18T20:55"
                ]
            }
        },
        {
            "type": "Feature",
            "geometry": {
                "type": "Polygon",
                "coordinates": [
                    [
                        [
                            -91.47,
                            43.578
                        ],
                        [
                            -88.28,
                            43.291
                        ],
                        [
                            -89.117,
                            42.138
                        ],
                        [
                            -92.375,
                            42.381
                        ],
                        [
                            -91.47,
                            43.578
                        ]
                    ]
                ]
            },
            "properties": {
                "airSigmetId": null,
                "airportIcao": "KKCI",
                "airSigmetType": "SIGMET",
                "hazard": "CONVECTIVE",
                "severity": 5,
                "altitudeLow1": null,
                "altitudeLow2": null,
                "altitudeHi1": 38000,
                "altitudeHi2": 38000,
                "movementDir": 260,
                "movementSpd": 25,
                "rawAirSigmet": "WSUS32 KKCI 181855\nSIGC \nCONVECTIVE SIGMET 91C\nVALID UNTIL 2055Z\nWI IL MN IA\nFROM 20S ODI-10N BAE-50NW JOT-60SE MCW-20S ODI\nAREA TS MOV FROM 26025KT. TOPS TO FL380.\n\nOUTLOOK VALID 182055-190055\nAREA 1...FROM 30W SSM-50NNW ASP-40WNW PMM-UIN-50E SLN-50WNW\nPWE-40N FOD-EAU-60NE GRB-30W SSM\nWST ISSUANCES EXPD. REFER TO MOST RECENT ACUS01 KWNS FROM STORM\nPREDICTION CENTER FOR SYNOPSIS AND METEOROLOGICAL DETAILS.\n\nAREA 2...FROM 60NW MLS-30NNW DPR-PIR-50W LBF-60SW DEN-CHE-60NW\nMLS\nWST ISSUANCES EXPD. REFER TO MOST RECENT ACUS01 KWNS FROM STORM\nPREDICTION CENTER FOR SYNOPSIS AND METEOROLOGICAL DETAILS.",
                "validTimeTo": [
                    "2026-08-18T20:55"
                ]
            }
        },
        {
            "type": "Feature",
            "geometry": {
                "type": "Polygon",
                "coordinates": [
                    [
                        [
                            -94.74,
                            40.287
                        ],
                        [
                            -92.92,
                            39.525
                        ],
                        [
                            -94.337,
                            38.149
                        ],
                        [
                            -95.88,
                            39.585
                        ],
                        [
                            -95.551,
                            40.198
                        ],
                        [
                            -94.74,
                            40.287
                        ]
                    ]
                ]
            },
            "properties": {
                "airSigmetId": null,
                "airportIcao": "KKCI",
                "airSigmetType": "SIGMET",
                "hazard": "CONVECTIVE",
                "severity": 5,
                "altitudeLow1": null,
                "altitudeLow2": null,
                "altitudeHi1": 36000,
                "altitudeHi2": 36000,
                "movementDir": 290,
                "movementSpd": 35,
                "rawAirSigmet": "WSUS32 KKCI 181855\nSIGC \nCONVECTIVE SIGMET 92C\nVALID UNTIL 2055Z\nMO KS NE\nFROM 60N MCI-40SSW IRK-10SE BUM-40SSE PWE-30E PWE-60N MCI\nAREA EMBD TS MOV FROM 29035KT. TOPS TO FL360.\n\nOUTLOOK VALID 182055-190055\nAREA 1...FROM 30W SSM-50NNW ASP-40WNW PMM-UIN-50E SLN-50WNW\nPWE-40N FOD-EAU-60NE GRB-30W SSM\nWST ISSUANCES EXPD. REFER TO MOST RECENT ACUS01 KWNS FROM STORM\nPREDICTION CENTER FOR SYNOPSIS AND METEOROLOGICAL DETAILS.\n\nAREA 2...FROM 60NW MLS-30NNW DPR-PIR-50W LBF-60SW DEN-CHE-60NW\nMLS\nWST ISSUANCES EXPD. REFER TO MOST RECENT ACUS01 KWNS FROM STORM\nPREDICTION CENTER FOR SYNOPSIS AND METEOROLOGICAL DETAILS.",
                "validTimeTo": [
                    "2026-08-18T20:55"
                ]
            }
        },
        {
            "type": "Feature",
            "geometry": {
                "type": "Polygon",
                "coordinates": [
                    [
                        [
                            -95.059,
                            29.735
                        ],
                        [
                            -96.501,
                            28.733
                        ],
                        [
                            -96.267,
                            28.471
                        ],
                        [
                            -94.823,
                            29.473
                        ],
                        [
                            -95.059,
                            29.735
                        ]
                    ]
                ]
            },
            "properties": {
                "airSigmetId": null,
                "airportIcao": "KKCI",
                "airSigmetType": "SIGMET",
                "hazard": "CONVECTIVE",
                "severity": 5,
                "altitudeLow1": null,
                "altitudeLow2": null,
                "altitudeHi1": 36000,
                "altitudeHi2": 36000,
                "movementDir": null,
                "movementSpd": null,
                "rawAirSigmet": "WSUS32 KKCI 181855\nSIGC \nCONVECTIVE SIGMET 93C\nVALID UNTIL 2055Z\nTX\nFROM 30SE IAH-10SSW PSX\nLINE TS 20 NM WIDE MOV LTL. TOPS TO FL360.\n\nOUTLOOK VALID 182055-190055\nAREA 1...FROM 30W SSM-50NNW ASP-40WNW PMM-UIN-50E SLN-50WNW\nPWE-40N FOD-EAU-60NE GRB-30W SSM\nWST ISSUANCES EXPD. REFER TO MOST RECENT ACUS01 KWNS FROM STORM\nPREDICTION CENTER FOR SYNOPSIS AND METEOROLOGICAL DETAILS.\n\nAREA 2...FROM 60NW MLS-30NNW DPR-PIR-50W LBF-60SW DEN-CHE-60NW\nMLS\nWST ISSUANCES EXPD. REFER TO MOST RECENT ACUS01 KWNS FROM STORM\nPREDICTION CENTER FOR SYNOPSIS AND METEOROLOGICAL DETAILS.",
                "validTimeTo": [
                    "2026-08-18T20:55"
                ]
            }
        },
        {
            "type": "Feature",
            "geometry": {
                "type": "Polygon",
                "coordinates": [
                    [
                        [
                            -87.619,
                            32.374
                        ],
                        [
                            -87.775,
                            30.729
                        ],
                        [
                            -90.26,
                            30.635
                        ],
                        [
                            -90.26,
                            31.3
                        ],
                        [
                            -87.619,
                            32.374
                        ]
                    ]
                ]
            },
            "properties": {
                "airSigmetId": null,
                "airportIcao": "KKCI",
                "airSigmetType": "SIGMET",
                "hazard": "CONVECTIVE",
                "severity": 5,
                "altitudeLow1": null,
                "altitudeLow2": null,
                "altitudeHi1": 45000,
                "altitudeHi2": 60000,
                "movementDir": null,
                "movementSpd": null,
                "rawAirSigmet": "WSUS31 KKCI 181855\nSIGE \nCONVECTIVE SIGMET 41E\nVALID UNTIL 2055Z\nAL MS LA\nFROM 60E MEI-30E SJI-40S MCB-MCB-60E MEI\nAREA TS MOV LTL. TOPS ABV FL450.\n\nOUTLOOK VALID 182055-190055\nFROM 30SE SQS-50SSW VUZ-40WNW TLH-30ENE CRG-50E TRV-110WSW\nRSW-100WSW PIE-120ESE LEV-40E HRV-30SE SQS\nWST ISSUANCES POSS. REFER TO MOST RECENT ACUS01 KWNS FROM STORM\nPREDICTION CENTER FOR SYNOPSIS AND METEOROLOGICAL DETAILS.",
                "validTimeTo": [
                    "2026-08-18T20:55"
                ]
            }
        },
        {
            "type": "Feature",
            "geometry": {
                "type": "Polygon",
                "coordinates": [
                    [
                        [
                            -77.561,
                            37.035
                        ],
                        [
                            -75.571,
                            36.888
                        ],
                        [
                            -75.712,
                            35.328
                        ],
                        [
                            -77.824,
                            36.186
                        ],
                        [
                            -77.561,
                            37.035
                        ]
                    ]
                ]
            },
            "properties": {
                "airSigmetId": null,
                "airportIcao": "KKCI",
                "airSigmetType": "SIGMET",
                "hazard": "CONVECTIVE",
                "severity": 5,
                "altitudeLow1": null,
                "altitudeLow2": null,
                "altitudeHi1": 45000,
                "altitudeHi2": 60000,
                "movementDir": null,
                "movementSpd": null,
                "rawAirSigmet": "WSUS31 KKCI 181855\nSIGE \nCONVECTIVE SIGMET 42E\nVALID UNTIL 2055Z\nVA NC AND CSTL WTRS\nFROM 30SSW RIC-30E ORF-60SSE ECG-50ENE RDU-30SSW RIC\nAREA TS MOV LTL. TOPS ABV FL450.\n\nOUTLOOK VALID 182055-190055\nFROM 30SE SQS-50SSW VUZ-40WNW TLH-30ENE CRG-50E TRV-110WSW\nRSW-100WSW PIE-120ESE LEV-40E HRV-30SE SQS\nWST ISSUANCES POSS. REFER TO MOST RECENT ACUS01 KWNS FROM STORM\nPREDICTION CENTER FOR SYNOPSIS AND METEOROLOGICAL DETAILS.",
                "validTimeTo": [
                    "2026-08-18T20:55"
                ]
            }
        },
        {
            "type": "Feature",
            "geometry": {
                "type": "Polygon",
                "coordinates": [
                    [
                        [
                            -82.807,
                            30.926
                        ],
                        [
                            -81.362,
                            30.647
                        ],
                        [
                            -81.155,
                            30.212
                        ],
                        [
                            -82.679,
                            30.371
                        ],
                        [
                            -82.807,
                            30.926
                        ]
                    ]
                ]
            },
            "properties": {
                "airSigmetId": null,
                "airportIcao": "KKCI",
                "airSigmetType": "SIGMET",
                "hazard": "CONVECTIVE",
                "severity": 5,
                "altitudeLow1": null,
                "altitudeLow2": null,
                "altitudeHi1": 36000,
                "altitudeHi2": 36000,
                "movementDir": null,
                "movementSpd": null,
                "rawAirSigmet": "WSUS31 KKCI 181855\nSIGE \nCONVECTIVE SIGMET 43E\nVALID UNTIL 2055Z\nFL GA AND FL CSTL WTRS\nFROM 40SSW AMG-20NNE CRG-20ESE CRG-50NNE CTY-40SSW AMG\nDVLPG AREA TS MOV LTL. TOPS TO FL360.\n\nOUTLOOK VALID 182055-190055\nFROM 30SE SQS-50SSW VUZ-40WNW TLH-30ENE CRG-50E TRV-110WSW\nRSW-100WSW PIE-120ESE LEV-40E HRV-30SE SQS\nWST ISSUANCES POSS. REFER TO MOST RECENT ACUS01 KWNS FROM STORM\nPREDICTION CENTER FOR SYNOPSIS AND METEOROLOGICAL DETAILS.",
                "validTimeTo": [
                    "2026-08-18T20:55"
                ]
            }
        },
        {
            "type": "Feature",
            "geometry": {
                "type": "Polygon",
                "coordinates": [
                    [
                        [
                            -85.519,
                            30.825
                        ],
                        [
                            -83.786,
                            30.559
                        ],
                        [
                            -84.076,
                            29.946
                        ],
                        [
                            -85.617,
                            30.107
                        ],
                        [
                            -85.519,
                            30.825
                        ]
                    ]
                ]
            },
            "properties": {
                "airSigmetId": null,
                "airportIcao": "KKCI",
                "airSigmetType": "SIGMET",
                "hazard": "CONVECTIVE",
                "severity": 5,
                "altitudeLow1": null,
                "altitudeLow2": null,
                "altitudeHi1": 35000,
                "altitudeHi2": 35000,
                "movementDir": null,
                "movementSpd": null,
                "rawAirSigmet": "WSUS31 KKCI 181855\nSIGE \nCONVECTIVE SIGMET 44E\nVALID UNTIL 2055Z\nFL AND CSTL WTRS\nFROM 60E CEW-30E TLH-40SSE TLH-70WSW TLH-60E CEW\nAREA TS MOV LTL. TOPS TO FL350.\n\nOUTLOOK VALID 182055-190055\nFROM 30SE SQS-50SSW VUZ-40WNW TLH-30ENE CRG-50E TRV-110WSW\nRSW-100WSW PIE-120ESE LEV-40E HRV-30SE SQS\nWST ISSUANCES POSS. REFER TO MOST RECENT ACUS01 KWNS FROM STORM\nPREDICTION CENTER FOR SYNOPSIS AND METEOROLOGICAL DETAILS.",
                "validTimeTo": [
                    "2026-08-18T20:55"
                ]
            }
        },
        {
            "type": "Feature",
            "geometry": {
                "type": "Polygon",
                "coordinates": [
                    [
                        [
                            -91.046,
                            45.026
                        ],
                        [
                            -89.362,
                            44.554
                        ],
                        [
                            -91.294,
                            43.603
                        ],
                        [
                            -92.875,
                            44.265
                        ],
                        [
                            -91.046,
                            45.026
                        ]
                    ]
                ]
            },
            "properties": {
                "airSigmetId": null,
                "airportIcao": "KKCI",
                "airSigmetType": "SIGMET",
                "hazard": "CONVECTIVE",
                "severity": 5,
                "altitudeLow1": null,
                "altitudeLow2": null,
                "altitudeHi1": 39000,
                "altitudeHi2": 39000,
                "movementDir": 270,
                "movementSpd": 30,
                "rawAirSigmet": "WSUS32 KKCI 181855\nSIGC \nCONVECTIVE SIGMET 94C\nVALID UNTIL 2055Z\nWI MN\nFROM 20ENE EAU-50W GRB-20SSE ODI-40SSE MSP-20ENE EAU\nAREA TS MOV FROM 27030KT. TOPS TO FL390.\n\nOUTLOOK VALID 182055-190055\nAREA 1...FROM 30W SSM-50NNW ASP-40WNW PMM-UIN-50E SLN-50WNW\nPWE-40N FOD-EAU-60NE GRB-30W SSM\nWST ISSUANCES EXPD. REFER TO MOST RECENT ACUS01 KWNS FROM STORM\nPREDICTION CENTER FOR SYNOPSIS AND METEOROLOGICAL DETAILS.\n\nAREA 2...FROM 60NW MLS-30NNW DPR-PIR-50W LBF-60SW DEN-CHE-60NW\nMLS\nWST ISSUANCES EXPD. REFER TO MOST RECENT ACUS01 KWNS FROM STORM\nPREDICTION CENTER FOR SYNOPSIS AND METEOROLOGICAL DETAILS.",
                "validTimeTo": [
                    "2026-08-18T20:55"
                ]
            }
        },
        {
            "type": "Feature",
            "geometry": {
                "type": "Polygon",
                "coordinates": [
                    [
                        [
                            -84.756,
                            46.536
                        ],
                        [
                            -84.31,
                            46.41
                        ],
                        [
                            -83.634,
                            45.938
                        ],
                        [
                            -86.856,
                            45.437
                        ],
                        [
                            -88.075,
                            45.888
                        ],
                        [
                            -84.756,
                            46.536
                        ]
                    ]
                ]
            },
            "properties": {
                "airSigmetId": null,
                "airportIcao": "KKCI",
                "airSigmetType": "SIGMET",
                "hazard": "CONVECTIVE",
                "severity": 5,
                "altitudeLow1": null,
                "altitudeLow2": null,
                "altitudeHi1": 37000,
                "altitudeHi2": 37000,
                "movementDir": 270,
                "movementSpd": 25,
                "rawAirSigmet": "WSUS32 KKCI 181855\nSIGC \nCONVECTIVE SIGMET 95C\nVALID UNTIL 2055Z\nMI WI LH LS LM\nFROM 20WNW SSM-SSM-40SE SSM-60SSE SAW-40SW SAW-20WNW SSM\nAREA TS MOV FROM 27025KT. TOPS TO FL370.\n\nOUTLOOK VALID 182055-190055\nAREA 1...FROM 30W SSM-50NNW ASP-40WNW PMM-UIN-50E SLN-50WNW\nPWE-40N FOD-EAU-60NE GRB-30W SSM\nWST ISSUANCES EXPD. REFER TO MOST RECENT ACUS01 KWNS FROM STORM\nPREDICTION CENTER FOR SYNOPSIS AND METEOROLOGICAL DETAILS.\n\nAREA 2...FROM 60NW MLS-30NNW DPR-PIR-50W LBF-60SW DEN-CHE-60NW\nMLS\nWST ISSUANCES EXPD. REFER TO MOST RECENT ACUS01 KWNS FROM STORM\nPREDICTION CENTER FOR SYNOPSIS AND METEOROLOGICAL DETAILS.",
                "validTimeTo": [
                    "2026-08-18T20:55"
                ]
            }
        },
        {
            "type": "Feature",
            "geometry": {
                "type": "Polygon",
                "coordinates": [
                    [
                        [
                            -107.547,
                            47.962
                        ],
                        [
                            -105.95,
                            46.712
                        ],
                        [
                            -110.073,
                            46.277
                        ],
                        [
                            -110.348,
                            47.048
                        ],
                        [
                            -107.547,
                            47.962
                        ]
                    ]
                ]
            },
            "properties": {
                "airSigmetId": null,
                "airportIcao": "KKCI",
                "airSigmetType": "SIGMET",
                "hazard": "CONVECTIVE",
                "severity": 5,
                "altitudeLow1": null,
                "altitudeLow2": null,
                "altitudeHi1": 36000,
                "altitudeHi2": 36000,
                "movementDir": 290,
                "movementSpd": 20,
                "rawAirSigmet": "WSUS33 KKCI 181855\nSIGW \nCONVECTIVE SIGMET 61W\nVALID UNTIL 2055Z\nMT\nFROM 40WSW GGW-20N MLS-50SSW LWT-30W LWT-40WSW GGW\nAREA TS MOV FROM 29020KT. TOPS TO FL360.\n\nOUTLOOK VALID 182055-190055\nAREA 1...FROM 70SSW GGW-CHE-50S MTU-DLN-40SSW LWT-70SSW GGW\nWST ISSUANCES EXPD. REFER TO MOST RECENT ACUS01 KWNS FROM STORM\nPREDICTION CENTER FOR SYNOPSIS AND METEOROLOGICAL DETAILS.\n\nAREA 2...FROM 50WNW TBC-30E TBC-50ENE INW-60SSE RSK-ABQ-TCS-30WNW\nSSO-PHX-DRK-50WNW TBC\nWST ISSUANCES EXPD. REFER TO MOST RECENT ACUS01 KWNS FROM STORM\nPREDICTION CENTER FOR SYNOPSIS AND METEOROLOGICAL DETAILS.",
                "validTimeTo": [
                    "2026-08-18T20:55"
                ]
            }
        },
        {
            "type": "Feature",
            "geometry": {
                "type": "Polygon",
                "coordinates": [
                    [
                        [
                            -107.961,
                            46.001
                        ],
                        [
                            -107.565,
                            45.195
                        ],
                        [
                            -111.852,
                            44.704
                        ],
                        [
                            -111.233,
                            45.624
                        ],
                        [
                            -107.961,
                            46.001
                        ]
                    ]
                ]
            },
            "properties": {
                "airSigmetId": null,
                "airportIcao": "KKCI",
                "airSigmetType": "SIGMET",
                "hazard": "CONVECTIVE",
                "severity": 5,
                "altitudeLow1": null,
                "altitudeLow2": null,
                "altitudeHi1": 33000,
                "altitudeHi2": 33000,
                "movementDir": 270,
                "movementSpd": 30,
                "rawAirSigmet": "WSUS33 KKCI 181855\nSIGW \nCONVECTIVE SIGMET 62W\nVALID UNTIL 2055Z\nMT WY\nFROM 30ENE BIL-30NW SHR-40NNE DBS-60ENE DLN-30ENE BIL\nAREA TS MOV FROM 27030KT. TOPS TO FL330.\n\nOUTLOOK VALID 182055-190055\nAREA 1...FROM 70SSW GGW-CHE-50S MTU-DLN-40SSW LWT-70SSW GGW\nWST ISSUANCES EXPD. REFER TO MOST RECENT ACUS01 KWNS FROM STORM\nPREDICTION CENTER FOR SYNOPSIS AND METEOROLOGICAL DETAILS.\n\nAREA 2...FROM 50WNW TBC-30E TBC-50ENE INW-60SSE RSK-ABQ-TCS-30WNW\nSSO-PHX-DRK-50WNW TBC\nWST ISSUANCES EXPD. REFER TO MOST RECENT ACUS01 KWNS FROM STORM\nPREDICTION CENTER FOR SYNOPSIS AND METEOROLOGICAL DETAILS.",
                "validTimeTo": [
                    "2026-08-18T20:55"
                ]
            }
        },
        {
            "type": "Feature",
            "geometry": {
                "type": "Polygon",
                "coordinates": [
                    [
                        [
                            -103.48,
                            42.887
                        ],
                        [
                            -100.204,
                            42.635
                        ],
                        [
                            -101.75,
                            41.445
                        ],
                        [
                            -103.737,
                            41.425
                        ],
                        [
                            -103.48,
                            42.887
                        ]
                    ]
                ]
            },
            "properties": {
                "airSigmetId": null,
                "airportIcao": "KKCI",
                "airSigmetType": "SIGMET",
                "hazard": "CONVECTIVE",
                "severity": 5,
                "altitudeLow1": null,
                "altitudeLow2": null,
                "altitudeHi1": 31000,
                "altitudeHi2": 31000,
                "movementDir": 280,
                "movementSpd": 30,
                "rawAirSigmet": "WSUS33 KKCI 181855\nSIGW \nCONVECTIVE SIGMET 63W\nVALID UNTIL 2055Z\nNE\nFROM 60N BFF-10WNW ANW-50WNW LBF-30SSW BFF-60N BFF\nAREA TS MOV FROM 28030KT. TOPS TO FL310.\n\nOUTLOOK VALID 182055-190055\nAREA 1...FROM 70SSW GGW-CHE-50S MTU-DLN-40SSW LWT-70SSW GGW\nWST ISSUANCES EXPD. REFER TO MOST RECENT ACUS01 KWNS FROM STORM\nPREDICTION CENTER FOR SYNOPSIS AND METEOROLOGICAL DETAILS.\n\nAREA 2...FROM 50WNW TBC-30E TBC-50ENE INW-60SSE RSK-ABQ-TCS-30WNW\nSSO-PHX-DRK-50WNW TBC\nWST ISSUANCES EXPD. REFER TO MOST RECENT ACUS01 KWNS FROM STORM\nPREDICTION CENTER FOR SYNOPSIS AND METEOROLOGICAL DETAILS.",
                "validTimeTo": [
                    "2026-08-18T20:55"
                ]
            }
        },
        {
            "type": "Feature",
            "geometry": {
                "type": "Polygon",
                "coordinates": [
                    [
                        [
                            -105.82,
                            37.179
                        ],
                        [
                            -104.186,
                            35.976
                        ],
                        [
                            -106.534,
                            34.805
                        ],
                        [
                            -108.127,
                            34.416
                        ],
                        [
                            -109.14,
                            35.75
                        ],
                        [
                            -105.82,
                            37.179
                        ]
                    ]
                ]
            },
            "properties": {
                "airSigmetId": null,
                "airportIcao": "KKCI",
                "airSigmetType": "SIGMET",
                "hazard": "CONVECTIVE",
                "severity": 5,
                "altitudeLow1": null,
                "altitudeLow2": null,
                "altitudeHi1": 45000,
                "altitudeHi2": 45000,
                "movementDir": null,
                "movementSpd": null,
                "rawAirSigmet": "WSUS33 KKCI 181855\nSIGW \nCONVECTIVE SIGMET 64W\nVALID UNTIL 2055Z\nCO NM AZ\nFROM 10S ALS-50ENE FTI-20SE ABQ-50E SJN-80N SJN-10S ALS\nDVLPG AREA TS MOV LTL. TOPS TO FL450.\n\nOUTLOOK VALID 182055-190055\nAREA 1...FROM 70SSW GGW-CHE-50S MTU-DLN-40SSW LWT-70SSW GGW\nWST ISSUANCES EXPD. REFER TO MOST RECENT ACUS01 KWNS FROM STORM\nPREDICTION CENTER FOR SYNOPSIS AND METEOROLOGICAL DETAILS.\n\nAREA 2...FROM 50WNW TBC-30E TBC-50ENE INW-60SSE RSK-ABQ-TCS-30WNW\nSSO-PHX-DRK-50WNW TBC\nWST ISSUANCES EXPD. REFER TO MOST RECENT ACUS01 KWNS FROM STORM\nPREDICTION CENTER FOR SYNOPSIS AND METEOROLOGICAL DETAILS.",
                "validTimeTo": [
                    "2026-08-18T20:55"
                ]
            }
        },
        {
            "type": "Feature",
            "geometry": {
                "type": "Polygon",
                "coordinates": [
                    [
                        [
                            -114.18,
                            48.713
                        ],
                        [
                            -112.8,
                            48.795
                        ],
                        [
                            -111.506,
                            47.292
                        ],
                        [
                            -112.185,
                            45.864
                        ],
                        [
                            -113.212,
                            45.441
                        ],
                        [
                            -114.18,
                            48.713
                        ]
                    ]
                ]
            },
            "properties": {
                "airSigmetId": null,
                "airportIcao": "KKCI",
                "airSigmetType": "SIGMET",
                "hazard": "CONVECTIVE",
                "severity": 5,
                "altitudeLow1": null,
                "altitudeLow2": null,
                "altitudeHi1": 35000,
                "altitudeHi2": 35000,
                "movementDir": 270,
                "movementSpd": 30,
                "rawAirSigmet": "WSUS33 KKCI 181855\nSIGW \nCONVECTIVE SIGMET 65W\nVALID UNTIL 2055Z\nMT\nFROM 30N FCA-50S YQL-10SSW GTF-40NNE DLN-30WNW DLN-30N FCA\nAREA TS MOV FROM 27030KT. TOPS TO FL350.\n\nOUTLOOK VALID 182055-190055\nAREA 1...FROM 70SSW GGW-CHE-50S MTU-DLN-40SSW LWT-70SSW GGW\nWST ISSUANCES EXPD. REFER TO MOST RECENT ACUS01 KWNS FROM STORM\nPREDICTION CENTER FOR SYNOPSIS AND METEOROLOGICAL DETAILS.\n\nAREA 2...FROM 50WNW TBC-30E TBC-50ENE INW-60SSE RSK-ABQ-TCS-30WNW\nSSO-PHX-DRK-50WNW TBC\nWST ISSUANCES EXPD. REFER TO MOST RECENT ACUS01 KWNS FROM STORM\nPREDICTION CENTER FOR SYNOPSIS AND METEOROLOGICAL DETAILS.",
                "validTimeTo": [
                    "2026-08-18T20:55"
                ]
            }
        },
        {
            "type": "Feature",
            "geometry": {
                "type": "Polygon",
                "coordinates": [
                    [
                        [
                            -108.851,
                            41.283
                        ],
                        [
                            -108.918,
                            40.525
                        ],
                        [
                            -111.727,
                            40.385
                        ],
                        [
                            -111.364,
                            41.041
                        ],
                        [
                            -108.851,
                            41.283
                        ]
                    ]
                ]
            },
            "properties": {
                "airSigmetId": null,
                "airportIcao": "KKCI",
                "airSigmetType": "SIGMET",
                "hazard": "CONVECTIVE",
                "severity": 5,
                "altitudeLow1": null,
                "altitudeLow2": null,
                "altitudeHi1": 37000,
                "altitudeHi2": 37000,
                "movementDir": 270,
                "movementSpd": 25,
                "rawAirSigmet": "WSUS33 KKCI 181855\nSIGW \nCONVECTIVE SIGMET 66W\nVALID UNTIL 2055Z\nCO WY UT\nFROM 20SSE OCS-60ENE MTU-30SSE SLC-30ENE SLC-20SSE OCS\nAREA TS MOV FROM 27025KT. TOPS TO FL370.\n\nOUTLOOK VALID 182055-190055\nAREA 1...FROM 70SSW GGW-CHE-50S MTU-DLN-40SSW LWT-70SSW GGW\nWST ISSUANCES EXPD. REFER TO MOST RECENT ACUS01 KWNS FROM STORM\nPREDICTION CENTER FOR SYNOPSIS AND METEOROLOGICAL DETAILS.\n\nAREA 2...FROM 50WNW TBC-30E TBC-50ENE INW-60SSE RSK-ABQ-TCS-30WNW\nSSO-PHX-DRK-50WNW TBC\nWST ISSUANCES EXPD. REFER TO MOST RECENT ACUS01 KWNS FROM STORM\nPREDICTION CENTER FOR SYNOPSIS AND METEOROLOGICAL DETAILS.",
                "validTimeTo": [
                    "2026-08-18T20:55"
                ]
            }
        },
        {
            "type": "Feature",
            "geometry": {
                "type": "Polygon",
                "coordinates": [
                    [
                        [
                            -108.953,
                            43.928
                        ],
                        [
                            -109.3,
                            43.168
                        ],
                        [
                            -110.905,
                            43.313
                        ],
                        [
                            -110.73,
                            43.952
                        ],
                        [
                            -108.953,
                            43.928
                        ]
                    ]
                ]
            },
            "properties": {
                "airSigmetId": null,
                "airportIcao": "KKCI",
                "airSigmetType": "SIGMET",
                "hazard": "CONVECTIVE",
                "severity": 5,
                "altitudeLow1": null,
                "altitudeLow2": null,
                "altitudeHi1": 32000,
                "altitudeHi2": 32000,
                "movementDir": 270,
                "movementSpd": 30,
                "rawAirSigmet": "WSUS33 KKCI 181855\nSIGW \nCONVECTIVE SIGMET 67W\nVALID UNTIL 2055Z\nWY\nFROM 40NW BOY-50NE BPI-20SSW JAC-20N JAC-40NW BOY\nAREA TS MOV FROM 27030KT. TOPS TO FL320.\n\nOUTLOOK VALID 182055-190055\nAREA 1...FROM 70SSW GGW-CHE-50S MTU-DLN-40SSW LWT-70SSW GGW\nWST ISSUANCES EXPD. REFER TO MOST RECENT ACUS01 KWNS FROM STORM\nPREDICTION CENTER FOR SYNOPSIS AND METEOROLOGICAL DETAILS.\n\nAREA 2...FROM 50WNW TBC-30E TBC-50ENE INW-60SSE RSK-ABQ-TCS-30WNW\nSSO-PHX-DRK-50WNW TBC\nWST ISSUANCES EXPD. REFER TO MOST RECENT ACUS01 KWNS FROM STORM\nPREDICTION CENTER FOR SYNOPSIS AND METEOROLOGICAL DETAILS.",
                "validTimeTo": [
                    "2026-08-18T20:55"
                ]
            }
        }
    ],
    "metadata": {
        "creationTime": "2026-08-18T19:33"
    }
}