{
    "type": "FeatureCollection",
    "features": [
        {
            "type": "Feature",
            "geometry": {
                "type": "Polygon",
                "coordinates": [
                    [
                        [
                            -113.76,
                            40.73
                        ],
                        [
                            -113.76,
                            40.227
                        ],
                        [
                            -115.28,
                            39.299
                        ],
                        [
                            -118.146,
                            39.52
                        ],
                        [
                            -116.92,
                            40.57
                        ],
                        [
                            -113.76,
                            40.73
                        ]
                    ]
                ]
            },
            "properties": {
                "airSigmetId": null,
                "airportIcao": "KKCI",
                "airSigmetType": "SIGMET",
                "hazard": "CONVECTIVE",
                "severity": 5,
                "altitudeLow1": null,
                "altitudeLow2": null,
                "altitudeHi1": 38000,
                "altitudeHi2": 38000,
                "movementDir": 180,
                "movementSpd": 30,
                "rawAirSigmet": "WSUS33 KKCI 211955\nSIGW \nCONVECTIVE SIGMET 55W\nVALID UNTIL 2155Z\nUT NV\nFROM BVL-30S BVL-20W ELY-70E FMG-BAM-BVL\nAREA TS MOV FROM 18030KT. TOPS TO FL380.\n\nOUTLOOK VALID 212155-220155\nFROM 40SE LKT-CZI-50NNW BFF-TBE-30SE CME-ELP-50S TUS-BZA-MZB-40N\nHEC-FMG-50SSW BOI-40SE LKT\nWST ISSUANCES POSS. REFER TO MOST RECENT ACUS01 KWNS FROM STORM\nPREDICTION CENTER FOR SYNOPSIS AND METEOROLOGICAL DETAILS.",
                "validTimeTo": [
                    "2026-08-21T21:55"
                ]
            }
        },
        {
            "type": "Feature",
            "geometry": {
                "type": "Polygon",
                "coordinates": [
                    [
                        [
                            -125.549,
                            48.042
                        ],
                        [
                            -125.045,
                            46.692
                        ],
                        [
                            -125.674,
                            45.879
                        ],
                        [
                            -126.81,
                            46.156
                        ],
                        [
                            -126.458,
                            47.777
                        ],
                        [
                            -125.549,
                            48.042
                        ]
                    ]
                ]
            },
            "properties": {
                "airSigmetId": null,
                "airportIcao": "KKCI",
                "airSigmetType": "SIGMET",
                "hazard": "CONVECTIVE",
                "severity": 5,
                "altitudeLow1": null,
                "altitudeLow2": null,
                "altitudeHi1": 30000,
                "altitudeHi2": 30000,
                "movementDir": 180,
                "movementSpd": 40,
                "rawAirSigmet": "WSUS33 KKCI 211955\nSIGW \nCONVECTIVE SIGMET 56W\nVALID UNTIL 2155Z\nOR WA CSTL WTRS\nFROM 40WSW TOU-40WSW HQM-90SW HQM-120WSW HQM-80WSW TOU-40WSW TOU\nAREA TS MOV FROM 18040KT. TOPS TO FL300.\n\nOUTLOOK VALID 212155-220155\nFROM 40SE LKT-CZI-50NNW BFF-TBE-30SE CME-ELP-50S TUS-BZA-MZB-40N\nHEC-FMG-50SSW BOI-40SE LKT\nWST ISSUANCES POSS. REFER TO MOST RECENT ACUS01 KWNS FROM STORM\nPREDICTION CENTER FOR SYNOPSIS AND METEOROLOGICAL DETAILS.",
                "validTimeTo": [
                    "2026-08-21T21:55"
                ]
            }
        },
        {
            "type": "Feature",
            "geometry": {
                "type": "Polygon",
                "coordinates": [
                    [
                        [
                            -111.057,
                            41.871
                        ],
                        [
                            -107.996,
                            39.312
                        ],
                        [
                            -108.93,
                            37.81
                        ],
                        [
                            -113.14,
                            37.687
                        ],
                        [
                            -113.601,
                            40.609
                        ],
                        [
                            -111.057,
                            41.871
                        ]
                    ]
                ]
            },
            "properties": {
                "airSigmetId": null,
                "airportIcao": "KKCI",
                "airSigmetType": "SIGMET",
                "hazard": "CONVECTIVE",
                "severity": 5,
                "altitudeLow1": null,
                "altitudeLow2": null,
                "altitudeHi1": 45000,
                "altitudeHi2": 45000,
                "movementDir": null,
                "movementSpd": null,
                "rawAirSigmet": "WSUS33 KKCI 211955\nSIGW \nCONVECTIVE SIGMET 57W\nVALID UNTIL 2155Z\nCO WY UT\nFROM 60SW BPI-40ENE JNC-DVC-40W BCE-10SE BVL-60SW BPI\nAREA TS MOV LTL. TOPS TO FL450.\n\nOUTLOOK VALID 212155-220155\nFROM 40SE LKT-CZI-50NNW BFF-TBE-30SE CME-ELP-50S TUS-BZA-MZB-40N\nHEC-FMG-50SSW BOI-40SE LKT\nWST ISSUANCES POSS. REFER TO MOST RECENT ACUS01 KWNS FROM STORM\nPREDICTION CENTER FOR SYNOPSIS AND METEOROLOGICAL DETAILS.",
                "validTimeTo": [
                    "2026-08-21T21:55"
                ]
            }
        },
        {
            "type": "Feature",
            "geometry": {
                "type": "Polygon",
                "coordinates": [
                    [
                        [
                            -108.484,
                            36.877
                        ],
                        [
                            -106.485,
                            33.277
                        ],
                        [
                            -107.181,
                            31.924
                        ],
                        [
                            -110.92,
                            31.265
                        ],
                        [
                            -109.927,
                            36.559
                        ],
                        [
                            -108.484,
                            36.877
                        ]
                    ]
                ]
            },
            "properties": {
                "airSigmetId": null,
                "airportIcao": "KKCI",
                "airSigmetType": "SIGMET",
                "hazard": "CONVECTIVE",
                "severity": 5,
                "altitudeLow1": null,
                "altitudeLow2": null,
                "altitudeHi1": 45000,
                "altitudeHi2": 45000,
                "movementDir": null,
                "movementSpd": null,
                "rawAirSigmet": "WSUS33 KKCI 211955\nSIGW \nCONVECTIVE SIGMET 58W\nVALID UNTIL 2155Z\nNM AZ\nFROM 20WNW RSK-40E TCS-30SE DMN-50S TUS-70ENE TBC-20WNW RSK\nAREA SEV TS MOV LTL. TOPS TO FL450.\nHAIL TO 1 IN...WIND GUSTS TO 50KT POSS.\n\nOUTLOOK VALID 212155-220155\nFROM 40SE LKT-CZI-50NNW BFF-TBE-30SE CME-ELP-50S TUS-BZA-MZB-40N\nHEC-FMG-50SSW BOI-40SE LKT\nWST ISSUANCES POSS. REFER TO MOST RECENT ACUS01 KWNS FROM STORM\nPREDICTION CENTER FOR SYNOPSIS AND METEOROLOGICAL DETAILS.",
                "validTimeTo": [
                    "2026-08-21T21:55"
                ]
            }
        },
        {
            "type": "Feature",
            "geometry": {
                "type": "Polygon",
                "coordinates": [
                    [
                        [
                            -105.111,
                            36.955
                        ],
                        [
                            -104.922,
                            32.725
                        ],
                        [
                            -106.28,
                            32.485
                        ],
                        [
                            -107.27,
                            36.747
                        ],
                        [
                            -105.111,
                            36.955
                        ]
                    ]
                ]
            },
            "properties": {
                "airSigmetId": null,
                "airportIcao": "KKCI",
                "airSigmetType": "SIGMET",
                "hazard": "CONVECTIVE",
                "severity": 5,
                "altitudeLow1": null,
                "altitudeLow2": null,
                "altitudeHi1": 40000,
                "altitudeHi2": 40000,
                "movementDir": null,
                "movementSpd": null,
                "rawAirSigmet": "WSUS33 KKCI 211955\nSIGW \nCONVECTIVE SIGMET 59W\nVALID UNTIL 2155Z\nCO NM\nFROM 30NNW CIM-40SSW CME-40N ELP-40E RSK-30NNW CIM\nAREA TS MOV LTL. TOPS TO FL400.\n\nOUTLOOK VALID 212155-220155\nFROM 40SE LKT-CZI-50NNW BFF-TBE-30SE CME-ELP-50S TUS-BZA-MZB-40N\nHEC-FMG-50SSW BOI-40SE LKT\nWST ISSUANCES POSS. REFER TO MOST RECENT ACUS01 KWNS FROM STORM\nPREDICTION CENTER FOR SYNOPSIS AND METEOROLOGICAL DETAILS.",
                "validTimeTo": [
                    "2026-08-21T21:55"
                ]
            }
        },
        {
            "type": "Feature",
            "geometry": {
                "type": "Polygon",
                "coordinates": [
                    [
                        [
                            -86.471,
                            32.527
                        ],
                        [
                            -86.094,
                            30.829
                        ],
                        [
                            -90,
                            29.85
                        ],
                        [
                            -90.1,
                            32.43
                        ],
                        [
                            -86.471,
                            32.527
                        ]
                    ]
                ]
            },
            "properties": {
                "airSigmetId": null,
                "airportIcao": "KKCI",
                "airSigmetType": "SIGMET",
                "hazard": "CONVECTIVE",
                "severity": 5,
                "altitudeLow1": null,
                "altitudeLow2": null,
                "altitudeHi1": 45000,
                "altitudeHi2": 60000,
                "movementDir": 340,
                "movementSpd": 10,
                "rawAirSigmet": "WSUS32 KKCI 211955\nSIGC \nCONVECTIVE SIGMET 25C\nVALID UNTIL 2155Z\nFL AL MS LA AND AL MS LA CSTL WTRS\nFROM 20NNW MGM-30E CEW-HRV-MHZ-20NNW MGM\nAREA SEV TS MOV FROM 34010KT. TOPS ABV FL450.\nHAIL TO 1 IN...WIND GUSTS TO 50KT POSS.\n\nOUTLOOK VALID 212155-220155\nAREA 1...FROM 40ESE YQT-80N SAW-50WNW MKG-BVT-50S BDF-30WSW\nIOW-40ESE YQT\nWST ISSUANCES EXPD. REFER TO MOST RECENT ACUS01 KWNS FROM STORM\nPREDICTION CENTER FOR SYNOPSIS AND METEOROLOGICAL DETAILS.\n\nAREA 2...FROM END-60E FSM-30SW SQS-VUZ-50SW MGM-160S CEW-110SSW\nLCH-ACT-SPS-END\nATTN WW 609\nREFER TO MOST RECENT ACUS01 KWNS FROM STORM PREDICTION CENTER FOR\nSYNOPSIS AND METEOROLOGICAL DETAILS.\n\nAREA 3...FROM FSD-40E PWE-50W SLN-30WNW GLD-50NNE BFF-FSD\nWST ISSUANCES POSS. REFER TO MOST RECENT ACUS01 KWNS FROM STORM\nPREDICTION CENTER FOR SYNOPSIS AND METEOROLOGICAL DETAILS.",
                "validTimeTo": [
                    "2026-08-21T21:55"
                ]
            }
        },
        {
            "type": "Feature",
            "geometry": {
                "type": "Polygon",
                "coordinates": [
                    [
                        [
                            -77.69,
                            28.669
                        ],
                        [
                            -78.267,
                            25.023
                        ],
                        [
                            -80.981,
                            25.544
                        ],
                        [
                            -80.865,
                            27.679
                        ],
                        [
                            -77.69,
                            28.669
                        ]
                    ]
                ]
            },
            "properties": {
                "airSigmetId": null,
                "airportIcao": "KKCI",
                "airSigmetType": "SIGMET",
                "hazard": "CONVECTIVE",
                "severity": 5,
                "altitudeLow1": null,
                "altitudeLow2": null,
                "altitudeHi1": 45000,
                "altitudeHi2": 60000,
                "movementDir": null,
                "movementSpd": null,
                "rawAirSigmet": "WSUS31 KKCI 211955\nSIGE \nCONVECTIVE SIGMET 29E\nVALID UNTIL 2155Z\nFL AND CSTL WTRS\nFROM 160ENE TRV-120ESE MIA-40WSW MIA-20W TRV-160ENE TRV\nAREA TS MOV LTL. TOPS ABV FL450.\n\nOUTLOOK VALID 212155-220155\nAREA 1...FROM 40NNW EKN-40N ORF-140SE SIE-180ESE ECG-140SSE\nILM-40SW MGM-BNA-40NNW EKN\nREF WW 608\nREFER TO MOST RECENT ACUS01 KWNS FROM STORM PREDICTION CENTER FOR\nSYNOPSIS AND METEOROLOGICAL DETAILS.\n\nAREA 2...FROM 80N SAW-40NNW SSM-50SE SSM-FWA-BVT-80N SAW\nWST ISSUANCES POSS. REFER TO MOST RECENT ACUS01 KWNS FROM STORM\nPREDICTION CENTER FOR SYNOPSIS AND METEOROLOGICAL DETAILS.\n\nAREA 3...FROM 150SSE ILM-170E PBI-140ESE PBI-130SSE MIA-70WSW\nEYW-100WSW PIE-200SE LEV-40SW MGM-150SSE ILM\nWST ISSUANCES POSS. REFER TO MOST RECENT ACUS01 KWNS FROM STORM\nPREDICTION CENTER FOR SYNOPSIS AND METEOROLOGICAL DETAILS.",
                "validTimeTo": [
                    "2026-08-21T21:55"
                ]
            }
        },
        {
            "type": "Feature",
            "geometry": {
                "type": "Polygon",
                "coordinates": [
                    [
                        [
                            -77.076,
                            37.965
                        ],
                        [
                            -75.753,
                            37.245
                        ],
                        [
                            -76.18,
                            36.25
                        ],
                        [
                            -77.824,
                            36.186
                        ],
                        [
                            -78.395,
                            37.247
                        ],
                        [
                            -77.076,
                            37.965
                        ]
                    ]
                ]
            },
            "properties": {
                "airSigmetId": null,
                "airportIcao": "KKCI",
                "airSigmetType": "SIGMET",
                "hazard": "CONVECTIVE",
                "severity": 5,
                "altitudeLow1": null,
                "altitudeLow2": null,
                "altitudeHi1": 40000,
                "altitudeHi2": 40000,
                "movementDir": 240,
                "movementSpd": 30,
                "rawAirSigmet": "WSUS31 KKCI 211955\nSIGE \nCONVECTIVE SIGMET 30E\nVALID UNTIL 2155Z\nVA NC AND VA CSTL WTRS\nFROM 30NNE RIC-30NE ORF-ECG-50ENE RDU-40E LYH-30NNE RIC\nAREA TS MOV FROM 24030KT. TOPS TO FL400.\n\nOUTLOOK VALID 212155-220155\nAREA 1...FROM 40NNW EKN-40N ORF-140SE SIE-180ESE ECG-140SSE\nILM-40SW MGM-BNA-40NNW EKN\nREF WW 608\nREFER TO MOST RECENT ACUS01 KWNS FROM STORM PREDICTION CENTER FOR\nSYNOPSIS AND METEOROLOGICAL DETAILS.\n\nAREA 2...FROM 80N SAW-40NNW SSM-50SE SSM-FWA-BVT-80N SAW\nWST ISSUANCES POSS. REFER TO MOST RECENT ACUS01 KWNS FROM STORM\nPREDICTION CENTER FOR SYNOPSIS AND METEOROLOGICAL DETAILS.\n\nAREA 3...FROM 150SSE ILM-170E PBI-140ESE PBI-130SSE MIA-70WSW\nEYW-100WSW PIE-200SE LEV-40SW MGM-150SSE ILM\nWST ISSUANCES POSS. REFER TO MOST RECENT ACUS01 KWNS FROM STORM\nPREDICTION CENTER FOR SYNOPSIS AND METEOROLOGICAL DETAILS.",
                "validTimeTo": [
                    "2026-08-21T21:55"
                ]
            }
        },
        {
            "type": "Feature",
            "geometry": {
                "type": "Polygon",
                "coordinates": [
                    [
                        [
                            -98.008,
                            42.468
                        ],
                        [
                            -95.74,
                            41.835
                        ],
                        [
                            -94.49,
                            39.754
                        ],
                        [
                            -96.673,
                            39.843
                        ],
                        [
                            -98.008,
                            42.468
                        ]
                    ]
                ]
            },
            "properties": {
                "airSigmetId": null,
                "airportIcao": "KKCI",
                "airSigmetType": "SIGMET",
                "hazard": "CONVECTIVE",
                "severity": 5,
                "altitudeLow1": null,
                "altitudeLow2": null,
                "altitudeHi1": 45000,
                "altitudeHi2": 60000,
                "movementDir": 300,
                "movementSpd": 20,
                "rawAirSigmet": "WSUS32 KKCI 211955\nSIGC \nCONVECTIVE SIGMET 26C\nVALID UNTIL 2155Z\nMO IA KS NE\nFROM 30E ONL-40N OVR-30NNE MCI-30SW PWE-30E ONL\nINTSF AREA TS MOV FROM 30020KT. TOPS ABV FL450.\n\nOUTLOOK VALID 212155-220155\nAREA 1...FROM 40ESE YQT-80N SAW-50WNW MKG-BVT-50S BDF-30WSW\nIOW-40ESE YQT\nWST ISSUANCES EXPD. REFER TO MOST RECENT ACUS01 KWNS FROM STORM\nPREDICTION CENTER FOR SYNOPSIS AND METEOROLOGICAL DETAILS.\n\nAREA 2...FROM END-60E FSM-30SW SQS-VUZ-50SW MGM-160S CEW-110SSW\nLCH-ACT-SPS-END\nATTN WW 609\nREFER TO MOST RECENT ACUS01 KWNS FROM STORM PREDICTION CENTER FOR\nSYNOPSIS AND METEOROLOGICAL DETAILS.\n\nAREA 3...FROM FSD-40E PWE-50W SLN-30WNW GLD-50NNE BFF-FSD\nWST ISSUANCES POSS. REFER TO MOST RECENT ACUS01 KWNS FROM STORM\nPREDICTION CENTER FOR SYNOPSIS AND METEOROLOGICAL DETAILS.",
                "validTimeTo": [
                    "2026-08-21T21:55"
                ]
            }
        },
        {
            "type": "Feature",
            "geometry": {
                "type": "Polygon",
                "coordinates": [
                    [
                        [
                            -100.619,
                            42.376
                        ],
                        [
                            -98.35,
                            41.38
                        ],
                        [
                            -98.203,
                            40.007
                        ],
                        [
                            -99.833,
                            39.387
                        ],
                        [
                            -101.335,
                            40.936
                        ],
                        [
                            -100.619,
                            42.376
                        ]
                    ]
                ]
            },
            "properties": {
                "airSigmetId": null,
                "airportIcao": "KKCI",
                "airSigmetType": "SIGMET",
                "hazard": "CONVECTIVE",
                "severity": 5,
                "altitudeLow1": null,
                "altitudeLow2": null,
                "altitudeHi1": 45000,
                "altitudeHi2": 60000,
                "movementDir": 300,
                "movementSpd": 30,
                "rawAirSigmet": "WSUS32 KKCI 211955\nSIGC \nCONVECTIVE SIGMET 27C\nVALID UNTIL 2155Z\nKS NE\nFROM 30WSW ANW-OBH-70NNW SLN-20ENE HLC-30WSW LBF-30WSW ANW\nAREA TS MOV FROM 30030KT. TOPS ABV FL450.\n\nOUTLOOK VALID 212155-220155\nAREA 1...FROM 40ESE YQT-80N SAW-50WNW MKG-BVT-50S BDF-30WSW\nIOW-40ESE YQT\nWST ISSUANCES EXPD. REFER TO MOST RECENT ACUS01 KWNS FROM STORM\nPREDICTION CENTER FOR SYNOPSIS AND METEOROLOGICAL DETAILS.\n\nAREA 2...FROM END-60E FSM-30SW SQS-VUZ-50SW MGM-160S CEW-110SSW\nLCH-ACT-SPS-END\nATTN WW 609\nREFER TO MOST RECENT ACUS01 KWNS FROM STORM PREDICTION CENTER FOR\nSYNOPSIS AND METEOROLOGICAL DETAILS.\n\nAREA 3...FROM FSD-40E PWE-50W SLN-30WNW GLD-50NNE BFF-FSD\nWST ISSUANCES POSS. REFER TO MOST RECENT ACUS01 KWNS FROM STORM\nPREDICTION CENTER FOR SYNOPSIS AND METEOROLOGICAL DETAILS.",
                "validTimeTo": [
                    "2026-08-21T21:55"
                ]
            }
        },
        {
            "type": "Feature",
            "geometry": {
                "type": "Polygon",
                "coordinates": [
                    [
                        [
                            -84.434,
                            44.144
                        ],
                        [
                            -84.4,
                            41.568
                        ],
                        [
                            -87.684,
                            40.751
                        ],
                        [
                            -89.59,
                            41.995
                        ],
                        [
                            -88.546,
                            43.584
                        ],
                        [
                            -84.434,
                            44.144
                        ]
                    ]
                ]
            },
            "properties": {
                "airSigmetId": null,
                "airportIcao": "KKCI",
                "airSigmetType": "SIGMET",
                "hazard": "CONVECTIVE",
                "severity": 5,
                "altitudeLow1": null,
                "altitudeLow2": null,
                "altitudeHi1": 45000,
                "altitudeHi2": 60000,
                "movementDir": 260,
                "movementSpd": 20,
                "rawAirSigmet": "WSUS32 KKCI 211955\nSIGC \nCONVECTIVE SIGMET 28C\nVALID UNTIL 2155Z\nOH MI IN WI IL LM\nFROM 40NNW MBS-50NE FWA-30WNW BVT-50N BDF-30NNW BAE-40NNW MBS\nAREA TS MOV FROM 26020KT. TOPS ABV FL450.\n\nOUTLOOK VALID 212155-220155\nAREA 1...FROM 40ESE YQT-80N SAW-50WNW MKG-BVT-50S BDF-30WSW\nIOW-40ESE YQT\nWST ISSUANCES EXPD. REFER TO MOST RECENT ACUS01 KWNS FROM STORM\nPREDICTION CENTER FOR SYNOPSIS AND METEOROLOGICAL DETAILS.\n\nAREA 2...FROM END-60E FSM-30SW SQS-VUZ-50SW MGM-160S CEW-110SSW\nLCH-ACT-SPS-END\nATTN WW 609\nREFER TO MOST RECENT ACUS01 KWNS FROM STORM PREDICTION CENTER FOR\nSYNOPSIS AND METEOROLOGICAL DETAILS.\n\nAREA 3...FROM FSD-40E PWE-50W SLN-30WNW GLD-50NNE BFF-FSD\nWST ISSUANCES POSS. REFER TO MOST RECENT ACUS01 KWNS FROM STORM\nPREDICTION CENTER FOR SYNOPSIS AND METEOROLOGICAL DETAILS.",
                "validTimeTo": [
                    "2026-08-21T21:55"
                ]
            }
        },
        {
            "type": "Feature",
            "geometry": {
                "type": "Polygon",
                "coordinates": [
                    [
                        [
                            -92.74,
                            33.089
                        ],
                        [
                            -90.1,
                            32.43
                        ],
                        [
                            -90,
                            30.182
                        ],
                        [
                            -94.332,
                            31.159
                        ],
                        [
                            -93.81,
                            32.77
                        ],
                        [
                            -92.74,
                            33.089
                        ]
                    ]
                ]
            },
            "properties": {
                "airSigmetId": null,
                "airportIcao": "KKCI",
                "airSigmetType": "SIGMET",
                "hazard": "CONVECTIVE",
                "severity": 5,
                "altitudeLow1": null,
                "altitudeLow2": null,
                "altitudeHi1": 45000,
                "altitudeHi2": 60000,
                "movementDir": 330,
                "movementSpd": 25,
                "rawAirSigmet": "WSUS32 KKCI 211955\nSIGC \nCONVECTIVE SIGMET 29C\nVALID UNTIL 2155Z\nMS LA AR TX\nFROM 10S ELD-MHZ-20N HRV-20E LFK-EIC-10S ELD\nAREA SEV TS MOV FROM 33025KT. TOPS ABV FL450.\nHAIL TO 1 IN...WIND GUSTS TO 50KT POSS.\n\nOUTLOOK VALID 212155-220155\nAREA 1...FROM 40ESE YQT-80N SAW-50WNW MKG-BVT-50S BDF-30WSW\nIOW-40ESE YQT\nWST ISSUANCES EXPD. REFER TO MOST RECENT ACUS01 KWNS FROM STORM\nPREDICTION CENTER FOR SYNOPSIS AND METEOROLOGICAL DETAILS.\n\nAREA 2...FROM END-60E FSM-30SW SQS-VUZ-50SW MGM-160S CEW-110SSW\nLCH-ACT-SPS-END\nATTN WW 609\nREFER TO MOST RECENT ACUS01 KWNS FROM STORM PREDICTION CENTER FOR\nSYNOPSIS AND METEOROLOGICAL DETAILS.\n\nAREA 3...FROM FSD-40E PWE-50W SLN-30WNW GLD-50NNE BFF-FSD\nWST ISSUANCES POSS. REFER TO MOST RECENT ACUS01 KWNS FROM STORM\nPREDICTION CENTER FOR SYNOPSIS AND METEOROLOGICAL DETAILS.",
                "validTimeTo": [
                    "2026-08-21T21:55"
                ]
            }
        },
        {
            "type": "Feature",
            "geometry": {
                "type": "Polygon",
                "coordinates": [
                    [
                        [
                            -87.585,
                            46.667
                        ],
                        [
                            -88.19,
                            44.228
                        ],
                        [
                            -90.61,
                            40.836
                        ],
                        [
                            -91.841,
                            42.394
                        ],
                        [
                            -90.005,
                            46.55
                        ],
                        [
                            -87.585,
                            46.667
                        ]
                    ]
                ]
            },
            "properties": {
                "airSigmetId": null,
                "airportIcao": "KKCI",
                "airSigmetType": "SIGMET",
                "hazard": "CONVECTIVE",
                "severity": 5,
                "altitudeLow1": null,
                "altitudeLow2": null,
                "altitudeHi1": 45000,
                "altitudeHi2": 60000,
                "movementDir": 300,
                "movementSpd": 15,
                "rawAirSigmet": "WSUS32 KKCI 211955\nSIGC \nCONVECTIVE SIGMET 30C\nVALID UNTIL 2155Z\nMI WI IL MN IA LS\nFROM 20NNW SAW-20S GRB-50WSW BDF-50W DBQ-60NNW RHI-20NNW SAW\nAREA SEV TS MOV FROM 30015KT. TOPS ABV FL450.\nHAIL TO 1 IN...WIND GUSTS TO 50KT POSS.\n\nOUTLOOK VALID 212155-220155\nAREA 1...FROM 40ESE YQT-80N SAW-50WNW MKG-BVT-50S BDF-30WSW\nIOW-40ESE YQT\nWST ISSUANCES EXPD. REFER TO MOST RECENT ACUS01 KWNS FROM STORM\nPREDICTION CENTER FOR SYNOPSIS AND METEOROLOGICAL DETAILS.\n\nAREA 2...FROM END-60E FSM-30SW SQS-VUZ-50SW MGM-160S CEW-110SSW\nLCH-ACT-SPS-END\nATTN WW 609\nREFER TO MOST RECENT ACUS01 KWNS FROM STORM PREDICTION CENTER FOR\nSYNOPSIS AND METEOROLOGICAL DETAILS.\n\nAREA 3...FROM FSD-40E PWE-50W SLN-30WNW GLD-50NNE BFF-FSD\nWST ISSUANCES POSS. REFER TO MOST RECENT ACUS01 KWNS FROM STORM\nPREDICTION CENTER FOR SYNOPSIS AND METEOROLOGICAL DETAILS.",
                "validTimeTo": [
                    "2026-08-21T21:55"
                ]
            }
        },
        {
            "type": "Feature",
            "geometry": {
                "type": "Polygon",
                "coordinates": [
                    [
                        [
                            -94.803,
                            48.943
                        ],
                        [
                            -93.142,
                            48.57
                        ],
                        [
                            -94.104,
                            48.098
                        ],
                        [
                            -96.269,
                            48.201
                        ],
                        [
                            -96.649,
                            48.977
                        ],
                        [
                            -94.803,
                            48.943
                        ]
                    ]
                ]
            },
            "properties": {
                "airSigmetId": null,
                "airportIcao": "KKCI",
                "airSigmetType": "SIGMET",
                "hazard": "CONVECTIVE",
                "severity": 5,
                "altitudeLow1": null,
                "altitudeLow2": null,
                "altitudeHi1": 40000,
                "altitudeHi2": 40000,
                "movementDir": 330,
                "movementSpd": 35,
                "rawAirSigmet": "WSUS32 KKCI 211955\nSIGC \nCONVECTIVE SIGMET 31C\nVALID UNTIL 2155Z\nMN\nFROM 60WNW INL-10E INL-40SW INL-40ENE GFK-60SSE YWG-60WNW INL\nAREA TS MOV FROM 33035KT. TOPS TO FL400.\n\nOUTLOOK VALID 212155-220155\nAREA 1...FROM 40ESE YQT-80N SAW-50WNW MKG-BVT-50S BDF-30WSW\nIOW-40ESE YQT\nWST ISSUANCES EXPD. REFER TO MOST RECENT ACUS01 KWNS FROM STORM\nPREDICTION CENTER FOR SYNOPSIS AND METEOROLOGICAL DETAILS.\n\nAREA 2...FROM END-60E FSM-30SW SQS-VUZ-50SW MGM-160S CEW-110SSW\nLCH-ACT-SPS-END\nATTN WW 609\nREFER TO MOST RECENT ACUS01 KWNS FROM STORM PREDICTION CENTER FOR\nSYNOPSIS AND METEOROLOGICAL DETAILS.\n\nAREA 3...FROM FSD-40E PWE-50W SLN-30WNW GLD-50NNE BFF-FSD\nWST ISSUANCES POSS. REFER TO MOST RECENT ACUS01 KWNS FROM STORM\nPREDICTION CENTER FOR SYNOPSIS AND METEOROLOGICAL DETAILS.",
                "validTimeTo": [
                    "2026-08-21T21:55"
                ]
            }
        },
        {
            "type": "Feature",
            "geometry": {
                "type": "Polygon",
                "coordinates": [
                    [
                        [
                            -76.18,
                            36.25
                        ],
                        [
                            -74.599,
                            34.944
                        ],
                        [
                            -75.836,
                            33.632
                        ],
                        [
                            -80.04,
                            33.222
                        ],
                        [
                            -80.191,
                            36.05
                        ],
                        [
                            -76.18,
                            36.25
                        ]
                    ]
                ]
            },
            "properties": {
                "airSigmetId": null,
                "airportIcao": "KKCI",
                "airSigmetType": "SIGMET",
                "hazard": "CONVECTIVE",
                "severity": 5,
                "altitudeLow1": null,
                "altitudeLow2": null,
                "altitudeHi1": 45000,
                "altitudeHi2": 60000,
                "movementDir": 180,
                "movementSpd": 10,
                "rawAirSigmet": "WSUS31 KKCI 211955\nSIGE \nCONVECTIVE SIGMET 31E\nVALID UNTIL 2155Z\nNC SC AND CSTL WTRS\nFROM ECG-110SE ECG-110ESE ILM-20N CHS-10W GSO-ECG\nAREA SEV TS MOV FROM 18010KT. TOPS ABV FL450.\nHAIL TO 1 IN...WIND GUSTS TO 50KT POSS.\n\nOUTLOOK VALID 212155-220155\nAREA 1...FROM 40NNW EKN-40N ORF-140SE SIE-180ESE ECG-140SSE\nILM-40SW MGM-BNA-40NNW EKN\nREF WW 608\nREFER TO MOST RECENT ACUS01 KWNS FROM STORM PREDICTION CENTER FOR\nSYNOPSIS AND METEOROLOGICAL DETAILS.\n\nAREA 2...FROM 80N SAW-40NNW SSM-50SE SSM-FWA-BVT-80N SAW\nWST ISSUANCES POSS. REFER TO MOST RECENT ACUS01 KWNS FROM STORM\nPREDICTION CENTER FOR SYNOPSIS AND METEOROLOGICAL DETAILS.\n\nAREA 3...FROM 150SSE ILM-170E PBI-140ESE PBI-130SSE MIA-70WSW\nEYW-100WSW PIE-200SE LEV-40SW MGM-150SSE ILM\nWST ISSUANCES POSS. REFER TO MOST RECENT ACUS01 KWNS FROM STORM\nPREDICTION CENTER FOR SYNOPSIS AND METEOROLOGICAL DETAILS.",
                "validTimeTo": [
                    "2026-08-21T21:55"
                ]
            }
        },
        {
            "type": "Feature",
            "geometry": {
                "type": "Polygon",
                "coordinates": [
                    [
                        [
                            -82.199,
                            30.929
                        ],
                        [
                            -80.797,
                            30.592
                        ],
                        [
                            -80.984,
                            26.053
                        ],
                        [
                            -81.994,
                            26.065
                        ],
                        [
                            -83.189,
                            29.479
                        ],
                        [
                            -82.199,
                            30.929
                        ]
                    ]
                ]
            },
            "properties": {
                "airSigmetId": null,
                "airportIcao": "KKCI",
                "airSigmetType": "SIGMET",
                "hazard": "CONVECTIVE",
                "severity": 5,
                "altitudeLow1": null,
                "altitudeLow2": null,
                "altitudeHi1": 45000,
                "altitudeHi2": 60000,
                "movementDir": null,
                "movementSpd": null,
                "rawAirSigmet": "WSUS31 KKCI 211955\nSIGE \nCONVECTIVE SIGMET 32E\nVALID UNTIL 2155Z\nFL GA AND CSTL WTRS\nFROM 50NW CRG-40ENE CRG-40WNW MIA-30SSW RSW-10SW CTY-50NW CRG\nAREA TS MOV LTL. TOPS ABV FL450.\n\nOUTLOOK VALID 212155-220155\nAREA 1...FROM 40NNW EKN-40N ORF-140SE SIE-180ESE ECG-140SSE\nILM-40SW MGM-BNA-40NNW EKN\nREF WW 608\nREFER TO MOST RECENT ACUS01 KWNS FROM STORM PREDICTION CENTER FOR\nSYNOPSIS AND METEOROLOGICAL DETAILS.\n\nAREA 2...FROM 80N SAW-40NNW SSM-50SE SSM-FWA-BVT-80N SAW\nWST ISSUANCES POSS. REFER TO MOST RECENT ACUS01 KWNS FROM STORM\nPREDICTION CENTER FOR SYNOPSIS AND METEOROLOGICAL DETAILS.\n\nAREA 3...FROM 150SSE ILM-170E PBI-140ESE PBI-130SSE MIA-70WSW\nEYW-100WSW PIE-200SE LEV-40SW MGM-150SSE ILM\nWST ISSUANCES POSS. REFER TO MOST RECENT ACUS01 KWNS FROM STORM\nPREDICTION CENTER FOR SYNOPSIS AND METEOROLOGICAL DETAILS.",
                "validTimeTo": [
                    "2026-08-21T21:55"
                ]
            }
        },
        {
            "type": "Feature",
            "geometry": {
                "type": "Polygon",
                "coordinates": [
                    [
                        [
                            -104.66,
                            39.81
                        ],
                        [
                            -103.6,
                            37.27
                        ],
                        [
                            -108.1,
                            36.75
                        ],
                        [
                            -108.93,
                            37.81
                        ],
                        [
                            -107.698,
                            39.692
                        ],
                        [
                            -104.66,
                            39.81
                        ]
                    ]
                ]
            },
            "properties": {
                "airSigmetId": null,
                "airportIcao": "KKCI",
                "airSigmetType": "SIGMET",
                "hazard": "CONVECTIVE",
                "severity": 5,
                "altitudeLow1": null,
                "altitudeLow2": null,
                "altitudeHi1": 40000,
                "altitudeHi2": 40000,
                "movementDir": null,
                "movementSpd": null,
                "rawAirSigmet": "WSUS33 KKCI 211955\nSIGW \nCONVECTIVE SIGMET 60W\nVALID UNTIL 2155Z\nCO NM\nFROM DEN-TBE-RSK-DVC-40WNW DBL-DEN\nAREA TS MOV LTL. TOPS TO FL400.\n\nOUTLOOK VALID 212155-220155\nFROM 40SE LKT-CZI-50NNW BFF-TBE-30SE CME-ELP-50S TUS-BZA-MZB-40N\nHEC-FMG-50SSW BOI-40SE LKT\nWST ISSUANCES POSS. REFER TO MOST RECENT ACUS01 KWNS FROM STORM\nPREDICTION CENTER FOR SYNOPSIS AND METEOROLOGICAL DETAILS.",
                "validTimeTo": [
                    "2026-08-21T21:55"
                ]
            }
        },
        {
            "type": "Feature",
            "geometry": {
                "type": "Polygon",
                "coordinates": [
                    [
                        [
                            -114.248,
                            39.491
                        ],
                        [
                            -113.326,
                            38.245
                        ],
                        [
                            -115.16,
                            36.08
                        ],
                        [
                            -115.986,
                            36.543
                        ],
                        [
                            -116.71,
                            38.821
                        ],
                        [
                            -114.248,
                            39.491
                        ]
                    ]
                ]
            },
            "properties": {
                "airSigmetId": null,
                "airportIcao": "KKCI",
                "airSigmetType": "SIGMET",
                "hazard": "CONVECTIVE",
                "severity": 5,
                "altitudeLow1": null,
                "altitudeLow2": null,
                "altitudeHi1": 41000,
                "altitudeHi2": 41000,
                "movementDir": null,
                "movementSpd": null,
                "rawAirSigmet": "WSUS33 KKCI 211955\nSIGW \nCONVECTIVE SIGMET 61W\nVALID UNTIL 2155Z\nUT NV\nFROM 30ENE ELY-50E ILC-LAS-40ESE BTY-70NE OAL-30ENE ELY\nAREA TS MOV LTL. TOPS TO FL410.\n\nOUTLOOK VALID 212155-220155\nFROM 40SE LKT-CZI-50NNW BFF-TBE-30SE CME-ELP-50S TUS-BZA-MZB-40N\nHEC-FMG-50SSW BOI-40SE LKT\nWST ISSUANCES POSS. REFER TO MOST RECENT ACUS01 KWNS FROM STORM\nPREDICTION CENTER FOR SYNOPSIS AND METEOROLOGICAL DETAILS.",
                "validTimeTo": [
                    "2026-08-21T21:55"
                ]
            }
        },
        {
            "type": "Feature",
            "geometry": {
                "type": "Polygon",
                "coordinates": [
                    [
                        [
                            -89.854,
                            29.543
                        ],
                        [
                            -86.68,
                            29.168
                        ],
                        [
                            -85.881,
                            27.873
                        ],
                        [
                            -89.88,
                            28.715
                        ],
                        [
                            -89.854,
                            29.543
                        ]
                    ]
                ]
            },
            "properties": {
                "airSigmetId": null,
                "airportIcao": "KKCI",
                "airSigmetType": "SIGMET",
                "hazard": "CONVECTIVE",
                "severity": 5,
                "altitudeLow1": null,
                "altitudeLow2": null,
                "altitudeHi1": 45000,
                "altitudeHi2": 60000,
                "movementDir": null,
                "movementSpd": null,
                "rawAirSigmet": "WSUS31 KKCI 211955\nSIGE \nCONVECTIVE SIGMET 33E\nVALID UNTIL 2155Z\nLA AND FL AL MS LA CSTL WTRS\nFROM 20SSE HRV-100S CEW-170W PIE-30SSE LEV-20SSE HRV\nDVLPG AREA EMBD TS MOV LTL. TOPS ABV FL450.\n\nOUTLOOK VALID 212155-220155\nAREA 1...FROM 40NNW EKN-40N ORF-140SE SIE-180ESE ECG-140SSE\nILM-40SW MGM-BNA-40NNW EKN\nREF WW 608\nREFER TO MOST RECENT ACUS01 KWNS FROM STORM PREDICTION CENTER FOR\nSYNOPSIS AND METEOROLOGICAL DETAILS.\n\nAREA 2...FROM 80N SAW-40NNW SSM-50SE SSM-FWA-BVT-80N SAW\nWST ISSUANCES POSS. REFER TO MOST RECENT ACUS01 KWNS FROM STORM\nPREDICTION CENTER FOR SYNOPSIS AND METEOROLOGICAL DETAILS.\n\nAREA 3...FROM 150SSE ILM-170E PBI-140ESE PBI-130SSE MIA-70WSW\nEYW-100WSW PIE-200SE LEV-40SW MGM-150SSE ILM\nWST ISSUANCES POSS. REFER TO MOST RECENT ACUS01 KWNS FROM STORM\nPREDICTION CENTER FOR SYNOPSIS AND METEOROLOGICAL DETAILS.",
                "validTimeTo": [
                    "2026-08-21T21:55"
                ]
            }
        },
        {
            "type": "Feature",
            "geometry": {
                "type": "Polygon",
                "coordinates": [
                    [
                        [
                            -84.929,
                            33.285
                        ],
                        [
                            -81.966,
                            31.346
                        ],
                        [
                            -85.321,
                            29.731
                        ],
                        [
                            -86.623,
                            32.834
                        ],
                        [
                            -84.929,
                            33.285
                        ]
                    ]
                ]
            },
            "properties": {
                "airSigmetId": null,
                "airportIcao": "KKCI",
                "airSigmetType": "SIGMET",
                "hazard": "CONVECTIVE",
                "severity": 5,
                "altitudeLow1": null,
                "altitudeLow2": null,
                "altitudeHi1": 45000,
                "altitudeHi2": 60000,
                "movementDir": null,
                "movementSpd": null,
                "rawAirSigmet": "WSUS31 KKCI 211955\nSIGE \nCONVECTIVE SIGMET 34E\nVALID UNTIL 2155Z\nFL GA AL AND FL CSTL WTRS\nFROM 20NE LGC-30ESE AMG-70SW TLH-40NNW MGM-20NE LGC\nAREA SEV TS MOV LTL. TOPS ABV FL450.\nHAIL TO 1 IN...WIND GUSTS TO 50KT POSS.\n\nOUTLOOK VALID 212155-220155\nAREA 1...FROM 40NNW EKN-40N ORF-140SE SIE-180ESE ECG-140SSE\nILM-40SW MGM-BNA-40NNW EKN\nREF WW 608\nREFER TO MOST RECENT ACUS01 KWNS FROM STORM PREDICTION CENTER FOR\nSYNOPSIS AND METEOROLOGICAL DETAILS.\n\nAREA 2...FROM 80N SAW-40NNW SSM-50SE SSM-FWA-BVT-80N SAW\nWST ISSUANCES POSS. REFER TO MOST RECENT ACUS01 KWNS FROM STORM\nPREDICTION CENTER FOR SYNOPSIS AND METEOROLOGICAL DETAILS.\n\nAREA 3...FROM 150SSE ILM-170E PBI-140ESE PBI-130SSE MIA-70WSW\nEYW-100WSW PIE-200SE LEV-40SW MGM-150SSE ILM\nWST ISSUANCES POSS. REFER TO MOST RECENT ACUS01 KWNS FROM STORM\nPREDICTION CENTER FOR SYNOPSIS AND METEOROLOGICAL DETAILS.",
                "validTimeTo": [
                    "2026-08-21T21:55"
                ]
            }
        },
        {
            "type": "Feature",
            "geometry": {
                "type": "Polygon",
                "coordinates": [
                    [
                        [
                            -79.98,
                            36.05
                        ],
                        [
                            -80.04,
                            32.89
                        ],
                        [
                            -81.966,
                            31.346
                        ],
                        [
                            -84.203,
                            32.881
                        ],
                        [
                            -82.366,
                            35.385
                        ],
                        [
                            -79.98,
                            36.05
                        ]
                    ]
                ]
            },
            "properties": {
                "airSigmetId": null,
                "airportIcao": "KKCI",
                "airSigmetType": "SIGMET",
                "hazard": "CONVECTIVE",
                "severity": 5,
                "altitudeLow1": null,
                "altitudeLow2": null,
                "altitudeHi1": 45000,
                "altitudeHi2": 45000,
                "movementDir": 200,
                "movementSpd": 15,
                "rawAirSigmet": "WSUS31 KKCI 211955\nSIGE \nCONVECTIVE SIGMET 35E\nVALID UNTIL 2155Z\nNC SC GA\nFROM GSO-CHS-30ESE AMG-30WNW MCN-30NW SPA-GSO\nAREA SEV TS MOV FROM 20015KT. TOPS TO FL450.\nHAIL TO 1 IN...WIND GUSTS TO 50KT POSS.\n\nOUTLOOK VALID 212155-220155\nAREA 1...FROM 40NNW EKN-40N ORF-140SE SIE-180ESE ECG-140SSE\nILM-40SW MGM-BNA-40NNW EKN\nREF WW 608\nREFER TO MOST RECENT ACUS01 KWNS FROM STORM PREDICTION CENTER FOR\nSYNOPSIS AND METEOROLOGICAL DETAILS.\n\nAREA 2...FROM 80N SAW-40NNW SSM-50SE SSM-FWA-BVT-80N SAW\nWST ISSUANCES POSS. REFER TO MOST RECENT ACUS01 KWNS FROM STORM\nPREDICTION CENTER FOR SYNOPSIS AND METEOROLOGICAL DETAILS.\n\nAREA 3...FROM 150SSE ILM-170E PBI-140ESE PBI-130SSE MIA-70WSW\nEYW-100WSW PIE-200SE LEV-40SW MGM-150SSE ILM\nWST ISSUANCES POSS. REFER TO MOST RECENT ACUS01 KWNS FROM STORM\nPREDICTION CENTER FOR SYNOPSIS AND METEOROLOGICAL DETAILS.",
                "validTimeTo": [
                    "2026-08-21T21:55"
                ]
            }
        },
        {
            "type": "Feature",
            "geometry": {
                "type": "Polygon",
                "coordinates": [
                    [
                        [
                            -83.799,
                            37.644
                        ],
                        [
                            -82.13,
                            36.943
                        ],
                        [
                            -84.994,
                            35.267
                        ],
                        [
                            -86.299,
                            36.267
                        ],
                        [
                            -83.799,
                            37.644
                        ]
                    ]
                ]
            },
            "properties": {
                "airSigmetId": null,
                "airportIcao": "KKCI",
                "airSigmetType": "SIGMET",
                "hazard": "CONVECTIVE",
                "severity": 5,
                "altitudeLow1": null,
                "altitudeLow2": null,
                "altitudeHi1": 45000,
                "altitudeHi2": 60000,
                "movementDir": null,
                "movementSpd": null,
                "rawAirSigmet": "WSUS31 KKCI 211955\nSIGE \nCONVECTIVE SIGMET 36E\nVALID UNTIL 2155Z\nVA TN KY\nFROM 40NNE LOZ-30N HMV-20NNE GQO-20ENE BNA-40NNE LOZ\nAREA TS MOV LTL. TOPS ABV FL450.\n\nOUTLOOK VALID 212155-220155\nAREA 1...FROM 40NNW EKN-40N ORF-140SE SIE-180ESE ECG-140SSE\nILM-40SW MGM-BNA-40NNW EKN\nREF WW 608\nREFER TO MOST RECENT ACUS01 KWNS FROM STORM PREDICTION CENTER FOR\nSYNOPSIS AND METEOROLOGICAL DETAILS.\n\nAREA 2...FROM 80N SAW-40NNW SSM-50SE SSM-FWA-BVT-80N SAW\nWST ISSUANCES POSS. REFER TO MOST RECENT ACUS01 KWNS FROM STORM\nPREDICTION CENTER FOR SYNOPSIS AND METEOROLOGICAL DETAILS.\n\nAREA 3...FROM 150SSE ILM-170E PBI-140ESE PBI-130SSE MIA-70WSW\nEYW-100WSW PIE-200SE LEV-40SW MGM-150SSE ILM\nWST ISSUANCES POSS. REFER TO MOST RECENT ACUS01 KWNS FROM STORM\nPREDICTION CENTER FOR SYNOPSIS AND METEOROLOGICAL DETAILS.",
                "validTimeTo": [
                    "2026-08-21T21:55"
                ]
            }
        },
        {
            "type": "Feature",
            "geometry": {
                "type": "Polygon",
                "coordinates": [
                    [
                        [
                            -85.15,
                            34.96
                        ],
                        [
                            -84.235,
                            33.63
                        ],
                        [
                            -87.023,
                            32.809
                        ],
                        [
                            -88.86,
                            34.673
                        ],
                        [
                            -85.15,
                            34.96
                        ]
                    ]
                ]
            },
            "properties": {
                "airSigmetId": null,
                "airportIcao": "KKCI",
                "airSigmetType": "SIGMET",
                "hazard": "CONVECTIVE",
                "severity": 5,
                "altitudeLow1": null,
                "altitudeLow2": null,
                "altitudeHi1": 45000,
                "altitudeHi2": 60000,
                "movementDir": null,
                "movementSpd": null,
                "rawAirSigmet": "WSUS31 KKCI 211955\nSIGE \nCONVECTIVE SIGMET 37E\nVALID UNTIL 2155Z\nGA AL MS\nFROM GQO-10E ATL-50NW MGM-60ESE MEM-GQO\nAREA TS MOV LTL. TOPS ABV FL450.\n\nOUTLOOK VALID 212155-220155\nAREA 1...FROM 40NNW EKN-40N ORF-140SE SIE-180ESE ECG-140SSE\nILM-40SW MGM-BNA-40NNW EKN\nREF WW 608\nREFER TO MOST RECENT ACUS01 KWNS FROM STORM PREDICTION CENTER FOR\nSYNOPSIS AND METEOROLOGICAL DETAILS.\n\nAREA 2...FROM 80N SAW-40NNW SSM-50SE SSM-FWA-BVT-80N SAW\nWST ISSUANCES POSS. REFER TO MOST RECENT ACUS01 KWNS FROM STORM\nPREDICTION CENTER FOR SYNOPSIS AND METEOROLOGICAL DETAILS.\n\nAREA 3...FROM 150SSE ILM-170E PBI-140ESE PBI-130SSE MIA-70WSW\nEYW-100WSW PIE-200SE LEV-40SW MGM-150SSE ILM\nWST ISSUANCES POSS. REFER TO MOST RECENT ACUS01 KWNS FROM STORM\nPREDICTION CENTER FOR SYNOPSIS AND METEOROLOGICAL DETAILS.",
                "validTimeTo": [
                    "2026-08-21T21:55"
                ]
            }
        },
        {
            "type": "Feature",
            "geometry": {
                "type": "Polygon",
                "coordinates": [
                    [
                        [
                            -110.73,
                            43.62
                        ],
                        [
                            -106.28,
                            43.09
                        ],
                        [
                            -103.955,
                            41.533
                        ],
                        [
                            -104.912,
                            40.274
                        ],
                        [
                            -110.905,
                            41.986
                        ],
                        [
                            -110.73,
                            43.62
                        ]
                    ]
                ]
            },
            "properties": {
                "airSigmetId": null,
                "airportIcao": "KKCI",
                "airSigmetType": "SIGMET",
                "hazard": "CONVECTIVE",
                "severity": 5,
                "altitudeLow1": null,
                "altitudeLow2": null,
                "altitudeHi1": 40000,
                "altitudeHi2": 40000,
                "movementDir": null,
                "movementSpd": null,
                "rawAirSigmet": "WSUS33 KKCI 211955\nSIGW \nCONVECTIVE SIGMET 62W\nVALID UNTIL 2155Z\nNE CO WY\nFROM JAC-DDY-30SW BFF-30NNW DEN-50SW BPI-JAC\nAREA TS MOV LTL. TOPS TO FL400.\n\nOUTLOOK VALID 212155-220155\nFROM 40SE LKT-CZI-50NNW BFF-TBE-30SE CME-ELP-50S TUS-BZA-MZB-40N\nHEC-FMG-50SSW BOI-40SE LKT\nWST ISSUANCES POSS. REFER TO MOST RECENT ACUS01 KWNS FROM STORM\nPREDICTION CENTER FOR SYNOPSIS AND METEOROLOGICAL DETAILS.",
                "validTimeTo": [
                    "2026-08-21T21:55"
                ]
            }
        },
        {
            "type": "Feature",
            "geometry": {
                "type": "Polygon",
                "coordinates": [
                    [
                        [
                            -111.27,
                            36.12
                        ],
                        [
                            -111.176,
                            35.187
                        ],
                        [
                            -112.48,
                            35.365
                        ],
                        [
                            -112.304,
                            36.116
                        ],
                        [
                            -111.27,
                            36.12
                        ]
                    ]
                ]
            },
            "properties": {
                "airSigmetId": null,
                "airportIcao": "KKCI",
                "airSigmetType": "SIGMET",
                "hazard": "CONVECTIVE",
                "severity": 5,
                "altitudeLow1": null,
                "altitudeLow2": null,
                "altitudeHi1": 38000,
                "altitudeHi2": 38000,
                "movementDir": null,
                "movementSpd": null,
                "rawAirSigmet": "WSUS33 KKCI 211955\nSIGW \nCONVECTIVE SIGMET 63W\nVALID UNTIL 2155Z\nAZ\nFROM TBC-20WNW INW-40N DRK-50W TBC-TBC\nAREA TS MOV LTL. TOPS TO FL380.\n\nOUTLOOK VALID 212155-220155\nFROM 40SE LKT-CZI-50NNW BFF-TBE-30SE CME-ELP-50S TUS-BZA-MZB-40N\nHEC-FMG-50SSW BOI-40SE LKT\nWST ISSUANCES POSS. REFER TO MOST RECENT ACUS01 KWNS FROM STORM\nPREDICTION CENTER FOR SYNOPSIS AND METEOROLOGICAL DETAILS.",
                "validTimeTo": [
                    "2026-08-21T21:55"
                ]
            }
        },
        {
            "type": "Feature",
            "geometry": {
                "type": "Polygon",
                "coordinates": [
                    [
                        [
                            -116.085,
                            34.927
                        ],
                        [
                            -115.852,
                            34.244
                        ],
                        [
                            -116.9,
                            33.882
                        ],
                        [
                            -117.025,
                            34.606
                        ],
                        [
                            -116.085,
                            34.927
                        ]
                    ]
                ]
            },
            "properties": {
                "airSigmetId": null,
                "airportIcao": "KKCI",
                "airSigmetType": "SIGMET",
                "hazard": "CONVECTIVE",
                "severity": 5,
                "altitudeLow1": null,
                "altitudeLow2": null,
                "altitudeHi1": 45000,
                "altitudeHi2": 60000,
                "movementDir": null,
                "movementSpd": null,
                "rawAirSigmet": "WSUS33 KKCI 211955\nSIGW \nCONVECTIVE SIGMET 64W\nVALID UNTIL 2155Z\nCA\nFROM 20ENE HEC-40NNE TRM-40WNW TRM-30WSW HEC-20ENE HEC\nAREA TS MOV LTL. TOPS ABV FL450.\n\nOUTLOOK VALID 212155-220155\nFROM 40SE LKT-CZI-50NNW BFF-TBE-30SE CME-ELP-50S TUS-BZA-MZB-40N\nHEC-FMG-50SSW BOI-40SE LKT\nWST ISSUANCES POSS. REFER TO MOST RECENT ACUS01 KWNS FROM STORM\nPREDICTION CENTER FOR SYNOPSIS AND METEOROLOGICAL DETAILS.",
                "validTimeTo": [
                    "2026-08-21T21:55"
                ]
            }
        }
    ],
    "metadata": {
        "creationTime": "2026-08-21T20:32"
    }
}