{
    "type": "FeatureCollection",
    "features": [
        {
            "type": "Feature",
            "geometry": {
                "type": "Polygon",
                "coordinates": [
                    [
                        [
                            -92.451,
                            36.652
                        ],
                        [
                            -94.035,
                            34.915
                        ],
                        [
                            -96.369,
                            35.729
                        ],
                        [
                            -94.5,
                            36.122
                        ],
                        [
                            -93.962,
                            36.557
                        ],
                        [
                            -92.451,
                            36.652
                        ]
                    ]
                ]
            },
            "properties": {
                "airSigmetId": null,
                "airportIcao": "KKCI",
                "airSigmetType": "SIGMET",
                "hazard": "CONVECTIVE",
                "severity": 5,
                "altitudeLow1": null,
                "altitudeLow2": null,
                "altitudeHi1": 30000,
                "altitudeHi2": 30000,
                "movementDir": 270,
                "movementSpd": 25,
                "rawAirSigmet": "WSUS32 KKCI 270055\nSIGC \nCONVECTIVE SIGMET 1C\nVALID UNTIL 0255Z\nMO AR OK\nFROM 60SE SGF-30SSE FSM-40SW TUL-20WSW RZC-20NNE RZC-60SE SGF\nAREA EMBD TS MOV FROM 27025KT. TOPS TO FL300.\n\nOUTLOOK VALID 270255-270655\nFROM ICT-SGF-40SSW FSM-30WSW JCT-80S MRF-80WNW MRF-50WSW\nINK-40WNW CDS-MMB-ICT\nWST ISSUANCES EXPD. REFER TO MOST RECENT ACUS01 KWNS FROM STORM\nPREDICTION CENTER FOR SYNOPSIS AND METEOROLOGICAL DETAILS.",
                "validTimeTo": [
                    "2026-09-27T02:55"
                ]
            }
        },
        {
            "type": "Feature",
            "geometry": {
                "type": "Polygon",
                "coordinates": [
                    [
                        [
                            -95.351,
                            44.404
                        ],
                        [
                            -92.815,
                            42.168
                        ],
                        [
                            -94.29,
                            42.107
                        ],
                        [
                            -96.456,
                            43.415
                        ],
                        [
                            -95.351,
                            44.404
                        ]
                    ]
                ]
            },
            "properties": {
                "airSigmetId": null,
                "airportIcao": "KKCI",
                "airSigmetType": "SIGMET",
                "hazard": "CONVECTIVE",
                "severity": 5,
                "altitudeLow1": null,
                "altitudeLow2": null,
                "altitudeHi1": 29000,
                "altitudeHi2": 29000,
                "movementDir": 250,
                "movementSpd": 15,
                "rawAirSigmet": "WSUS32 KKCI 270055\nSIGC \nCONVECTIVE SIGMET 2C\nVALID UNTIL 0255Z\nMN IA\nFROM 10WSW RWF-60SSE MCW-30S FOD-20SE FSD-10WSW RWF\nAREA TS MOV FROM 25015KT. TOPS TO FL290.\n\nOUTLOOK VALID 270255-270655\nFROM ICT-SGF-40SSW FSM-30WSW JCT-80S MRF-80WNW MRF-50WSW\nINK-40WNW CDS-MMB-ICT\nWST ISSUANCES EXPD. REFER TO MOST RECENT ACUS01 KWNS FROM STORM\nPREDICTION CENTER FOR SYNOPSIS AND METEOROLOGICAL DETAILS.",
                "validTimeTo": [
                    "2026-09-27T02:55"
                ]
            }
        },
        {
            "type": "Feature",
            "geometry": {
                "type": "Polygon",
                "coordinates": [
                    [
                        [
                            -103.056,
                            30.792
                        ],
                        [
                            -101.452,
                            29.949
                        ],
                        [
                            -101.476,
                            29.613
                        ],
                        [
                            -102.465,
                            29.87
                        ],
                        [
                            -103.752,
                            30.3
                        ],
                        [
                            -103.056,
                            30.792
                        ]
                    ]
                ]
            },
            "properties": {
                "airSigmetId": null,
                "airportIcao": "KKCI",
                "airSigmetType": "SIGMET",
                "hazard": "CONVECTIVE",
                "severity": 5,
                "altitudeLow1": null,
                "altitudeLow2": null,
                "altitudeHi1": 34000,
                "altitudeHi2": 34000,
                "movementDir": 270,
                "movementSpd": 15,
                "rawAirSigmet": "WSUS32 KKCI 270055\nSIGC \nCONVECTIVE SIGMET 3C\nVALID UNTIL 0255Z\nTX\nFROM 10SSW FST-50NW DLF-40WNW DLF-70SSE FST-10E MRF-10SSW FST\nAREA TS MOV FROM 27015KT. TOPS TO FL340.\n\nOUTLOOK VALID 270255-270655\nFROM ICT-SGF-40SSW FSM-30WSW JCT-80S MRF-80WNW MRF-50WSW\nINK-40WNW CDS-MMB-ICT\nWST ISSUANCES EXPD. REFER TO MOST RECENT ACUS01 KWNS FROM STORM\nPREDICTION CENTER FOR SYNOPSIS AND METEOROLOGICAL DETAILS.",
                "validTimeTo": [
                    "2026-09-27T02:55"
                ]
            }
        },
        {
            "type": "Feature",
            "geometry": {
                "type": "Polygon",
                "coordinates": [
                    [
                        [
                            -98.238,
                            36.964
                        ],
                        [
                            -96.672,
                            36.902
                        ],
                        [
                            -97.453,
                            35.667
                        ],
                        [
                            -99.567,
                            35.725
                        ],
                        [
                            -98.238,
                            36.964
                        ]
                    ]
                ]
            },
            "properties": {
                "airSigmetId": null,
                "airportIcao": "KKCI",
                "airSigmetType": "SIGMET",
                "hazard": "CONVECTIVE",
                "severity": 5,
                "altitudeLow1": null,
                "altitudeLow2": null,
                "altitudeHi1": 45000,
                "altitudeHi2": 60000,
                "movementDir": 270,
                "movementSpd": 25,
                "rawAirSigmet": "WSUS32 KKCI 270055\nSIGC \nCONVECTIVE SIGMET 4C\nVALID UNTIL 0255Z\nOK\nFROM 40NNW END-60NW TUL-20NNE OKC-40SSE MMB-40NNW END\nAREA TS MOV FROM 27025KT. TOPS ABV FL450.\n\nOUTLOOK VALID 270255-270655\nFROM ICT-SGF-40SSW FSM-30WSW JCT-80S MRF-80WNW MRF-50WSW\nINK-40WNW CDS-MMB-ICT\nWST ISSUANCES EXPD. REFER TO MOST RECENT ACUS01 KWNS FROM STORM\nPREDICTION CENTER FOR SYNOPSIS AND METEOROLOGICAL DETAILS.",
                "validTimeTo": [
                    "2026-09-27T02:55"
                ]
            }
        },
        {
            "type": "Feature",
            "geometry": {
                "type": "Polygon",
                "coordinates": [
                    [
                        [
                            -97.899,
                            35.595
                        ],
                        [
                            -95.78,
                            34.85
                        ],
                        [
                            -97.27,
                            32.163
                        ],
                        [
                            -100.176,
                            30.472
                        ],
                        [
                            -102.331,
                            32.327
                        ],
                        [
                            -97.899,
                            35.595
                        ]
                    ]
                ]
            },
            "properties": {
                "airSigmetId": null,
                "airportIcao": "KKCI",
                "airSigmetType": "SIGMET",
                "hazard": "CONVECTIVE",
                "severity": 5,
                "altitudeLow1": null,
                "altitudeLow2": null,
                "altitudeHi1": 45000,
                "altitudeHi2": 60000,
                "movementDir": 270,
                "movementSpd": 30,
                "rawAirSigmet": "WSUS32 KKCI 270055\nSIGC \nCONVECTIVE SIGMET 5C\nVALID UNTIL 0255Z\nTX OK\nFROM 20NW OKC-MLC-30N ACT-20WSW JCT-20NNW MAF-20NW OKC\nAREA SEV TS MOV FROM 27030KT. TOPS ABV FL450.\nHAIL TO 1 IN...WIND GUSTS TO 50KT POSS.\n\nOUTLOOK VALID 270255-270655\nFROM ICT-SGF-40SSW FSM-30WSW JCT-80S MRF-80WNW MRF-50WSW\nINK-40WNW CDS-MMB-ICT\nWST ISSUANCES EXPD. REFER TO MOST RECENT ACUS01 KWNS FROM STORM\nPREDICTION CENTER FOR SYNOPSIS AND METEOROLOGICAL DETAILS.",
                "validTimeTo": [
                    "2026-09-27T02:55"
                ]
            }
        }
    ],
    "metadata": {
        "creationTime": "2026-09-27T01:17"
    }
}