{
    "type": "FeatureCollection",
    "features": [
        {
            "type": "Feature",
            "geometry": {
                "type": "Polygon",
                "coordinates": [
                    [
                        [
                            -82.722,
                            33.239
                        ],
                        [
                            -80.268,
                            32.425
                        ],
                        [
                            -83.196,
                            29.293
                        ],
                        [
                            -86.953,
                            30.595
                        ],
                        [
                            -85.901,
                            31.864
                        ],
                        [
                            -82.722,
                            33.239
                        ]
                    ]
                ]
            },
            "properties": {
                "airSigmetId": null,
                "airportIcao": "KKCI",
                "airSigmetType": "SIGMET",
                "hazard": "CONVECTIVE",
                "severity": 5,
                "altitudeLow1": null,
                "altitudeLow2": null,
                "altitudeHi1": 45000,
                "altitudeHi2": 60000,
                "movementDir": null,
                "movementSpd": null,
                "rawAirSigmet": "WSUS31 KKCI 260055\nSIGE \nCONVECTIVE SIGMET 3E\nVALID UNTIL 0255Z\nSC FL GA AL AND FL SC GA CSTL WTRS\nFROM 40SW IRQ-30SSW CHS-20SSW CTY-20SW CEW-30SE MGM-40SW IRQ\nAREA SEV TS MOV LTL. TOPS ABV FL450.\nWIND GUSTS TO 50KT POSS.\n\nOUTLOOK VALID 260255-260655\nFROM MCN-130SSE ILM-220E OMN-80ESE EYW-40SW EYW-100W PIE-200ESE\nLEV-30NW CEW-MCN\nWST ISSUANCES EXPD. REFER TO MOST RECENT ACUS01 KWNS FROM STORM\nPREDICTION CENTER FOR SYNOPSIS AND METEOROLOGICAL DETAILS.",
                "validTimeTo": [
                    "2026-08-26T01:54"
                ]
            }
        },
        {
            "type": "Feature",
            "geometry": {
                "type": "Polygon",
                "coordinates": [
                    [
                        [
                            -79.404,
                            26.424
                        ],
                        [
                            -79.062,
                            26.295
                        ],
                        [
                            -78.942,
                            25.285
                        ],
                        [
                            -79.619,
                            25.544
                        ],
                        [
                            -79.404,
                            26.424
                        ]
                    ]
                ]
            },
            "properties": {
                "airSigmetId": null,
                "airportIcao": "KKCI",
                "airSigmetType": "SIGMET",
                "hazard": "CONVECTIVE",
                "severity": 5,
                "altitudeLow1": null,
                "altitudeLow2": null,
                "altitudeHi1": 45000,
                "altitudeHi2": 60000,
                "movementDir": null,
                "movementSpd": null,
                "rawAirSigmet": "WSUS31 KKCI 260055\nSIGE \nCONVECTIVE SIGMET 4E\nVALID UNTIL 0255Z\nFL CSTL WTRS\nFROM 40ESE PBI-60ESE PBI-80ESE MIA-40ESE MIA-40ESE PBI\nAREA TS MOV LTL. TOPS ABV FL450.\nREF INTL SIGMET KILO SERIES.\n\nOUTLOOK VALID 260255-260655\nFROM MCN-130SSE ILM-220E OMN-80ESE EYW-40SW EYW-100W PIE-200ESE\nLEV-30NW CEW-MCN\nWST ISSUANCES EXPD. REFER TO MOST RECENT ACUS01 KWNS FROM STORM\nPREDICTION CENTER FOR SYNOPSIS AND METEOROLOGICAL DETAILS.",
                "validTimeTo": [
                    "2026-08-26T01:54"
                ]
            }
        },
        {
            "type": "Feature",
            "geometry": {
                "type": "Polygon",
                "coordinates": [
                    [
                        [
                            -76.88,
                            33.52
                        ],
                        [
                            -76.049,
                            32.806
                        ],
                        [
                            -76.89,
                            32.346
                        ],
                        [
                            -77.336,
                            33.27
                        ],
                        [
                            -76.88,
                            33.52
                        ]
                    ]
                ]
            },
            "properties": {
                "airSigmetId": null,
                "airportIcao": "KKCI",
                "airSigmetType": "SIGMET",
                "hazard": "CONVECTIVE",
                "severity": 5,
                "altitudeLow1": null,
                "altitudeLow2": null,
                "altitudeHi1": 45000,
                "altitudeHi2": 60000,
                "movementDir": null,
                "movementSpd": null,
                "rawAirSigmet": "WSUS31 KKCI 260055\nSIGE \nCONVECTIVE SIGMET 5E\nVALID UNTIL 0255Z\nNC SC CSTL WTRS\nFROM 70SE ILM-130SE ILM-130SSE ILM-70SSE ILM-70SE ILM\nAREA TS MOV LTL. TOPS ABV FL450.\n\nOUTLOOK VALID 260255-260655\nFROM MCN-130SSE ILM-220E OMN-80ESE EYW-40SW EYW-100W PIE-200ESE\nLEV-30NW CEW-MCN\nWST ISSUANCES EXPD. REFER TO MOST RECENT ACUS01 KWNS FROM STORM\nPREDICTION CENTER FOR SYNOPSIS AND METEOROLOGICAL DETAILS.",
                "validTimeTo": [
                    "2026-08-26T01:54"
                ]
            }
        },
        {
            "type": "Feature",
            "geometry": {
                "type": "Polygon",
                "coordinates": [
                    [
                        [
                            -100.617,
                            35.286
                        ],
                        [
                            -97.897,
                            35.125
                        ],
                        [
                            -98.59,
                            33.487
                        ],
                        [
                            -100.842,
                            34.176
                        ],
                        [
                            -100.617,
                            35.286
                        ]
                    ]
                ]
            },
            "properties": {
                "airSigmetId": null,
                "airportIcao": "KKCI",
                "airSigmetType": "SIGMET",
                "hazard": "CONVECTIVE",
                "severity": 5,
                "altitudeLow1": null,
                "altitudeLow2": null,
                "altitudeHi1": 40000,
                "altitudeHi2": 40000,
                "movementDir": 340,
                "movementSpd": 15,
                "rawAirSigmet": "WSUS32 KKCI 260055\nSIGC \nCONVECTIVE SIGMET 3C\nVALID UNTIL 0255Z\nTX OK\nFROM 50E AMA-20SW OKC-30S SPS-30WSW CDS-50E AMA\nAREA TS MOV FROM 34015KT. TOPS TO FL400.\n\nOUTLOOK VALID 260255-260655\nAREA 1...FROM MLU-60W MGM-CEW-190ESE LEV-160SE LEV-130ESE\nLEV-120ESE PSX-100SE PSX-40ESE IAH-MLU\nWST ISSUANCES EXPD. REFER TO MOST RECENT ACUS01 KWNS FROM STORM\nPREDICTION CENTER FOR SYNOPSIS AND METEOROLOGICAL DETAILS.\n\nAREA 2...FROM 70WNW INL-30SSW YQT-40E YQT-40NNW SSM-50ENE BAE-40W\nMSP-70WNW INL\nWST ISSUANCES EXPD. REFER TO MOST RECENT ACUS01 KWNS FROM STORM\nPREDICTION CENTER FOR SYNOPSIS AND METEOROLOGICAL DETAILS.\nREF WW 626.\n\nAREA 3...FROM CZI-ONL-50ENE ICT-SPS-CME-ABQ-CZI\nWST ISSUANCES EXPD. REFER TO MOST RECENT ACUS01 KWNS FROM STORM\nPREDICTION CENTER FOR SYNOPSIS AND METEOROLOGICAL DETAILS.\nREF WW 627.",
                "validTimeTo": [
                    "2026-08-26T01:54"
                ]
            }
        },
        {
            "type": "Feature",
            "geometry": {
                "type": "Polygon",
                "coordinates": [
                    [
                        [
                            -112.095,
                            47.255
                        ],
                        [
                            -109.744,
                            44.321
                        ],
                        [
                            -111.374,
                            43.148
                        ],
                        [
                            -115.765,
                            43.676
                        ],
                        [
                            -118.602,
                            45.935
                        ],
                        [
                            -112.095,
                            47.255
                        ]
                    ]
                ]
            },
            "properties": {
                "airSigmetId": null,
                "airportIcao": "KKCI",
                "airSigmetType": "SIGMET",
                "hazard": "CONVECTIVE",
                "severity": 5,
                "altitudeLow1": null,
                "altitudeLow2": null,
                "altitudeHi1": 37000,
                "altitudeHi2": 37000,
                "movementDir": 260,
                "movementSpd": 10,
                "rawAirSigmet": "WSUS33 KKCI 260055\nSIGW \nCONVECTIVE SIGMET 3W\nVALID UNTIL 0255Z\nMT WY ID OR WA\nFROM 30WSW GTF-60NE JAC-40SW JAC-20ENE BOI-20NE PDT-30WSW GTF\nAREA TS MOV FROM 26010KT. TOPS TO FL370.\n\nOUTLOOK VALID 260255-260655\nFROM 30NE GEG-50NW MLS-CZI-ABQ-60SSW TUS-BZA-30SSE BTY-30NE GEG\nWST ISSUANCES EXPD. REFER TO MOST RECENT ACUS01 KWNS FROM STORM\nPREDICTION CENTER FOR SYNOPSIS AND METEOROLOGICAL DETAILS.",
                "validTimeTo": [
                    "2026-08-26T01:54"
                ]
            }
        },
        {
            "type": "Feature",
            "geometry": {
                "type": "Polygon",
                "coordinates": [
                    [
                        [
                            -92.204,
                            30.646
                        ],
                        [
                            -89.315,
                            30.439
                        ],
                        [
                            -88.577,
                            29.171
                        ],
                        [
                            -89.667,
                            28.258
                        ],
                        [
                            -92.599,
                            29.06
                        ],
                        [
                            -92.204,
                            30.646
                        ]
                    ]
                ]
            },
            "properties": {
                "airSigmetId": null,
                "airportIcao": "KKCI",
                "airSigmetType": "SIGMET",
                "hazard": "CONVECTIVE",
                "severity": 5,
                "altitudeLow1": null,
                "altitudeLow2": null,
                "altitudeHi1": 45000,
                "altitudeHi2": 60000,
                "movementDir": null,
                "movementSpd": null,
                "rawAirSigmet": "WSUS32 KKCI 260055\nSIGC \nCONVECTIVE SIGMET 1C\nVALID UNTIL 0255Z\nMS LA AND CSTL WTRS\nFROM 40SSE AEX-50NE HRV-80E LEV-60SSE LEV-70SSE LCH-40SSE AEX\nAREA SEV TS MOV LTL. TOPS ABV FL450.\nHAIL TO 1 IN...WIND GUSTS TO 50KT POSS.\nREF INTL SIGMET MIKE SERIES.\n\nOUTLOOK VALID 260255-260655\nAREA 1...FROM MLU-60W MGM-CEW-190ESE LEV-160SE LEV-130ESE\nLEV-120ESE PSX-100SE PSX-40ESE IAH-MLU\nWST ISSUANCES EXPD. REFER TO MOST RECENT ACUS01 KWNS FROM STORM\nPREDICTION CENTER FOR SYNOPSIS AND METEOROLOGICAL DETAILS.\n\nAREA 2...FROM 70WNW INL-30SSW YQT-40E YQT-40NNW SSM-50ENE BAE-40W\nMSP-70WNW INL\nWST ISSUANCES EXPD. REFER TO MOST RECENT ACUS01 KWNS FROM STORM\nPREDICTION CENTER FOR SYNOPSIS AND METEOROLOGICAL DETAILS.\nREF WW 626.\n\nAREA 3...FROM CZI-ONL-50ENE ICT-SPS-CME-ABQ-CZI\nWST ISSUANCES EXPD. REFER TO MOST RECENT ACUS01 KWNS FROM STORM\nPREDICTION CENTER FOR SYNOPSIS AND METEOROLOGICAL DETAILS.\nREF WW 627.",
                "validTimeTo": [
                    "2026-08-26T01:54"
                ]
            }
        },
        {
            "type": "Feature",
            "geometry": {
                "type": "Polygon",
                "coordinates": [
                    [
                        [
                            -105.72,
                            41.33
                        ],
                        [
                            -101.485,
                            38.508
                        ],
                        [
                            -104.328,
                            35.769
                        ],
                        [
                            -109.672,
                            37.217
                        ],
                        [
                            -109.71,
                            38.062
                        ],
                        [
                            -105.72,
                            41.33
                        ]
                    ]
                ]
            },
            "properties": {
                "airSigmetId": null,
                "airportIcao": "KKCI",
                "airSigmetType": "SIGMET",
                "hazard": "CONVECTIVE",
                "severity": 5,
                "altitudeLow1": null,
                "altitudeLow2": null,
                "altitudeHi1": 45000,
                "altitudeHi2": 60000,
                "movementDir": 270,
                "movementSpd": 10,
                "rawAirSigmet": "WSUS32 KKCI 260055\nSIGC \nCONVECTIVE SIGMET 2C\nVALID UNTIL 0255Z\nKS CO NM WY AZ UT\nFROM LAR-50NW GCK-50NW TCC-50SW DVC-40WNW DVC-LAR\nAREA SEV TS MOV FROM 27010KT. TOPS ABV FL450.\nHAIL TO 1.5 IN...WIND GUSTS TO 50KT POSS.\n\nOUTLOOK VALID 260255-260655\nAREA 1...FROM MLU-60W MGM-CEW-190ESE LEV-160SE LEV-130ESE\nLEV-120ESE PSX-100SE PSX-40ESE IAH-MLU\nWST ISSUANCES EXPD. REFER TO MOST RECENT ACUS01 KWNS FROM STORM\nPREDICTION CENTER FOR SYNOPSIS AND METEOROLOGICAL DETAILS.\n\nAREA 2...FROM 70WNW INL-30SSW YQT-40E YQT-40NNW SSM-50ENE BAE-40W\nMSP-70WNW INL\nWST ISSUANCES EXPD. REFER TO MOST RECENT ACUS01 KWNS FROM STORM\nPREDICTION CENTER FOR SYNOPSIS AND METEOROLOGICAL DETAILS.\nREF WW 626.\n\nAREA 3...FROM CZI-ONL-50ENE ICT-SPS-CME-ABQ-CZI\nWST ISSUANCES EXPD. REFER TO MOST RECENT ACUS01 KWNS FROM STORM\nPREDICTION CENTER FOR SYNOPSIS AND METEOROLOGICAL DETAILS.\nREF WW 627.",
                "validTimeTo": [
                    "2026-08-26T01:54"
                ]
            }
        },
        {
            "type": "Feature",
            "geometry": {
                "type": "Polygon",
                "coordinates": [
                    [
                        [
                            -88.4,
                            48.112
                        ],
                        [
                            -86.014,
                            47.292
                        ],
                        [
                            -89.405,
                            44.164
                        ],
                        [
                            -90.396,
                            44.575
                        ],
                        [
                            -88.4,
                            48.112
                        ]
                    ]
                ]
            },
            "properties": {
                "airSigmetId": null,
                "airportIcao": "KKCI",
                "airSigmetType": "SIGMET",
                "hazard": "CONVECTIVE",
                "severity": 5,
                "altitudeLow1": null,
                "altitudeLow2": null,
                "altitudeHi1": 41000,
                "altitudeHi2": 41000,
                "movementDir": 260,
                "movementSpd": 30,
                "rawAirSigmet": "WSUS32 KKCI 260055\nSIGC \nCONVECTIVE SIGMET 4C\nVALID UNTIL 0255Z\nMI WI LS\nFROM 40ESE YQT-80NE SAW-40NNE DLL-50ESE EAU-40ESE YQT\nAREA TS MOV FROM 26030KT. TOPS TO FL410.\n\nOUTLOOK VALID 260255-260655\nAREA 1...FROM MLU-60W MGM-CEW-190ESE LEV-160SE LEV-130ESE\nLEV-120ESE PSX-100SE PSX-40ESE IAH-MLU\nWST ISSUANCES EXPD. REFER TO MOST RECENT ACUS01 KWNS FROM STORM\nPREDICTION CENTER FOR SYNOPSIS AND METEOROLOGICAL DETAILS.\n\nAREA 2...FROM 70WNW INL-30SSW YQT-40E YQT-40NNW SSM-50ENE BAE-40W\nMSP-70WNW INL\nWST ISSUANCES EXPD. REFER TO MOST RECENT ACUS01 KWNS FROM STORM\nPREDICTION CENTER FOR SYNOPSIS AND METEOROLOGICAL DETAILS.\nREF WW 626.\n\nAREA 3...FROM CZI-ONL-50ENE ICT-SPS-CME-ABQ-CZI\nWST ISSUANCES EXPD. REFER TO MOST RECENT ACUS01 KWNS FROM STORM\nPREDICTION CENTER FOR SYNOPSIS AND METEOROLOGICAL DETAILS.\nREF WW 627.",
                "validTimeTo": [
                    "2026-08-26T01:54"
                ]
            }
        },
        {
            "type": "Feature",
            "geometry": {
                "type": "Polygon",
                "coordinates": [
                    [
                        [
                            -93.162,
                            48.504
                        ],
                        [
                            -89.32,
                            47.867
                        ],
                        [
                            -89.45,
                            46.627
                        ],
                        [
                            -92.343,
                            44.642
                        ],
                        [
                            -93.05,
                            45.187
                        ],
                        [
                            -93.162,
                            48.504
                        ]
                    ]
                ]
            },
            "properties": {
                "airSigmetId": null,
                "airportIcao": "KKCI",
                "airSigmetType": "SIGMET",
                "hazard": "CONVECTIVE",
                "severity": 5,
                "altitudeLow1": null,
                "altitudeLow2": null,
                "altitudeHi1": 45000,
                "altitudeHi2": 60000,
                "movementDir": 250,
                "movementSpd": 20,
                "rawAirSigmet": "WSUS32 KKCI 260055\nSIGC \nCONVECTIVE SIGMET 5C\nVALID UNTIL 0255Z\nMI WI MN LS\nFROM 10ESE INL-30S YQT-60N RHI-40WSW EAU-20NNE MSP-10ESE INL\nAREA SEV TS MOV FROM 25020KT. TOPS ABV FL450.\nTORNADOES...HAIL TO 1.5 IN...WIND GUSTS TO 55KT POSS.\n\nOUTLOOK VALID 260255-260655\nAREA 1...FROM MLU-60W MGM-CEW-190ESE LEV-160SE LEV-130ESE\nLEV-120ESE PSX-100SE PSX-40ESE IAH-MLU\nWST ISSUANCES EXPD. REFER TO MOST RECENT ACUS01 KWNS FROM STORM\nPREDICTION CENTER FOR SYNOPSIS AND METEOROLOGICAL DETAILS.\n\nAREA 2...FROM 70WNW INL-30SSW YQT-40E YQT-40NNW SSM-50ENE BAE-40W\nMSP-70WNW INL\nWST ISSUANCES EXPD. REFER TO MOST RECENT ACUS01 KWNS FROM STORM\nPREDICTION CENTER FOR SYNOPSIS AND METEOROLOGICAL DETAILS.\nREF WW 626.\n\nAREA 3...FROM CZI-ONL-50ENE ICT-SPS-CME-ABQ-CZI\nWST ISSUANCES EXPD. REFER TO MOST RECENT ACUS01 KWNS FROM STORM\nPREDICTION CENTER FOR SYNOPSIS AND METEOROLOGICAL DETAILS.\nREF WW 627.",
                "validTimeTo": [
                    "2026-08-26T01:54"
                ]
            }
        },
        {
            "type": "Feature",
            "geometry": {
                "type": "Polygon",
                "coordinates": [
                    [
                        [
                            -101.944,
                            37.607
                        ],
                        [
                            -100.386,
                            37.231
                        ],
                        [
                            -101.612,
                            34.314
                        ],
                        [
                            -104.852,
                            33.805
                        ],
                        [
                            -105.14,
                            34.663
                        ],
                        [
                            -101.944,
                            37.607
                        ]
                    ]
                ]
            },
            "properties": {
                "airSigmetId": null,
                "airportIcao": "KKCI",
                "airSigmetType": "SIGMET",
                "hazard": "CONVECTIVE",
                "severity": 5,
                "altitudeLow1": null,
                "altitudeLow2": null,
                "altitudeHi1": 45000,
                "altitudeHi2": 60000,
                "movementDir": 290,
                "movementSpd": 25,
                "rawAirSigmet": "WSUS32 KKCI 260055\nSIGC \nCONVECTIVE SIGMET 6C\nVALID UNTIL 0255Z\nTX OK KS CO NM\nFROM 50SE LAA-30ENE LBL-40NNE LBB-30NNW CME-60S FTI-50SE LAA\nAREA SEV TS MOV FROM 29025KT. TOPS ABV FL450.\nHAIL TO 1.5 IN...WIND GUSTS TO 70KT POSS.\n\nOUTLOOK VALID 260255-260655\nAREA 1...FROM MLU-60W MGM-CEW-190ESE LEV-160SE LEV-130ESE\nLEV-120ESE PSX-100SE PSX-40ESE IAH-MLU\nWST ISSUANCES EXPD. REFER TO MOST RECENT ACUS01 KWNS FROM STORM\nPREDICTION CENTER FOR SYNOPSIS AND METEOROLOGICAL DETAILS.\n\nAREA 2...FROM 70WNW INL-30SSW YQT-40E YQT-40NNW SSM-50ENE BAE-40W\nMSP-70WNW INL\nWST ISSUANCES EXPD. REFER TO MOST RECENT ACUS01 KWNS FROM STORM\nPREDICTION CENTER FOR SYNOPSIS AND METEOROLOGICAL DETAILS.\nREF WW 626.\n\nAREA 3...FROM CZI-ONL-50ENE ICT-SPS-CME-ABQ-CZI\nWST ISSUANCES EXPD. REFER TO MOST RECENT ACUS01 KWNS FROM STORM\nPREDICTION CENTER FOR SYNOPSIS AND METEOROLOGICAL DETAILS.\nREF WW 627.",
                "validTimeTo": [
                    "2026-08-26T01:54"
                ]
            }
        },
        {
            "type": "Feature",
            "geometry": {
                "type": "Polygon",
                "coordinates": [
                    [
                        [
                            -104.142,
                            43.149
                        ],
                        [
                            -100.893,
                            42.566
                        ],
                        [
                            -102.766,
                            39.387
                        ],
                        [
                            -105.72,
                            41.33
                        ],
                        [
                            -104.142,
                            43.149
                        ]
                    ]
                ]
            },
            "properties": {
                "airSigmetId": null,
                "airportIcao": "KKCI",
                "airSigmetType": "SIGMET",
                "hazard": "CONVECTIVE",
                "severity": 5,
                "altitudeLow1": null,
                "altitudeLow2": null,
                "altitudeHi1": 45000,
                "altitudeHi2": 60000,
                "movementDir": 300,
                "movementSpd": 20,
                "rawAirSigmet": "WSUS32 KKCI 260055\nSIGC \nCONVECTIVE SIGMET 7C\nVALID UNTIL 0255Z\nNE SD CO WY\nFROM 70SW RAP-40W ANW-50SSE AKO-LAR-70SW RAP\nAREA SEV TS MOV FROM 30020KT. TOPS ABV FL450.\nHAIL TO 1.5 IN...WIND GUSTS TO 50KT POSS.\n\nOUTLOOK VALID 260255-260655\nAREA 1...FROM MLU-60W MGM-CEW-190ESE LEV-160SE LEV-130ESE\nLEV-120ESE PSX-100SE PSX-40ESE IAH-MLU\nWST ISSUANCES EXPD. REFER TO MOST RECENT ACUS01 KWNS FROM STORM\nPREDICTION CENTER FOR SYNOPSIS AND METEOROLOGICAL DETAILS.\n\nAREA 2...FROM 70WNW INL-30SSW YQT-40E YQT-40NNW SSM-50ENE BAE-40W\nMSP-70WNW INL\nWST ISSUANCES EXPD. REFER TO MOST RECENT ACUS01 KWNS FROM STORM\nPREDICTION CENTER FOR SYNOPSIS AND METEOROLOGICAL DETAILS.\nREF WW 626.\n\nAREA 3...FROM CZI-ONL-50ENE ICT-SPS-CME-ABQ-CZI\nWST ISSUANCES EXPD. REFER TO MOST RECENT ACUS01 KWNS FROM STORM\nPREDICTION CENTER FOR SYNOPSIS AND METEOROLOGICAL DETAILS.\nREF WW 627.",
                "validTimeTo": [
                    "2026-08-26T01:54"
                ]
            }
        },
        {
            "type": "Feature",
            "geometry": {
                "type": "Polygon",
                "coordinates": [
                    [
                        [
                            -78.248,
                            31.346
                        ],
                        [
                            -77.184,
                            30.642
                        ],
                        [
                            -76.444,
                            29.086
                        ],
                        [
                            -78.823,
                            29.281
                        ],
                        [
                            -78.248,
                            31.346
                        ]
                    ]
                ]
            },
            "properties": {
                "airSigmetId": null,
                "airportIcao": "KKCI",
                "airSigmetType": "SIGMET",
                "hazard": "CONVECTIVE",
                "severity": 5,
                "altitudeLow1": null,
                "altitudeLow2": null,
                "altitudeHi1": 45000,
                "altitudeHi2": 60000,
                "movementDir": 250,
                "movementSpd": 15,
                "rawAirSigmet": "WSUS31 KKCI 260055\nSIGE \nCONVECTIVE SIGMET 1E\nVALID UNTIL 0255Z\nFL GA CSTL WTRS\nFROM 130SE CHS-220ENE OMN-230ENE TRV-120E OMN-130SE CHS\nAREA TS MOV FROM 25015KT. TOPS ABV FL450.\nREF INTL SIGMET INDIA SERIES.\n\nOUTLOOK VALID 260255-260655\nFROM MCN-130SSE ILM-220E OMN-80ESE EYW-40SW EYW-100W PIE-200ESE\nLEV-30NW CEW-MCN\nWST ISSUANCES EXPD. REFER TO MOST RECENT ACUS01 KWNS FROM STORM\nPREDICTION CENTER FOR SYNOPSIS AND METEOROLOGICAL DETAILS.",
                "validTimeTo": [
                    "2026-08-26T01:54"
                ]
            }
        },
        {
            "type": "Feature",
            "geometry": {
                "type": "Polygon",
                "coordinates": [
                    [
                        [
                            -80.841,
                            29.065
                        ],
                        [
                            -79.709,
                            28.784
                        ],
                        [
                            -80.834,
                            26.678
                        ],
                        [
                            -81.78,
                            27.033
                        ],
                        [
                            -81.928,
                            27.908
                        ],
                        [
                            -80.841,
                            29.065
                        ]
                    ]
                ]
            },
            "properties": {
                "airSigmetId": null,
                "airportIcao": "KKCI",
                "airSigmetType": "SIGMET",
                "hazard": "CONVECTIVE",
                "severity": 5,
                "altitudeLow1": null,
                "altitudeLow2": null,
                "altitudeHi1": 45000,
                "altitudeHi2": 60000,
                "movementDir": 150,
                "movementSpd": 5,
                "rawAirSigmet": "WSUS31 KKCI 260055\nSIGE \nCONVECTIVE SIGMET 2E\nVALID UNTIL 0255Z\nFL AND CSTL WTRS\nFROM 20SE OMN-80ESE OMN-40W PBI-30N RSW-40E PIE-20SE OMN\nAREA TS MOV FROM 15005KT. TOPS ABV FL450.\n\nOUTLOOK VALID 260255-260655\nFROM MCN-130SSE ILM-220E OMN-80ESE EYW-40SW EYW-100W PIE-200ESE\nLEV-30NW CEW-MCN\nWST ISSUANCES EXPD. REFER TO MOST RECENT ACUS01 KWNS FROM STORM\nPREDICTION CENTER FOR SYNOPSIS AND METEOROLOGICAL DETAILS.",
                "validTimeTo": [
                    "2026-08-26T01:54"
                ]
            }
        },
        {
            "type": "Feature",
            "geometry": {
                "type": "Polygon",
                "coordinates": [
                    [
                        [
                            -109.629,
                            45.101
                        ],
                        [
                            -106.083,
                            44.614
                        ],
                        [
                            -107.31,
                            41.185
                        ],
                        [
                            -109.493,
                            41.233
                        ],
                        [
                            -110.11,
                            42.58
                        ],
                        [
                            -109.629,
                            45.101
                        ]
                    ]
                ]
            },
            "properties": {
                "airSigmetId": null,
                "airportIcao": "KKCI",
                "airSigmetType": "SIGMET",
                "hazard": "CONVECTIVE",
                "severity": 5,
                "altitudeLow1": null,
                "altitudeLow2": null,
                "altitudeHi1": 36000,
                "altitudeHi2": 36000,
                "movementDir": 270,
                "movementSpd": 10,
                "rawAirSigmet": "WSUS33 KKCI 260055\nSIGW \nCONVECTIVE SIGMET 1W\nVALID UNTIL 0255Z\nMT WY\nFROM 60SW BIL-40NNE CZI-40N CHE-30SW OCS-BPI-60SW BIL\nAREA TS MOV FROM 27010KT. TOPS TO FL360.\n\nOUTLOOK VALID 260255-260655\nFROM 30NE GEG-50NW MLS-CZI-ABQ-60SSW TUS-BZA-30SSE BTY-30NE GEG\nWST ISSUANCES EXPD. REFER TO MOST RECENT ACUS01 KWNS FROM STORM\nPREDICTION CENTER FOR SYNOPSIS AND METEOROLOGICAL DETAILS.",
                "validTimeTo": [
                    "2026-08-26T01:54"
                ]
            }
        },
        {
            "type": "Feature",
            "geometry": {
                "type": "Polygon",
                "coordinates": [
                    [
                        [
                            -106.82,
                            35.705
                        ],
                        [
                            -104.902,
                            33.575
                        ],
                        [
                            -108.303,
                            32.869
                        ],
                        [
                            -109.569,
                            34.064
                        ],
                        [
                            -108.1,
                            35.582
                        ],
                        [
                            -106.82,
                            35.705
                        ]
                    ]
                ]
            },
            "properties": {
                "airSigmetId": null,
                "airportIcao": "KKCI",
                "airSigmetType": "SIGMET",
                "hazard": "CONVECTIVE",
                "severity": 5,
                "altitudeLow1": null,
                "altitudeLow2": null,
                "altitudeHi1": 42000,
                "altitudeHi2": 42000,
                "movementDir": 250,
                "movementSpd": 5,
                "rawAirSigmet": "WSUS33 KKCI 260055\nSIGW \nCONVECTIVE SIGMET 2W\nVALID UNTIL 0255Z\nNM AZ\nFROM 40N ABQ-20NW CME-50NW DMN-30SW SJN-70S RSK-40N ABQ\nAREA TS MOV FROM 25005KT. TOPS TO FL420.\n\nOUTLOOK VALID 260255-260655\nFROM 30NE GEG-50NW MLS-CZI-ABQ-60SSW TUS-BZA-30SSE BTY-30NE GEG\nWST ISSUANCES EXPD. REFER TO MOST RECENT ACUS01 KWNS FROM STORM\nPREDICTION CENTER FOR SYNOPSIS AND METEOROLOGICAL DETAILS.",
                "validTimeTo": [
                    "2026-08-26T01:54"
                ]
            }
        },
        {
            "type": "Feature",
            "geometry": {
                "type": "Polygon",
                "coordinates": [
                    [
                        [
                            -111.43,
                            39.295
                        ],
                        [
                            -111.329,
                            37.366
                        ],
                        [
                            -114.87,
                            37.328
                        ],
                        [
                            -115.66,
                            38.243
                        ],
                        [
                            -114.42,
                            39.299
                        ],
                        [
                            -111.43,
                            39.295
                        ]
                    ]
                ]
            },
            "properties": {
                "airSigmetId": null,
                "airportIcao": "KKCI",
                "airSigmetType": "SIGMET",
                "hazard": "CONVECTIVE",
                "severity": 5,
                "altitudeLow1": null,
                "altitudeLow2": null,
                "altitudeHi1": 40000,
                "altitudeHi2": 40000,
                "movementDir": 230,
                "movementSpd": 20,
                "rawAirSigmet": "WSUS33 KKCI 260055\nSIGW \nCONVECTIVE SIGMET 4W\nVALID UNTIL 0255Z\nUT NV\nFROM 50E DTA-50ESE BCE-60SSW ILC-60W ILC-20E ELY-50E DTA\nAREA TS MOV FROM 23020KT. TOPS TO FL400.\n\nOUTLOOK VALID 260255-260655\nFROM 30NE GEG-50NW MLS-CZI-ABQ-60SSW TUS-BZA-30SSE BTY-30NE GEG\nWST ISSUANCES EXPD. REFER TO MOST RECENT ACUS01 KWNS FROM STORM\nPREDICTION CENTER FOR SYNOPSIS AND METEOROLOGICAL DETAILS.",
                "validTimeTo": [
                    "2026-08-26T01:54"
                ]
            }
        },
        {
            "type": "Feature",
            "geometry": {
                "type": "Polygon",
                "coordinates": [
                    [
                        [
                            -112.093,
                            36.117
                        ],
                        [
                            -110.367,
                            34.704
                        ],
                        [
                            -111.307,
                            34.019
                        ],
                        [
                            -112.767,
                            34.935
                        ],
                        [
                            -112.093,
                            36.117
                        ]
                    ]
                ]
            },
            "properties": {
                "airSigmetId": null,
                "airportIcao": "KKCI",
                "airSigmetType": "SIGMET",
                "hazard": "CONVECTIVE",
                "severity": 5,
                "altitudeLow1": null,
                "altitudeLow2": null,
                "altitudeHi1": 38000,
                "altitudeHi2": 38000,
                "movementDir": null,
                "movementSpd": null,
                "rawAirSigmet": "WSUS33 KKCI 260055\nSIGW \nCONVECTIVE SIGMET 5W\nVALID UNTIL 0255Z\nAZ\nFROM 40W TBC-30SE INW-50NE PHX-20NW DRK-40W TBC\nAREA TS MOV LTL. TOPS TO FL380.\n\nOUTLOOK VALID 260255-260655\nFROM 30NE GEG-50NW MLS-CZI-ABQ-60SSW TUS-BZA-30SSE BTY-30NE GEG\nWST ISSUANCES EXPD. REFER TO MOST RECENT ACUS01 KWNS FROM STORM\nPREDICTION CENTER FOR SYNOPSIS AND METEOROLOGICAL DETAILS.",
                "validTimeTo": [
                    "2026-08-26T01:54"
                ]
            }
        },
        {
            "type": "Feature",
            "geometry": {
                "type": "Polygon",
                "coordinates": [
                    [
                        [
                            -115.496,
                            43.548
                        ],
                        [
                            -110.73,
                            42.955
                        ],
                        [
                            -112.987,
                            40.137
                        ],
                        [
                            -115.35,
                            40.22
                        ],
                        [
                            -115.731,
                            42.092
                        ],
                        [
                            -115.496,
                            43.548
                        ]
                    ]
                ]
            },
            "properties": {
                "airSigmetId": null,
                "airportIcao": "KKCI",
                "airSigmetType": "SIGMET",
                "hazard": "CONVECTIVE",
                "severity": 5,
                "altitudeLow1": null,
                "altitudeLow2": null,
                "altitudeHi1": 36000,
                "altitudeHi2": 36000,
                "movementDir": 240,
                "movementSpd": 15,
                "rawAirSigmet": "WSUS33 KKCI 260055\nSIGW \nCONVECTIVE SIGMET 6W\nVALID UNTIL 0255Z\nWY UT ID NV\nFROM 30E BOI-40S JAC-50SE BVL-60NNW ELY-60WSW TWF-30E BOI\nAREA TS MOV FROM 24015KT. TOPS TO FL360.\n\nOUTLOOK VALID 260255-260655\nFROM 30NE GEG-50NW MLS-CZI-ABQ-60SSW TUS-BZA-30SSE BTY-30NE GEG\nWST ISSUANCES EXPD. REFER TO MOST RECENT ACUS01 KWNS FROM STORM\nPREDICTION CENTER FOR SYNOPSIS AND METEOROLOGICAL DETAILS.",
                "validTimeTo": [
                    "2026-08-26T01:54"
                ]
            }
        }
    ],
    "metadata": {
        "creationTime": "2026-08-26T01:49"
    }
}