{
    "type": "FeatureCollection",
    "features": [
        {
            "type": "Feature",
            "geometry": {
                "type": "Polygon",
                "coordinates": [
                    [
                        [
                            -94.921,
                            41.421
                        ],
                        [
                            -94.129,
                            39.758
                        ],
                        [
                            -96.21,
                            39.365
                        ],
                        [
                            -97.764,
                            40.3
                        ],
                        [
                            -94.921,
                            41.421
                        ]
                    ]
                ]
            },
            "properties": {
                "airSigmetId": null,
                "airportIcao": "KKCI",
                "airSigmetType": "SIGMET",
                "hazard": "CONVECTIVE",
                "severity": 5,
                "altitudeLow1": null,
                "altitudeLow2": null,
                "altitudeHi1": 34000,
                "altitudeHi2": 34000,
                "movementDir": 270,
                "movementSpd": 25,
                "rawAirSigmet": "WSUS32 KKCI 111455\nSIGC \nCONVECTIVE SIGMET 91C\nVALID UNTIL 1655Z\nMO IA KS NE\nFROM 40ENE OVR-40NE MCI-50S PWE-70SSE OBH-40ENE OVR\nAREA TS MOV FROM 27025KT. TOPS TO FL340.\n\nOUTLOOK VALID 111655-112055\nAREA 1...FROM 30NE ISN-MOT-50WSW PIR-60SSW RAP-50E SHR-MLS-30NE\nISN\nWST ISSUANCES EXPD. REFER TO MOST RECENT ACUS01 KWNS FROM STORM\nPREDICTION CENTER FOR SYNOPSIS AND METEOROLOGICAL DETAILS.\n\nAREA 2...FROM 30S MLU-110WSW LEV-PSX-70W LFK-30S MLU\nWST ISSUANCES EXPD. REFER TO MOST RECENT ACUS01 KWNS FROM STORM\nPREDICTION CENTER FOR SYNOPSIS AND METEOROLOGICAL DETAILS.",
                "validTimeTo": [
                    "2026-08-11T16:55"
                ]
            }
        },
        {
            "type": "Feature",
            "geometry": {
                "type": "Polygon",
                "coordinates": [
                    [
                        [
                            -89.405,
                            44.164
                        ],
                        [
                            -85.021,
                            41.287
                        ],
                        [
                            -86.042,
                            39.195
                        ],
                        [
                            -87.855,
                            39.018
                        ],
                        [
                            -93.656,
                            42.138
                        ],
                        [
                            -89.405,
                            44.164
                        ]
                    ]
                ]
            },
            "properties": {
                "airSigmetId": null,
                "airportIcao": "KKCI",
                "airSigmetType": "SIGMET",
                "hazard": "CONVECTIVE",
                "severity": 5,
                "altitudeLow1": null,
                "altitudeLow2": null,
                "altitudeHi1": 45000,
                "altitudeHi2": 60000,
                "movementDir": 270,
                "movementSpd": 30,
                "rawAirSigmet": "WSUS32 KKCI 111455\nSIGC \nCONVECTIVE SIGMET 92C\nVALID UNTIL 1655Z\nMI IN WI IL IA LM\nFROM 40NNE DLL-20NNE FWA-40SSE IND-40SW TTH-40SE FOD-40NNE DLL\nAREA SEV TS MOV FROM 27030KT. TOPS ABV FL450.\nTORNADOES...HAIL TO 1.5 IN...WIND GUSTS TO 75KT POSS.\n\nOUTLOOK VALID 111655-112055\nAREA 1...FROM 30NE ISN-MOT-50WSW PIR-60SSW RAP-50E SHR-MLS-30NE\nISN\nWST ISSUANCES EXPD. REFER TO MOST RECENT ACUS01 KWNS FROM STORM\nPREDICTION CENTER FOR SYNOPSIS AND METEOROLOGICAL DETAILS.\n\nAREA 2...FROM 30S MLU-110WSW LEV-PSX-70W LFK-30S MLU\nWST ISSUANCES EXPD. REFER TO MOST RECENT ACUS01 KWNS FROM STORM\nPREDICTION CENTER FOR SYNOPSIS AND METEOROLOGICAL DETAILS.",
                "validTimeTo": [
                    "2026-08-11T16:55"
                ]
            }
        },
        {
            "type": "Feature",
            "geometry": {
                "type": "Polygon",
                "coordinates": [
                    [
                        [
                            -97.717,
                            47.593
                        ],
                        [
                            -97.53,
                            46.278
                        ],
                        [
                            -99.994,
                            46.575
                        ],
                        [
                            -99.798,
                            47.357
                        ],
                        [
                            -97.717,
                            47.593
                        ]
                    ]
                ]
            },
            "properties": {
                "airSigmetId": null,
                "airportIcao": "KKCI",
                "airSigmetType": "SIGMET",
                "hazard": "CONVECTIVE",
                "severity": 5,
                "altitudeLow1": null,
                "altitudeLow2": null,
                "altitudeHi1": 44000,
                "altitudeHi2": 44000,
                "movementDir": 280,
                "movementSpd": 30,
                "rawAirSigmet": "WSUS32 KKCI 111455\nSIGC \nCONVECTIVE SIGMET 93C\nVALID UNTIL 1655Z\nND\nFROM 30SW GFK-40SW FAR-30ESE BIS-50NE BIS-30SW GFK\nAREA TS MOV FROM 28030KT. TOPS TO FL440.\n\nOUTLOOK VALID 111655-112055\nAREA 1...FROM 30NE ISN-MOT-50WSW PIR-60SSW RAP-50E SHR-MLS-30NE\nISN\nWST ISSUANCES EXPD. REFER TO MOST RECENT ACUS01 KWNS FROM STORM\nPREDICTION CENTER FOR SYNOPSIS AND METEOROLOGICAL DETAILS.\n\nAREA 2...FROM 30S MLU-110WSW LEV-PSX-70W LFK-30S MLU\nWST ISSUANCES EXPD. REFER TO MOST RECENT ACUS01 KWNS FROM STORM\nPREDICTION CENTER FOR SYNOPSIS AND METEOROLOGICAL DETAILS.",
                "validTimeTo": [
                    "2026-08-11T16:55"
                ]
            }
        },
        {
            "type": "Feature",
            "geometry": {
                "type": "Polygon",
                "coordinates": [
                    [
                        [
                            -87.948,
                            30.374
                        ],
                        [
                            -86.974,
                            30.216
                        ],
                        [
                            -88.005,
                            28.401
                        ],
                        [
                            -90.902,
                            28.473
                        ],
                        [
                            -90.802,
                            28.924
                        ],
                        [
                            -87.948,
                            30.374
                        ]
                    ]
                ]
            },
            "properties": {
                "airSigmetId": null,
                "airportIcao": "KKCI",
                "airSigmetType": "SIGMET",
                "hazard": "CONVECTIVE",
                "severity": 5,
                "altitudeLow1": null,
                "altitudeLow2": null,
                "altitudeHi1": 45000,
                "altitudeHi2": 60000,
                "movementDir": 180,
                "movementSpd": 5,
                "rawAirSigmet": "WSUS32 KKCI 111455\nSIGC \nCONVECTIVE SIGMET 94C\nVALID UNTIL 1655Z\nFL AL LA AND FL AL MS LA CSTL WTRS\nFROM 30SE SJI-40SSW CEW-120ESE LEV-60SW LEV-40WSW LEV-30SE SJI\nAREA TS MOV FROM 18005KT. TOPS ABV FL450.\nREF INTL SIGMET KILO SERIES.\n\nOUTLOOK VALID 111655-112055\nAREA 1...FROM 30NE ISN-MOT-50WSW PIR-60SSW RAP-50E SHR-MLS-30NE\nISN\nWST ISSUANCES EXPD. REFER TO MOST RECENT ACUS01 KWNS FROM STORM\nPREDICTION CENTER FOR SYNOPSIS AND METEOROLOGICAL DETAILS.\n\nAREA 2...FROM 30S MLU-110WSW LEV-PSX-70W LFK-30S MLU\nWST ISSUANCES EXPD. REFER TO MOST RECENT ACUS01 KWNS FROM STORM\nPREDICTION CENTER FOR SYNOPSIS AND METEOROLOGICAL DETAILS.",
                "validTimeTo": [
                    "2026-08-11T16:55"
                ]
            }
        },
        {
            "type": "Feature",
            "geometry": {
                "type": "Polygon",
                "coordinates": [
                    [
                        [
                            -112.587,
                            35.936
                        ],
                        [
                            -111.517,
                            34.467
                        ],
                        [
                            -112.489,
                            32.09
                        ],
                        [
                            -114.372,
                            32.305
                        ],
                        [
                            -114.905,
                            35.125
                        ],
                        [
                            -112.587,
                            35.936
                        ]
                    ]
                ]
            },
            "properties": {
                "airSigmetId": null,
                "airportIcao": "KKCI",
                "airSigmetType": "SIGMET",
                "hazard": "CONVECTIVE",
                "severity": 5,
                "altitudeLow1": null,
                "altitudeLow2": null,
                "altitudeHi1": 45000,
                "altitudeHi2": 60000,
                "movementDir": 150,
                "movementSpd": 15,
                "rawAirSigmet": "WSUS33 KKCI 111455\nSIGW \nCONVECTIVE SIGMET 46W\nVALID UNTIL 1655Z\nAZ NV CA\nFROM 50ENE PGS-50SW INW-80W TUS-30SSE BZA-30NW EED-50ENE PGS\nAREA TS MOV FROM 15015KT. TOPS ABV FL450.\n\nOUTLOOK VALID 111655-112055\nFROM 50WSW BPI-30NW SNY-80SE MRF-40SW MRF-ELP-70SW DMN-40S\nTUS-40SE BZA-MZB-60SSW FMG-50WSW BPI\nWST ISSUANCES EXPD. REFER TO MOST RECENT ACUS01 KWNS FROM STORM\nPREDICTION CENTER FOR SYNOPSIS AND METEOROLOGICAL DETAILS.",
                "validTimeTo": [
                    "2026-08-11T16:55"
                ]
            }
        },
        {
            "type": "Feature",
            "geometry": {
                "type": "Polygon",
                "coordinates": [
                    [
                        [
                            -76.818,
                            32.196
                        ],
                        [
                            -77.313,
                            30.51
                        ],
                        [
                            -78.798,
                            30.109
                        ],
                        [
                            -79.2,
                            30.32
                        ],
                        [
                            -76.818,
                            32.196
                        ]
                    ]
                ]
            },
            "properties": {
                "airSigmetId": null,
                "airportIcao": "KKCI",
                "airSigmetType": "SIGMET",
                "hazard": "CONVECTIVE",
                "severity": 5,
                "altitudeLow1": null,
                "altitudeLow2": null,
                "altitudeHi1": 42000,
                "altitudeHi2": 42000,
                "movementDir": 290,
                "movementSpd": 10,
                "rawAirSigmet": "WSUS31 KKCI 111455\nSIGE \nCONVECTIVE SIGMET 56E\nVALID UNTIL 1655Z\nFL SC GA CSTL WTRS\nFROM 140SSE ILM-200SE CHS-130ENE OMN-120E CRG-140SSE ILM\nAREA TS MOV FROM 29010KT. TOPS TO FL420.\nREF INTL SIGMET FOXTROT SERIES.\n\nOUTLOOK VALID 111655-112055\nFROM 60SSW RHI-ECK-40SSE DXO-BUF-30NNE JFK-CYN-EKN-80SE SBY-60SSW\nMIA-110WSW LEV-30S MLU-40S MEI-60SSW RHI\nREF WW 563 564\nWST ISSUANCES EXPD. REFER TO MOST RECENT ACUS01 KWNS FROM STORM\nPREDICTION CENTER FOR SYNOPSIS AND METEOROLOGICAL DETAILS.",
                "validTimeTo": [
                    "2026-08-11T16:55"
                ]
            }
        },
        {
            "type": "Feature",
            "geometry": {
                "type": "Polygon",
                "coordinates": [
                    [
                        [
                            -85.021,
                            41.287
                        ],
                        [
                            -79.737,
                            41.185
                        ],
                        [
                            -78.275,
                            37.867
                        ],
                        [
                            -81.296,
                            36.619
                        ],
                        [
                            -86.042,
                            39.195
                        ],
                        [
                            -85.021,
                            41.287
                        ]
                    ]
                ]
            },
            "properties": {
                "airSigmetId": null,
                "airportIcao": "KKCI",
                "airSigmetType": "SIGMET",
                "hazard": "CONVECTIVE",
                "severity": 5,
                "altitudeLow1": null,
                "altitudeLow2": null,
                "altitudeHi1": 45000,
                "altitudeHi2": 60000,
                "movementDir": 300,
                "movementSpd": 35,
                "rawAirSigmet": "WSUS31 KKCI 111455\nSIGE \nCONVECTIVE SIGMET 57E\nVALID UNTIL 1655Z\nPA MD VA NC WV OH KY IN\nFROM 20NNE FWA-30NE EWC-50SSW CSN-40SW PSK-40SSE IND-20NNE FWA\nAREA SEV TS MOV FROM 30035KT. TOPS ABV FL450.\nTORNADOES...HAIL TO 1 IN...WIND GUSTS TO 70KT POSS.\n\nOUTLOOK VALID 111655-112055\nFROM 60SSW RHI-ECK-40SSE DXO-BUF-30NNE JFK-CYN-EKN-80SE SBY-60SSW\nMIA-110WSW LEV-30S MLU-40S MEI-60SSW RHI\nREF WW 563 564\nWST ISSUANCES EXPD. REFER TO MOST RECENT ACUS01 KWNS FROM STORM\nPREDICTION CENTER FOR SYNOPSIS AND METEOROLOGICAL DETAILS.",
                "validTimeTo": [
                    "2026-08-11T16:55"
                ]
            }
        }
    ],
    "metadata": {
        "creationTime": "2026-08-11T15:06"
    }
}