{
    "type": "FeatureCollection",
    "features": [
        {
            "type": "Feature",
            "geometry": {
                "type": "Polygon",
                "coordinates": [
                    [
                        [
                            -71.68,
                            38.041
                        ],
                        [
                            -70.03,
                            37.121
                        ],
                        [
                            -73.726,
                            35.396
                        ],
                        [
                            -74.325,
                            36.875
                        ],
                        [
                            -71.68,
                            38.041
                        ]
                    ]
                ]
            },
            "properties": {
                "airSigmetId": null,
                "airportIcao": "KKCI",
                "airSigmetType": "SIGMET",
                "hazard": "CONVECTIVE",
                "severity": 5,
                "altitudeLow1": null,
                "altitudeLow2": null,
                "altitudeHi1": 45000,
                "altitudeHi2": 45000,
                "movementDir": 260,
                "movementSpd": 10,
                "rawAirSigmet": "WSUS31 KKCI 171455\nSIGE \nCONVECTIVE SIGMET 58E\nVALID UNTIL 1655Z\nDE NJ MD NC VA CSTL WTRS\nFROM 160ESE SIE-250S ACK-130ESE ECG-90E ORF-160ESE SIE\nAREA TS MOV FROM 26010KT. TOPS TO FL450.\n\nOUTLOOK VALID 171655-172055\nAREA 1...FROM ACK-160ESE ACK-190SE ACK-150SE SIE-180ESE ECG-160SE\nECG-60ESE ECG-ACK\nWST ISSUANCES EXPD. REFER TO MOST RECENT ACUS01 KWNS FROM STORM\nPREDICTION CENTER FOR SYNOPSIS AND METEOROLOGICAL DETAILS.\n\nAREA 2...FROM 40S\nMSS-MPV-ALB-CYN-SIE-CSN-CLT-LGC-IGB-BWG-ROD-EWC-SLT-40S MSS\nWST ISSUANCES EXPD. REFER TO MOST RECENT ACUS01 KWNS FROM STORM\nPREDICTION CENTER FOR SYNOPSIS AND METEOROLOGICAL DETAILS.\n\nAREA 3...FROM IGB-LGC-PZD-CRG-TRV-PIE-CTY-50SW SJI-LEV-30SSE\nLCH-MEI-IGB\nWST ISSUANCES EXPD. REFER TO MOST RECENT ACUS01 KWNS FROM STORM\nPREDICTION CENTER FOR SYNOPSIS AND METEOROLOGICAL DETAILS.",
                "validTimeTo": [
                    "2026-08-17T16:55"
                ]
            }
        },
        {
            "type": "Feature",
            "geometry": {
                "type": "Polygon",
                "coordinates": [
                    [
                        [
                            -74.445,
                            43.218
                        ],
                        [
                            -73.8,
                            43.082
                        ],
                        [
                            -75.49,
                            41.753
                        ],
                        [
                            -76.639,
                            41.502
                        ],
                        [
                            -74.445,
                            43.218
                        ]
                    ]
                ]
            },
            "properties": {
                "airSigmetId": null,
                "airportIcao": "KKCI",
                "airSigmetType": "SIGMET",
                "hazard": "CONVECTIVE",
                "severity": 5,
                "altitudeLow1": null,
                "altitudeLow2": null,
                "altitudeHi1": 36000,
                "altitudeHi2": 36000,
                "movementDir": 290,
                "movementSpd": 25,
                "rawAirSigmet": "WSUS31 KKCI 171455\nSIGE \nCONVECTIVE SIGMET 59E\nVALID UNTIL 1655Z\nNY PA\nFROM 40NW ALB-20N ALB-20SSW HNK-60E SLT-40NW ALB\nAREA EMBD TS MOV FROM 29025KT. TOPS TO FL360.\n\nOUTLOOK VALID 171655-172055\nAREA 1...FROM ACK-160ESE ACK-190SE ACK-150SE SIE-180ESE ECG-160SE\nECG-60ESE ECG-ACK\nWST ISSUANCES EXPD. REFER TO MOST RECENT ACUS01 KWNS FROM STORM\nPREDICTION CENTER FOR SYNOPSIS AND METEOROLOGICAL DETAILS.\n\nAREA 2...FROM 40S\nMSS-MPV-ALB-CYN-SIE-CSN-CLT-LGC-IGB-BWG-ROD-EWC-SLT-40S MSS\nWST ISSUANCES EXPD. REFER TO MOST RECENT ACUS01 KWNS FROM STORM\nPREDICTION CENTER FOR SYNOPSIS AND METEOROLOGICAL DETAILS.\n\nAREA 3...FROM IGB-LGC-PZD-CRG-TRV-PIE-CTY-50SW SJI-LEV-30SSE\nLCH-MEI-IGB\nWST ISSUANCES EXPD. REFER TO MOST RECENT ACUS01 KWNS FROM STORM\nPREDICTION CENTER FOR SYNOPSIS AND METEOROLOGICAL DETAILS.",
                "validTimeTo": [
                    "2026-08-17T16:55"
                ]
            }
        },
        {
            "type": "Feature",
            "geometry": {
                "type": "Polygon",
                "coordinates": [
                    [
                        [
                            -84.363,
                            37.745
                        ],
                        [
                            -84.14,
                            37.671
                        ],
                        [
                            -84.048,
                            37.495
                        ],
                        [
                            -84.141,
                            37.318
                        ],
                        [
                            -84.363,
                            37.245
                        ],
                        [
                            -84.585,
                            37.318
                        ],
                        [
                            -84.678,
                            37.495
                        ],
                        [
                            -84.586,
                            37.671
                        ],
                        [
                            -84.363,
                            37.745
                        ]
                    ]
                ]
            },
            "properties": {
                "airSigmetId": null,
                "airportIcao": "KKCI",
                "airSigmetType": "SIGMET",
                "hazard": "CONVECTIVE",
                "severity": 5,
                "altitudeLow1": null,
                "altitudeLow2": null,
                "altitudeHi1": 38000,
                "altitudeHi2": 38000,
                "movementDir": 270,
                "movementSpd": 25,
                "rawAirSigmet": "WSUS31 KKCI 171455\nSIGE \nCONVECTIVE SIGMET 60E\nVALID UNTIL 1655Z\nKY\n30NNW LOZ\nDMSHG ISOL TS D30 MOV FROM 27025KT. TOPS TO FL380.\n\nOUTLOOK VALID 171655-172055\nAREA 1...FROM ACK-160ESE ACK-190SE ACK-150SE SIE-180ESE ECG-160SE\nECG-60ESE ECG-ACK\nWST ISSUANCES EXPD. REFER TO MOST RECENT ACUS01 KWNS FROM STORM\nPREDICTION CENTER FOR SYNOPSIS AND METEOROLOGICAL DETAILS.\n\nAREA 2...FROM 40S\nMSS-MPV-ALB-CYN-SIE-CSN-CLT-LGC-IGB-BWG-ROD-EWC-SLT-40S MSS\nWST ISSUANCES EXPD. REFER TO MOST RECENT ACUS01 KWNS FROM STORM\nPREDICTION CENTER FOR SYNOPSIS AND METEOROLOGICAL DETAILS.\n\nAREA 3...FROM IGB-LGC-PZD-CRG-TRV-PIE-CTY-50SW SJI-LEV-30SSE\nLCH-MEI-IGB\nWST ISSUANCES EXPD. REFER TO MOST RECENT ACUS01 KWNS FROM STORM\nPREDICTION CENTER FOR SYNOPSIS AND METEOROLOGICAL DETAILS.",
                "validTimeTo": [
                    "2026-08-17T16:55"
                ]
            }
        },
        {
            "type": "Feature",
            "geometry": {
                "type": "Polygon",
                "coordinates": [
                    [
                        [
                            -77.68,
                            32.039
                        ],
                        [
                            -76.672,
                            31.888
                        ],
                        [
                            -77.176,
                            30.386
                        ],
                        [
                            -77.978,
                            31.107
                        ],
                        [
                            -77.68,
                            32.039
                        ]
                    ]
                ]
            },
            "properties": {
                "airSigmetId": null,
                "airportIcao": "KKCI",
                "airSigmetType": "SIGMET",
                "hazard": "CONVECTIVE",
                "severity": 5,
                "altitudeLow1": null,
                "altitudeLow2": null,
                "altitudeHi1": 41000,
                "altitudeHi2": 41000,
                "movementDir": null,
                "movementSpd": null,
                "rawAirSigmet": "WSUS31 KKCI 171455\nSIGE \nCONVECTIVE SIGMET 61E\nVALID UNTIL 1655Z\nFL SC GA CSTL WTRS\nFROM 130ESE CHS-160SSE ILM-210SE CHS-150SE CHS-130ESE CHS\nDMSHG AREA TS MOV LTL. TOPS TO FL410.\n\nOUTLOOK VALID 171655-172055\nAREA 1...FROM ACK-160ESE ACK-190SE ACK-150SE SIE-180ESE ECG-160SE\nECG-60ESE ECG-ACK\nWST ISSUANCES EXPD. REFER TO MOST RECENT ACUS01 KWNS FROM STORM\nPREDICTION CENTER FOR SYNOPSIS AND METEOROLOGICAL DETAILS.\n\nAREA 2...FROM 40S\nMSS-MPV-ALB-CYN-SIE-CSN-CLT-LGC-IGB-BWG-ROD-EWC-SLT-40S MSS\nWST ISSUANCES EXPD. REFER TO MOST RECENT ACUS01 KWNS FROM STORM\nPREDICTION CENTER FOR SYNOPSIS AND METEOROLOGICAL DETAILS.\n\nAREA 3...FROM IGB-LGC-PZD-CRG-TRV-PIE-CTY-50SW SJI-LEV-30SSE\nLCH-MEI-IGB\nWST ISSUANCES EXPD. REFER TO MOST RECENT ACUS01 KWNS FROM STORM\nPREDICTION CENTER FOR SYNOPSIS AND METEOROLOGICAL DETAILS.",
                "validTimeTo": [
                    "2026-08-17T16:55"
                ]
            }
        },
        {
            "type": "Feature",
            "geometry": {
                "type": "Polygon",
                "coordinates": [
                    [
                        [
                            -95.585,
                            37.022
                        ],
                        [
                            -94.27,
                            35.209
                        ],
                        [
                            -96.369,
                            35.729
                        ],
                        [
                            -96.75,
                            36.516
                        ],
                        [
                            -95.585,
                            37.022
                        ]
                    ]
                ]
            },
            "properties": {
                "airSigmetId": null,
                "airportIcao": "KKCI",
                "airSigmetType": "SIGMET",
                "hazard": "CONVECTIVE",
                "severity": 5,
                "altitudeLow1": null,
                "altitudeLow2": null,
                "altitudeHi1": 45000,
                "altitudeHi2": 60000,
                "movementDir": 280,
                "movementSpd": 25,
                "rawAirSigmet": "WSUS32 KKCI 171455\nSIGC \nCONVECTIVE SIGMET 69C\nVALID UNTIL 1655Z\nAR OK KS\nFROM 20WSW OSW-10S FSM-40SW TUL-50WNW TUL-20WSW OSW\nAREA SEV TS MOV FROM 28025KT. TOPS ABV FL450.\nWIND GUSTS TO 50KT POSS.\n\nOUTLOOK VALID 171655-172055\nAREA 1...FROM 40WSW OSW-RZC-30E FSM-30NNW LIT-30WSW\nDYR-BWG-IGB-SQS-ELD-ADM-30W OKC-40WSW OSW\nWST ISSUANCES EXPD. REFER TO MOST RECENT ACUS01 KWNS FROM STORM\nPREDICTION CENTER FOR SYNOPSIS AND METEOROLOGICAL DETAILS.\n\nAREA 2...FROM 60WNW INL-70WSW YQT-MSP-70S FSD-AKO-CYS-40SE\nDDY-50SSE BOY-70NE CZI-60W ABR-60WNW INL\nWST ISSUANCES EXPD. REFER TO MOST RECENT ACUS01 KWNS FROM STORM\nPREDICTION CENTER FOR SYNOPSIS AND METEOROLOGICAL DETAILS.\n\nAREA 3...FROM PUB-TBE-FTI-CME-FST-60S MRF-ELP-60N ABQ-PUB\nWST ISSUANCES EXPD. REFER TO MOST RECENT ACUS01 KWNS FROM STORM\nPREDICTION CENTER FOR SYNOPSIS AND METEOROLOGICAL DETAILS.",
                "validTimeTo": [
                    "2026-08-17T16:55"
                ]
            }
        },
        {
            "type": "Feature",
            "geometry": {
                "type": "Polygon",
                "coordinates": [
                    [
                        [
                            -90.67,
                            35.716
                        ],
                        [
                            -92.371,
                            35.025
                        ],
                        [
                            -92.149,
                            34.651
                        ],
                        [
                            -90.447,
                            35.342
                        ],
                        [
                            -90.67,
                            35.716
                        ]
                    ]
                ]
            },
            "properties": {
                "airSigmetId": null,
                "airportIcao": "KKCI",
                "airSigmetType": "SIGMET",
                "hazard": "CONVECTIVE",
                "severity": 5,
                "altitudeLow1": null,
                "altitudeLow2": null,
                "altitudeHi1": 42000,
                "altitudeHi2": 42000,
                "movementDir": 270,
                "movementSpd": 15,
                "rawAirSigmet": "WSUS32 KKCI 171455\nSIGC \nCONVECTIVE SIGMET 70C\nVALID UNTIL 1655Z\nAR\nFROM 40NW MEM-10NNW LIT\nLINE TS 25 NM WIDE MOV FROM 27015KT. TOPS TO FL420.\n\nOUTLOOK VALID 171655-172055\nAREA 1...FROM 40WSW OSW-RZC-30E FSM-30NNW LIT-30WSW\nDYR-BWG-IGB-SQS-ELD-ADM-30W OKC-40WSW OSW\nWST ISSUANCES EXPD. REFER TO MOST RECENT ACUS01 KWNS FROM STORM\nPREDICTION CENTER FOR SYNOPSIS AND METEOROLOGICAL DETAILS.\n\nAREA 2...FROM 60WNW INL-70WSW YQT-MSP-70S FSD-AKO-CYS-40SE\nDDY-50SSE BOY-70NE CZI-60W ABR-60WNW INL\nWST ISSUANCES EXPD. REFER TO MOST RECENT ACUS01 KWNS FROM STORM\nPREDICTION CENTER FOR SYNOPSIS AND METEOROLOGICAL DETAILS.\n\nAREA 3...FROM PUB-TBE-FTI-CME-FST-60S MRF-ELP-60N ABQ-PUB\nWST ISSUANCES EXPD. REFER TO MOST RECENT ACUS01 KWNS FROM STORM\nPREDICTION CENTER FOR SYNOPSIS AND METEOROLOGICAL DETAILS.",
                "validTimeTo": [
                    "2026-08-17T16:55"
                ]
            }
        },
        {
            "type": "Feature",
            "geometry": {
                "type": "Polygon",
                "coordinates": [
                    [
                        [
                            -87.02,
                            36.736
                        ],
                        [
                            -86.875,
                            36.205
                        ],
                        [
                            -87.949,
                            35.62
                        ],
                        [
                            -88.176,
                            36.396
                        ],
                        [
                            -87.02,
                            36.736
                        ]
                    ]
                ]
            },
            "properties": {
                "airSigmetId": null,
                "airportIcao": "KKCI",
                "airSigmetType": "SIGMET",
                "hazard": "CONVECTIVE",
                "severity": 5,
                "altitudeLow1": null,
                "altitudeLow2": null,
                "altitudeHi1": 39000,
                "altitudeHi2": 39000,
                "movementDir": 270,
                "movementSpd": 20,
                "rawAirSigmet": "WSUS32 KKCI 171455\nSIGC \nCONVECTIVE SIGMET 71C\nVALID UNTIL 1655Z\nTN KY\nFROM 30WSW BWG-10WNW BNA-60NNW MSL-60ENE DYR-30WSW BWG\nDMSHG AREA TS MOV FROM 27020KT. TOPS TO FL390.\n\nOUTLOOK VALID 171655-172055\nAREA 1...FROM 40WSW OSW-RZC-30E FSM-30NNW LIT-30WSW\nDYR-BWG-IGB-SQS-ELD-ADM-30W OKC-40WSW OSW\nWST ISSUANCES EXPD. REFER TO MOST RECENT ACUS01 KWNS FROM STORM\nPREDICTION CENTER FOR SYNOPSIS AND METEOROLOGICAL DETAILS.\n\nAREA 2...FROM 60WNW INL-70WSW YQT-MSP-70S FSD-AKO-CYS-40SE\nDDY-50SSE BOY-70NE CZI-60W ABR-60WNW INL\nWST ISSUANCES EXPD. REFER TO MOST RECENT ACUS01 KWNS FROM STORM\nPREDICTION CENTER FOR SYNOPSIS AND METEOROLOGICAL DETAILS.\n\nAREA 3...FROM PUB-TBE-FTI-CME-FST-60S MRF-ELP-60N ABQ-PUB\nWST ISSUANCES EXPD. REFER TO MOST RECENT ACUS01 KWNS FROM STORM\nPREDICTION CENTER FOR SYNOPSIS AND METEOROLOGICAL DETAILS.",
                "validTimeTo": [
                    "2026-08-17T16:55"
                ]
            }
        },
        {
            "type": "Feature",
            "geometry": {
                "type": "Polygon",
                "coordinates": [
                    [
                        [
                            -96.741,
                            49.127
                        ],
                        [
                            -97.686,
                            47.949
                        ],
                        [
                            -99.175,
                            47.933
                        ],
                        [
                            -98.662,
                            48.951
                        ],
                        [
                            -96.741,
                            49.127
                        ]
                    ]
                ]
            },
            "properties": {
                "airSigmetId": null,
                "airportIcao": "KKCI",
                "airSigmetType": "SIGMET",
                "hazard": "CONVECTIVE",
                "severity": 5,
                "altitudeLow1": null,
                "altitudeLow2": null,
                "altitudeHi1": 38000,
                "altitudeHi2": 38000,
                "movementDir": 280,
                "movementSpd": 25,
                "rawAirSigmet": "WSUS32 KKCI 171455\nSIGC \nCONVECTIVE SIGMET 72C\nVALID UNTIL 1655Z\nMN ND\nFROM 50SSE YWG-20W GFK-80W GFK-80SW YWG-50SSE YWG\nAREA TS MOV FROM 28025KT. TOPS TO FL380.\n\nOUTLOOK VALID 171655-172055\nAREA 1...FROM 40WSW OSW-RZC-30E FSM-30NNW LIT-30WSW\nDYR-BWG-IGB-SQS-ELD-ADM-30W OKC-40WSW OSW\nWST ISSUANCES EXPD. REFER TO MOST RECENT ACUS01 KWNS FROM STORM\nPREDICTION CENTER FOR SYNOPSIS AND METEOROLOGICAL DETAILS.\n\nAREA 2...FROM 60WNW INL-70WSW YQT-MSP-70S FSD-AKO-CYS-40SE\nDDY-50SSE BOY-70NE CZI-60W ABR-60WNW INL\nWST ISSUANCES EXPD. REFER TO MOST RECENT ACUS01 KWNS FROM STORM\nPREDICTION CENTER FOR SYNOPSIS AND METEOROLOGICAL DETAILS.\n\nAREA 3...FROM PUB-TBE-FTI-CME-FST-60S MRF-ELP-60N ABQ-PUB\nWST ISSUANCES EXPD. REFER TO MOST RECENT ACUS01 KWNS FROM STORM\nPREDICTION CENTER FOR SYNOPSIS AND METEOROLOGICAL DETAILS.",
                "validTimeTo": [
                    "2026-08-17T16:55"
                ]
            }
        }
    ],
    "metadata": {
        "creationTime": "2026-08-17T15:31"
    }
}