{
    "type": "FeatureCollection",
    "features": [
        {
            "type": "Feature",
            "geometry": {
                "type": "Polygon",
                "coordinates": [
                    [
                        [
                            -86.68,
                            28.168
                        ],
                        [
                            -84.374,
                            27.9
                        ],
                        [
                            -83.41,
                            27.072
                        ],
                        [
                            -83.505,
                            25.204
                        ],
                        [
                            -86.68,
                            28.168
                        ]
                    ]
                ]
            },
            "properties": {
                "airSigmetId": null,
                "airportIcao": "KKCI",
                "airSigmetType": "SIGMET",
                "hazard": "CONVECTIVE",
                "severity": 5,
                "altitudeLow1": null,
                "altitudeLow2": null,
                "altitudeHi1": 45000,
                "altitudeHi2": null,
                "movementDir": 160,
                "movementSpd": 10,
                "rawAirSigmet": "WSUS31 KKCI 030555\nMKCE WST 030555\nCONVECTIVE SIGMET 6E\nVALID UNTIL 0755Z\nFL CSTL WTRS\nFROM 160S CEW-90W PIE-50WSW SRQ-100WNW EYW-160S CEW\nAREA TS MOV FROM 16010KT. TOPS ABV FL450.\nREF INTL SIGMET KILO SERIES.\n\n",
                "validTimeTo": [
                    "2026-10-03T07:55"
                ]
            }
        },
        {
            "type": "Feature",
            "geometry": {
                "type": "Polygon",
                "coordinates": [
                    [
                        [
                            -84.37,
                            29.895
                        ],
                        [
                            -83.723,
                            29.01
                        ],
                        [
                            -85.362,
                            28.397
                        ],
                        [
                            -87.324,
                            29.44
                        ],
                        [
                            -84.37,
                            29.895
                        ]
                    ]
                ]
            },
            "properties": {
                "airSigmetId": null,
                "airportIcao": "KKCI",
                "airSigmetType": "SIGMET",
                "hazard": "CONVECTIVE",
                "severity": 5,
                "altitudeLow1": null,
                "altitudeLow2": null,
                "altitudeHi1": 41000,
                "altitudeHi2": null,
                "movementDir": 150,
                "movementSpd": 10,
                "rawAirSigmet": "WSUS31 KKCI 030555\nMKCE WST 030555\nCONVECTIVE SIGMET 7E\nVALID UNTIL 0755Z\nFL AND CSTL WTRS\nFROM 40S TLH-50SW CTY-140SSW TLH-90SSW CEW-40S TLH\nAREA TS MOV FROM 15010KT. TOPS TO FL410.\n\n",
                "validTimeTo": [
                    "2026-10-03T07:55"
                ]
            }
        },
        {
            "type": "Feature",
            "geometry": {
                "type": "Polygon",
                "coordinates": [
                    [
                        [
                            -81.151,
                            28.54
                        ],
                        [
                            -80.136,
                            28.451
                        ],
                        [
                            -78.216,
                            25.953
                        ],
                        [
                            -80.09,
                            26.347
                        ],
                        [
                            -81.151,
                            28.54
                        ]
                    ]
                ]
            },
            "properties": {
                "airSigmetId": null,
                "airportIcao": "KKCI",
                "airSigmetType": "SIGMET",
                "hazard": "CONVECTIVE",
                "severity": 5,
                "altitudeLow1": null,
                "altitudeLow2": null,
                "altitudeHi1": 44000,
                "altitudeHi2": null,
                "movementDir": 120,
                "movementSpd": 15,
                "rawAirSigmet": "WSUS31 KKCI 030555\nMKCE WST 030555\nCONVECTIVE SIGMET 8E\nVALID UNTIL 0755Z\nFL AND CSTL WTRS\nFROM 10E ORL-50NNE TRV-110ESE PBI-20S PBI-10E ORL\nDVLPG AREA TS MOV FROM 12015KT. TOPS TO FL440.\n\n",
                "validTimeTo": [
                    "2026-10-03T07:55"
                ]
            }
        }
    ],
    "metadata": {
        "creationTime": "2026-10-03T06:19"
    }
}