{
    "type": "FeatureCollection",
    "features": [
        {
            "type": "Feature",
            "geometry": {
                "type": "Polygon",
                "coordinates": [
                    [
                        [
                            -91.48,
                            45.403
                        ],
                        [
                            -90.083,
                            43.315
                        ],
                        [
                            -92.846,
                            42.733
                        ],
                        [
                            -94.266,
                            44.721
                        ],
                        [
                            -91.48,
                            45.403
                        ]
                    ]
                ]
            },
            "properties": {
                "airSigmetId": null,
                "airportIcao": "KKCI",
                "airSigmetType": "SIGMET",
                "hazard": "CONVECTIVE",
                "severity": 5,
                "altitudeLow1": null,
                "altitudeLow2": null,
                "altitudeHi1": 32000,
                "altitudeHi2": 32000,
                "movementDir": 280,
                "movementSpd": 35,
                "rawAirSigmet": "WSUS32 KKCI 180655\nSIGC \nCONVECTIVE SIGMET 41C\nVALID UNTIL 0855Z\nWI MN IA\nFROM 30N EAU-20SW DLL-30SE MCW-40ENE RWF-30N EAU\nAREA TS MOV FROM 28035KT. TOPS TO FL320.\n\nOUTLOOK VALID 180855-181255\nFROM 80W YQT-50NW SSM-40ENE DLL-60SE IOW-SLN-30WNW BFF-40WNW\nDPR-60SSE BIS-50NNE RWF-80W YQT\nWST ISSUANCES EXPD. REFER TO MOST RECENT ACUS01 KWNS FROM STORM\nPREDICTION CENTER FOR SYNOPSIS AND METEOROLOGICAL DETAILS.",
                "validTimeTo": [
                    "2026-08-18T08:55"
                ]
            }
        },
        {
            "type": "Feature",
            "geometry": {
                "type": "Polygon",
                "coordinates": [
                    [
                        [
                            -97.128,
                            43.035
                        ],
                        [
                            -94.29,
                            42.61
                        ],
                        [
                            -95.599,
                            39.287
                        ],
                        [
                            -99.31,
                            39.961
                        ],
                        [
                            -100.409,
                            40.895
                        ],
                        [
                            -97.128,
                            43.035
                        ]
                    ]
                ]
            },
            "properties": {
                "airSigmetId": null,
                "airportIcao": "KKCI",
                "airSigmetType": "SIGMET",
                "hazard": "CONVECTIVE",
                "severity": 5,
                "altitudeLow1": null,
                "altitudeLow2": null,
                "altitudeHi1": 45000,
                "altitudeHi2": 60000,
                "movementDir": 270,
                "movementSpd": 30,
                "rawAirSigmet": "WSUS32 KKCI 180655\nSIGC \nCONVECTIVE SIGMET 42C\nVALID UNTIL 0855Z\nMO IA KS NE SD\nFROM 40SSW FSD-FOD-40W MCI-60NE HLC-20SE LBF-40SSW FSD\nAREA SEV EMBD TS MOV FROM 27030KT. TOPS ABV FL450.\nHAIL TO 1 IN...WIND GUSTS TO 60KT POSS.\n\nOUTLOOK VALID 180855-181255\nFROM 80W YQT-50NW SSM-40ENE DLL-60SE IOW-SLN-30WNW BFF-40WNW\nDPR-60SSE BIS-50NNE RWF-80W YQT\nWST ISSUANCES EXPD. REFER TO MOST RECENT ACUS01 KWNS FROM STORM\nPREDICTION CENTER FOR SYNOPSIS AND METEOROLOGICAL DETAILS.",
                "validTimeTo": [
                    "2026-08-18T08:55"
                ]
            }
        },
        {
            "type": "Feature",
            "geometry": {
                "type": "Polygon",
                "coordinates": [
                    [
                        [
                            -106.28,
                            42.758
                        ],
                        [
                            -99.99,
                            42.57
                        ],
                        [
                            -100.72,
                            40.798
                        ],
                        [
                            -101.961,
                            40.776
                        ],
                        [
                            -106.151,
                            42.101
                        ],
                        [
                            -106.28,
                            42.758
                        ]
                    ]
                ]
            },
            "properties": {
                "airSigmetId": null,
                "airportIcao": "KKCI",
                "airSigmetType": "SIGMET",
                "hazard": "CONVECTIVE",
                "severity": 5,
                "altitudeLow1": null,
                "altitudeLow2": null,
                "altitudeHi1": 40000,
                "altitudeHi2": 40000,
                "movementDir": 280,
                "movementSpd": 30,
                "rawAirSigmet": "WSUS32 KKCI 180655\nSIGC \nCONVECTIVE SIGMET 43C\nVALID UNTIL 0855Z\nNE CO WY\nFROM 20S DDY-ANW-20S LBF-50ESE SNY-50NNW LAR-20S DDY\nAREA TS MOV FROM 28030KT. TOPS TO FL400.\n\nOUTLOOK VALID 180855-181255\nFROM 80W YQT-50NW SSM-40ENE DLL-60SE IOW-SLN-30WNW BFF-40WNW\nDPR-60SSE BIS-50NNE RWF-80W YQT\nWST ISSUANCES EXPD. REFER TO MOST RECENT ACUS01 KWNS FROM STORM\nPREDICTION CENTER FOR SYNOPSIS AND METEOROLOGICAL DETAILS.",
                "validTimeTo": [
                    "2026-08-18T08:55"
                ]
            }
        },
        {
            "type": "Feature",
            "geometry": {
                "type": "Polygon",
                "coordinates": [
                    [
                        [
                            -101.541,
                            44.773
                        ],
                        [
                            -95.994,
                            44.721
                        ],
                        [
                            -97.128,
                            43.035
                        ],
                        [
                            -98.69,
                            42.47
                        ],
                        [
                            -101.541,
                            44.773
                        ]
                    ]
                ]
            },
            "properties": {
                "airSigmetId": null,
                "airportIcao": "KKCI",
                "airSigmetType": "SIGMET",
                "hazard": "CONVECTIVE",
                "severity": 5,
                "altitudeLow1": null,
                "altitudeLow2": null,
                "altitudeHi1": 45000,
                "altitudeHi2": 60000,
                "movementDir": 270,
                "movementSpd": 20,
                "rawAirSigmet": "WSUS32 KKCI 180655\nSIGC \nCONVECTIVE SIGMET 44C\nVALID UNTIL 0855Z\nMN NE SD\nFROM 20SSE DPR-40WNW RWF-40SSW FSD-ONL-20SSE DPR\nAREA SEV TS MOV FROM 27020KT. TOPS ABV FL450.\nWIND GUSTS TO 50KT POSS.\n\nOUTLOOK VALID 180855-181255\nFROM 80W YQT-50NW SSM-40ENE DLL-60SE IOW-SLN-30WNW BFF-40WNW\nDPR-60SSE BIS-50NNE RWF-80W YQT\nWST ISSUANCES EXPD. REFER TO MOST RECENT ACUS01 KWNS FROM STORM\nPREDICTION CENTER FOR SYNOPSIS AND METEOROLOGICAL DETAILS.",
                "validTimeTo": [
                    "2026-08-18T08:55"
                ]
            }
        },
        {
            "type": "Feature",
            "geometry": {
                "type": "Polygon",
                "coordinates": [
                    [
                        [
                            -104.847,
                            30.617
                        ],
                        [
                            -104.663,
                            30.552
                        ],
                        [
                            -104.222,
                            30.065
                        ],
                        [
                            -104.492,
                            29.829
                        ],
                        [
                            -104.847,
                            30.617
                        ]
                    ]
                ]
            },
            "properties": {
                "airSigmetId": null,
                "airportIcao": "KKCI",
                "airSigmetType": "SIGMET",
                "hazard": "CONVECTIVE",
                "severity": 5,
                "altitudeLow1": null,
                "altitudeLow2": null,
                "altitudeHi1": 36000,
                "altitudeHi2": 36000,
                "movementDir": 270,
                "movementSpd": 25,
                "rawAirSigmet": "WSUS32 KKCI 180655\nSIGC \nCONVECTIVE SIGMET 45C\nVALID UNTIL 0855Z\nTX\nFROM 50WNW MRF-40WNW MRF-20SW MRF-40SW MRF-50WNW MRF\nDVLPG AREA TS MOV FROM 27025KT. TOPS TO FL360.\n\nOUTLOOK VALID 180855-181255\nFROM 80W YQT-50NW SSM-40ENE DLL-60SE IOW-SLN-30WNW BFF-40WNW\nDPR-60SSE BIS-50NNE RWF-80W YQT\nWST ISSUANCES EXPD. REFER TO MOST RECENT ACUS01 KWNS FROM STORM\nPREDICTION CENTER FOR SYNOPSIS AND METEOROLOGICAL DETAILS.",
                "validTimeTo": [
                    "2026-08-18T08:55"
                ]
            }
        },
        {
            "type": "Feature",
            "geometry": {
                "type": "Polygon",
                "coordinates": [
                    [
                        [
                            -92.884,
                            36.244
                        ],
                        [
                            -91.107,
                            35.803
                        ],
                        [
                            -92.988,
                            34.677
                        ],
                        [
                            -94.839,
                            35.186
                        ],
                        [
                            -92.884,
                            36.244
                        ]
                    ]
                ]
            },
            "properties": {
                "airSigmetId": null,
                "airportIcao": "KKCI",
                "airSigmetType": "SIGMET",
                "hazard": "CONVECTIVE",
                "severity": 5,
                "altitudeLow1": null,
                "altitudeLow2": null,
                "altitudeHi1": 35000,
                "altitudeHi2": 35000,
                "movementDir": 270,
                "movementSpd": 25,
                "rawAirSigmet": "WSUS32 KKCI 180655\nSIGC \nCONVECTIVE SIGMET 46C\nVALID UNTIL 0855Z\nAR OK\nFROM 60E RZC-20SSW ARG-40W LIT-30WSW FSM-60E RZC\nAREA TS MOV FROM 27025KT. TOPS TO FL350.\n\nOUTLOOK VALID 180855-181255\nFROM 80W YQT-50NW SSM-40ENE DLL-60SE IOW-SLN-30WNW BFF-40WNW\nDPR-60SSE BIS-50NNE RWF-80W YQT\nWST ISSUANCES EXPD. REFER TO MOST RECENT ACUS01 KWNS FROM STORM\nPREDICTION CENTER FOR SYNOPSIS AND METEOROLOGICAL DETAILS.",
                "validTimeTo": [
                    "2026-08-18T08:55"
                ]
            }
        },
        {
            "type": "Feature",
            "geometry": {
                "type": "Polygon",
                "coordinates": [
                    [
                        [
                            -73.521,
                            39.111
                        ],
                        [
                            -71.867,
                            38.107
                        ],
                        [
                            -73.084,
                            36.21
                        ],
                        [
                            -75.817,
                            36.762
                        ],
                        [
                            -73.521,
                            39.111
                        ]
                    ]
                ]
            },
            "properties": {
                "airSigmetId": null,
                "airportIcao": "KKCI",
                "airSigmetType": "SIGMET",
                "hazard": "CONVECTIVE",
                "severity": 5,
                "altitudeLow1": null,
                "altitudeLow2": null,
                "altitudeHi1": 45000,
                "altitudeHi2": 60000,
                "movementDir": 270,
                "movementSpd": 15,
                "rawAirSigmet": "WSUS31 KKCI 180655\nSIGE \nCONVECTIVE SIGMET 24E\nVALID UNTIL 0855Z\nDE NJ MD NC VA CSTL WTRS\nFROM 60SE CYN-150ESE SIE-150E ECG-20ESE ORF-60SE CYN\nAREA TS MOV FROM 27015KT. TOPS ABV FL450.\n\nOUTLOOK VALID 180855-181255\nFROM 30S SAX-100S HTO-150SE SIE-180ESE ECG-140SSE ILM-50E\nCHS-HNN-CSN-30S SAX\n\nWST ISSUANCES EXPD. REFER TO MOST RECENT ACUS01 KWNS FROM STORM\nPREDICTION CENTER FOR SYNOPSIS AND METEOROLOGICAL DETAILS.",
                "validTimeTo": [
                    "2026-08-18T08:55"
                ]
            }
        },
        {
            "type": "Feature",
            "geometry": {
                "type": "Polygon",
                "coordinates": [
                    [
                        [
                            -77.561,
                            37.035
                        ],
                        [
                            -74.667,
                            35.732
                        ],
                        [
                            -75.178,
                            34.246
                        ],
                        [
                            -79.071,
                            36.105
                        ],
                        [
                            -77.561,
                            37.035
                        ]
                    ]
                ]
            },
            "properties": {
                "airSigmetId": null,
                "airportIcao": "KKCI",
                "airSigmetType": "SIGMET",
                "hazard": "CONVECTIVE",
                "severity": 5,
                "altitudeLow1": null,
                "altitudeLow2": null,
                "altitudeHi1": 45000,
                "altitudeHi2": 60000,
                "movementDir": 270,
                "movementSpd": 25,
                "rawAirSigmet": "WSUS31 KKCI 180655\nSIGE \nCONVECTIVE SIGMET 25E\nVALID UNTIL 0855Z\nVA NC AND NC CSTL WTRS\nFROM 30SSW RIC-80ESE ECG-130SSE ECG-20NW RDU-30SSW RIC\nINTSF AREA TS MOV FROM 27025KT. TOPS ABV FL450.\n\nOUTLOOK VALID 180855-181255\nFROM 30S SAX-100S HTO-150SE SIE-180ESE ECG-140SSE ILM-50E\nCHS-HNN-CSN-30S SAX\n\nWST ISSUANCES EXPD. REFER TO MOST RECENT ACUS01 KWNS FROM STORM\nPREDICTION CENTER FOR SYNOPSIS AND METEOROLOGICAL DETAILS.",
                "validTimeTo": [
                    "2026-08-18T08:55"
                ]
            }
        },
        {
            "type": "Feature",
            "geometry": {
                "type": "Polygon",
                "coordinates": [
                    [
                        [
                            -110.73,
                            44.617
                        ],
                        [
                            -108.707,
                            44.828
                        ],
                        [
                            -108.3,
                            44.125
                        ],
                        [
                            -110.73,
                            44.123
                        ],
                        [
                            -110.73,
                            44.617
                        ]
                    ]
                ]
            },
            "properties": {
                "airSigmetId": null,
                "airportIcao": "KKCI",
                "airSigmetType": "SIGMET",
                "hazard": "CONVECTIVE",
                "severity": 5,
                "altitudeLow1": null,
                "altitudeLow2": null,
                "altitudeHi1": 35000,
                "altitudeHi2": 35000,
                "movementDir": 270,
                "movementSpd": 35,
                "rawAirSigmet": "WSUS33 KKCI 180655\nSIGW \nCONVECTIVE SIGMET 25W\nVALID UNTIL 0855Z\nWY\nFROM 60N JAC-70W SHR-40N BOY-30N JAC-60N JAC\nAREA TS MOV FROM 27035KT. TOPS TO FL350.\n\nOUTLOOK VALID 180855-181255\nTS ARE NOT EXPD TO REQUIRE WST ISSUANCES.",
                "validTimeTo": [
                    "2026-08-18T08:55"
                ]
            }
        },
        {
            "type": "Feature",
            "geometry": {
                "type": "Polygon",
                "coordinates": [
                    [
                        [
                            -113.276,
                            41.943
                        ],
                        [
                            -111.214,
                            41.812
                        ],
                        [
                            -110.532,
                            40.276
                        ],
                        [
                            -112.51,
                            39.803
                        ],
                        [
                            -113.276,
                            41.943
                        ]
                    ]
                ]
            },
            "properties": {
                "airSigmetId": null,
                "airportIcao": "KKCI",
                "airSigmetType": "SIGMET",
                "hazard": "CONVECTIVE",
                "severity": 5,
                "altitudeLow1": null,
                "altitudeLow2": null,
                "altitudeHi1": 30000,
                "altitudeHi2": 30000,
                "movementDir": 230,
                "movementSpd": 25,
                "rawAirSigmet": "WSUS33 KKCI 180655\nSIGW \nCONVECTIVE SIGMET 26W\nVALID UNTIL 0855Z\nWY UT\nFROM 40WSW MLD-60ESE MLD-20WNW MTU-30N DTA-40WSW MLD\nAREA TS MOV FROM 23025KT. TOPS TO FL300.\n\nOUTLOOK VALID 180855-181255\nTS ARE NOT EXPD TO REQUIRE WST ISSUANCES.",
                "validTimeTo": [
                    "2026-08-18T08:55"
                ]
            }
        },
        {
            "type": "Feature",
            "geometry": {
                "type": "Polygon",
                "coordinates": [
                    [
                        [
                            -111.414,
                            48.975
                        ],
                        [
                            -108.72,
                            47.83
                        ],
                        [
                            -109.61,
                            47.553
                        ],
                        [
                            -112.8,
                            48.795
                        ],
                        [
                            -111.414,
                            48.975
                        ]
                    ]
                ]
            },
            "properties": {
                "airSigmetId": null,
                "airportIcao": "KKCI",
                "airSigmetType": "SIGMET",
                "hazard": "CONVECTIVE",
                "severity": 5,
                "altitudeLow1": null,
                "altitudeLow2": null,
                "altitudeHi1": 32000,
                "altitudeHi2": 32000,
                "movementDir": 300,
                "movementSpd": 20,
                "rawAirSigmet": "WSUS33 KKCI 180655\nSIGW \nCONVECTIVE SIGMET 27W\nVALID UNTIL 0855Z\nMT\nFROM 70WNW HVR-60SE HVR-30N LWT-50S YQL-70WNW HVR\nDVLPG AREA TS MOV FROM 30020KT. TOPS TO FL320.\n\nOUTLOOK VALID 180855-181255\nTS ARE NOT EXPD TO REQUIRE WST ISSUANCES.",
                "validTimeTo": [
                    "2026-08-18T08:55"
                ]
            }
        },
        {
            "type": "Feature",
            "geometry": {
                "type": "Polygon",
                "coordinates": [
                    [
                        [
                            -106.63,
                            49.055
                        ],
                        [
                            -102.288,
                            48.256
                        ],
                        [
                            -103.1,
                            47.823
                        ],
                        [
                            -107.168,
                            48.574
                        ],
                        [
                            -106.63,
                            49.055
                        ]
                    ]
                ]
            },
            "properties": {
                "airSigmetId": null,
                "airportIcao": "KKCI",
                "airSigmetType": "SIGMET",
                "hazard": "CONVECTIVE",
                "severity": 5,
                "altitudeLow1": null,
                "altitudeLow2": null,
                "altitudeHi1": 34000,
                "altitudeHi2": 34000,
                "movementDir": 300,
                "movementSpd": 30,
                "rawAirSigmet": "WSUS33 KKCI 180655\nSIGW \nCONVECTIVE SIGMET 28W\nVALID UNTIL 0855Z\nND MT\nFROM 50N GGW-40W MOT-30SE ISN-30NW GGW-50N GGW\nDVLPG AREA TS MOV FROM 30030KT. TOPS TO FL340.\n\nOUTLOOK VALID 180855-181255\nTS ARE NOT EXPD TO REQUIRE WST ISSUANCES.",
                "validTimeTo": [
                    "2026-08-18T08:55"
                ]
            }
        }
    ],
    "metadata": {
        "creationTime": "2026-08-18T06:55"
    }
}