{
    "type": "FeatureCollection",
    "features": [
        {
            "type": "Feature",
            "geometry": {
                "type": "Polygon",
                "coordinates": [
                    [
                        [
                            -68.17,
                            46.275
                        ],
                        [
                            -67.424,
                            45.255
                        ],
                        [
                            -71.401,
                            45.04
                        ],
                        [
                            -70.363,
                            46.09
                        ],
                        [
                            -68.17,
                            46.275
                        ]
                    ]
                ]
            },
            "properties": {
                "airSigmetId": null,
                "airportIcao": "KKCI",
                "airSigmetType": "SIGMET",
                "hazard": "CONVECTIVE",
                "severity": 5,
                "altitudeLow1": null,
                "altitudeLow2": null,
                "altitudeHi1": 33000,
                "altitudeHi2": 33000,
                "movementDir": 280,
                "movementSpd": 20,
                "rawAirSigmet": "WSUS31 KKCI 140155\nSIGE \nCONVECTIVE SIGMET 8E\nVALID UNTIL 0355Z\nME NH\nFROM 20NW HUL-50ESE MLT-70NE MPV-60SE YQB-20NW HUL\nAREA TS MOV FROM 28020KT. TOPS TO FL330.\n\nOUTLOOK VALID 140355-140755\nAREA 1...FROM 70NW PQI-30NNE PQI-HUL-60SW YSJ-130E\nACK-SBY-ERI-MSS-70NE MPV-70NW PQI\nWST ISSUANCES EXPD. REFER TO MOST RECENT ACUS01 KWNS FROM STORM\nPREDICTION CENTER FOR SYNOPSIS AND METEOROLOGICAL DETAILS.\n\nAREA 2...FROM BAE-DXO-70SE ILM-170ENE PBI-110SSE MIA-80WSW\nEYW-90W PIE-170SE LEV-BAE\nWST ISSUANCES POSS. REFER TO MOST RECENT ACUS01 KWNS FROM STORM\nPREDICTION CENTER FOR SYNOPSIS AND METEOROLOGICAL DETAILS.\n\nBACKUP OF AWC DOMESTIC G-AIRMETS AND SIGMETS BY THE AIR FORCE\n15TH OWS /SCOTT AFB/ WILL BE FM 15Z TO 21Z THURSDAY AUGUST 13.\nAIR FORCE 15TH OWS COORDINATION NUMBER IS 618-256-1394.",
                "validTimeTo": [
                    "2026-08-14T03:55"
                ]
            }
        },
        {
            "type": "Feature",
            "geometry": {
                "type": "Polygon",
                "coordinates": [
                    [
                        [
                            -87.13,
                            33.205
                        ],
                        [
                            -84.567,
                            31.895
                        ],
                        [
                            -85.194,
                            31.337
                        ],
                        [
                            -87.811,
                            32.376
                        ],
                        [
                            -87.13,
                            33.205
                        ]
                    ]
                ]
            },
            "properties": {
                "airSigmetId": null,
                "airportIcao": "KKCI",
                "airSigmetType": "SIGMET",
                "hazard": "CONVECTIVE",
                "severity": 5,
                "altitudeLow1": null,
                "altitudeLow2": null,
                "altitudeHi1": 45000,
                "altitudeHi2": 60000,
                "movementDir": null,
                "movementSpd": null,
                "rawAirSigmet": "WSUS31 KKCI 140155\nSIGE \nCONVECTIVE SIGMET 9E\nVALID UNTIL 0355Z\nGA AL\nFROM 30SSW VUZ-20NW PZD-50WSW PZD-50E MEI-30SSW VUZ\nAREA TS MOV LTL. TOPS ABV FL450.\n\nOUTLOOK VALID 140355-140755\nAREA 1...FROM 70NW PQI-30NNE PQI-HUL-60SW YSJ-130E\nACK-SBY-ERI-MSS-70NE MPV-70NW PQI\nWST ISSUANCES EXPD. REFER TO MOST RECENT ACUS01 KWNS FROM STORM\nPREDICTION CENTER FOR SYNOPSIS AND METEOROLOGICAL DETAILS.\n\nAREA 2...FROM BAE-DXO-70SE ILM-170ENE PBI-110SSE MIA-80WSW\nEYW-90W PIE-170SE LEV-BAE\nWST ISSUANCES POSS. REFER TO MOST RECENT ACUS01 KWNS FROM STORM\nPREDICTION CENTER FOR SYNOPSIS AND METEOROLOGICAL DETAILS.\n\nBACKUP OF AWC DOMESTIC G-AIRMETS AND SIGMETS BY THE AIR FORCE\n15TH OWS /SCOTT AFB/ WILL BE FM 15Z TO 21Z THURSDAY AUGUST 13.\nAIR FORCE 15TH OWS COORDINATION NUMBER IS 618-256-1394.",
                "validTimeTo": [
                    "2026-08-14T03:55"
                ]
            }
        },
        {
            "type": "Feature",
            "geometry": {
                "type": "Polygon",
                "coordinates": [
                    [
                        [
                            -86.057,
                            36.138
                        ],
                        [
                            -85.386,
                            35.425
                        ],
                        [
                            -85.902,
                            35.212
                        ],
                        [
                            -86.443,
                            35.675
                        ],
                        [
                            -86.057,
                            36.138
                        ]
                    ]
                ]
            },
            "properties": {
                "airSigmetId": null,
                "airportIcao": "KKCI",
                "airSigmetType": "SIGMET",
                "hazard": "CONVECTIVE",
                "severity": 5,
                "altitudeLow1": null,
                "altitudeLow2": null,
                "altitudeHi1": 45000,
                "altitudeHi2": 60000,
                "movementDir": null,
                "movementSpd": null,
                "rawAirSigmet": "WSUS31 KKCI 140155\nSIGE \nCONVECTIVE SIGMET 10E\nVALID UNTIL 0355Z\nTN\nFROM 30E BNA-30NNW GQO-40WNW GQO-30SSE BNA-30E BNA\nAREA TS MOV LTL. TOPS ABV FL450.\n\nOUTLOOK VALID 140355-140755\nAREA 1...FROM 70NW PQI-30NNE PQI-HUL-60SW YSJ-130E\nACK-SBY-ERI-MSS-70NE MPV-70NW PQI\nWST ISSUANCES EXPD. REFER TO MOST RECENT ACUS01 KWNS FROM STORM\nPREDICTION CENTER FOR SYNOPSIS AND METEOROLOGICAL DETAILS.\n\nAREA 2...FROM BAE-DXO-70SE ILM-170ENE PBI-110SSE MIA-80WSW\nEYW-90W PIE-170SE LEV-BAE\nWST ISSUANCES POSS. REFER TO MOST RECENT ACUS01 KWNS FROM STORM\nPREDICTION CENTER FOR SYNOPSIS AND METEOROLOGICAL DETAILS.\n\nBACKUP OF AWC DOMESTIC G-AIRMETS AND SIGMETS BY THE AIR FORCE\n15TH OWS /SCOTT AFB/ WILL BE FM 15Z TO 21Z THURSDAY AUGUST 13.\nAIR FORCE 15TH OWS COORDINATION NUMBER IS 618-256-1394.",
                "validTimeTo": [
                    "2026-08-14T03:55"
                ]
            }
        },
        {
            "type": "Feature",
            "geometry": {
                "type": "Polygon",
                "coordinates": [
                    [
                        [
                            -83.607,
                            34.085
                        ],
                        [
                            -83.51,
                            33.946
                        ],
                        [
                            -84.072,
                            33.502
                        ],
                        [
                            -84.361,
                            33.788
                        ],
                        [
                            -83.607,
                            34.085
                        ]
                    ]
                ]
            },
            "properties": {
                "airSigmetId": null,
                "airportIcao": "KKCI",
                "airSigmetType": "SIGMET",
                "hazard": "CONVECTIVE",
                "severity": 5,
                "altitudeLow1": null,
                "altitudeLow2": null,
                "altitudeHi1": 31000,
                "altitudeHi2": 31000,
                "movementDir": null,
                "movementSpd": null,
                "rawAirSigmet": "WSUS31 KKCI 140155\nSIGE \nCONVECTIVE SIGMET 11E\nVALID UNTIL 0355Z\nGA\nFROM 40SSW ODF-50ENE ATL-20ESE ATL-10NNE ATL-40SSW ODF\nAREA TS MOV LTL. TOPS TO FL310.\n\nOUTLOOK VALID 140355-140755\nAREA 1...FROM 70NW PQI-30NNE PQI-HUL-60SW YSJ-130E\nACK-SBY-ERI-MSS-70NE MPV-70NW PQI\nWST ISSUANCES EXPD. REFER TO MOST RECENT ACUS01 KWNS FROM STORM\nPREDICTION CENTER FOR SYNOPSIS AND METEOROLOGICAL DETAILS.\n\nAREA 2...FROM BAE-DXO-70SE ILM-170ENE PBI-110SSE MIA-80WSW\nEYW-90W PIE-170SE LEV-BAE\nWST ISSUANCES POSS. REFER TO MOST RECENT ACUS01 KWNS FROM STORM\nPREDICTION CENTER FOR SYNOPSIS AND METEOROLOGICAL DETAILS.\n\nBACKUP OF AWC DOMESTIC G-AIRMETS AND SIGMETS BY THE AIR FORCE\n15TH OWS /SCOTT AFB/ WILL BE FM 15Z TO 21Z THURSDAY AUGUST 13.\nAIR FORCE 15TH OWS COORDINATION NUMBER IS 618-256-1394.",
                "validTimeTo": [
                    "2026-08-14T03:55"
                ]
            }
        },
        {
            "type": "Feature",
            "geometry": {
                "type": "Polygon",
                "coordinates": [
                    [
                        [
                            -82.025,
                            32.476
                        ],
                        [
                            -80.079,
                            30.841
                        ],
                        [
                            -81.463,
                            29.427
                        ],
                        [
                            -83.829,
                            30.751
                        ],
                        [
                            -82.025,
                            32.476
                        ]
                    ]
                ]
            },
            "properties": {
                "airSigmetId": null,
                "airportIcao": "KKCI",
                "airSigmetType": "SIGMET",
                "hazard": "CONVECTIVE",
                "severity": 5,
                "altitudeLow1": null,
                "altitudeLow2": null,
                "altitudeHi1": 45000,
                "altitudeHi2": 45000,
                "movementDir": 280,
                "movementSpd": 10,
                "rawAirSigmet": "WSUS31 KKCI 140155\nSIGE \nCONVECTIVE SIGMET 12E\nVALID UNTIL 0355Z\nFL GA AND CSTL WTRS\nFROM 50WNW SAV-80ENE CRG-20WNW OMN-30ENE TLH-50WNW SAV\nAREA TS MOV FROM 28010KT. TOPS TO FL450.\n\nOUTLOOK VALID 140355-140755\nAREA 1...FROM 70NW PQI-30NNE PQI-HUL-60SW YSJ-130E\nACK-SBY-ERI-MSS-70NE MPV-70NW PQI\nWST ISSUANCES EXPD. REFER TO MOST RECENT ACUS01 KWNS FROM STORM\nPREDICTION CENTER FOR SYNOPSIS AND METEOROLOGICAL DETAILS.\n\nAREA 2...FROM BAE-DXO-70SE ILM-170ENE PBI-110SSE MIA-80WSW\nEYW-90W PIE-170SE LEV-BAE\nWST ISSUANCES POSS. REFER TO MOST RECENT ACUS01 KWNS FROM STORM\nPREDICTION CENTER FOR SYNOPSIS AND METEOROLOGICAL DETAILS.\n\nBACKUP OF AWC DOMESTIC G-AIRMETS AND SIGMETS BY THE AIR FORCE\n15TH OWS /SCOTT AFB/ WILL BE FM 15Z TO 21Z THURSDAY AUGUST 13.\nAIR FORCE 15TH OWS COORDINATION NUMBER IS 618-256-1394.",
                "validTimeTo": [
                    "2026-08-14T03:55"
                ]
            }
        },
        {
            "type": "Feature",
            "geometry": {
                "type": "Polygon",
                "coordinates": [
                    [
                        [
                            -83.083,
                            39.228
                        ],
                        [
                            -81.432,
                            38.941
                        ],
                        [
                            -80.95,
                            36.625
                        ],
                        [
                            -82.859,
                            35.896
                        ],
                        [
                            -84.202,
                            37.188
                        ],
                        [
                            -83.083,
                            39.228
                        ]
                    ]
                ]
            },
            "properties": {
                "airSigmetId": null,
                "airportIcao": "KKCI",
                "airSigmetType": "SIGMET",
                "hazard": "CONVECTIVE",
                "severity": 5,
                "altitudeLow1": null,
                "altitudeLow2": null,
                "altitudeHi1": 45000,
                "altitudeHi2": 60000,
                "movementDir": 280,
                "movementSpd": 20,
                "rawAirSigmet": "WSUS31 KKCI 140155\nSIGE \nCONVECTIVE SIGMET 13E\nVALID UNTIL 0355Z\nVA NC WV OH TN KY\nFROM 60SSW APE-30ENE HNN-30SSW PSK-50E VXV-10NNW LOZ-60SSW APE\nAREA SEV TS MOV FROM 28020KT. TOPS ABV FL450.\nWIND GUSTS TO 50KT POSS.\n\nOUTLOOK VALID 140355-140755\nAREA 1...FROM 70NW PQI-30NNE PQI-HUL-60SW YSJ-130E\nACK-SBY-ERI-MSS-70NE MPV-70NW PQI\nWST ISSUANCES EXPD. REFER TO MOST RECENT ACUS01 KWNS FROM STORM\nPREDICTION CENTER FOR SYNOPSIS AND METEOROLOGICAL DETAILS.\n\nAREA 2...FROM BAE-DXO-70SE ILM-170ENE PBI-110SSE MIA-80WSW\nEYW-90W PIE-170SE LEV-BAE\nWST ISSUANCES POSS. REFER TO MOST RECENT ACUS01 KWNS FROM STORM\nPREDICTION CENTER FOR SYNOPSIS AND METEOROLOGICAL DETAILS.\n\nBACKUP OF AWC DOMESTIC G-AIRMETS AND SIGMETS BY THE AIR FORCE\n15TH OWS /SCOTT AFB/ WILL BE FM 15Z TO 21Z THURSDAY AUGUST 13.\nAIR FORCE 15TH OWS COORDINATION NUMBER IS 618-256-1394.",
                "validTimeTo": [
                    "2026-08-14T03:55"
                ]
            }
        },
        {
            "type": "Feature",
            "geometry": {
                "type": "Polygon",
                "coordinates": [
                    [
                        [
                            -91.965,
                            42.775
                        ],
                        [
                            -86.549,
                            41.77
                        ],
                        [
                            -85.63,
                            40.979
                        ],
                        [
                            -90.793,
                            41.263
                        ],
                        [
                            -91.965,
                            42.775
                        ]
                    ]
                ]
            },
            "properties": {
                "airSigmetId": null,
                "airportIcao": "KKCI",
                "airSigmetType": "SIGMET",
                "hazard": "CONVECTIVE",
                "severity": 5,
                "altitudeLow1": null,
                "altitudeLow2": null,
                "altitudeHi1": 45000,
                "altitudeHi2": 60000,
                "movementDir": 290,
                "movementSpd": 35,
                "rawAirSigmet": "WSUS32 KKCI 140155\nSIGC \nCONVECTIVE SIGMET 7C\nVALID UNTIL 0355Z\nMI IN IL IA LM\nFROM 60WNW DBQ-10W GIJ-20W FWA-40ESE IOW-60WNW DBQ\nAREA TS MOV FROM 29035KT TOPS ABV FL450.\n\nOUTLOOK VALID 140355-140755\nFROM GRB-JOT-MCI-DLF-90S MRF-ELP-DMN-PUB-30WNW BFF-GRB\nWST ISSUANCES EXPD. REFER TO MOST RECENT ACUS01 KWNS FROM STORM\nPREDICTION CENTER FOR SYNOPSIS AND METEOROLOGICAL DETAILS.\n\nBACKUP OF AWC DOMESTIC G-AIRMETS AND SIGMETS BY THE AIR FORCE\n15TH OWS /SCOTT AFB/ WILL BE FM 15Z TO 21Z THURSDAY AUGUST 13.\nAIR FORCE 15TH OWS COORDINATION NUMBER IS 618-256-1394.",
                "validTimeTo": [
                    "2026-08-14T03:55"
                ]
            }
        },
        {
            "type": "Feature",
            "geometry": {
                "type": "Polygon",
                "coordinates": [
                    [
                        [
                            -105.82,
                            37.35
                        ],
                        [
                            -103.831,
                            36.485
                        ],
                        [
                            -110.92,
                            31.265
                        ],
                        [
                            -112.298,
                            32.093
                        ],
                        [
                            -113.755,
                            33.472
                        ],
                        [
                            -105.82,
                            37.35
                        ]
                    ]
                ]
            },
            "properties": {
                "airSigmetId": null,
                "airportIcao": "KKCI",
                "airSigmetType": "SIGMET",
                "hazard": "CONVECTIVE",
                "severity": 5,
                "altitudeLow1": null,
                "altitudeLow2": null,
                "altitudeHi1": 41000,
                "altitudeHi2": 41000,
                "movementDir": null,
                "movementSpd": null,
                "rawAirSigmet": "WSUS33 KKCI 140155\nSIGW \nCONVECTIVE SIGMET 7W\nVALID UNTIL 0355Z\nCO NM AZ\nFROM ALS-50E CIM-50S TUS-70W TUS-60NE BZA-ALS\nAREA TS MOV LTL. TOPS TO FL410.\n\nOUTLOOK VALID 140355-140755\nFROM 30E HUH-ISN-PUB-70SSW DMN-50SSW TUS-40S BTY-EHF-30ESE\nRBL-30E HUH\nWST ISSUANCES POSS. REFER TO MOST RECENT ACUS01 KWNS FROM STORM\nPREDICTION CENTER FOR SYNOPSIS AND METEOROLOGICAL DETAILS.\n\nBACKUP OF AWC DOMESTIC G-AIRMETS AND SIGMETS BY THE AIR FORCE\n15TH OWS /SCOTT AFB/ WILL BE FM 15Z TO 21Z THURSDAY AUGUST 13.\nAIR FORCE 15TH OWS COORDINATION NUMBER IS 618-256-1394.",
                "validTimeTo": [
                    "2026-08-14T03:55"
                ]
            }
        },
        {
            "type": "Feature",
            "geometry": {
                "type": "Polygon",
                "coordinates": [
                    [
                        [
                            -96.82,
                            40.391
                        ],
                        [
                            -95.599,
                            39.287
                        ],
                        [
                            -100.526,
                            36.683
                        ],
                        [
                            -102.831,
                            37.013
                        ],
                        [
                            -96.82,
                            40.391
                        ]
                    ]
                ]
            },
            "properties": {
                "airSigmetId": null,
                "airportIcao": "KKCI",
                "airSigmetType": "SIGMET",
                "hazard": "CONVECTIVE",
                "severity": 5,
                "altitudeLow1": null,
                "altitudeLow2": null,
                "altitudeHi1": 45000,
                "altitudeHi2": 60000,
                "movementDir": 230,
                "movementSpd": 25,
                "rawAirSigmet": "WSUS32 KKCI 140155\nSIGC \nCONVECTIVE SIGMET 8C\nVALID UNTIL 0355Z\nOK KS NE CO\nFROM 30WNW PWE-40W MCI-30SE LBL-40ESE TBE-30WNW PWE\nAREA SEV TS MOV FROM 23025KT. TOPS ABV FL450.\nHAIL TO 1 IN...WIND GUSTS TO 50KT POSS.\n\nOUTLOOK VALID 140355-140755\nFROM GRB-JOT-MCI-DLF-90S MRF-ELP-DMN-PUB-30WNW BFF-GRB\nWST ISSUANCES EXPD. REFER TO MOST RECENT ACUS01 KWNS FROM STORM\nPREDICTION CENTER FOR SYNOPSIS AND METEOROLOGICAL DETAILS.\n\nBACKUP OF AWC DOMESTIC G-AIRMETS AND SIGMETS BY THE AIR FORCE\n15TH OWS /SCOTT AFB/ WILL BE FM 15Z TO 21Z THURSDAY AUGUST 13.\nAIR FORCE 15TH OWS COORDINATION NUMBER IS 618-256-1394.",
                "validTimeTo": [
                    "2026-08-14T03:55"
                ]
            }
        },
        {
            "type": "Feature",
            "geometry": {
                "type": "Polygon",
                "coordinates": [
                    [
                        [
                            -103.63,
                            48.845
                        ],
                        [
                            -105.527,
                            45.277
                        ],
                        [
                            -107.494,
                            44.966
                        ],
                        [
                            -106.63,
                            48.391
                        ],
                        [
                            -103.63,
                            48.845
                        ]
                    ]
                ]
            },
            "properties": {
                "airSigmetId": null,
                "airportIcao": "KKCI",
                "airSigmetType": "SIGMET",
                "hazard": "CONVECTIVE",
                "severity": 5,
                "altitudeLow1": null,
                "altitudeLow2": null,
                "altitudeHi1": 34000,
                "altitudeHi2": 34000,
                "movementDir": 250,
                "movementSpd": 15,
                "rawAirSigmet": "WSUS32 KKCI 140155\nSIGC \nCONVECTIVE SIGMET 9C\nVALID UNTIL 0355Z\nND MT WY\nFROM 40N ISN-70ENE SHR-20WNW SHR-10N GGW-40N ISN\nAREA TS MOV FROM 25015KT. TOPS TO FL340.\n\nOUTLOOK VALID 140355-140755\nFROM GRB-JOT-MCI-DLF-90S MRF-ELP-DMN-PUB-30WNW BFF-GRB\nWST ISSUANCES EXPD. REFER TO MOST RECENT ACUS01 KWNS FROM STORM\nPREDICTION CENTER FOR SYNOPSIS AND METEOROLOGICAL DETAILS.\n\nBACKUP OF AWC DOMESTIC G-AIRMETS AND SIGMETS BY THE AIR FORCE\n15TH OWS /SCOTT AFB/ WILL BE FM 15Z TO 21Z THURSDAY AUGUST 13.\nAIR FORCE 15TH OWS COORDINATION NUMBER IS 618-256-1394.",
                "validTimeTo": [
                    "2026-08-14T03:55"
                ]
            }
        },
        {
            "type": "Feature",
            "geometry": {
                "type": "Polygon",
                "coordinates": [
                    [
                        [
                            -101.704,
                            36.447
                        ],
                        [
                            -99.487,
                            35.568
                        ],
                        [
                            -100.41,
                            32.286
                        ],
                        [
                            -103.24,
                            31.87
                        ],
                        [
                            -103.6,
                            35.18
                        ],
                        [
                            -101.704,
                            36.447
                        ]
                    ]
                ]
            },
            "properties": {
                "airSigmetId": null,
                "airportIcao": "KKCI",
                "airSigmetType": "SIGMET",
                "hazard": "CONVECTIVE",
                "severity": 5,
                "altitudeLow1": null,
                "altitudeLow2": null,
                "altitudeHi1": 45000,
                "altitudeHi2": 60000,
                "movementDir": 230,
                "movementSpd": 15,
                "rawAirSigmet": "WSUS32 KKCI 140155\nSIGC \nCONVECTIVE SIGMET 10C\nVALID UNTIL 0355Z\nTX OK NM\nFROM 50SW LBL-50SSE MMB-30WSW ABI-INK-TCC-50SW LBL\nAREA TS MOV FROM 23015KT. TOPS ABV FL450.\n\nOUTLOOK VALID 140355-140755\nFROM GRB-JOT-MCI-DLF-90S MRF-ELP-DMN-PUB-30WNW BFF-GRB\nWST ISSUANCES EXPD. REFER TO MOST RECENT ACUS01 KWNS FROM STORM\nPREDICTION CENTER FOR SYNOPSIS AND METEOROLOGICAL DETAILS.\n\nBACKUP OF AWC DOMESTIC G-AIRMETS AND SIGMETS BY THE AIR FORCE\n15TH OWS /SCOTT AFB/ WILL BE FM 15Z TO 21Z THURSDAY AUGUST 13.\nAIR FORCE 15TH OWS COORDINATION NUMBER IS 618-256-1394.",
                "validTimeTo": [
                    "2026-08-14T03:55"
                ]
            }
        },
        {
            "type": "Feature",
            "geometry": {
                "type": "Polygon",
                "coordinates": [
                    [
                        [
                            -110.59,
                            42.223
                        ],
                        [
                            -106.9,
                            39.44
                        ],
                        [
                            -112.3,
                            37.025
                        ],
                        [
                            -116.167,
                            36.329
                        ],
                        [
                            -116.561,
                            38.934
                        ],
                        [
                            -110.59,
                            42.223
                        ]
                    ]
                ]
            },
            "properties": {
                "airSigmetId": null,
                "airportIcao": "KKCI",
                "airSigmetType": "SIGMET",
                "hazard": "CONVECTIVE",
                "severity": 5,
                "altitudeLow1": null,
                "altitudeLow2": null,
                "altitudeHi1": 44000,
                "altitudeHi2": 44000,
                "movementDir": null,
                "movementSpd": null,
                "rawAirSigmet": "WSUS33 KKCI 140155\nSIGW \nCONVECTIVE SIGMET 8W\nVALID UNTIL 0355Z\nCO WY AZ UT ID NV\nFROM 30SW BPI-DBL-40S BCE-40SE BTY-80NE OAL-30SW BPI\nAREA TS MOV LTL. TOPS TO FL440.\n\nOUTLOOK VALID 140355-140755\nFROM 30E HUH-ISN-PUB-70SSW DMN-50SSW TUS-40S BTY-EHF-30ESE\nRBL-30E HUH\nWST ISSUANCES POSS. REFER TO MOST RECENT ACUS01 KWNS FROM STORM\nPREDICTION CENTER FOR SYNOPSIS AND METEOROLOGICAL DETAILS.\n\nBACKUP OF AWC DOMESTIC G-AIRMETS AND SIGMETS BY THE AIR FORCE\n15TH OWS /SCOTT AFB/ WILL BE FM 15Z TO 21Z THURSDAY AUGUST 13.\nAIR FORCE 15TH OWS COORDINATION NUMBER IS 618-256-1394.",
                "validTimeTo": [
                    "2026-08-14T03:55"
                ]
            }
        },
        {
            "type": "Feature",
            "geometry": {
                "type": "Polygon",
                "coordinates": [
                    [
                        [
                            -118.219,
                            43.204
                        ],
                        [
                            -114.432,
                            40.071
                        ],
                        [
                            -118.663,
                            37.256
                        ],
                        [
                            -120.656,
                            39.206
                        ],
                        [
                            -118.219,
                            43.204
                        ]
                    ]
                ]
            },
            "properties": {
                "airSigmetId": null,
                "airportIcao": "KKCI",
                "airSigmetType": "SIGMET",
                "hazard": "CONVECTIVE",
                "severity": 5,
                "altitudeLow1": null,
                "altitudeLow2": null,
                "altitudeHi1": 38000,
                "altitudeHi2": 38000,
                "movementDir": null,
                "movementSpd": null,
                "rawAirSigmet": "WSUS33 KKCI 140155\nSIGW \nCONVECTIVE SIGMET 9W\nVALID UNTIL 0355Z\nID NV CA OR\nFROM 40NNW REO-50NNE ELY-60ENE CZQ-50WSW FMG-40NNW REO\nAREA TS MOV LTL. TOPS TO FL380.\n\nOUTLOOK VALID 140355-140755\nFROM 30E HUH-ISN-PUB-70SSW DMN-50SSW TUS-40S BTY-EHF-30ESE\nRBL-30E HUH\nWST ISSUANCES POSS. REFER TO MOST RECENT ACUS01 KWNS FROM STORM\nPREDICTION CENTER FOR SYNOPSIS AND METEOROLOGICAL DETAILS.\n\nBACKUP OF AWC DOMESTIC G-AIRMETS AND SIGMETS BY THE AIR FORCE\n15TH OWS /SCOTT AFB/ WILL BE FM 15Z TO 21Z THURSDAY AUGUST 13.\nAIR FORCE 15TH OWS COORDINATION NUMBER IS 618-256-1394.",
                "validTimeTo": [
                    "2026-08-14T03:55"
                ]
            }
        },
        {
            "type": "Feature",
            "geometry": {
                "type": "Polygon",
                "coordinates": [
                    [
                        [
                            -121.568,
                            48.946
                        ],
                        [
                            -119.622,
                            48.876
                        ],
                        [
                            -120.909,
                            45.797
                        ],
                        [
                            -122.345,
                            45.75
                        ],
                        [
                            -121.568,
                            48.946
                        ]
                    ]
                ]
            },
            "properties": {
                "airSigmetId": null,
                "airportIcao": "KKCI",
                "airSigmetType": "SIGMET",
                "hazard": "CONVECTIVE",
                "severity": 5,
                "altitudeLow1": null,
                "altitudeLow2": null,
                "altitudeHi1": 42000,
                "altitudeHi2": 42000,
                "movementDir": null,
                "movementSpd": null,
                "rawAirSigmet": "WSUS33 KKCI 140155\nSIGW \nCONVECTIVE SIGMET 10W\nVALID UNTIL 0355Z\nWA\nFROM 40E HUH-50SE YDC-50SSW YKM-10E BTG-40E HUH\nAREA TS MOV LTL. TOPS TO FL420.\n\nOUTLOOK VALID 140355-140755\nFROM 30E HUH-ISN-PUB-70SSW DMN-50SSW TUS-40S BTY-EHF-30ESE\nRBL-30E HUH\nWST ISSUANCES POSS. REFER TO MOST RECENT ACUS01 KWNS FROM STORM\nPREDICTION CENTER FOR SYNOPSIS AND METEOROLOGICAL DETAILS.\n\nBACKUP OF AWC DOMESTIC G-AIRMETS AND SIGMETS BY THE AIR FORCE\n15TH OWS /SCOTT AFB/ WILL BE FM 15Z TO 21Z THURSDAY AUGUST 13.\nAIR FORCE 15TH OWS COORDINATION NUMBER IS 618-256-1394.",
                "validTimeTo": [
                    "2026-08-14T03:55"
                ]
            }
        },
        {
            "type": "Feature",
            "geometry": {
                "type": "Polygon",
                "coordinates": [
                    [
                        [
                            -108.834,
                            44.38
                        ],
                        [
                            -105.279,
                            43.994
                        ],
                        [
                            -105.406,
                            41.565
                        ],
                        [
                            -109.02,
                            42.093
                        ],
                        [
                            -108.834,
                            44.38
                        ]
                    ]
                ]
            },
            "properties": {
                "airSigmetId": null,
                "airportIcao": "KKCI",
                "airSigmetType": "SIGMET",
                "hazard": "CONVECTIVE",
                "severity": 5,
                "altitudeLow1": null,
                "altitudeLow2": null,
                "altitudeHi1": 45000,
                "altitudeHi2": 45000,
                "movementDir": 240,
                "movementSpd": 20,
                "rawAirSigmet": "WSUS33 KKCI 140155\nSIGW \nCONVECTIVE SIGMET 11W\nVALID UNTIL 0355Z\nWY\nFROM 60NNW BOY-50E CZI-20NE LAR-30N OCS-60NNW BOY\nAREA TS MOV FROM 24020KT. TOPS TO FL450.\n\nOUTLOOK VALID 140355-140755\nFROM 30E HUH-ISN-PUB-70SSW DMN-50SSW TUS-40S BTY-EHF-30ESE\nRBL-30E HUH\nWST ISSUANCES POSS. REFER TO MOST RECENT ACUS01 KWNS FROM STORM\nPREDICTION CENTER FOR SYNOPSIS AND METEOROLOGICAL DETAILS.\n\nBACKUP OF AWC DOMESTIC G-AIRMETS AND SIGMETS BY THE AIR FORCE\n15TH OWS /SCOTT AFB/ WILL BE FM 15Z TO 21Z THURSDAY AUGUST 13.\nAIR FORCE 15TH OWS COORDINATION NUMBER IS 618-256-1394.",
                "validTimeTo": [
                    "2026-08-14T03:55"
                ]
            }
        },
        {
            "type": "Feature",
            "geometry": {
                "type": "Polygon",
                "coordinates": [
                    [
                        [
                            -102.18,
                            32.02
                        ],
                        [
                            -102.006,
                            30.946
                        ],
                        [
                            -103.438,
                            29.22
                        ],
                        [
                            -104.317,
                            29.528
                        ],
                        [
                            -103.24,
                            31.87
                        ],
                        [
                            -102.18,
                            32.02
                        ]
                    ]
                ]
            },
            "properties": {
                "airSigmetId": null,
                "airportIcao": "KKCI",
                "airSigmetType": "SIGMET",
                "hazard": "CONVECTIVE",
                "severity": 5,
                "altitudeLow1": null,
                "altitudeLow2": null,
                "altitudeHi1": 45000,
                "altitudeHi2": 60000,
                "movementDir": 220,
                "movementSpd": 10,
                "rawAirSigmet": "WSUS32 KKCI 140155\nSIGC \nCONVECTIVE SIGMET 11C\nVALID UNTIL 0355Z\nTX\nFROM MAF-50E FST-70SSE MRF-50SSW MRF-INK-MAF\nAREA SEV TS MOV FROM 22010KT. TOPS ABV FL450.\nHAIL TO 1 IN...WIND GUSTS TO 50KT POSS.\n\nOUTLOOK VALID 140355-140755\nFROM GRB-JOT-MCI-DLF-90S MRF-ELP-DMN-PUB-30WNW BFF-GRB\nWST ISSUANCES EXPD. REFER TO MOST RECENT ACUS01 KWNS FROM STORM\nPREDICTION CENTER FOR SYNOPSIS AND METEOROLOGICAL DETAILS.\n\nBACKUP OF AWC DOMESTIC G-AIRMETS AND SIGMETS BY THE AIR FORCE\n15TH OWS /SCOTT AFB/ WILL BE FM 15Z TO 21Z THURSDAY AUGUST 13.\nAIR FORCE 15TH OWS COORDINATION NUMBER IS 618-256-1394.",
                "validTimeTo": [
                    "2026-08-14T03:55"
                ]
            }
        },
        {
            "type": "Feature",
            "geometry": {
                "type": "Polygon",
                "coordinates": [
                    [
                        [
                            -103.135,
                            42.504
                        ],
                        [
                            -100.484,
                            38.385
                        ],
                        [
                            -102.831,
                            37.013
                        ],
                        [
                            -106.142,
                            38.847
                        ],
                        [
                            -105.72,
                            41.33
                        ],
                        [
                            -103.135,
                            42.504
                        ]
                    ]
                ]
            },
            "properties": {
                "airSigmetId": null,
                "airportIcao": "KKCI",
                "airSigmetType": "SIGMET",
                "hazard": "CONVECTIVE",
                "severity": 5,
                "altitudeLow1": null,
                "altitudeLow2": null,
                "altitudeHi1": 45000,
                "altitudeHi2": 60000,
                "movementDir": 240,
                "movementSpd": 20,
                "rawAirSigmet": "WSUS32 KKCI 140155\nSIGC \nCONVECTIVE SIGMET 12C\nVALID UNTIL 0355Z\nKS NE CO WY\nFROM 40NNE BFF-30NNE GCK-40ESE TBE-50SE DBL-LAR-40NNE BFF\nAREA SEV TS MOV FROM 24020KT. TOPS ABV FL450.\nHAIL TO 1 IN...WIND GUSTS TO 50KT POSS.\n\nOUTLOOK VALID 140355-140755\nFROM GRB-JOT-MCI-DLF-90S MRF-ELP-DMN-PUB-30WNW BFF-GRB\nWST ISSUANCES EXPD. REFER TO MOST RECENT ACUS01 KWNS FROM STORM\nPREDICTION CENTER FOR SYNOPSIS AND METEOROLOGICAL DETAILS.\n\nBACKUP OF AWC DOMESTIC G-AIRMETS AND SIGMETS BY THE AIR FORCE\n15TH OWS /SCOTT AFB/ WILL BE FM 15Z TO 21Z THURSDAY AUGUST 13.\nAIR FORCE 15TH OWS COORDINATION NUMBER IS 618-256-1394.",
                "validTimeTo": [
                    "2026-08-14T03:55"
                ]
            }
        },
        {
            "type": "Feature",
            "geometry": {
                "type": "Polygon",
                "coordinates": [
                    [
                        [
                            -111.697,
                            47.914
                        ],
                        [
                            -110.305,
                            45.798
                        ],
                        [
                            -121.411,
                            42.486
                        ],
                        [
                            -122.228,
                            44.246
                        ],
                        [
                            -111.697,
                            47.914
                        ]
                    ]
                ]
            },
            "properties": {
                "airSigmetId": null,
                "airportIcao": "KKCI",
                "airSigmetType": "SIGMET",
                "hazard": "CONVECTIVE",
                "severity": 5,
                "altitudeLow1": null,
                "altitudeLow2": null,
                "altitudeHi1": 39000,
                "altitudeHi2": 39000,
                "movementDir": 240,
                "movementSpd": 20,
                "rawAirSigmet": "WSUS33 KKCI 140155\nSIGW \nCONVECTIVE SIGMET 12W\nVALID UNTIL 0355Z\nMT ID OR WA\nFROM 30NNW GTF-70W BIL-40W LKV-40W DSD-30NNW GTF\nAREA TS MOV FROM 24020KT. TOPS TO FL390.\n\nOUTLOOK VALID 140355-140755\nFROM 30E HUH-ISN-PUB-70SSW DMN-50SSW TUS-40S BTY-EHF-30ESE\nRBL-30E HUH\nWST ISSUANCES POSS. REFER TO MOST RECENT ACUS01 KWNS FROM STORM\nPREDICTION CENTER FOR SYNOPSIS AND METEOROLOGICAL DETAILS.\n\nBACKUP OF AWC DOMESTIC G-AIRMETS AND SIGMETS BY THE AIR FORCE\n15TH OWS /SCOTT AFB/ WILL BE FM 15Z TO 21Z THURSDAY AUGUST 13.\nAIR FORCE 15TH OWS COORDINATION NUMBER IS 618-256-1394.",
                "validTimeTo": [
                    "2026-08-14T03:55"
                ]
            }
        },
        {
            "type": "Feature",
            "geometry": {
                "type": "Polygon",
                "coordinates": [
                    [
                        [
                            -105.86,
                            32.425
                        ],
                        [
                            -105.651,
                            32.351
                        ],
                        [
                            -105.565,
                            32.175
                        ],
                        [
                            -105.652,
                            31.998
                        ],
                        [
                            -105.86,
                            31.925
                        ],
                        [
                            -106.068,
                            31.998
                        ],
                        [
                            -106.155,
                            32.175
                        ],
                        [
                            -106.069,
                            32.351
                        ],
                        [
                            -105.86,
                            32.425
                        ]
                    ]
                ]
            },
            "properties": {
                "airSigmetId": null,
                "airportIcao": "KKCI",
                "airSigmetType": "SIGMET",
                "hazard": "CONVECTIVE",
                "severity": 5,
                "altitudeLow1": null,
                "altitudeLow2": null,
                "altitudeHi1": 44000,
                "altitudeHi2": 44000,
                "movementDir": null,
                "movementSpd": null,
                "rawAirSigmet": "WSUS33 KKCI 140155\nSIGW \nCONVECTIVE SIGMET 13W\nVALID UNTIL 0355Z\nTX NM\n30NE ELP\nISOL TS D30 MOV LTL. TOPS TO FL440.\n\nOUTLOOK VALID 140355-140755\nFROM 30E HUH-ISN-PUB-70SSW DMN-50SSW TUS-40S BTY-EHF-30ESE\nRBL-30E HUH\nWST ISSUANCES POSS. REFER TO MOST RECENT ACUS01 KWNS FROM STORM\nPREDICTION CENTER FOR SYNOPSIS AND METEOROLOGICAL DETAILS.\n\nBACKUP OF AWC DOMESTIC G-AIRMETS AND SIGMETS BY THE AIR FORCE\n15TH OWS /SCOTT AFB/ WILL BE FM 15Z TO 21Z THURSDAY AUGUST 13.\nAIR FORCE 15TH OWS COORDINATION NUMBER IS 618-256-1394.",
                "validTimeTo": [
                    "2026-08-14T03:55"
                ]
            }
        },
        {
            "type": "Feature",
            "geometry": {
                "type": "Polygon",
                "coordinates": [
                    [
                        [
                            -66.915,
                            42.194
                        ],
                        [
                            -67.011,
                            38.89
                        ],
                        [
                            -70.631,
                            37.679
                        ],
                        [
                            -71.497,
                            39.382
                        ],
                        [
                            -66.915,
                            42.194
                        ]
                    ]
                ]
            },
            "properties": {
                "airSigmetId": null,
                "airportIcao": "KBOS",
                "airSigmetType": "SIGMET",
                "hazard": "TURB",
                "severity": 5,
                "altitudeLow1": 32000,
                "altitudeLow2": null,
                "altitudeHi1": null,
                "altitudeHi2": 42000,
                "movementDir": null,
                "movementSpd": null,
                "rawAirSigmet": "WSUS01 KKCI 140030\nBOSN WS 140030\nSIGMET NOVEMBER 2 VALID UNTIL 140430\nSIGMET \nMA RI NY CSTL WTRS\nFROM 150ENE ACK TO 200SE ACK TO 210SSE HTO TO 100SSE HTO TO\n150ENE ACK\nOCNL SEV TURB BTN FL320 AND FL420. DUE TO WNDSHR ASSOCD WITH\nJTST. RPTD BY ACFT. REFER INTL SIGMET ECHO SERIES. CONDS ENDG\n0430Z.",
                "validTimeTo": [
                    "2026-08-14T04:30"
                ]
            }
        }
    ],
    "metadata": {
        "creationTime": "2026-08-14T02:33"
    }
}