{
    "type": "FeatureCollection",
    "features": [
        {
            "type": "Feature",
            "geometry": {
                "type": "Polygon",
                "coordinates": [
                    [
                        [
                            -101.179,
                            37.563
                        ],
                        [
                            -99.412,
                            35.418
                        ],
                        [
                            -99.714,
                            33.899
                        ],
                        [
                            -104.413,
                            35.177
                        ],
                        [
                            -103.76,
                            37.577
                        ],
                        [
                            -101.179,
                            37.563
                        ]
                    ]
                ]
            },
            "properties": {
                "airSigmetId": null,
                "airportIcao": "KKCI",
                "airSigmetType": "SIGMET",
                "hazard": "CONVECTIVE",
                "severity": 5,
                "altitudeLow1": null,
                "altitudeLow2": null,
                "altitudeHi1": 32000,
                "altitudeHi2": 32000,
                "movementDir": 210,
                "movementSpd": 30,
                "rawAirSigmet": "WSUS32 KKCI 231555\nSIGC \nCONVECTIVE SIGMET 75C\nVALID UNTIL 1755Z\nTX OK KS CO NM\nFROM 30SW GCK-60SSE MMB-40SE CDS-40W TCC-20NNW TBE-30SW GCK\nAREA TS MOV FROM 21030KT. TOPS TO FL320.\n\nOUTLOOK VALID 231755-232155\nAREA 1...FROM CHE-30ENE LAA-TXO-FST-30WSW MRF-50SW ELP-ABQ-CHE\nWST ISSUANCES POSS. REFER TO MOST RECENT ACUS01 KWNS FROM STORM\nPREDICTION CENTER FOR SYNOPSIS AND METEOROLOGICAL DETAILS.\n\nAREA 2...FROM 60WNW DPR-ABR-40WSW RWF-40NNW OVR-50NW PWE-40SSW\nOBH-50WNW OBH-50NNW ANW-40SSW RAP-50W RAP-60WNW DPR\nWST ISSUANCES POSS. REFER TO MOST RECENT ACUS01 KWNS FROM STORM\nPREDICTION CENTER FOR SYNOPSIS AND METEOROLOGICAL DETAILS.\n\nAREA 3...FROM 50NNW GGW-50NNW MOT-30NNW BIS-SHR-50NNW GGW\nWST ISSUANCES POSS. REFER TO MOST RECENT ACUS01 KWNS FROM STORM\nPREDICTION CENTER FOR SYNOPSIS AND METEOROLOGICAL DETAILS.",
                "validTimeTo": [
                    "2026-09-23T17:55"
                ]
            }
        },
        {
            "type": "Feature",
            "geometry": {
                "type": "Polygon",
                "coordinates": [
                    [
                        [
                            -105.451,
                            35.045
                        ],
                        [
                            -103.883,
                            33.592
                        ],
                        [
                            -104.999,
                            32.568
                        ],
                        [
                            -106.82,
                            34.205
                        ],
                        [
                            -105.451,
                            35.045
                        ]
                    ]
                ]
            },
            "properties": {
                "airSigmetId": null,
                "airportIcao": "KKCI",
                "airSigmetType": "SIGMET",
                "hazard": "CONVECTIVE",
                "severity": 5,
                "altitudeLow1": null,
                "altitudeLow2": null,
                "altitudeHi1": 28000,
                "altitudeHi2": 28000,
                "movementDir": 170,
                "movementSpd": 30,
                "rawAirSigmet": "WSUS32 KKCI 231555\nSIGC \nCONVECTIVE SIGMET 76C\nVALID UNTIL 1755Z\nNM\nFROM 40SSW FTI-40ENE CME-50SSW CME-50S ABQ-40SSW FTI\nAREA TS MOV FROM 17030KT. TOPS TO FL280.\n\nOUTLOOK VALID 231755-232155\nAREA 1...FROM CHE-30ENE LAA-TXO-FST-30WSW MRF-50SW ELP-ABQ-CHE\nWST ISSUANCES POSS. REFER TO MOST RECENT ACUS01 KWNS FROM STORM\nPREDICTION CENTER FOR SYNOPSIS AND METEOROLOGICAL DETAILS.\n\nAREA 2...FROM 60WNW DPR-ABR-40WSW RWF-40NNW OVR-50NW PWE-40SSW\nOBH-50WNW OBH-50NNW ANW-40SSW RAP-50W RAP-60WNW DPR\nWST ISSUANCES POSS. REFER TO MOST RECENT ACUS01 KWNS FROM STORM\nPREDICTION CENTER FOR SYNOPSIS AND METEOROLOGICAL DETAILS.\n\nAREA 3...FROM 50NNW GGW-50NNW MOT-30NNW BIS-SHR-50NNW GGW\nWST ISSUANCES POSS. REFER TO MOST RECENT ACUS01 KWNS FROM STORM\nPREDICTION CENTER FOR SYNOPSIS AND METEOROLOGICAL DETAILS.",
                "validTimeTo": [
                    "2026-09-23T17:55"
                ]
            }
        },
        {
            "type": "Feature",
            "geometry": {
                "type": "Polygon",
                "coordinates": [
                    [
                        [
                            -103.143,
                            48.951
                        ],
                        [
                            -103.115,
                            47.095
                        ],
                        [
                            -108.457,
                            45.689
                        ],
                        [
                            -109.16,
                            46.922
                        ],
                        [
                            -103.143,
                            48.951
                        ]
                    ]
                ]
            },
            "properties": {
                "airSigmetId": null,
                "airportIcao": "KKCI",
                "airSigmetType": "SIGMET",
                "hazard": "CONVECTIVE",
                "severity": 5,
                "altitudeLow1": null,
                "altitudeLow2": null,
                "altitudeHi1": 34000,
                "altitudeHi2": 34000,
                "movementDir": 200,
                "movementSpd": 30,
                "rawAirSigmet": "WSUS33 KKCI 231555\nSIGW \nCONVECTIVE SIGMET 47W\nVALID UNTIL 1755Z\nND MT\nFROM 50NNE ISN-20NW DIK-10SE BIL-20ESE LWT-50NNE ISN\nAREA TS MOV FROM 20030KT. TOPS TO FL340.\n\nOUTLOOK VALID 231755-232155\nAREA 1...FROM CHE-50SW ELP-60SSW SSO-80SW SJN-70ENE TBC-30S\nJNC-CHE\nWST ISSUANCES POSS. REFER TO MOST RECENT ACUS01 KWNS FROM STORM\nPREDICTION CENTER FOR SYNOPSIS AND METEOROLOGICAL DETAILS.\n\nAREA 2...FROM GGW-SHR-60NNW BOY-LWT-GGW\nWST ISSUANCES POSS. REFER TO MOST RECENT ACUS01 KWNS FROM STORM\nPREDICTION CENTER FOR SYNOPSIS AND METEOROLOGICAL DETAILS.",
                "validTimeTo": [
                    "2026-09-23T17:55"
                ]
            }
        },
        {
            "type": "Feature",
            "geometry": {
                "type": "Polygon",
                "coordinates": [
                    [
                        [
                            -109.988,
                            32.522
                        ],
                        [
                            -108.328,
                            32.532
                        ],
                        [
                            -108.292,
                            31.441
                        ],
                        [
                            -110.094,
                            31.392
                        ],
                        [
                            -109.988,
                            32.522
                        ]
                    ]
                ]
            },
            "properties": {
                "airSigmetId": null,
                "airportIcao": "KKCI",
                "airSigmetType": "SIGMET",
                "hazard": "CONVECTIVE",
                "severity": 5,
                "altitudeLow1": null,
                "altitudeLow2": null,
                "altitudeHi1": 30000,
                "altitudeHi2": 30000,
                "movementDir": 190,
                "movementSpd": 15,
                "rawAirSigmet": "WSUS33 KKCI 231555\nSIGW \nCONVECTIVE SIGMET 48W\nVALID UNTIL 1755Z\nNM AZ\nFROM 40WNW SSO-40WNW DMN-70SE SSO-60SE TUS-40WNW SSO\nAREA TS MOV FROM 19015KT. TOPS TO FL300.\n\nOUTLOOK VALID 231755-232155\nAREA 1...FROM CHE-50SW ELP-60SSW SSO-80SW SJN-70ENE TBC-30S\nJNC-CHE\nWST ISSUANCES POSS. REFER TO MOST RECENT ACUS01 KWNS FROM STORM\nPREDICTION CENTER FOR SYNOPSIS AND METEOROLOGICAL DETAILS.\n\nAREA 2...FROM GGW-SHR-60NNW BOY-LWT-GGW\nWST ISSUANCES POSS. REFER TO MOST RECENT ACUS01 KWNS FROM STORM\nPREDICTION CENTER FOR SYNOPSIS AND METEOROLOGICAL DETAILS.",
                "validTimeTo": [
                    "2026-09-23T17:55"
                ]
            }
        },
        {
            "type": "Feature",
            "geometry": {
                "type": "Polygon",
                "coordinates": [
                    [
                        [
                            -78.783,
                            26.674
                        ],
                        [
                            -78.497,
                            24.144
                        ],
                        [
                            -80.79,
                            24.205
                        ],
                        [
                            -81.281,
                            25.059
                        ],
                        [
                            -78.783,
                            26.674
                        ]
                    ]
                ]
            },
            "properties": {
                "airSigmetId": null,
                "airportIcao": "KKCI",
                "airSigmetType": "SIGMET",
                "hazard": "CONVECTIVE",
                "severity": 5,
                "altitudeLow1": null,
                "altitudeLow2": null,
                "altitudeHi1": 41000,
                "altitudeHi2": 41000,
                "movementDir": 160,
                "movementSpd": 10,
                "rawAirSigmet": "WSUS31 KKCI 231555\nSIGE \nCONVECTIVE SIGMET 04E\nVALID UNTIL 1755Z\nFL AND CSTL WTRS\nFROM 70E PBI-140SE MIA-60ESE EYW-40NE EYW-70E PBI\nAREA EMBD TS MOV FROM 16010KT. TOPS TO FL410.\nREFER INTL SIGMET JULIETT SERIES.\n\nOUTLOOK VALID 231755-232155\nAREA 1...FROM 50E ORF-190ESE ECG-140SSE ILM-170E PBI-70E\nPBI-130SSE MIA-80WSW EYW-120W PIE-60N CTY-40E SAV-ILM-50E ORF\nWST ISSUANCES EXPD. REFER TO MOST RECENT ACUS01 KWNS FROM STORM\nPREDICTION CENTER FOR SYNOPSIS AND METEOROLOGICAL DETAILS.\n\nAREA 2...FROM 30W ROD-40WSW AIR-30NE BKW-SPA-40ENE ATL-40ESE\nMSL-30E BWG-30W ROD\nWST ISSUANCES EXPD. REFER TO MOST RECENT ACUS01 KWNS FROM STORM\nPREDICTION CENTER FOR SYNOPSIS AND METEOROLOGICAL DETAILS.",
                "validTimeTo": [
                    "2026-09-23T17:55"
                ]
            }
        },
        {
            "type": "Feature",
            "geometry": {
                "type": "Polygon",
                "coordinates": [
                    [
                        [
                            -83.584,
                            29.406
                        ],
                        [
                            -81.589,
                            24.125
                        ],
                        [
                            -83.145,
                            24.075
                        ],
                        [
                            -85.688,
                            27.877
                        ],
                        [
                            -83.584,
                            29.406
                        ]
                    ]
                ]
            },
            "properties": {
                "airSigmetId": null,
                "airportIcao": "KKCI",
                "airSigmetType": "SIGMET",
                "hazard": "CONVECTIVE",
                "severity": 5,
                "altitudeLow1": null,
                "altitudeLow2": null,
                "altitudeHi1": 45000,
                "altitudeHi2": 60000,
                "movementDir": null,
                "movementSpd": null,
                "rawAirSigmet": "WSUS31 KKCI 231555\nSIGE \nCONVECTIVE SIGMET 05E\nVALID UNTIL 1755Z\nFL AND CSTL WTRS\nFROM 30WSW CTY-30SSE EYW-80WSW EYW-160W PIE-30WSW CTY\nAREA TS MOV LTL. TOPS ABV FL450.\n\nOUTLOOK VALID 231755-232155\nAREA 1...FROM 50E ORF-190ESE ECG-140SSE ILM-170E PBI-70E\nPBI-130SSE MIA-80WSW EYW-120W PIE-60N CTY-40E SAV-ILM-50E ORF\nWST ISSUANCES EXPD. REFER TO MOST RECENT ACUS01 KWNS FROM STORM\nPREDICTION CENTER FOR SYNOPSIS AND METEOROLOGICAL DETAILS.\n\nAREA 2...FROM 30W ROD-40WSW AIR-30NE BKW-SPA-40ENE ATL-40ESE\nMSL-30E BWG-30W ROD\nWST ISSUANCES EXPD. REFER TO MOST RECENT ACUS01 KWNS FROM STORM\nPREDICTION CENTER FOR SYNOPSIS AND METEOROLOGICAL DETAILS.",
                "validTimeTo": [
                    "2026-09-23T17:55"
                ]
            }
        },
        {
            "type": "Feature",
            "geometry": {
                "type": "Polygon",
                "coordinates": [
                    [
                        [
                            -75.144,
                            36.246
                        ],
                        [
                            -73.084,
                            36.21
                        ],
                        [
                            -76.743,
                            32.038
                        ],
                        [
                            -77.87,
                            33.02
                        ],
                        [
                            -75.144,
                            36.246
                        ]
                    ]
                ]
            },
            "properties": {
                "airSigmetId": null,
                "airportIcao": "KKCI",
                "airSigmetType": "SIGMET",
                "hazard": "CONVECTIVE",
                "severity": 5,
                "altitudeLow1": null,
                "altitudeLow2": null,
                "altitudeHi1": 36000,
                "altitudeHi2": 36000,
                "movementDir": 20,
                "movementSpd": 5,
                "rawAirSigmet": "WSUS31 KKCI 231555\nSIGE \nCONVECTIVE SIGMET 06E\nVALID UNTIL 1755Z\nNC AND NC SC CSTL WTRS\nFROM 50E ECG-150E ECG-150SSE ILM-80S ILM-50E ECG\nAREA TS MOV FROM 02005KT. TOPS TO FL360.\n\nOUTLOOK VALID 231755-232155\nAREA 1...FROM 50E ORF-190ESE ECG-140SSE ILM-170E PBI-70E\nPBI-130SSE MIA-80WSW EYW-120W PIE-60N CTY-40E SAV-ILM-50E ORF\nWST ISSUANCES EXPD. REFER TO MOST RECENT ACUS01 KWNS FROM STORM\nPREDICTION CENTER FOR SYNOPSIS AND METEOROLOGICAL DETAILS.\n\nAREA 2...FROM 30W ROD-40WSW AIR-30NE BKW-SPA-40ENE ATL-40ESE\nMSL-30E BWG-30W ROD\nWST ISSUANCES EXPD. REFER TO MOST RECENT ACUS01 KWNS FROM STORM\nPREDICTION CENTER FOR SYNOPSIS AND METEOROLOGICAL DETAILS.",
                "validTimeTo": [
                    "2026-09-23T17:55"
                ]
            }
        },
        {
            "type": "Feature",
            "geometry": {
                "type": "Polygon",
                "coordinates": [
                    [
                        [
                            -76.627,
                            29.025
                        ],
                        [
                            -76.92,
                            27.634
                        ],
                        [
                            -79.296,
                            27.383
                        ],
                        [
                            -82.111,
                            27.909
                        ],
                        [
                            -79.586,
                            29.291
                        ],
                        [
                            -76.627,
                            29.025
                        ]
                    ]
                ]
            },
            "properties": {
                "airSigmetId": null,
                "airportIcao": "KKCI",
                "airSigmetType": "SIGMET",
                "hazard": "CONVECTIVE",
                "severity": 5,
                "altitudeLow1": null,
                "altitudeLow2": null,
                "altitudeHi1": 45000,
                "altitudeHi2": 60000,
                "movementDir": null,
                "movementSpd": null,
                "rawAirSigmet": "WSUS31 KKCI 231555\nSIGE \nCONVECTIVE SIGMET 07E\nVALID UNTIL 1755Z\nFL AND CSTL WTRS\nFROM 220ENE TRV-190E TRV-60NE PBI-30E PIE-80E OMN-220ENE TRV\nAREA TS MOV LTL. TOPS ABV FL450.\nREFER INTL SIGMET JULIETT SERIES.\n\nOUTLOOK VALID 231755-232155\nAREA 1...FROM 50E ORF-190ESE ECG-140SSE ILM-170E PBI-70E\nPBI-130SSE MIA-80WSW EYW-120W PIE-60N CTY-40E SAV-ILM-50E ORF\nWST ISSUANCES EXPD. REFER TO MOST RECENT ACUS01 KWNS FROM STORM\nPREDICTION CENTER FOR SYNOPSIS AND METEOROLOGICAL DETAILS.\n\nAREA 2...FROM 30W ROD-40WSW AIR-30NE BKW-SPA-40ENE ATL-40ESE\nMSL-30E BWG-30W ROD\nWST ISSUANCES EXPD. REFER TO MOST RECENT ACUS01 KWNS FROM STORM\nPREDICTION CENTER FOR SYNOPSIS AND METEOROLOGICAL DETAILS.",
                "validTimeTo": [
                    "2026-09-23T17:55"
                ]
            }
        },
        {
            "type": "Feature",
            "geometry": {
                "type": "Polygon",
                "coordinates": [
                    [
                        [
                            -77.87,
                            33.02
                        ],
                        [
                            -76.818,
                            32.196
                        ],
                        [
                            -79.694,
                            29.801
                        ],
                        [
                            -81.652,
                            29.769
                        ],
                        [
                            -81.51,
                            31.175
                        ],
                        [
                            -77.87,
                            33.02
                        ]
                    ]
                ]
            },
            "properties": {
                "airSigmetId": null,
                "airportIcao": "KKCI",
                "airSigmetType": "SIGMET",
                "hazard": "CONVECTIVE",
                "severity": 5,
                "altitudeLow1": null,
                "altitudeLow2": null,
                "altitudeHi1": 35000,
                "altitudeHi2": 35000,
                "movementDir": 240,
                "movementSpd": 5,
                "rawAirSigmet": "WSUS31 KKCI 231555\nSIGE \nCONVECTIVE SIGMET 08E\nVALID UNTIL 1755Z\nFL GA AND NC FL SC GA CSTL WTRS\nFROM 80S ILM-140SSE ILM-80ENE OMN-40NW OMN-50N CRG-80S ILM\nAREA TS MOV FROM 24005KT. TOPS TO FL350.\n\nOUTLOOK VALID 231755-232155\nAREA 1...FROM 50E ORF-190ESE ECG-140SSE ILM-170E PBI-70E\nPBI-130SSE MIA-80WSW EYW-120W PIE-60N CTY-40E SAV-ILM-50E ORF\nWST ISSUANCES EXPD. REFER TO MOST RECENT ACUS01 KWNS FROM STORM\nPREDICTION CENTER FOR SYNOPSIS AND METEOROLOGICAL DETAILS.\n\nAREA 2...FROM 30W ROD-40WSW AIR-30NE BKW-SPA-40ENE ATL-40ESE\nMSL-30E BWG-30W ROD\nWST ISSUANCES EXPD. REFER TO MOST RECENT ACUS01 KWNS FROM STORM\nPREDICTION CENTER FOR SYNOPSIS AND METEOROLOGICAL DETAILS.",
                "validTimeTo": [
                    "2026-09-23T17:55"
                ]
            }
        },
        {
            "type": "Feature",
            "geometry": {
                "type": "Polygon",
                "coordinates": [
                    [
                        [
                            -80.82,
                            40.523
                        ],
                        [
                            -79.308,
                            39.172
                        ],
                        [
                            -82.597,
                            37.771
                        ],
                        [
                            -83.521,
                            38.632
                        ],
                        [
                            -80.82,
                            40.523
                        ]
                    ]
                ]
            },
            "properties": {
                "airSigmetId": null,
                "airportIcao": "KKCI",
                "airSigmetType": "SIGMET",
                "hazard": "CONVECTIVE",
                "severity": 5,
                "altitudeLow1": null,
                "altitudeLow2": null,
                "altitudeHi1": 32000,
                "altitudeHi2": 32000,
                "movementDir": 240,
                "movementSpd": 5,
                "rawAirSigmet": "WSUS31 KKCI 231555\nSIGE \nCONVECTIVE SIGMET 09E\nVALID UNTIL 1755Z\nPA MD WV OH KY\nFROM 30N AIR-40ENE EKN-70W BKW-60ESE CVG-30N AIR\nAREA TS MOV FROM 24005KT. TOPS TO FL320.\n\nOUTLOOK VALID 231755-232155\nAREA 1...FROM 50E ORF-190ESE ECG-140SSE ILM-170E PBI-70E\nPBI-130SSE MIA-80WSW EYW-120W PIE-60N CTY-40E SAV-ILM-50E ORF\nWST ISSUANCES EXPD. REFER TO MOST RECENT ACUS01 KWNS FROM STORM\nPREDICTION CENTER FOR SYNOPSIS AND METEOROLOGICAL DETAILS.\n\nAREA 2...FROM 30W ROD-40WSW AIR-30NE BKW-SPA-40ENE ATL-40ESE\nMSL-30E BWG-30W ROD\nWST ISSUANCES EXPD. REFER TO MOST RECENT ACUS01 KWNS FROM STORM\nPREDICTION CENTER FOR SYNOPSIS AND METEOROLOGICAL DETAILS.",
                "validTimeTo": [
                    "2026-09-23T17:55"
                ]
            }
        },
        {
            "type": "Feature",
            "geometry": {
                "type": "Polygon",
                "coordinates": [
                    [
                        [
                            -82.293,
                            41.419
                        ],
                        [
                            -81.429,
                            40.647
                        ],
                        [
                            -82.896,
                            39.915
                        ],
                        [
                            -83.259,
                            40.878
                        ],
                        [
                            -82.293,
                            41.419
                        ]
                    ]
                ]
            },
            "properties": {
                "airSigmetId": null,
                "airportIcao": "KKCI",
                "airSigmetType": "SIGMET",
                "hazard": "CONVECTIVE",
                "severity": 5,
                "altitudeLow1": null,
                "altitudeLow2": null,
                "altitudeHi1": 35000,
                "altitudeHi2": 35000,
                "movementDir": 160,
                "movementSpd": 5,
                "rawAirSigmet": "WSUS31 KKCI 231555\nSIGE \nCONVECTIVE SIGMET 10E\nVALID UNTIL 1755Z\nOH\nFROM 20W CLE-50SSE CLE-20SW APE-50NE ROD-20W CLE\nAREA TS MOV FROM 16005KT. TOPS TO FL350.\n\nOUTLOOK VALID 231755-232155\nAREA 1...FROM 50E ORF-190ESE ECG-140SSE ILM-170E PBI-70E\nPBI-130SSE MIA-80WSW EYW-120W PIE-60N CTY-40E SAV-ILM-50E ORF\nWST ISSUANCES EXPD. REFER TO MOST RECENT ACUS01 KWNS FROM STORM\nPREDICTION CENTER FOR SYNOPSIS AND METEOROLOGICAL DETAILS.\n\nAREA 2...FROM 30W ROD-40WSW AIR-30NE BKW-SPA-40ENE ATL-40ESE\nMSL-30E BWG-30W ROD\nWST ISSUANCES EXPD. REFER TO MOST RECENT ACUS01 KWNS FROM STORM\nPREDICTION CENTER FOR SYNOPSIS AND METEOROLOGICAL DETAILS.",
                "validTimeTo": [
                    "2026-09-23T17:55"
                ]
            }
        },
        {
            "type": "Feature",
            "geometry": {
                "type": "Polygon",
                "coordinates": [
                    [
                        [
                            -85.166,
                            37.025
                        ],
                        [
                            -82.755,
                            36.438
                        ],
                        [
                            -82.657,
                            35.619
                        ],
                        [
                            -85.15,
                            35.795
                        ],
                        [
                            -85.166,
                            37.025
                        ]
                    ]
                ]
            },
            "properties": {
                "airSigmetId": null,
                "airportIcao": "KKCI",
                "airSigmetType": "SIGMET",
                "hazard": "CONVECTIVE",
                "severity": 5,
                "altitudeLow1": null,
                "altitudeLow2": null,
                "altitudeHi1": 40000,
                "altitudeHi2": 40000,
                "movementDir": 260,
                "movementSpd": 10,
                "rawAirSigmet": "WSUS31 KKCI 231555\nSIGE \nCONVECTIVE SIGMET 11E\nVALID UNTIL 1755Z\nVA NC TN KY\nFROM 50W LOZ-30W HMV-50NW SPA-50N GQO-50W LOZ\nAREA TS MOV FROM 26010KT. TOPS TO FL400.\n\nOUTLOOK VALID 231755-232155\nAREA 1...FROM 50E ORF-190ESE ECG-140SSE ILM-170E PBI-70E\nPBI-130SSE MIA-80WSW EYW-120W PIE-60N CTY-40E SAV-ILM-50E ORF\nWST ISSUANCES EXPD. REFER TO MOST RECENT ACUS01 KWNS FROM STORM\nPREDICTION CENTER FOR SYNOPSIS AND METEOROLOGICAL DETAILS.\n\nAREA 2...FROM 30W ROD-40WSW AIR-30NE BKW-SPA-40ENE ATL-40ESE\nMSL-30E BWG-30W ROD\nWST ISSUANCES EXPD. REFER TO MOST RECENT ACUS01 KWNS FROM STORM\nPREDICTION CENTER FOR SYNOPSIS AND METEOROLOGICAL DETAILS.",
                "validTimeTo": [
                    "2026-09-23T17:55"
                ]
            }
        }
    ],
    "metadata": {
        "creationTime": "2026-09-23T16:43"
    }
}