{
    "type": "FeatureCollection",
    "features": [
        {
            "type": "Feature",
            "geometry": {
                "type": "Polygon",
                "coordinates": [
                    [
                        [
                            -96.854,
                            31.304
                        ],
                        [
                            -95.645,
                            30.574
                        ],
                        [
                            -95.432,
                            28.437
                        ],
                        [
                            -96.844,
                            28.289
                        ],
                        [
                            -98.46,
                            29.972
                        ],
                        [
                            -96.854,
                            31.304
                        ]
                    ]
                ]
            },
            "properties": {
                "airSigmetId": null,
                "airportIcao": "KKCI",
                "airSigmetType": "SIGMET",
                "hazard": "CONVECTIVE",
                "severity": 5,
                "altitudeLow1": null,
                "altitudeLow2": null,
                "altitudeHi1": 45000,
                "altitudeHi2": 60000,
                "movementDir": null,
                "movementSpd": null,
                "rawAirSigmet": "WSUS32 KKCI 042055\nSIGC \nCONVECTIVE SIGMET 33C\nVALID UNTIL 2255Z\nTX AND CSTL WTRS\nFROM 30SE ACT-40NNW IAH-50ESE PSX-40SW PSX-20N SAT-30SE ACT\nAREA TS MOV LTL. TOPS ABV FL450.\n\nOUTLOOK VALID 042255-050255\nFROM CYS-HLC-ABI-BNA-110S CEW-130ESE LEV-PSX-BRO-LRD-DLF-70SSE\nMRF-ELP-CHE-CYS\nWST ISSUANCES EXPD. REFER TO MOST RECENT ACUS01 KWNS FROM STORM\nPREDICTION CENTER FOR SYNOPSIS AND METEOROLOGICAL DETAILS.",
                "validTimeTo": [
                    "2026-09-04T22:55"
                ]
            }
        },
        {
            "type": "Feature",
            "geometry": {
                "type": "Polygon",
                "coordinates": [
                    [
                        [
                            -90.403,
                            43.741
                        ],
                        [
                            -90.107,
                            42.935
                        ],
                        [
                            -92.699,
                            42.141
                        ],
                        [
                            -93.157,
                            42.783
                        ],
                        [
                            -91.961,
                            43.553
                        ],
                        [
                            -90.403,
                            43.741
                        ]
                    ]
                ]
            },
            "properties": {
                "airSigmetId": null,
                "airportIcao": "KKCI",
                "airSigmetType": "SIGMET",
                "hazard": "CONVECTIVE",
                "severity": 5,
                "altitudeLow1": null,
                "altitudeLow2": null,
                "altitudeHi1": 45000,
                "altitudeHi2": 60000,
                "movementDir": 270,
                "movementSpd": 30,
                "rawAirSigmet": "WSUS32 KKCI 042055\nSIGC \nCONVECTIVE SIGMET 34C\nVALID UNTIL 2255Z\nWI MN IA\nFROM 30WNW DLL-40SSW DLL-60NE DSM-20SSE MCW-30SW ODI-30WNW DLL\nAREA SEV TS MOV FROM 27030KT. TOPS ABV FL450.\nHAIL TO 1 IN...WIND GUSTS TO 50KT POSS.\n\nOUTLOOK VALID 042255-050255\nFROM CYS-HLC-ABI-BNA-110S CEW-130ESE LEV-PSX-BRO-LRD-DLF-70SSE\nMRF-ELP-CHE-CYS\nWST ISSUANCES EXPD. REFER TO MOST RECENT ACUS01 KWNS FROM STORM\nPREDICTION CENTER FOR SYNOPSIS AND METEOROLOGICAL DETAILS.",
                "validTimeTo": [
                    "2026-09-04T22:55"
                ]
            }
        },
        {
            "type": "Feature",
            "geometry": {
                "type": "Polygon",
                "coordinates": [
                    [
                        [
                            -87.048,
                            32.472
                        ],
                        [
                            -83.056,
                            31.731
                        ],
                        [
                            -82.276,
                            28.265
                        ],
                        [
                            -87.093,
                            30.474
                        ],
                        [
                            -87.048,
                            32.472
                        ]
                    ]
                ]
            },
            "properties": {
                "airSigmetId": null,
                "airportIcao": "KKCI",
                "airSigmetType": "SIGMET",
                "hazard": "CONVECTIVE",
                "severity": 5,
                "altitudeLow1": null,
                "altitudeLow2": null,
                "altitudeHi1": 45000,
                "altitudeHi2": 60000,
                "movementDir": 120,
                "movementSpd": 5,
                "rawAirSigmet": "WSUS31 KKCI 042055\nSIGE \nCONVECTIVE SIGMET 29E\nVALID UNTIL 2255Z\nFL GA AL AND FL CSTL WTRS\nFROM 40WNW MGM-30WNW AMG-30NE PIE-30SW CEW-40WNW MGM\nAREA TS MOV FROM 12005KT. TOPS ABV FL450.\n\nOUTLOOK VALID 042255-050255\nAREA 1...FROM DLH-ASP-CLE-JHW-CYN-ECG-CAE-130SE MIA-EYW-70SW\nCTY-110S CEW-BWG-HNN-IND-DBQ-DLH\nREF WW 653 654.\nWST ISSUANCES EXPD. REFER TO MOST RECENT ACUS01 KWNS FROM STORM\nPREDICTION CENTER FOR SYNOPSIS AND METEOROLOGICAL DETAILS.\n\nAREA 2...FROM 70NW PQI-30NE PQI-60SW YSJ-50NE MPV-70NW PQI\nWST ISSUANCES POSS. REFER TO MOST RECENT ACUS01 KWNS FROM STORM\nPREDICTION CENTER FOR SYNOPSIS AND METEOROLOGICAL DETAILS.",
                "validTimeTo": [
                    "2026-09-04T22:55"
                ]
            }
        },
        {
            "type": "Feature",
            "geometry": {
                "type": "Polygon",
                "coordinates": [
                    [
                        [
                            -82.16,
                            32.875
                        ],
                        [
                            -81.11,
                            31.828
                        ],
                        [
                            -79.875,
                            26.215
                        ],
                        [
                            -81.78,
                            26.027
                        ],
                        [
                            -83.056,
                            31.731
                        ],
                        [
                            -82.16,
                            32.875
                        ]
                    ]
                ]
            },
            "properties": {
                "airSigmetId": null,
                "airportIcao": "KKCI",
                "airSigmetType": "SIGMET",
                "hazard": "CONVECTIVE",
                "severity": 5,
                "altitudeLow1": null,
                "altitudeLow2": null,
                "altitudeHi1": 45000,
                "altitudeHi2": 60000,
                "movementDir": 150,
                "movementSpd": 5,
                "rawAirSigmet": "WSUS31 KKCI 042055\nSIGE \nCONVECTIVE SIGMET 30E\nVALID UNTIL 2255Z\nFL GA AND CSTL WTRS\nFROM 50S IRQ-20S SAV-30SSE PBI-30S RSW-30WNW AMG-50S IRQ\nAREA TS MOV FROM 15005KT. TOPS ABV FL450.\n\nOUTLOOK VALID 042255-050255\nAREA 1...FROM DLH-ASP-CLE-JHW-CYN-ECG-CAE-130SE MIA-EYW-70SW\nCTY-110S CEW-BWG-HNN-IND-DBQ-DLH\nREF WW 653 654.\nWST ISSUANCES EXPD. REFER TO MOST RECENT ACUS01 KWNS FROM STORM\nPREDICTION CENTER FOR SYNOPSIS AND METEOROLOGICAL DETAILS.\n\nAREA 2...FROM 70NW PQI-30NE PQI-60SW YSJ-50NE MPV-70NW PQI\nWST ISSUANCES POSS. REFER TO MOST RECENT ACUS01 KWNS FROM STORM\nPREDICTION CENTER FOR SYNOPSIS AND METEOROLOGICAL DETAILS.",
                "validTimeTo": [
                    "2026-09-04T22:55"
                ]
            }
        },
        {
            "type": "Feature",
            "geometry": {
                "type": "Polygon",
                "coordinates": [
                    [
                        [
                            -98.923,
                            46.34
                        ],
                        [
                            -98.394,
                            43.639
                        ],
                        [
                            -100.612,
                            43.627
                        ],
                        [
                            -101.356,
                            45.694
                        ],
                        [
                            -98.923,
                            46.34
                        ]
                    ]
                ]
            },
            "properties": {
                "airSigmetId": null,
                "airportIcao": "KKCI",
                "airSigmetType": "SIGMET",
                "hazard": "CONVECTIVE",
                "severity": 5,
                "altitudeLow1": null,
                "altitudeLow2": null,
                "altitudeHi1": 42000,
                "altitudeHi2": 42000,
                "movementDir": 240,
                "movementSpd": 30,
                "rawAirSigmet": "WSUS32 KKCI 042055\nSIGC \nCONVECTIVE SIGMET 35C\nVALID UNTIL 2255Z\nSD ND\nFROM 60NNW ABR-70W FSD-50SSW PIR-40NNE DPR-60NNW ABR\nAREA SEV TS MOV FROM 24030KT. TOPS TO FL420.\nHAIL TO 1 IN...WIND GUSTS TO 50KT POSS.\n\nOUTLOOK VALID 042255-050255\nFROM CYS-HLC-ABI-BNA-110S CEW-130ESE LEV-PSX-BRO-LRD-DLF-70SSE\nMRF-ELP-CHE-CYS\nWST ISSUANCES EXPD. REFER TO MOST RECENT ACUS01 KWNS FROM STORM\nPREDICTION CENTER FOR SYNOPSIS AND METEOROLOGICAL DETAILS.",
                "validTimeTo": [
                    "2026-09-04T22:55"
                ]
            }
        },
        {
            "type": "Feature",
            "geometry": {
                "type": "Polygon",
                "coordinates": [
                    [
                        [
                            -91.065,
                            34.293
                        ],
                        [
                            -87.048,
                            32.472
                        ],
                        [
                            -87.093,
                            30.474
                        ],
                        [
                            -92.276,
                            30.795
                        ],
                        [
                            -94.451,
                            31.805
                        ],
                        [
                            -91.065,
                            34.293
                        ]
                    ]
                ]
            },
            "properties": {
                "airSigmetId": null,
                "airportIcao": "KKCI",
                "airSigmetType": "SIGMET",
                "hazard": "CONVECTIVE",
                "severity": 5,
                "altitudeLow1": null,
                "altitudeLow2": null,
                "altitudeHi1": 45000,
                "altitudeHi2": 60000,
                "movementDir": 110,
                "movementSpd": 10,
                "rawAirSigmet": "WSUS32 KKCI 042055\nSIGC \nCONVECTIVE SIGMET 36C\nVALID UNTIL 2255Z\nFL AL MS LA AR TX\nFROM 60ESE LIT-40WNW MGM-30SW CEW-30SSE AEX-40SSE GGG-60ESE LIT\nAREA TS MOV FROM 11010KT. TOPS ABV FL450.\n\nOUTLOOK VALID 042255-050255\nFROM CYS-HLC-ABI-BNA-110S CEW-130ESE LEV-PSX-BRO-LRD-DLF-70SSE\nMRF-ELP-CHE-CYS\nWST ISSUANCES EXPD. REFER TO MOST RECENT ACUS01 KWNS FROM STORM\nPREDICTION CENTER FOR SYNOPSIS AND METEOROLOGICAL DETAILS.",
                "validTimeTo": [
                    "2026-09-04T22:55"
                ]
            }
        },
        {
            "type": "Feature",
            "geometry": {
                "type": "Polygon",
                "coordinates": [
                    [
                        [
                            -107.517,
                            36.279
                        ],
                        [
                            -106.856,
                            32.924
                        ],
                        [
                            -108.047,
                            31.358
                        ],
                        [
                            -110.92,
                            31.265
                        ],
                        [
                            -108.683,
                            36.279
                        ],
                        [
                            -107.517,
                            36.279
                        ]
                    ]
                ]
            },
            "properties": {
                "airSigmetId": null,
                "airportIcao": "KKCI",
                "airSigmetType": "SIGMET",
                "hazard": "CONVECTIVE",
                "severity": 5,
                "altitudeLow1": null,
                "altitudeLow2": null,
                "altitudeHi1": 42000,
                "altitudeHi2": 42000,
                "movementDir": 220,
                "movementSpd": 15,
                "rawAirSigmet": "WSUS33 KKCI 042055\nSIGW \nCONVECTIVE SIGMET 26W\nVALID UNTIL 2255Z\nNM AZ\nFROM 40SE RSK-30SE TCS-60SSW DMN-50S TUS-40SW RSK-40SE RSK\nAREA TS MOV FROM 22015KT. TOPS TO FL420.\n\nOUTLOOK VALID 042255-050255\nAREA 1...FROM CHE-ELP-70WSW TUS-CHE\nWST ISSUANCES EXPD. REFER TO MOST RECENT ACUS01 KWNS FROM STORM\nPREDICTION CENTER FOR SYNOPSIS AND METEOROLOGICAL DETAILS.\n\nAREA 2...FROM YDC-LKV-FOT-TOU-YDC\nWST ISSUANCES POSS. REFER TO MOST RECENT ACUS01 KWNS FROM STORM\nPREDICTION CENTER FOR SYNOPSIS AND METEOROLOGICAL DETAILS.",
                "validTimeTo": [
                    "2026-09-04T22:55"
                ]
            }
        },
        {
            "type": "Feature",
            "geometry": {
                "type": "Polygon",
                "coordinates": [
                    [
                        [
                            -79.161,
                            39.705
                        ],
                        [
                            -75.847,
                            38.964
                        ],
                        [
                            -74.882,
                            35.182
                        ],
                        [
                            -81.509,
                            35.689
                        ],
                        [
                            -83.946,
                            38.427
                        ],
                        [
                            -79.161,
                            39.705
                        ]
                    ]
                ]
            },
            "properties": {
                "airSigmetId": null,
                "airportIcao": "KKCI",
                "airSigmetType": "SIGMET",
                "hazard": "CONVECTIVE",
                "severity": 5,
                "altitudeLow1": null,
                "altitudeLow2": null,
                "altitudeHi1": 45000,
                "altitudeHi2": 60000,
                "movementDir": 290,
                "movementSpd": 20,
                "rawAirSigmet": "WSUS31 KKCI 042055\nSIGE \nCONVECTIVE SIGMET 31E\nVALID UNTIL 2255Z\nMD VA NC DC WV OH TN KY AND NC VA CSTL WTRS\nFROM 40SSW JST-40NNW SBY-90SE ECG-40NW CLT-50SE CVG-40SSW JST\nAREA SEV TS MOV FROM 29020KT. TOPS ABV FL450.\nHAIL TO 1.5 IN...WIND GUSTS TO 60KT POSS.\n\nOUTLOOK VALID 042255-050255\nAREA 1...FROM DLH-ASP-CLE-JHW-CYN-ECG-CAE-130SE MIA-EYW-70SW\nCTY-110S CEW-BWG-HNN-IND-DBQ-DLH\nREF WW 653 654.\nWST ISSUANCES EXPD. REFER TO MOST RECENT ACUS01 KWNS FROM STORM\nPREDICTION CENTER FOR SYNOPSIS AND METEOROLOGICAL DETAILS.\n\nAREA 2...FROM 70NW PQI-30NE PQI-60SW YSJ-50NE MPV-70NW PQI\nWST ISSUANCES POSS. REFER TO MOST RECENT ACUS01 KWNS FROM STORM\nPREDICTION CENTER FOR SYNOPSIS AND METEOROLOGICAL DETAILS.",
                "validTimeTo": [
                    "2026-09-04T22:55"
                ]
            }
        },
        {
            "type": "Feature",
            "geometry": {
                "type": "Polygon",
                "coordinates": [
                    [
                        [
                            -82.453,
                            25.179
                        ],
                        [
                            -81.281,
                            25.059
                        ],
                        [
                            -81.29,
                            24.397
                        ],
                        [
                            -82.531,
                            24.588
                        ],
                        [
                            -82.453,
                            25.179
                        ]
                    ]
                ]
            },
            "properties": {
                "airSigmetId": null,
                "airportIcao": "KKCI",
                "airSigmetType": "SIGMET",
                "hazard": "CONVECTIVE",
                "severity": 5,
                "altitudeLow1": null,
                "altitudeLow2": null,
                "altitudeHi1": 43000,
                "altitudeHi2": 43000,
                "movementDir": 180,
                "movementSpd": 5,
                "rawAirSigmet": "WSUS31 KKCI 042055\nSIGE \nCONVECTIVE SIGMET 32E\nVALID UNTIL 2255Z\nFL AND CSTL WTRS\nFROM 50NW EYW-40NE EYW-30ESE EYW-40W EYW-50NW EYW\nAREA TS MOV FROM 18005KT. TOPS TO FL430.\n\nOUTLOOK VALID 042255-050255\nAREA 1...FROM DLH-ASP-CLE-JHW-CYN-ECG-CAE-130SE MIA-EYW-70SW\nCTY-110S CEW-BWG-HNN-IND-DBQ-DLH\nREF WW 653 654.\nWST ISSUANCES EXPD. REFER TO MOST RECENT ACUS01 KWNS FROM STORM\nPREDICTION CENTER FOR SYNOPSIS AND METEOROLOGICAL DETAILS.\n\nAREA 2...FROM 70NW PQI-30NE PQI-60SW YSJ-50NE MPV-70NW PQI\nWST ISSUANCES POSS. REFER TO MOST RECENT ACUS01 KWNS FROM STORM\nPREDICTION CENTER FOR SYNOPSIS AND METEOROLOGICAL DETAILS.",
                "validTimeTo": [
                    "2026-09-04T22:55"
                ]
            }
        },
        {
            "type": "Feature",
            "geometry": {
                "type": "Polygon",
                "coordinates": [
                    [
                        [
                            -101.352,
                            34.169
                        ],
                        [
                            -99.718,
                            34.176
                        ],
                        [
                            -100.228,
                            29.829
                        ],
                        [
                            -101.728,
                            30.497
                        ],
                        [
                            -101.352,
                            34.169
                        ]
                    ]
                ]
            },
            "properties": {
                "airSigmetId": null,
                "airportIcao": "KKCI",
                "airSigmetType": "SIGMET",
                "hazard": "CONVECTIVE",
                "severity": 5,
                "altitudeLow1": null,
                "altitudeLow2": null,
                "altitudeHi1": 45000,
                "altitudeHi2": 60000,
                "movementDir": 40,
                "movementSpd": 5,
                "rawAirSigmet": "WSUS32 KKCI 042055\nSIGC \nCONVECTIVE SIGMET 37C\nVALID UNTIL 2255Z\nTX\nFROM 40NE LBB-30ESE CDS-40NE DLF-70ESE FST-40NE LBB\nAREA TS MOV FROM 04005KT. TOPS ABV FL450.\n\nOUTLOOK VALID 042255-050255\nFROM CYS-HLC-ABI-BNA-110S CEW-130ESE LEV-PSX-BRO-LRD-DLF-70SSE\nMRF-ELP-CHE-CYS\nWST ISSUANCES EXPD. REFER TO MOST RECENT ACUS01 KWNS FROM STORM\nPREDICTION CENTER FOR SYNOPSIS AND METEOROLOGICAL DETAILS.",
                "validTimeTo": [
                    "2026-09-04T22:55"
                ]
            }
        },
        {
            "type": "Feature",
            "geometry": {
                "type": "Polygon",
                "coordinates": [
                    [
                        [
                            -94.446,
                            30.925
                        ],
                        [
                            -88.8,
                            29.808
                        ],
                        [
                            -89.667,
                            28.258
                        ],
                        [
                            -91.167,
                            28.236
                        ],
                        [
                            -94.639,
                            30.212
                        ],
                        [
                            -94.446,
                            30.925
                        ]
                    ]
                ]
            },
            "properties": {
                "airSigmetId": null,
                "airportIcao": "KKCI",
                "airSigmetType": "SIGMET",
                "hazard": "CONVECTIVE",
                "severity": 5,
                "altitudeLow1": null,
                "altitudeLow2": null,
                "altitudeHi1": 45000,
                "altitudeHi2": 45000,
                "movementDir": null,
                "movementSpd": null,
                "rawAirSigmet": "WSUS32 KKCI 042055\nSIGC \nCONVECTIVE SIGMET 38C\nVALID UNTIL 2255Z\nLA TX AND MS LA CSTL WTRS\nFROM 20SE LFK-60SSW SJI-60SSE LEV-80SW LEV-40ENE IAH-20SE LFK\nAREA TS MOV LTL. TOPS TO FL450.\n\nOUTLOOK VALID 042255-050255\nFROM CYS-HLC-ABI-BNA-110S CEW-130ESE LEV-PSX-BRO-LRD-DLF-70SSE\nMRF-ELP-CHE-CYS\nWST ISSUANCES EXPD. REFER TO MOST RECENT ACUS01 KWNS FROM STORM\nPREDICTION CENTER FOR SYNOPSIS AND METEOROLOGICAL DETAILS.",
                "validTimeTo": [
                    "2026-09-04T22:55"
                ]
            }
        },
        {
            "type": "Feature",
            "geometry": {
                "type": "Polygon",
                "coordinates": [
                    [
                        [
                            -102.846,
                            35.432
                        ],
                        [
                            -102.694,
                            34.379
                        ],
                        [
                            -105.444,
                            32.522
                        ],
                        [
                            -106.173,
                            33.657
                        ],
                        [
                            -105.53,
                            34.888
                        ],
                        [
                            -102.846,
                            35.432
                        ]
                    ]
                ]
            },
            "properties": {
                "airSigmetId": null,
                "airportIcao": "KKCI",
                "airSigmetType": "SIGMET",
                "hazard": "CONVECTIVE",
                "severity": 5,
                "altitudeLow1": null,
                "altitudeLow2": null,
                "altitudeHi1": 45000,
                "altitudeHi2": 60000,
                "movementDir": 220,
                "movementSpd": 10,
                "rawAirSigmet": "WSUS32 KKCI 042055\nSIGC \nCONVECTIVE SIGMET 39C\nVALID UNTIL 2255Z\nTX NM\nFROM 40ENE TCC-10SE TXO-60NE ELP-60ENE TCS-50SSW FTI-40ENE TCC\nAREA TS MOV FROM 22010KT. TOPS ABV FL450.\n\nOUTLOOK VALID 042255-050255\nFROM CYS-HLC-ABI-BNA-110S CEW-130ESE LEV-PSX-BRO-LRD-DLF-70SSE\nMRF-ELP-CHE-CYS\nWST ISSUANCES EXPD. REFER TO MOST RECENT ACUS01 KWNS FROM STORM\nPREDICTION CENTER FOR SYNOPSIS AND METEOROLOGICAL DETAILS.",
                "validTimeTo": [
                    "2026-09-04T22:55"
                ]
            }
        },
        {
            "type": "Feature",
            "geometry": {
                "type": "Polygon",
                "coordinates": [
                    [
                        [
                            -105.714,
                            39.052
                        ],
                        [
                            -105.82,
                            38.015
                        ],
                        [
                            -107.04,
                            37.947
                        ],
                        [
                            -107.04,
                            38.45
                        ],
                        [
                            -105.714,
                            39.052
                        ]
                    ]
                ]
            },
            "properties": {
                "airSigmetId": null,
                "airportIcao": "KKCI",
                "airSigmetType": "SIGMET",
                "hazard": "CONVECTIVE",
                "severity": 5,
                "altitudeLow1": null,
                "altitudeLow2": null,
                "altitudeHi1": 44000,
                "altitudeHi2": 44000,
                "movementDir": 220,
                "movementSpd": 15,
                "rawAirSigmet": "WSUS33 KKCI 042055\nSIGW \nCONVECTIVE SIGMET 27W\nVALID UNTIL 2255Z\nCO\nFROM 60ESE DBL-40N ALS-30S HBU-HBU-60ESE DBL\nAREA TS MOV FROM 22015KT. TOPS TO FL440.\n\nOUTLOOK VALID 042255-050255\nAREA 1...FROM CHE-ELP-70WSW TUS-CHE\nWST ISSUANCES EXPD. REFER TO MOST RECENT ACUS01 KWNS FROM STORM\nPREDICTION CENTER FOR SYNOPSIS AND METEOROLOGICAL DETAILS.\n\nAREA 2...FROM YDC-LKV-FOT-TOU-YDC\nWST ISSUANCES POSS. REFER TO MOST RECENT ACUS01 KWNS FROM STORM\nPREDICTION CENTER FOR SYNOPSIS AND METEOROLOGICAL DETAILS.",
                "validTimeTo": [
                    "2026-09-04T22:55"
                ]
            }
        },
        {
            "type": "Feature",
            "geometry": {
                "type": "Polygon",
                "coordinates": [
                    [
                        [
                            -121.788,
                            47.083
                        ],
                        [
                            -119.049,
                            46.765
                        ],
                        [
                            -122.154,
                            43.992
                        ],
                        [
                            -124.24,
                            44.887
                        ],
                        [
                            -121.788,
                            47.083
                        ]
                    ]
                ]
            },
            "properties": {
                "airSigmetId": null,
                "airportIcao": "KKCI",
                "airSigmetType": "SIGMET",
                "hazard": "CONVECTIVE",
                "severity": 5,
                "altitudeLow1": null,
                "altitudeLow2": null,
                "altitudeHi1": 35000,
                "altitudeHi2": 35000,
                "movementDir": 180,
                "movementSpd": 10,
                "rawAirSigmet": "WSUS33 KKCI 042055\nSIGW \nCONVECTIVE SIGMET 28W\nVALID UNTIL 2255Z\nOR WA AND OR CSTL WTRS\nFROM 30SE SEA-40SSE EPH-40WSW DSD-20NNW ONP-30SE SEA\nAREA TS MOV FROM 18010KT. TOPS TO FL350.\n\nOUTLOOK VALID 042255-050255\nAREA 1...FROM CHE-ELP-70WSW TUS-CHE\nWST ISSUANCES EXPD. REFER TO MOST RECENT ACUS01 KWNS FROM STORM\nPREDICTION CENTER FOR SYNOPSIS AND METEOROLOGICAL DETAILS.\n\nAREA 2...FROM YDC-LKV-FOT-TOU-YDC\nWST ISSUANCES POSS. REFER TO MOST RECENT ACUS01 KWNS FROM STORM\nPREDICTION CENTER FOR SYNOPSIS AND METEOROLOGICAL DETAILS.",
                "validTimeTo": [
                    "2026-09-04T22:55"
                ]
            }
        },
        {
            "type": "Feature",
            "geometry": {
                "type": "Polygon",
                "coordinates": [
                    [
                        [
                            -114.08,
                            46.35
                        ],
                        [
                            -112.228,
                            46.145
                        ],
                        [
                            -116.415,
                            42.134
                        ],
                        [
                            -117.55,
                            42.825
                        ],
                        [
                            -114.08,
                            46.35
                        ]
                    ]
                ]
            },
            "properties": {
                "airSigmetId": null,
                "airportIcao": "KKCI",
                "airSigmetType": "SIGMET",
                "hazard": "CONVECTIVE",
                "severity": 5,
                "altitudeLow1": null,
                "altitudeLow2": null,
                "altitudeHi1": 27000,
                "altitudeHi2": 27000,
                "movementDir": 200,
                "movementSpd": 20,
                "rawAirSigmet": "WSUS33 KKCI 042055\nSIGW \nCONVECTIVE SIGMET 29W\nVALID UNTIL 2255Z\nMT ID OR\nFROM 80N LKT-30SSW HLN-70ESE REO-20NE REO-80N LKT\nAREA TS MOV FROM 20020KT. TOPS TO FL270.\n\nOUTLOOK VALID 042255-050255\nAREA 1...FROM CHE-ELP-70WSW TUS-CHE\nWST ISSUANCES EXPD. REFER TO MOST RECENT ACUS01 KWNS FROM STORM\nPREDICTION CENTER FOR SYNOPSIS AND METEOROLOGICAL DETAILS.\n\nAREA 2...FROM YDC-LKV-FOT-TOU-YDC\nWST ISSUANCES POSS. REFER TO MOST RECENT ACUS01 KWNS FROM STORM\nPREDICTION CENTER FOR SYNOPSIS AND METEOROLOGICAL DETAILS.",
                "validTimeTo": [
                    "2026-09-04T22:55"
                ]
            }
        },
        {
            "type": "Feature",
            "geometry": {
                "type": "Polygon",
                "coordinates": [
                    [
                        [
                            -76.097,
                            30.652
                        ],
                        [
                            -76.924,
                            26.645
                        ],
                        [
                            -79.229,
                            26.358
                        ],
                        [
                            -79.009,
                            29.284
                        ],
                        [
                            -76.097,
                            30.652
                        ]
                    ]
                ]
            },
            "properties": {
                "airSigmetId": null,
                "airportIcao": "KKCI",
                "airSigmetType": "SIGMET",
                "hazard": "CONVECTIVE",
                "severity": 5,
                "altitudeLow1": null,
                "altitudeLow2": null,
                "altitudeHi1": 45000,
                "altitudeHi2": 60000,
                "movementDir": null,
                "movementSpd": null,
                "rawAirSigmet": "WSUS31 KKCI 042055\nSIGE \nCONVECTIVE SIGMET 33E\nVALID UNTIL 2255Z\nFL CSTL WTRS\nFROM 240SSE ILM-170E PBI-50ESE PBI-110E OMN-240SSE ILM\nAREA EMBD TS MOV LTL. TOPS ABV FL450.\n\nOUTLOOK VALID 042255-050255\nAREA 1...FROM DLH-ASP-CLE-JHW-CYN-ECG-CAE-130SE MIA-EYW-70SW\nCTY-110S CEW-BWG-HNN-IND-DBQ-DLH\nREF WW 653 654.\nWST ISSUANCES EXPD. REFER TO MOST RECENT ACUS01 KWNS FROM STORM\nPREDICTION CENTER FOR SYNOPSIS AND METEOROLOGICAL DETAILS.\n\nAREA 2...FROM 70NW PQI-30NE PQI-60SW YSJ-50NE MPV-70NW PQI\nWST ISSUANCES POSS. REFER TO MOST RECENT ACUS01 KWNS FROM STORM\nPREDICTION CENTER FOR SYNOPSIS AND METEOROLOGICAL DETAILS.",
                "validTimeTo": [
                    "2026-09-04T22:55"
                ]
            }
        },
        {
            "type": "Feature",
            "geometry": {
                "type": "Polygon",
                "coordinates": [
                    [
                        [
                            -85.754,
                            40.278
                        ],
                        [
                            -83.025,
                            40.149
                        ],
                        [
                            -82.424,
                            38.877
                        ],
                        [
                            -83.946,
                            38.427
                        ],
                        [
                            -85.762,
                            39.338
                        ],
                        [
                            -85.754,
                            40.278
                        ]
                    ]
                ]
            },
            "properties": {
                "airSigmetId": null,
                "airportIcao": "KKCI",
                "airSigmetType": "SIGMET",
                "hazard": "CONVECTIVE",
                "severity": 5,
                "altitudeLow1": null,
                "altitudeLow2": null,
                "altitudeHi1": 45000,
                "altitudeHi2": 60000,
                "movementDir": 300,
                "movementSpd": 20,
                "rawAirSigmet": "WSUS31 KKCI 042055\nSIGE \nCONVECTIVE SIGMET 34E\nVALID UNTIL 2255Z\nOH KY IN\nFROM 40NE IND-20W APE-20WNW HNN-50SE CVG-40SE IND-40NE IND\nAREA SEV TS MOV FROM 30020KT. TOPS ABV FL450.\nWIND GUSTS TO 50KT POSS.\n\nOUTLOOK VALID 042255-050255\nAREA 1...FROM DLH-ASP-CLE-JHW-CYN-ECG-CAE-130SE MIA-EYW-70SW\nCTY-110S CEW-BWG-HNN-IND-DBQ-DLH\nREF WW 653 654.\nWST ISSUANCES EXPD. REFER TO MOST RECENT ACUS01 KWNS FROM STORM\nPREDICTION CENTER FOR SYNOPSIS AND METEOROLOGICAL DETAILS.\n\nAREA 2...FROM 70NW PQI-30NE PQI-60SW YSJ-50NE MPV-70NW PQI\nWST ISSUANCES POSS. REFER TO MOST RECENT ACUS01 KWNS FROM STORM\nPREDICTION CENTER FOR SYNOPSIS AND METEOROLOGICAL DETAILS.",
                "validTimeTo": [
                    "2026-09-04T22:55"
                ]
            }
        },
        {
            "type": "Feature",
            "geometry": {
                "type": "Polygon",
                "coordinates": [
                    [
                        [
                            -67.903,
                            47.077
                        ],
                        [
                            -67.685,
                            44.986
                        ],
                        [
                            -69.2,
                            44.604
                        ],
                        [
                            -70.617,
                            45.336
                        ],
                        [
                            -70.16,
                            46.794
                        ],
                        [
                            -67.903,
                            47.077
                        ]
                    ]
                ]
            },
            "properties": {
                "airSigmetId": null,
                "airportIcao": "KKCI",
                "airSigmetType": "SIGMET",
                "hazard": "CONVECTIVE",
                "severity": 5,
                "altitudeLow1": null,
                "altitudeLow2": null,
                "altitudeHi1": 36000,
                "altitudeHi2": 36000,
                "movementDir": 320,
                "movementSpd": 10,
                "rawAirSigmet": "WSUS31 KKCI 042055\nSIGE \nCONVECTIVE SIGMET 35E\nVALID UNTIL 2255Z\nME\nFROM 20NNE PQI-50SE MLT-20SW BGR-80WNW BGR-50E YQB-20NNE PQI\nAREA TS MOV FROM 32010KT. TOPS TO FL360.\n\nOUTLOOK VALID 042255-050255\nAREA 1...FROM DLH-ASP-CLE-JHW-CYN-ECG-CAE-130SE MIA-EYW-70SW\nCTY-110S CEW-BWG-HNN-IND-DBQ-DLH\nREF WW 653 654.\nWST ISSUANCES EXPD. REFER TO MOST RECENT ACUS01 KWNS FROM STORM\nPREDICTION CENTER FOR SYNOPSIS AND METEOROLOGICAL DETAILS.\n\nAREA 2...FROM 70NW PQI-30NE PQI-60SW YSJ-50NE MPV-70NW PQI\nWST ISSUANCES POSS. REFER TO MOST RECENT ACUS01 KWNS FROM STORM\nPREDICTION CENTER FOR SYNOPSIS AND METEOROLOGICAL DETAILS.",
                "validTimeTo": [
                    "2026-09-04T22:55"
                ]
            }
        },
        {
            "type": "Feature",
            "geometry": {
                "type": "Polygon",
                "coordinates": [
                    [
                        [
                            -103.466,
                            31.405
                        ],
                        [
                            -102.186,
                            29.861
                        ],
                        [
                            -103.225,
                            28.763
                        ],
                        [
                            -104.63,
                            29.708
                        ],
                        [
                            -104.915,
                            31.122
                        ],
                        [
                            -103.466,
                            31.405
                        ]
                    ]
                ]
            },
            "properties": {
                "airSigmetId": null,
                "airportIcao": "KKCI",
                "airSigmetType": "SIGMET",
                "hazard": "CONVECTIVE",
                "severity": 5,
                "altitudeLow1": null,
                "altitudeLow2": null,
                "altitudeHi1": 45000,
                "altitudeHi2": 60000,
                "movementDir": null,
                "movementSpd": null,
                "rawAirSigmet": "WSUS32 KKCI 042055\nSIGC \nCONVECTIVE SIGMET 40C\nVALID UNTIL 2255Z\nTX\nFROM 30SSW INK-80WNW DLF-100SSE MRF-50SW MRF-70NW MRF-30SSW INK\nAREA TS MOV LTL. TOPS ABV FL450.\n\nOUTLOOK VALID 042255-050255\nFROM CYS-HLC-ABI-BNA-110S CEW-130ESE LEV-PSX-BRO-LRD-DLF-70SSE\nMRF-ELP-CHE-CYS\nWST ISSUANCES EXPD. REFER TO MOST RECENT ACUS01 KWNS FROM STORM\nPREDICTION CENTER FOR SYNOPSIS AND METEOROLOGICAL DETAILS.",
                "validTimeTo": [
                    "2026-09-04T22:55"
                ]
            }
        },
        {
            "type": "Feature",
            "geometry": {
                "type": "Polygon",
                "coordinates": [
                    [
                        [
                            -87.092,
                            36.139
                        ],
                        [
                            -87.107,
                            34.572
                        ],
                        [
                            -88.092,
                            33.835
                        ],
                        [
                            -88.86,
                            34.673
                        ],
                        [
                            -87.092,
                            36.139
                        ]
                    ]
                ]
            },
            "properties": {
                "airSigmetId": null,
                "airportIcao": "KKCI",
                "airSigmetType": "SIGMET",
                "hazard": "CONVECTIVE",
                "severity": 5,
                "altitudeLow1": null,
                "altitudeLow2": null,
                "altitudeHi1": 45000,
                "altitudeHi2": 60000,
                "movementDir": null,
                "movementSpd": null,
                "rawAirSigmet": "WSUS32 KKCI 042055\nSIGC \nCONVECTIVE SIGMET 41C\nVALID UNTIL 2255Z\nTN AL MS\nFROM 20W BNA-20ESE MSL-30NE IGB-60ESE MEM-20W BNA\nAREA TS MOV LTL. TOPS ABV FL450.\n\nOUTLOOK VALID 042255-050255\nFROM CYS-HLC-ABI-BNA-110S CEW-130ESE LEV-PSX-BRO-LRD-DLF-70SSE\nMRF-ELP-CHE-CYS\nWST ISSUANCES EXPD. REFER TO MOST RECENT ACUS01 KWNS FROM STORM\nPREDICTION CENTER FOR SYNOPSIS AND METEOROLOGICAL DETAILS.",
                "validTimeTo": [
                    "2026-09-04T22:55"
                ]
            }
        },
        {
            "type": "Feature",
            "geometry": {
                "type": "Polygon",
                "coordinates": [
                    [
                        [
                            -104.267,
                            38.597
                        ],
                        [
                            -101.029,
                            38.155
                        ],
                        [
                            -101.845,
                            36.332
                        ],
                        [
                            -106.243,
                            35.509
                        ],
                        [
                            -106.956,
                            36.363
                        ],
                        [
                            -104.267,
                            38.597
                        ]
                    ]
                ]
            },
            "properties": {
                "airSigmetId": null,
                "airportIcao": "KKCI",
                "airSigmetType": "SIGMET",
                "hazard": "CONVECTIVE",
                "severity": 5,
                "altitudeLow1": null,
                "altitudeLow2": null,
                "altitudeHi1": 45000,
                "altitudeHi2": 60000,
                "movementDir": 230,
                "movementSpd": 20,
                "rawAirSigmet": "WSUS32 KKCI 042055\nSIGC \nCONVECTIVE SIGMET 42C\nVALID UNTIL 2255Z\nTX OK KS CO NM\nFROM 20NNE PUB-20NW GCK-60SW LBL-40NE ABQ-60ESE RSK-20NNE PUB\nAREA TS MOV FROM 23020KT. TOPS ABV FL450.\n\nOUTLOOK VALID 042255-050255\nFROM CYS-HLC-ABI-BNA-110S CEW-130ESE LEV-PSX-BRO-LRD-DLF-70SSE\nMRF-ELP-CHE-CYS\nWST ISSUANCES EXPD. REFER TO MOST RECENT ACUS01 KWNS FROM STORM\nPREDICTION CENTER FOR SYNOPSIS AND METEOROLOGICAL DETAILS.",
                "validTimeTo": [
                    "2026-09-04T22:55"
                ]
            }
        },
        {
            "type": "Feature",
            "geometry": {
                "type": "Polygon",
                "coordinates": [
                    [
                        [
                            -90.472,
                            37.205
                        ],
                        [
                            -90.293,
                            35.674
                        ],
                        [
                            -91.788,
                            35.451
                        ],
                        [
                            -92.293,
                            36.549
                        ],
                        [
                            -90.472,
                            37.205
                        ]
                    ]
                ]
            },
            "properties": {
                "airSigmetId": null,
                "airportIcao": "KKCI",
                "airSigmetType": "SIGMET",
                "hazard": "CONVECTIVE",
                "severity": 5,
                "altitudeLow1": null,
                "altitudeLow2": null,
                "altitudeHi1": 43000,
                "altitudeHi2": 43000,
                "movementDir": null,
                "movementSpd": null,
                "rawAirSigmet": "WSUS32 KKCI 042055\nSIGC \nCONVECTIVE SIGMET 43C\nVALID UNTIL 2255Z\nMO AR\nFROM 30SSW FAM-40NNW MEM-50NNE LIT-70WNW ARG-30SSW FAM\nAREA TS MOV LTL. TOPS TO FL430.\n\nOUTLOOK VALID 042255-050255\nFROM CYS-HLC-ABI-BNA-110S CEW-130ESE LEV-PSX-BRO-LRD-DLF-70SSE\nMRF-ELP-CHE-CYS\nWST ISSUANCES EXPD. REFER TO MOST RECENT ACUS01 KWNS FROM STORM\nPREDICTION CENTER FOR SYNOPSIS AND METEOROLOGICAL DETAILS.",
                "validTimeTo": [
                    "2026-09-04T22:55"
                ]
            }
        },
        {
            "type": "Feature",
            "geometry": {
                "type": "Polygon",
                "coordinates": [
                    [
                        [
                            -83.453,
                            35.543
                        ],
                        [
                            -82.926,
                            34.827
                        ],
                        [
                            -84.045,
                            34.443
                        ],
                        [
                            -84.582,
                            35.151
                        ],
                        [
                            -83.453,
                            35.543
                        ]
                    ]
                ]
            },
            "properties": {
                "airSigmetId": null,
                "airportIcao": "KKCI",
                "airSigmetType": "SIGMET",
                "hazard": "CONVECTIVE",
                "severity": 5,
                "altitudeLow1": null,
                "altitudeLow2": null,
                "altitudeHi1": 41000,
                "altitudeHi2": 41000,
                "movementDir": 40,
                "movementSpd": 5,
                "rawAirSigmet": "WSUS31 KKCI 042055\nSIGE \nCONVECTIVE SIGMET 36E\nVALID UNTIL 2255Z\nNC SC GA TN\nFROM 30SE VXV-20ENE ODF-40WSW ODF-30ENE GQO-30SE VXV\nAREA TS MOV FROM 04005KT. TOPS TO FL410.\n\nOUTLOOK VALID 042255-050255\nAREA 1...FROM DLH-ASP-CLE-JHW-CYN-ECG-CAE-130SE MIA-EYW-70SW\nCTY-110S CEW-BWG-HNN-IND-DBQ-DLH\nREF WW 653 654.\nWST ISSUANCES EXPD. REFER TO MOST RECENT ACUS01 KWNS FROM STORM\nPREDICTION CENTER FOR SYNOPSIS AND METEOROLOGICAL DETAILS.\n\nAREA 2...FROM 70NW PQI-30NE PQI-60SW YSJ-50NE MPV-70NW PQI\nWST ISSUANCES POSS. REFER TO MOST RECENT ACUS01 KWNS FROM STORM\nPREDICTION CENTER FOR SYNOPSIS AND METEOROLOGICAL DETAILS.",
                "validTimeTo": [
                    "2026-09-04T22:55"
                ]
            }
        },
        {
            "type": "Feature",
            "geometry": {
                "type": "Polygon",
                "coordinates": [
                    [
                        [
                            -84.802,
                            37.843
                        ],
                        [
                            -83.287,
                            37.027
                        ],
                        [
                            -85.524,
                            34.832
                        ],
                        [
                            -86.916,
                            34.506
                        ],
                        [
                            -87.092,
                            36.139
                        ],
                        [
                            -84.802,
                            37.843
                        ]
                    ]
                ]
            },
            "properties": {
                "airSigmetId": null,
                "airportIcao": "KKCI",
                "airSigmetType": "SIGMET",
                "hazard": "CONVECTIVE",
                "severity": 5,
                "altitudeLow1": null,
                "altitudeLow2": null,
                "altitudeHi1": 45000,
                "altitudeHi2": 60000,
                "movementDir": null,
                "movementSpd": null,
                "rawAirSigmet": "WSUS31 KKCI 042055\nSIGE \nCONVECTIVE SIGMET 37E\nVALID UNTIL 2255Z\nGA TN KY AL\nFROM 40ESE IIU-40E LOZ-20WSW GQO-30ESE MSL-20W BNA-40ESE IIU\nAREA TS MOV LTL. TOPS ABV FL450.\n\nOUTLOOK VALID 042255-050255\nAREA 1...FROM DLH-ASP-CLE-JHW-CYN-ECG-CAE-130SE MIA-EYW-70SW\nCTY-110S CEW-BWG-HNN-IND-DBQ-DLH\nREF WW 653 654.\nWST ISSUANCES EXPD. REFER TO MOST RECENT ACUS01 KWNS FROM STORM\nPREDICTION CENTER FOR SYNOPSIS AND METEOROLOGICAL DETAILS.\n\nAREA 2...FROM 70NW PQI-30NE PQI-60SW YSJ-50NE MPV-70NW PQI\nWST ISSUANCES POSS. REFER TO MOST RECENT ACUS01 KWNS FROM STORM\nPREDICTION CENTER FOR SYNOPSIS AND METEOROLOGICAL DETAILS.",
                "validTimeTo": [
                    "2026-09-04T22:55"
                ]
            }
        },
        {
            "type": "Feature",
            "geometry": {
                "type": "Polygon",
                "coordinates": [
                    [
                        [
                            -78.634,
                            25.791
                        ],
                        [
                            -77.862,
                            23.544
                        ],
                        [
                            -79.786,
                            23.813
                        ],
                        [
                            -79.619,
                            25.544
                        ],
                        [
                            -78.634,
                            25.791
                        ]
                    ]
                ]
            },
            "properties": {
                "airSigmetId": null,
                "airportIcao": "KKCI",
                "airSigmetType": "SIGMET",
                "hazard": "CONVECTIVE",
                "severity": 5,
                "altitudeLow1": null,
                "altitudeLow2": null,
                "altitudeHi1": 45000,
                "altitudeHi2": 60000,
                "movementDir": 110,
                "movementSpd": 5,
                "rawAirSigmet": "WSUS31 KKCI 042055\nSIGE \nCONVECTIVE SIGMET 38E\nVALID UNTIL 2255Z\nFL CSTL WTRS\nFROM 90E MIA-190SE MIA-120ESE EYW-40ESE MIA-90E MIA\nAREA EMBD TS MOV FROM 11005KT. TOPS ABV FL450.\n\nOUTLOOK VALID 042255-050255\nAREA 1...FROM DLH-ASP-CLE-JHW-CYN-ECG-CAE-130SE MIA-EYW-70SW\nCTY-110S CEW-BWG-HNN-IND-DBQ-DLH\nREF WW 653 654.\nWST ISSUANCES EXPD. REFER TO MOST RECENT ACUS01 KWNS FROM STORM\nPREDICTION CENTER FOR SYNOPSIS AND METEOROLOGICAL DETAILS.\n\nAREA 2...FROM 70NW PQI-30NE PQI-60SW YSJ-50NE MPV-70NW PQI\nWST ISSUANCES POSS. REFER TO MOST RECENT ACUS01 KWNS FROM STORM\nPREDICTION CENTER FOR SYNOPSIS AND METEOROLOGICAL DETAILS.",
                "validTimeTo": [
                    "2026-09-04T22:55"
                ]
            }
        }
    ],
    "metadata": {
        "creationTime": "2026-09-04T21:21"
    }
}