{
    "type": "FeatureCollection",
    "features": [
        {
            "type": "Feature",
            "geometry": {
                "type": "Polygon",
                "coordinates": [
                    [
                        [
                            -84.04,
                            40.793
                        ],
                        [
                            -84.504,
                            39.933
                        ],
                        [
                            -85.909,
                            39.453
                        ],
                        [
                            -88.45,
                            39.857
                        ],
                        [
                            -87.881,
                            40.812
                        ],
                        [
                            -84.04,
                            40.793
                        ]
                    ]
                ]
            },
            "properties": {
                "airSigmetId": null,
                "airportIcao": "KKCI",
                "airSigmetType": "SIGMET",
                "hazard": "CONVECTIVE",
                "severity": 5,
                "altitudeLow1": null,
                "altitudeLow2": null,
                "altitudeHi1": 40000,
                "altitudeHi2": 40000,
                "movementDir": 270,
                "movementSpd": 20,
                "rawAirSigmet": "WSUS31 KKCI 200055\nSIGE \nCONVECTIVE SIGMET 1E\nVALID UNTIL 0255Z\nOH IN IL\nFROM 30N ROD-30SW ROD-30SE IND-20ENE AXC-40WNW BVT-30N ROD\nAREA SEV TS MOV FROM 27020KT. TOPS TO FL400.\nWIND GUSTS TO 50KT POSS.\n\nOUTLOOK VALID 200255-200655\nAREA 1...FROM VUZ-70NE CRG-70ENE PBI-130SE MIA-80WSW EYW-90W\nSRQ-200ESE LEV-VUZ\nWST ISSUANCES POSS. REFER TO MOST RECENT ACUS01 KWNS FROM STORM\nPREDICTION CENTER FOR SYNOPSIS AND METEOROLOGICAL DETAILS.\n\nAREA 2...FROM BUF-40SSW SYR-30SW HNK-CSN-BKW-VXV-40SSW BNA-40SW\nGIJ-40W CLE-BUF\nWST ISSUANCES EXPD. REFER TO MOST RECENT ACUS01 KWNS FROM STORM\nPREDICTION CENTER FOR SYNOPSIS AND METEOROLOGICAL DETAILS.",
                "validTimeTo": [
                    "2026-08-20T02:55"
                ]
            }
        },
        {
            "type": "Feature",
            "geometry": {
                "type": "Polygon",
                "coordinates": [
                    [
                        [
                            -83.071,
                            41.032
                        ],
                        [
                            -80.826,
                            41.021
                        ],
                        [
                            -80.56,
                            39.275
                        ],
                        [
                            -84.37,
                            39.634
                        ],
                        [
                            -83.071,
                            41.032
                        ]
                    ]
                ]
            },
            "properties": {
                "airSigmetId": null,
                "airportIcao": "KKCI",
                "airSigmetType": "SIGMET",
                "hazard": "CONVECTIVE",
                "severity": 5,
                "altitudeLow1": null,
                "altitudeLow2": null,
                "altitudeHi1": 28000,
                "altitudeHi2": 28000,
                "movementDir": 270,
                "movementSpd": 20,
                "rawAirSigmet": "WSUS31 KKCI 200055\nSIGE \nCONVECTIVE SIGMET 2E\nVALID UNTIL 0255Z\nWV OH\nFROM 60WSW CLE-30WNW EWC-30NW EKN-40NNE CVG-60WSW CLE\nDMSHG AREA TS MOV FROM 27020KT. TOPS TO FL280.\n\nOUTLOOK VALID 200255-200655\nAREA 1...FROM VUZ-70NE CRG-70ENE PBI-130SE MIA-80WSW EYW-90W\nSRQ-200ESE LEV-VUZ\nWST ISSUANCES POSS. REFER TO MOST RECENT ACUS01 KWNS FROM STORM\nPREDICTION CENTER FOR SYNOPSIS AND METEOROLOGICAL DETAILS.\n\nAREA 2...FROM BUF-40SSW SYR-30SW HNK-CSN-BKW-VXV-40SSW BNA-40SW\nGIJ-40W CLE-BUF\nWST ISSUANCES EXPD. REFER TO MOST RECENT ACUS01 KWNS FROM STORM\nPREDICTION CENTER FOR SYNOPSIS AND METEOROLOGICAL DETAILS.",
                "validTimeTo": [
                    "2026-08-20T02:55"
                ]
            }
        },
        {
            "type": "Feature",
            "geometry": {
                "type": "Polygon",
                "coordinates": [
                    [
                        [
                            -88.598,
                            33.322
                        ],
                        [
                            -84.37,
                            31.063
                        ],
                        [
                            -85.24,
                            28.715
                        ],
                        [
                            -87.846,
                            29.65
                        ],
                        [
                            -90.327,
                            31.965
                        ],
                        [
                            -88.598,
                            33.322
                        ]
                    ]
                ]
            },
            "properties": {
                "airSigmetId": null,
                "airportIcao": "KKCI",
                "airSigmetType": "SIGMET",
                "hazard": "CONVECTIVE",
                "severity": 5,
                "altitudeLow1": null,
                "altitudeLow2": null,
                "altitudeHi1": 45000,
                "altitudeHi2": 60000,
                "movementDir": null,
                "movementSpd": null,
                "rawAirSigmet": "WSUS31 KKCI 200055\nSIGE \nCONVECTIVE SIGMET 3E\nVALID UNTIL 0255Z\nFL GA AL MS AND FL AL MS CSTL WTRS\nFROM 10SSW IGB-30N TLH-120SSW TLH-70SSE SJI-30SSW MHZ-10SSW IGB\nAREA SEV TS MOV LTL. TOPS ABV FL450.\nHAIL TO 1 IN...WIND GUSTS TO 50KT POSS.\n\nOUTLOOK VALID 200255-200655\nAREA 1...FROM VUZ-70NE CRG-70ENE PBI-130SE MIA-80WSW EYW-90W\nSRQ-200ESE LEV-VUZ\nWST ISSUANCES POSS. REFER TO MOST RECENT ACUS01 KWNS FROM STORM\nPREDICTION CENTER FOR SYNOPSIS AND METEOROLOGICAL DETAILS.\n\nAREA 2...FROM BUF-40SSW SYR-30SW HNK-CSN-BKW-VXV-40SSW BNA-40SW\nGIJ-40W CLE-BUF\nWST ISSUANCES EXPD. REFER TO MOST RECENT ACUS01 KWNS FROM STORM\nPREDICTION CENTER FOR SYNOPSIS AND METEOROLOGICAL DETAILS.",
                "validTimeTo": [
                    "2026-08-20T02:55"
                ]
            }
        },
        {
            "type": "Feature",
            "geometry": {
                "type": "Polygon",
                "coordinates": [
                    [
                        [
                            -84.29,
                            31.157
                        ],
                        [
                            -81.362,
                            30.647
                        ],
                        [
                            -80.668,
                            27.745
                        ],
                        [
                            -82.624,
                            27.558
                        ],
                        [
                            -84.37,
                            29.895
                        ],
                        [
                            -84.29,
                            31.157
                        ]
                    ]
                ]
            },
            "properties": {
                "airSigmetId": null,
                "airportIcao": "KKCI",
                "airSigmetType": "SIGMET",
                "hazard": "CONVECTIVE",
                "severity": 5,
                "altitudeLow1": null,
                "altitudeLow2": null,
                "altitudeHi1": 45000,
                "altitudeHi2": 60000,
                "movementDir": null,
                "movementSpd": null,
                "rawAirSigmet": "WSUS31 KKCI 200055\nSIGE \nCONVECTIVE SIGMET 4E\nVALID UNTIL 0255Z\nFL GA AND FL CSTL WTRS\nFROM 30S PZD-20NNE CRG-10WNW TRV-10NNW SRQ-40S TLH-30S PZD\nAREA SEV TS MOV LTL. TOPS ABV FL450.\nWIND GUSTS TO 50KT POSS.\n\nOUTLOOK VALID 200255-200655\nAREA 1...FROM VUZ-70NE CRG-70ENE PBI-130SE MIA-80WSW EYW-90W\nSRQ-200ESE LEV-VUZ\nWST ISSUANCES POSS. REFER TO MOST RECENT ACUS01 KWNS FROM STORM\nPREDICTION CENTER FOR SYNOPSIS AND METEOROLOGICAL DETAILS.\n\nAREA 2...FROM BUF-40SSW SYR-30SW HNK-CSN-BKW-VXV-40SSW BNA-40SW\nGIJ-40W CLE-BUF\nWST ISSUANCES EXPD. REFER TO MOST RECENT ACUS01 KWNS FROM STORM\nPREDICTION CENTER FOR SYNOPSIS AND METEOROLOGICAL DETAILS.",
                "validTimeTo": [
                    "2026-08-20T02:55"
                ]
            }
        },
        {
            "type": "Feature",
            "geometry": {
                "type": "Polygon",
                "coordinates": [
                    [
                        [
                            -105.212,
                            41.209
                        ],
                        [
                            -99.238,
                            38.936
                        ],
                        [
                            -103.94,
                            32.459
                        ],
                        [
                            -109.13,
                            37.875
                        ],
                        [
                            -108.529,
                            40.895
                        ],
                        [
                            -105.212,
                            41.209
                        ]
                    ]
                ]
            },
            "properties": {
                "airSigmetId": null,
                "airportIcao": "KKCI",
                "airSigmetType": "SIGMET",
                "hazard": "CONVECTIVE",
                "severity": 5,
                "altitudeLow1": null,
                "altitudeLow2": null,
                "altitudeHi1": 45000,
                "altitudeHi2": 60000,
                "movementDir": 320,
                "movementSpd": 15,
                "rawAirSigmet": "WSUS32 KKCI 200055\nSIGC \nCONVECTIVE SIGMET 1C\nVALID UNTIL 0255Z\nTX OK KS CO NM WY UT\nFROM 20W CYS-50ESE HLC-50NW INK-10WNW DVC-60WNW CHE-20W CYS\nAREA SEV TS MOV FROM 32015KT. TOPS ABV FL450.\nHAIL TO 1.25 IN...WIND GUSTS TO 50KT POSS.\n\nOUTLOOK VALID 200255-200655\nAREA 1...FROM 50SE DBQ-40SW GIJ-40SSW BNA-50SSE DYR-LIT-50SE\nMLC-40SSE TUL-SGF-40E MCI-50N IRK-50SE DBQ\nWST ISSUANCES EXPD. REFER TO MOST RECENT ACUS01 KWNS FROM STORM\nPREDICTION CENTER FOR SYNOPSIS AND METEOROLOGICAL DETAILS.\n\nAREA 2...FROM VUZ-200ESE LEV-120ESE LEV-50SSE LEV-40NE\nLCH-MLU-SQS-VUZ\nWST ISSUANCES POSS. REFER TO MOST RECENT ACUS01 KWNS FROM STORM\nPREDICTION CENTER FOR SYNOPSIS AND METEOROLOGICAL DETAILS.\n\nAREA 3...FROM 50NNE CHE-AKO-50E HLC-70SSE MMB-MAF-70SE\nELP-ELP-40W ELP-50NNE CHE\nWST ISSUANCES POSS. REFER TO MOST RECENT ACUS01 KWNS FROM STORM\nPREDICTION CENTER FOR SYNOPSIS AND METEOROLOGICAL DETAILS.",
                "validTimeTo": [
                    "2026-08-20T02:55"
                ]
            }
        },
        {
            "type": "Feature",
            "geometry": {
                "type": "Polygon",
                "coordinates": [
                    [
                        [
                            -88.764,
                            41.549
                        ],
                        [
                            -88.091,
                            40.875
                        ],
                        [
                            -90.414,
                            39.847
                        ],
                        [
                            -91.138,
                            41.163
                        ],
                        [
                            -88.764,
                            41.549
                        ]
                    ]
                ]
            },
            "properties": {
                "airSigmetId": null,
                "airportIcao": "KKCI",
                "airSigmetType": "SIGMET",
                "hazard": "CONVECTIVE",
                "severity": 5,
                "altitudeLow1": null,
                "altitudeLow2": null,
                "altitudeHi1": 42000,
                "altitudeHi2": 42000,
                "movementDir": 280,
                "movementSpd": 15,
                "rawAirSigmet": "WSUS32 KKCI 200055\nSIGC \nCONVECTIVE SIGMET 2C\nVALID UNTIL 0255Z\nIL IA\nFROM 20W JOT-50WNW BVT-40E UIN-30SE IOW-20W JOT\nAREA TS MOV FROM 28015KT. TOPS TO FL420.\n\nOUTLOOK VALID 200255-200655\nAREA 1...FROM 50SE DBQ-40SW GIJ-40SSW BNA-50SSE DYR-LIT-50SE\nMLC-40SSE TUL-SGF-40E MCI-50N IRK-50SE DBQ\nWST ISSUANCES EXPD. REFER TO MOST RECENT ACUS01 KWNS FROM STORM\nPREDICTION CENTER FOR SYNOPSIS AND METEOROLOGICAL DETAILS.\n\nAREA 2...FROM VUZ-200ESE LEV-120ESE LEV-50SSE LEV-40NE\nLCH-MLU-SQS-VUZ\nWST ISSUANCES POSS. REFER TO MOST RECENT ACUS01 KWNS FROM STORM\nPREDICTION CENTER FOR SYNOPSIS AND METEOROLOGICAL DETAILS.\n\nAREA 3...FROM 50NNE CHE-AKO-50E HLC-70SSE MMB-MAF-70SE\nELP-ELP-40W ELP-50NNE CHE\nWST ISSUANCES POSS. REFER TO MOST RECENT ACUS01 KWNS FROM STORM\nPREDICTION CENTER FOR SYNOPSIS AND METEOROLOGICAL DETAILS.",
                "validTimeTo": [
                    "2026-08-20T02:55"
                ]
            }
        },
        {
            "type": "Feature",
            "geometry": {
                "type": "Polygon",
                "coordinates": [
                    [
                        [
                            -93.422,
                            41.44
                        ],
                        [
                            -91.138,
                            41.163
                        ],
                        [
                            -90.477,
                            40.102
                        ],
                        [
                            -92.815,
                            38.626
                        ],
                        [
                            -93.944,
                            39.542
                        ],
                        [
                            -93.422,
                            41.44
                        ]
                    ]
                ]
            },
            "properties": {
                "airSigmetId": null,
                "airportIcao": "KKCI",
                "airSigmetType": "SIGMET",
                "hazard": "CONVECTIVE",
                "severity": 5,
                "altitudeLow1": null,
                "altitudeLow2": null,
                "altitudeHi1": 45000,
                "altitudeHi2": 60000,
                "movementDir": 280,
                "movementSpd": 30,
                "rawAirSigmet": "WSUS32 KKCI 200055\nSIGC \nCONVECTIVE SIGMET 3C\nVALID UNTIL 0255Z\nIL MO IA\nFROM 10E DSM-30SE IOW-40ENE UIN-30WSW COU-40ENE MCI-10E DSM\nAREA TS MOV FROM 28030KT. TOPS ABV FL450.\n\nOUTLOOK VALID 200255-200655\nAREA 1...FROM 50SE DBQ-40SW GIJ-40SSW BNA-50SSE DYR-LIT-50SE\nMLC-40SSE TUL-SGF-40E MCI-50N IRK-50SE DBQ\nWST ISSUANCES EXPD. REFER TO MOST RECENT ACUS01 KWNS FROM STORM\nPREDICTION CENTER FOR SYNOPSIS AND METEOROLOGICAL DETAILS.\n\nAREA 2...FROM VUZ-200ESE LEV-120ESE LEV-50SSE LEV-40NE\nLCH-MLU-SQS-VUZ\nWST ISSUANCES POSS. REFER TO MOST RECENT ACUS01 KWNS FROM STORM\nPREDICTION CENTER FOR SYNOPSIS AND METEOROLOGICAL DETAILS.\n\nAREA 3...FROM 50NNE CHE-AKO-50E HLC-70SSE MMB-MAF-70SE\nELP-ELP-40W ELP-50NNE CHE\nWST ISSUANCES POSS. REFER TO MOST RECENT ACUS01 KWNS FROM STORM\nPREDICTION CENTER FOR SYNOPSIS AND METEOROLOGICAL DETAILS.",
                "validTimeTo": [
                    "2026-08-20T02:55"
                ]
            }
        },
        {
            "type": "Feature",
            "geometry": {
                "type": "Polygon",
                "coordinates": [
                    [
                        [
                            -91.983,
                            36.931
                        ],
                        [
                            -91.19,
                            36.575
                        ],
                        [
                            -91.773,
                            36.107
                        ],
                        [
                            -93.361,
                            35.993
                        ],
                        [
                            -93.708,
                            36.249
                        ],
                        [
                            -91.983,
                            36.931
                        ]
                    ]
                ]
            },
            "properties": {
                "airSigmetId": null,
                "airportIcao": "KKCI",
                "airSigmetType": "SIGMET",
                "hazard": "CONVECTIVE",
                "severity": 5,
                "altitudeLow1": null,
                "altitudeLow2": null,
                "altitudeHi1": 42000,
                "altitudeHi2": 42000,
                "movementDir": 270,
                "movementSpd": 20,
                "rawAirSigmet": "WSUS32 KKCI 200055\nSIGC \nCONVECTIVE SIGMET 4C\nVALID UNTIL 0255Z\nMO AR\nFROM 70NW ARG-30NNW ARG-40W ARG-40ESE RZC-20E RZC-70NW ARG\nAREA TS MOV FROM 27020KT. TOPS TO FL420.\n\nOUTLOOK VALID 200255-200655\nAREA 1...FROM 50SE DBQ-40SW GIJ-40SSW BNA-50SSE DYR-LIT-50SE\nMLC-40SSE TUL-SGF-40E MCI-50N IRK-50SE DBQ\nWST ISSUANCES EXPD. REFER TO MOST RECENT ACUS01 KWNS FROM STORM\nPREDICTION CENTER FOR SYNOPSIS AND METEOROLOGICAL DETAILS.\n\nAREA 2...FROM VUZ-200ESE LEV-120ESE LEV-50SSE LEV-40NE\nLCH-MLU-SQS-VUZ\nWST ISSUANCES POSS. REFER TO MOST RECENT ACUS01 KWNS FROM STORM\nPREDICTION CENTER FOR SYNOPSIS AND METEOROLOGICAL DETAILS.\n\nAREA 3...FROM 50NNE CHE-AKO-50E HLC-70SSE MMB-MAF-70SE\nELP-ELP-40W ELP-50NNE CHE\nWST ISSUANCES POSS. REFER TO MOST RECENT ACUS01 KWNS FROM STORM\nPREDICTION CENTER FOR SYNOPSIS AND METEOROLOGICAL DETAILS.",
                "validTimeTo": [
                    "2026-08-20T02:55"
                ]
            }
        },
        {
            "type": "Feature",
            "geometry": {
                "type": "Polygon",
                "coordinates": [
                    [
                        [
                            -108.546,
                            37.105
                        ],
                        [
                            -103.94,
                            32.459
                        ],
                        [
                            -108.122,
                            31.2
                        ],
                        [
                            -110.92,
                            31.265
                        ],
                        [
                            -113.627,
                            31.94
                        ],
                        [
                            -108.546,
                            37.105
                        ]
                    ]
                ]
            },
            "properties": {
                "airSigmetId": null,
                "airportIcao": "KKCI",
                "airSigmetType": "SIGMET",
                "hazard": "CONVECTIVE",
                "severity": 5,
                "altitudeLow1": null,
                "altitudeLow2": null,
                "altitudeHi1": 45000,
                "altitudeHi2": 60000,
                "movementDir": 30,
                "movementSpd": 10,
                "rawAirSigmet": "WSUS33 KKCI 200055\nSIGW \nCONVECTIVE SIGMET 1W\nVALID UNTIL 0255Z\nTX CO NM AZ\nFROM 30NW RSK-50NW INK-70SSW DMN-50S TUS-70SE BZA-30NW RSK\nAREA SEV TS MOV FROM 03010KT. TOPS ABV FL450.\nHAIL TO 1.5 IN...WIND GUSTS TO 60KT POSS.\n\nOUTLOOK VALID 200255-200655\nFROM 50NNE CHE-40W ELP-50S TUS-60SE BZA-BCE-50NNE CHE\nWST ISSUANCES EXPD. REFER TO MOST RECENT ACUS01 KWNS FROM STORM\nPREDICTION CENTER FOR SYNOPSIS AND METEOROLOGICAL DETAILS.",
                "validTimeTo": [
                    "2026-08-20T02:55"
                ]
            }
        },
        {
            "type": "Feature",
            "geometry": {
                "type": "Polygon",
                "coordinates": [
                    [
                        [
                            -109.693,
                            41.588
                        ],
                        [
                            -108.517,
                            40.668
                        ],
                        [
                            -109.129,
                            37.745
                        ],
                        [
                            -111.67,
                            36.891
                        ],
                        [
                            -111.976,
                            38.304
                        ],
                        [
                            -109.693,
                            41.588
                        ]
                    ]
                ]
            },
            "properties": {
                "airSigmetId": null,
                "airportIcao": "KKCI",
                "airSigmetType": "SIGMET",
                "hazard": "CONVECTIVE",
                "severity": 5,
                "altitudeLow1": null,
                "altitudeLow2": null,
                "altitudeHi1": 40000,
                "altitudeHi2": 40000,
                "movementDir": null,
                "movementSpd": null,
                "rawAirSigmet": "WSUS33 KKCI 200055\nSIGW \nCONVECTIVE SIGMET 2W\nVALID UNTIL 0255Z\nCO WY AZ UT\nFROM 30W OCS-60SSE OCS-10WSW DVC-50NNW TBC-40NNE BCE-30W OCS\nAREA TS MOV LTL. TOPS TO FL400.\n\nOUTLOOK VALID 200255-200655\nFROM 50NNE CHE-40W ELP-50S TUS-60SE BZA-BCE-50NNE CHE\nWST ISSUANCES EXPD. REFER TO MOST RECENT ACUS01 KWNS FROM STORM\nPREDICTION CENTER FOR SYNOPSIS AND METEOROLOGICAL DETAILS.",
                "validTimeTo": [
                    "2026-08-20T02:55"
                ]
            }
        },
        {
            "type": "Feature",
            "geometry": {
                "type": "Polygon",
                "coordinates": [
                    [
                        [
                            -111.427,
                            35.813
                        ],
                        [
                            -110.8,
                            35.06
                        ],
                        [
                            -112.209,
                            33.495
                        ],
                        [
                            -112.787,
                            34.085
                        ],
                        [
                            -112.48,
                            35.535
                        ],
                        [
                            -111.427,
                            35.813
                        ]
                    ]
                ]
            },
            "properties": {
                "airSigmetId": null,
                "airportIcao": "KKCI",
                "airSigmetType": "SIGMET",
                "hazard": "CONVECTIVE",
                "severity": 5,
                "altitudeLow1": null,
                "altitudeLow2": null,
                "altitudeHi1": 45000,
                "altitudeHi2": 45000,
                "movementDir": null,
                "movementSpd": null,
                "rawAirSigmet": "WSUS33 KKCI 200055\nSIGW \nCONVECTIVE SIGMET 3W\nVALID UNTIL 0255Z\nAZ\nFROM 20SSW TBC-INW-10WNW PHX-40SSW DRK-50N DRK-20SSW TBC\nAREA TS MOV LTL. TOPS TO FL450.\n\nOUTLOOK VALID 200255-200655\nFROM 50NNE CHE-40W ELP-50S TUS-60SE BZA-BCE-50NNE CHE\nWST ISSUANCES EXPD. REFER TO MOST RECENT ACUS01 KWNS FROM STORM\nPREDICTION CENTER FOR SYNOPSIS AND METEOROLOGICAL DETAILS.",
                "validTimeTo": [
                    "2026-08-20T02:55"
                ]
            }
        }
    ],
    "metadata": {
        "creationTime": "2026-08-20T01:43"
    }
}