{
    "type": "FeatureCollection",
    "features": [
        {
            "type": "Feature",
            "geometry": {
                "type": "Polygon",
                "coordinates": [
                    [
                        [
                            -91.687,
                            36.698
                        ],
                        [
                            -86.68,
                            36.14
                        ],
                        [
                            -88.013,
                            32.378
                        ],
                        [
                            -92.03,
                            32.52
                        ],
                        [
                            -94.27,
                            35.38
                        ],
                        [
                            -91.687,
                            36.698
                        ]
                    ]
                ]
            },
            "properties": {
                "airSigmetId": null,
                "airportIcao": "KKCI",
                "airSigmetType": "SIGMET",
                "hazard": "CONVECTIVE",
                "severity": 5,
                "altitudeLow1": null,
                "altitudeLow2": null,
                "altitudeHi1": 45000,
                "altitudeHi2": 45000,
                "movementDir": 250,
                "movementSpd": 15,
                "rawAirSigmet": "WSUS32 KKCI 072155\nSIGC \nCONVECTIVE SIGMET 66C\nVALID UNTIL 2355Z\nTN AL MS LA MO AR\nFROM 50NW ARG-BNA-40E MEI-MLU-FSM-50NW ARG\nAREA TS MOV FROM 25015KT. TOPS TO FL450.\n\nOUTLOOK VALID 072355-080355\nAREA 1...FROM ALS-OSW-40W TXK-CDS-50SW MRF-ELP-ALS\nWST ISSUANCES EXPD. REFER TO MOST RECENT ACUS01 KWNS FROM STORM\nPREDICTION CENTER FOR SYNOPSIS AND METEOROLOGICAL DETAILS.\n\nAREA 2...FROM YQT-90N SAW-BVT-OSW-OVR-MSP-YQT\nREF WW 541.\nWST ISSUANCES EXPD. REFER TO MOST RECENT ACUS01 KWNS FROM STORM\nPREDICTION CENTER FOR SYNOPSIS AND METEOROLOGICAL DETAILS.\n\nAREA 3...FROM BVT-130ESE LEV-130SSW LCH-70E BRO-90S\nLRD-LRD-GGG-OSW-BVT\nWST ISSUANCES EXPD. REFER TO MOST RECENT ACUS01 KWNS FROM STORM\nPREDICTION CENTER FOR SYNOPSIS AND METEOROLOGICAL DETAILS.",
                "validTimeTo": [
                    "2026-08-07T23:55"
                ]
            }
        },
        {
            "type": "Feature",
            "geometry": {
                "type": "Polygon",
                "coordinates": [
                    [
                        [
                            -92.03,
                            32.52
                        ],
                        [
                            -88.204,
                            32.379
                        ],
                        [
                            -89.143,
                            29.177
                        ],
                        [
                            -94.386,
                            29.956
                        ],
                        [
                            -94.75,
                            31.917
                        ],
                        [
                            -92.03,
                            32.52
                        ]
                    ]
                ]
            },
            "properties": {
                "airSigmetId": null,
                "airportIcao": "KKCI",
                "airSigmetType": "SIGMET",
                "hazard": "CONVECTIVE",
                "severity": 5,
                "altitudeLow1": null,
                "altitudeLow2": null,
                "altitudeHi1": 45000,
                "altitudeHi2": 60000,
                "movementDir": null,
                "movementSpd": null,
                "rawAirSigmet": "WSUS32 KKCI 072155\nSIGC \nCONVECTIVE SIGMET 67C\nVALID UNTIL 2355Z\nAL MS LA TX AND MS LA CSTL WTRS\nFROM MLU-30E MEI-50E LEV-50E IAH-30S GGG-MLU\nAREA TS MOV LTL. TOPS ABV FL450.\nREF INTL SIGMET ALFA SERIES.\n\nOUTLOOK VALID 072355-080355\nAREA 1...FROM ALS-OSW-40W TXK-CDS-50SW MRF-ELP-ALS\nWST ISSUANCES EXPD. REFER TO MOST RECENT ACUS01 KWNS FROM STORM\nPREDICTION CENTER FOR SYNOPSIS AND METEOROLOGICAL DETAILS.\n\nAREA 2...FROM YQT-90N SAW-BVT-OSW-OVR-MSP-YQT\nREF WW 541.\nWST ISSUANCES EXPD. REFER TO MOST RECENT ACUS01 KWNS FROM STORM\nPREDICTION CENTER FOR SYNOPSIS AND METEOROLOGICAL DETAILS.\n\nAREA 3...FROM BVT-130ESE LEV-130SSW LCH-70E BRO-90S\nLRD-LRD-GGG-OSW-BVT\nWST ISSUANCES EXPD. REFER TO MOST RECENT ACUS01 KWNS FROM STORM\nPREDICTION CENTER FOR SYNOPSIS AND METEOROLOGICAL DETAILS.",
                "validTimeTo": [
                    "2026-08-07T23:55"
                ]
            }
        },
        {
            "type": "Feature",
            "geometry": {
                "type": "Polygon",
                "coordinates": [
                    [
                        [
                            -95.026,
                            36.452
                        ],
                        [
                            -93.357,
                            34.099
                        ],
                        [
                            -96.759,
                            33.105
                        ],
                        [
                            -98.59,
                            33.99
                        ],
                        [
                            -97.847,
                            35.825
                        ],
                        [
                            -95.026,
                            36.452
                        ]
                    ]
                ]
            },
            "properties": {
                "airSigmetId": null,
                "airportIcao": "KKCI",
                "airSigmetType": "SIGMET",
                "hazard": "CONVECTIVE",
                "severity": 5,
                "altitudeLow1": null,
                "altitudeLow2": null,
                "altitudeHi1": 45000,
                "altitudeHi2": 60000,
                "movementDir": 290,
                "movementSpd": 20,
                "rawAirSigmet": "WSUS32 KKCI 072155\nSIGC \nCONVECTIVE SIGMET 68C\nVALID UNTIL 2355Z\nAR TX OK\nFROM 40ENE TUL-50NE TXK-20NE TTT-SPS-30NNW OKC-40ENE TUL\nAREA SEV TS MOV FROM 29020KT. TOPS ABV FL450.\nHAIL TO 1 IN...WIND GUSTS TO 50KT POSS.\n\nOUTLOOK VALID 072355-080355\nAREA 1...FROM ALS-OSW-40W TXK-CDS-50SW MRF-ELP-ALS\nWST ISSUANCES EXPD. REFER TO MOST RECENT ACUS01 KWNS FROM STORM\nPREDICTION CENTER FOR SYNOPSIS AND METEOROLOGICAL DETAILS.\n\nAREA 2...FROM YQT-90N SAW-BVT-OSW-OVR-MSP-YQT\nREF WW 541.\nWST ISSUANCES EXPD. REFER TO MOST RECENT ACUS01 KWNS FROM STORM\nPREDICTION CENTER FOR SYNOPSIS AND METEOROLOGICAL DETAILS.\n\nAREA 3...FROM BVT-130ESE LEV-130SSW LCH-70E BRO-90S\nLRD-LRD-GGG-OSW-BVT\nWST ISSUANCES EXPD. REFER TO MOST RECENT ACUS01 KWNS FROM STORM\nPREDICTION CENTER FOR SYNOPSIS AND METEOROLOGICAL DETAILS.",
                "validTimeTo": [
                    "2026-08-07T23:55"
                ]
            }
        },
        {
            "type": "Feature",
            "geometry": {
                "type": "Polygon",
                "coordinates": [
                    [
                        [
                            -90.396,
                            44.575
                        ],
                        [
                            -88.915,
                            42.926
                        ],
                        [
                            -91.61,
                            41.52
                        ],
                        [
                            -93.65,
                            41.44
                        ],
                        [
                            -93.33,
                            43.09
                        ],
                        [
                            -90.396,
                            44.575
                        ]
                    ]
                ]
            },
            "properties": {
                "airSigmetId": null,
                "airportIcao": "KKCI",
                "airSigmetType": "SIGMET",
                "hazard": "CONVECTIVE",
                "severity": 5,
                "altitudeLow1": null,
                "altitudeLow2": null,
                "altitudeHi1": 45000,
                "altitudeHi2": 60000,
                "movementDir": 280,
                "movementSpd": 35,
                "rawAirSigmet": "WSUS32 KKCI 072155\nSIGC \nCONVECTIVE SIGMET 69C\nVALID UNTIL 2355Z\nWI IL MN IA\nFROM 50ESE EAU-30WSW BAE-IOW-DSM-MCW-50ESE EAU\nAREA SEV TS MOV FROM 28035KT. TOPS ABV FL450.\nTORNADOES...HAIL TO 2 IN...WIND GUSTS TO 60KT POSS.\n\nOUTLOOK VALID 072355-080355\nAREA 1...FROM ALS-OSW-40W TXK-CDS-50SW MRF-ELP-ALS\nWST ISSUANCES EXPD. REFER TO MOST RECENT ACUS01 KWNS FROM STORM\nPREDICTION CENTER FOR SYNOPSIS AND METEOROLOGICAL DETAILS.\n\nAREA 2...FROM YQT-90N SAW-BVT-OSW-OVR-MSP-YQT\nREF WW 541.\nWST ISSUANCES EXPD. REFER TO MOST RECENT ACUS01 KWNS FROM STORM\nPREDICTION CENTER FOR SYNOPSIS AND METEOROLOGICAL DETAILS.\n\nAREA 3...FROM BVT-130ESE LEV-130SSW LCH-70E BRO-90S\nLRD-LRD-GGG-OSW-BVT\nWST ISSUANCES EXPD. REFER TO MOST RECENT ACUS01 KWNS FROM STORM\nPREDICTION CENTER FOR SYNOPSIS AND METEOROLOGICAL DETAILS.",
                "validTimeTo": [
                    "2026-08-07T23:55"
                ]
            }
        },
        {
            "type": "Feature",
            "geometry": {
                "type": "Polygon",
                "coordinates": [
                    [
                        [
                            -94.49,
                            38.27
                        ],
                        [
                            -93.33,
                            37.863
                        ],
                        [
                            -93.089,
                            36.895
                        ],
                        [
                            -94.756,
                            36.793
                        ],
                        [
                            -94.49,
                            38.27
                        ]
                    ]
                ]
            },
            "properties": {
                "airSigmetId": null,
                "airportIcao": "KKCI",
                "airSigmetType": "SIGMET",
                "hazard": "CONVECTIVE",
                "severity": 5,
                "altitudeLow1": null,
                "altitudeLow2": null,
                "altitudeHi1": 40000,
                "altitudeHi2": 40000,
                "movementDir": 280,
                "movementSpd": 5,
                "rawAirSigmet": "WSUS32 KKCI 072155\nSIGC \nCONVECTIVE SIGMET 70C\nVALID UNTIL 2355Z\nMO OK KS\nFROM BUM-30N SGF-30SSE SGF-30SE OSW-BUM\nAREA TS MOV FROM 28005KT. TOPS TO FL400.\n\nOUTLOOK VALID 072355-080355\nAREA 1...FROM ALS-OSW-40W TXK-CDS-50SW MRF-ELP-ALS\nWST ISSUANCES EXPD. REFER TO MOST RECENT ACUS01 KWNS FROM STORM\nPREDICTION CENTER FOR SYNOPSIS AND METEOROLOGICAL DETAILS.\n\nAREA 2...FROM YQT-90N SAW-BVT-OSW-OVR-MSP-YQT\nREF WW 541.\nWST ISSUANCES EXPD. REFER TO MOST RECENT ACUS01 KWNS FROM STORM\nPREDICTION CENTER FOR SYNOPSIS AND METEOROLOGICAL DETAILS.\n\nAREA 3...FROM BVT-130ESE LEV-130SSW LCH-70E BRO-90S\nLRD-LRD-GGG-OSW-BVT\nWST ISSUANCES EXPD. REFER TO MOST RECENT ACUS01 KWNS FROM STORM\nPREDICTION CENTER FOR SYNOPSIS AND METEOROLOGICAL DETAILS.",
                "validTimeTo": [
                    "2026-08-07T23:55"
                ]
            }
        },
        {
            "type": "Feature",
            "geometry": {
                "type": "Polygon",
                "coordinates": [
                    [
                        [
                            -94.72,
                            31.16
                        ],
                        [
                            -94.386,
                            29.956
                        ],
                        [
                            -95.959,
                            28.887
                        ],
                        [
                            -96.466,
                            29.994
                        ],
                        [
                            -94.72,
                            31.16
                        ]
                    ]
                ]
            },
            "properties": {
                "airSigmetId": null,
                "airportIcao": "KKCI",
                "airSigmetType": "SIGMET",
                "hazard": "CONVECTIVE",
                "severity": 5,
                "altitudeLow1": null,
                "altitudeLow2": null,
                "altitudeHi1": 45000,
                "altitudeHi2": 60000,
                "movementDir": null,
                "movementSpd": null,
                "rawAirSigmet": "WSUS32 KKCI 072155\nSIGC \nCONVECTIVE SIGMET 71C\nVALID UNTIL 2355Z\nTX\nFROM LFK-50E IAH-20ENE PSX-60ESE CWK-LFK\nAREA TS MOV LTL. TOPS ABV FL450.\n\nOUTLOOK VALID 072355-080355\nAREA 1...FROM ALS-OSW-40W TXK-CDS-50SW MRF-ELP-ALS\nWST ISSUANCES EXPD. REFER TO MOST RECENT ACUS01 KWNS FROM STORM\nPREDICTION CENTER FOR SYNOPSIS AND METEOROLOGICAL DETAILS.\n\nAREA 2...FROM YQT-90N SAW-BVT-OSW-OVR-MSP-YQT\nREF WW 541.\nWST ISSUANCES EXPD. REFER TO MOST RECENT ACUS01 KWNS FROM STORM\nPREDICTION CENTER FOR SYNOPSIS AND METEOROLOGICAL DETAILS.\n\nAREA 3...FROM BVT-130ESE LEV-130SSW LCH-70E BRO-90S\nLRD-LRD-GGG-OSW-BVT\nWST ISSUANCES EXPD. REFER TO MOST RECENT ACUS01 KWNS FROM STORM\nPREDICTION CENTER FOR SYNOPSIS AND METEOROLOGICAL DETAILS.",
                "validTimeTo": [
                    "2026-08-07T23:55"
                ]
            }
        },
        {
            "type": "Feature",
            "geometry": {
                "type": "Polygon",
                "coordinates": [
                    [
                        [
                            -97.798,
                            28.027
                        ],
                        [
                            -97.38,
                            25.92
                        ],
                        [
                            -98.921,
                            26.4
                        ],
                        [
                            -98.726,
                            27.733
                        ],
                        [
                            -97.798,
                            28.027
                        ]
                    ]
                ]
            },
            "properties": {
                "airSigmetId": null,
                "airportIcao": "KKCI",
                "airSigmetType": "SIGMET",
                "hazard": "CONVECTIVE",
                "severity": 5,
                "altitudeLow1": null,
                "altitudeLow2": null,
                "altitudeHi1": 45000,
                "altitudeHi2": 60000,
                "movementDir": 160,
                "movementSpd": 10,
                "rawAirSigmet": "WSUS32 KKCI 072155\nSIGC \nCONVECTIVE SIGMET 72C\nVALID UNTIL 2355Z\nTX\nFROM 20WNW CRP-BRO-70SSE LRD-40ENE LRD-20WNW CRP\nAREA TS MOV FROM 16010KT. TOPS ABV FL450.\n\nOUTLOOK VALID 072355-080355\nAREA 1...FROM ALS-OSW-40W TXK-CDS-50SW MRF-ELP-ALS\nWST ISSUANCES EXPD. REFER TO MOST RECENT ACUS01 KWNS FROM STORM\nPREDICTION CENTER FOR SYNOPSIS AND METEOROLOGICAL DETAILS.\n\nAREA 2...FROM YQT-90N SAW-BVT-OSW-OVR-MSP-YQT\nREF WW 541.\nWST ISSUANCES EXPD. REFER TO MOST RECENT ACUS01 KWNS FROM STORM\nPREDICTION CENTER FOR SYNOPSIS AND METEOROLOGICAL DETAILS.\n\nAREA 3...FROM BVT-130ESE LEV-130SSW LCH-70E BRO-90S\nLRD-LRD-GGG-OSW-BVT\nWST ISSUANCES EXPD. REFER TO MOST RECENT ACUS01 KWNS FROM STORM\nPREDICTION CENTER FOR SYNOPSIS AND METEOROLOGICAL DETAILS.",
                "validTimeTo": [
                    "2026-08-07T23:55"
                ]
            }
        },
        {
            "type": "Feature",
            "geometry": {
                "type": "Polygon",
                "coordinates": [
                    [
                        [
                            -88.319,
                            48.366
                        ],
                        [
                            -86.646,
                            47.586
                        ],
                        [
                            -88.19,
                            44.56
                        ],
                        [
                            -91.652,
                            45.877
                        ],
                        [
                            -90.543,
                            47.538
                        ],
                        [
                            -88.319,
                            48.366
                        ]
                    ]
                ]
            },
            "properties": {
                "airSigmetId": null,
                "airportIcao": "KKCI",
                "airSigmetType": "SIGMET",
                "hazard": "CONVECTIVE",
                "severity": 5,
                "altitudeLow1": null,
                "altitudeLow2": null,
                "altitudeHi1": 45000,
                "altitudeHi2": 60000,
                "movementDir": 260,
                "movementSpd": 10,
                "rawAirSigmet": "WSUS32 KKCI 072155\nSIGC \nCONVECTIVE SIGMET 73C\nVALID UNTIL 2355Z\nMI WI LS\nFROM 40E YQT-80NNE SAW-GRB-60SSE DLH-70SW YQT-40E YQT\nAREA TS MOV FROM 26010KT. TOPS ABV FL450.\n\nOUTLOOK VALID 072355-080355\nAREA 1...FROM ALS-OSW-40W TXK-CDS-50SW MRF-ELP-ALS\nWST ISSUANCES EXPD. REFER TO MOST RECENT ACUS01 KWNS FROM STORM\nPREDICTION CENTER FOR SYNOPSIS AND METEOROLOGICAL DETAILS.\n\nAREA 2...FROM YQT-90N SAW-BVT-OSW-OVR-MSP-YQT\nREF WW 541.\nWST ISSUANCES EXPD. REFER TO MOST RECENT ACUS01 KWNS FROM STORM\nPREDICTION CENTER FOR SYNOPSIS AND METEOROLOGICAL DETAILS.\n\nAREA 3...FROM BVT-130ESE LEV-130SSW LCH-70E BRO-90S\nLRD-LRD-GGG-OSW-BVT\nWST ISSUANCES EXPD. REFER TO MOST RECENT ACUS01 KWNS FROM STORM\nPREDICTION CENTER FOR SYNOPSIS AND METEOROLOGICAL DETAILS.",
                "validTimeTo": [
                    "2026-08-07T23:55"
                ]
            }
        },
        {
            "type": "Feature",
            "geometry": {
                "type": "Polygon",
                "coordinates": [
                    [
                        [
                            -104.66,
                            39.145
                        ],
                        [
                            -103.914,
                            36.166
                        ],
                        [
                            -106.28,
                            31.82
                        ],
                        [
                            -107.397,
                            35.509
                        ],
                        [
                            -107.04,
                            38.45
                        ],
                        [
                            -104.66,
                            39.145
                        ]
                    ]
                ]
            },
            "properties": {
                "airSigmetId": null,
                "airportIcao": "KKCI",
                "airSigmetType": "SIGMET",
                "hazard": "CONVECTIVE",
                "severity": 5,
                "altitudeLow1": null,
                "altitudeLow2": null,
                "altitudeHi1": 45000,
                "altitudeHi2": 60000,
                "movementDir": null,
                "movementSpd": null,
                "rawAirSigmet": "WSUS33 KKCI 072155\nSIGW \nCONVECTIVE SIGMET 38W\nVALID UNTIL 2355Z\nTX CO NM\nFROM 40S DEN-50ESE CIM-ELP-40NW ABQ-HBU-40S DEN\nAREA TS MOV LTL. TOPS ABV FL450.\n\nOUTLOOK VALID 072355-080355\nFROM FMG-DTA-ALS-ELP-60SSE SSO-50S TUS-SAC-FMG\nWST ISSUANCES EXPD. REFER TO MOST RECENT ACUS01 KWNS FROM STORM\nPREDICTION CENTER FOR SYNOPSIS AND METEOROLOGICAL DETAILS.",
                "validTimeTo": [
                    "2026-08-07T23:55"
                ]
            }
        },
        {
            "type": "Feature",
            "geometry": {
                "type": "Polygon",
                "coordinates": [
                    [
                        [
                            -113.76,
                            40.227
                        ],
                        [
                            -111.907,
                            38.828
                        ],
                        [
                            -111.714,
                            37.496
                        ],
                        [
                            -115.884,
                            35.269
                        ],
                        [
                            -117.77,
                            38
                        ],
                        [
                            -113.76,
                            40.227
                        ]
                    ]
                ]
            },
            "properties": {
                "airSigmetId": null,
                "airportIcao": "KKCI",
                "airSigmetType": "SIGMET",
                "hazard": "CONVECTIVE",
                "severity": 5,
                "altitudeLow1": null,
                "altitudeLow2": null,
                "altitudeHi1": 45000,
                "altitudeHi2": 45000,
                "movementDir": null,
                "movementSpd": null,
                "rawAirSigmet": "WSUS33 KKCI 072155\nSIGW \nCONVECTIVE SIGMET 39W\nVALID UNTIL 2355Z\nAZ UT NV CA\nFROM 30S BVL-40SE DTA-30ESE BCE-40NE HEC-OAL-30S BVL\nDVLPG AREA TS MOV LTL. TOPS TO FL450.\n\nOUTLOOK VALID 072355-080355\nFROM FMG-DTA-ALS-ELP-60SSE SSO-50S TUS-SAC-FMG\nWST ISSUANCES EXPD. REFER TO MOST RECENT ACUS01 KWNS FROM STORM\nPREDICTION CENTER FOR SYNOPSIS AND METEOROLOGICAL DETAILS.",
                "validTimeTo": [
                    "2026-08-07T23:55"
                ]
            }
        },
        {
            "type": "Feature",
            "geometry": {
                "type": "Polygon",
                "coordinates": [
                    [
                        [
                            -119.201,
                            39.173
                        ],
                        [
                            -118.329,
                            36.92
                        ],
                        [
                            -119.607,
                            36.88
                        ],
                        [
                            -119.987,
                            38.915
                        ],
                        [
                            -119.201,
                            39.173
                        ]
                    ]
                ]
            },
            "properties": {
                "airSigmetId": null,
                "airportIcao": "KKCI",
                "airSigmetType": "SIGMET",
                "hazard": "CONVECTIVE",
                "severity": 5,
                "altitudeLow1": null,
                "altitudeLow2": null,
                "altitudeHi1": 35000,
                "altitudeHi2": 35000,
                "movementDir": null,
                "movementSpd": null,
                "rawAirSigmet": "WSUS33 KKCI 072155\nSIGW \nCONVECTIVE SIGMET 40W\nVALID UNTIL 2355Z\nNV CA\nFROM 30SE FMG-70SSW OAL-10E CZQ-40SSW FMG-30SE FMG\nDVLPG AREA TS MOV LTL. TOPS TO FL350.\n\nOUTLOOK VALID 072355-080355\nFROM FMG-DTA-ALS-ELP-60SSE SSO-50S TUS-SAC-FMG\nWST ISSUANCES EXPD. REFER TO MOST RECENT ACUS01 KWNS FROM STORM\nPREDICTION CENTER FOR SYNOPSIS AND METEOROLOGICAL DETAILS.",
                "validTimeTo": [
                    "2026-08-07T23:55"
                ]
            }
        },
        {
            "type": "Feature",
            "geometry": {
                "type": "Polygon",
                "coordinates": [
                    [
                        [
                            -107.04,
                            37.615
                        ],
                        [
                            -107.6,
                            32.28
                        ],
                        [
                            -110.92,
                            31.265
                        ],
                        [
                            -112.619,
                            37.075
                        ],
                        [
                            -107.04,
                            37.615
                        ]
                    ]
                ]
            },
            "properties": {
                "airSigmetId": null,
                "airportIcao": "KKCI",
                "airSigmetType": "SIGMET",
                "hazard": "CONVECTIVE",
                "severity": 5,
                "altitudeLow1": null,
                "altitudeLow2": null,
                "altitudeHi1": 45000,
                "altitudeHi2": 60000,
                "movementDir": null,
                "movementSpd": null,
                "rawAirSigmet": "WSUS33 KKCI 072155\nSIGW \nCONVECTIVE SIGMET 41W\nVALID UNTIL 2355Z\nCO NM AZ UT\nFROM 50S HBU-DMN-50S TUS-40SSW BCE-50S HBU\nDVLPG AREA TS MOV LTL. TOPS ABV FL450.\n\nOUTLOOK VALID 072355-080355\nFROM FMG-DTA-ALS-ELP-60SSE SSO-50S TUS-SAC-FMG\nWST ISSUANCES EXPD. REFER TO MOST RECENT ACUS01 KWNS FROM STORM\nPREDICTION CENTER FOR SYNOPSIS AND METEOROLOGICAL DETAILS.",
                "validTimeTo": [
                    "2026-08-07T23:55"
                ]
            }
        },
        {
            "type": "Feature",
            "geometry": {
                "type": "Polygon",
                "coordinates": [
                    [
                        [
                            -105.357,
                            33.592
                        ],
                        [
                            -103.565,
                            30.299
                        ],
                        [
                            -104.492,
                            29.829
                        ],
                        [
                            -106.28,
                            31.82
                        ],
                        [
                            -105.357,
                            33.592
                        ]
                    ]
                ]
            },
            "properties": {
                "airSigmetId": null,
                "airportIcao": "KKCI",
                "airSigmetType": "SIGMET",
                "hazard": "CONVECTIVE",
                "severity": 5,
                "altitudeLow1": null,
                "altitudeLow2": null,
                "altitudeHi1": 45000,
                "altitudeHi2": 60000,
                "movementDir": 70,
                "movementSpd": 15,
                "rawAirSigmet": "WSUS33 KKCI 072155\nSIGW \nCONVECTIVE SIGMET 42W\nVALID UNTIL 2355Z\nTX NM\nFROM 40WNW CME-20E MRF-40SW MRF-ELP-40WNW CME\nAREA SEV TS MOV FROM 07015KT. TOPS ABV FL450.\nHAIL TO 1 IN...WIND GUSTS TO 55KT POSS.\n\nOUTLOOK VALID 072355-080355\nFROM FMG-DTA-ALS-ELP-60SSE SSO-50S TUS-SAC-FMG\nWST ISSUANCES EXPD. REFER TO MOST RECENT ACUS01 KWNS FROM STORM\nPREDICTION CENTER FOR SYNOPSIS AND METEOROLOGICAL DETAILS.",
                "validTimeTo": [
                    "2026-08-07T23:55"
                ]
            }
        },
        {
            "type": "Feature",
            "geometry": {
                "type": "Polygon",
                "coordinates": [
                    [
                        [
                            -78.161,
                            43.285
                        ],
                        [
                            -77.509,
                            42.924
                        ],
                        [
                            -78.285,
                            41.745
                        ],
                        [
                            -80.615,
                            41.785
                        ],
                        [
                            -78.161,
                            43.285
                        ]
                    ]
                ]
            },
            "properties": {
                "airSigmetId": null,
                "airportIcao": "KKCI",
                "airSigmetType": "SIGMET",
                "hazard": "CONVECTIVE",
                "severity": 5,
                "altitudeLow1": null,
                "altitudeLow2": null,
                "altitudeHi1": 35000,
                "altitudeHi2": 35000,
                "movementDir": 250,
                "movementSpd": 15,
                "rawAirSigmet": "WSUS31 KKCI 072155\nSIGE \nCONVECTIVE SIGMET 61E\nVALID UNTIL 2355Z\nNY PA LE\nFROM 30NE BUF-50E BUF-20NW SLT-20SW ERI-30NE BUF\nAREA TS MOV FROM 25015KT. TOPS TO FL350.\n\nOUTLOOK VALID 072355-080355\nAREA 1...FROM 140SSE ILM-220ENE PBI-160SE MIA-80WSW EYW-210S\nCEW-CEW-140SSE ILM\nWST ISSUANCES EXPD. REFER TO MOST RECENT ACUS01 KWNS FROM STORM\nPREDICTION CENTER FOR SYNOPSIS AND METEOROLOGICAL DETAILS.\n\nAREA 2...FROM MLT-170ESE ECG-140SSE ILM-MSL-BVT-CLE-MLT\nREF WW 540.\nWST ISSUANCES EXPD. REFER TO MOST RECENT ACUS01 KWNS FROM STORM\nPREDICTION CENTER FOR SYNOPSIS AND METEOROLOGICAL DETAILS.\n\nAREA 3...FROM MSL-140SSE ILM-220ENE PBI-160SE MIA-80WSW EYW-100W\nPIE-170SE LEV-MSL\nWST ISSUANCES EXPD. REFER TO MOST RECENT ACUS01 KWNS FROM STORM\nPREDICTION CENTER FOR SYNOPSIS AND METEOROLOGICAL DETAILS.",
                "validTimeTo": [
                    "2026-08-07T23:55"
                ]
            }
        },
        {
            "type": "Feature",
            "geometry": {
                "type": "Polygon",
                "coordinates": [
                    [
                        [
                            -85.103,
                            41.138
                        ],
                        [
                            -80.82,
                            40.02
                        ],
                        [
                            -81.572,
                            38.135
                        ],
                        [
                            -83.636,
                            37.95
                        ],
                        [
                            -86.536,
                            40.117
                        ],
                        [
                            -85.103,
                            41.138
                        ]
                    ]
                ]
            },
            "properties": {
                "airSigmetId": null,
                "airportIcao": "KKCI",
                "airSigmetType": "SIGMET",
                "hazard": "CONVECTIVE",
                "severity": 5,
                "altitudeLow1": null,
                "altitudeLow2": null,
                "altitudeHi1": 45000,
                "altitudeHi2": 60000,
                "movementDir": 240,
                "movementSpd": 25,
                "rawAirSigmet": "WSUS31 KKCI 072155\nSIGE \nCONVECTIVE SIGMET 62E\nVALID UNTIL 2355Z\nWV OH KY IN\nFROM 10NNE FWA-AIR-30NW BKW-60NNE LOZ-20NNW IND-10NNE FWA\nAREA TS MOV FROM 24025KT. TOPS ABV FL450.\n\nOUTLOOK VALID 072355-080355\nAREA 1...FROM 140SSE ILM-220ENE PBI-160SE MIA-80WSW EYW-210S\nCEW-CEW-140SSE ILM\nWST ISSUANCES EXPD. REFER TO MOST RECENT ACUS01 KWNS FROM STORM\nPREDICTION CENTER FOR SYNOPSIS AND METEOROLOGICAL DETAILS.\n\nAREA 2...FROM MLT-170ESE ECG-140SSE ILM-MSL-BVT-CLE-MLT\nREF WW 540.\nWST ISSUANCES EXPD. REFER TO MOST RECENT ACUS01 KWNS FROM STORM\nPREDICTION CENTER FOR SYNOPSIS AND METEOROLOGICAL DETAILS.\n\nAREA 3...FROM MSL-140SSE ILM-220ENE PBI-160SE MIA-80WSW EYW-100W\nPIE-170SE LEV-MSL\nWST ISSUANCES EXPD. REFER TO MOST RECENT ACUS01 KWNS FROM STORM\nPREDICTION CENTER FOR SYNOPSIS AND METEOROLOGICAL DETAILS.",
                "validTimeTo": [
                    "2026-08-07T23:55"
                ]
            }
        },
        {
            "type": "Feature",
            "geometry": {
                "type": "Polygon",
                "coordinates": [
                    [
                        [
                            -74.01,
                            44.908
                        ],
                        [
                            -72.57,
                            44.22
                        ],
                        [
                            -72.998,
                            40.037
                        ],
                        [
                            -74.8,
                            39.1
                        ],
                        [
                            -77.02,
                            40.23
                        ],
                        [
                            -74.01,
                            44.908
                        ]
                    ]
                ]
            },
            "properties": {
                "airSigmetId": null,
                "airportIcao": "KKCI",
                "airSigmetType": "SIGMET",
                "hazard": "CONVECTIVE",
                "severity": 5,
                "altitudeLow1": null,
                "altitudeLow2": null,
                "altitudeHi1": 45000,
                "altitudeHi2": 60000,
                "movementDir": 250,
                "movementSpd": 30,
                "rawAirSigmet": "WSUS31 KKCI 072155\nSIGE \nCONVECTIVE SIGMET 63E\nVALID UNTIL 2355Z\nMA VT CT NY NJ PA DE MD AND NJ NY CT CSTL WTRS\nFROM 30E MSS-MPV-50SE JFK-SIE-HAR-30E MSS\nAREA SEV TS MOV FROM 25030KT. TOPS ABV FL450.\nHAIL TO 1 IN...WIND GUSTS TO 55KT POSS.\n\nOUTLOOK VALID 072355-080355\nAREA 1...FROM 140SSE ILM-220ENE PBI-160SE MIA-80WSW EYW-210S\nCEW-CEW-140SSE ILM\nWST ISSUANCES EXPD. REFER TO MOST RECENT ACUS01 KWNS FROM STORM\nPREDICTION CENTER FOR SYNOPSIS AND METEOROLOGICAL DETAILS.\n\nAREA 2...FROM MLT-170ESE ECG-140SSE ILM-MSL-BVT-CLE-MLT\nREF WW 540.\nWST ISSUANCES EXPD. REFER TO MOST RECENT ACUS01 KWNS FROM STORM\nPREDICTION CENTER FOR SYNOPSIS AND METEOROLOGICAL DETAILS.\n\nAREA 3...FROM MSL-140SSE ILM-220ENE PBI-160SE MIA-80WSW EYW-100W\nPIE-170SE LEV-MSL\nWST ISSUANCES EXPD. REFER TO MOST RECENT ACUS01 KWNS FROM STORM\nPREDICTION CENTER FOR SYNOPSIS AND METEOROLOGICAL DETAILS.",
                "validTimeTo": [
                    "2026-08-07T23:55"
                ]
            }
        },
        {
            "type": "Feature",
            "geometry": {
                "type": "Polygon",
                "coordinates": [
                    [
                        [
                            -78.932,
                            31.945
                        ],
                        [
                            -77.862,
                            28.611
                        ],
                        [
                            -79.132,
                            24.735
                        ],
                        [
                            -83.147,
                            26.015
                        ],
                        [
                            -85.436,
                            30.174
                        ],
                        [
                            -78.932,
                            31.945
                        ]
                    ]
                ]
            },
            "properties": {
                "airSigmetId": null,
                "airportIcao": "KKCI",
                "airSigmetType": "SIGMET",
                "hazard": "CONVECTIVE",
                "severity": 5,
                "altitudeLow1": null,
                "altitudeLow2": null,
                "altitudeHi1": 45000,
                "altitudeHi2": 60000,
                "movementDir": 140,
                "movementSpd": 10,
                "rawAirSigmet": "WSUS31 KKCI 072155\nSIGE \nCONVECTIVE SIGMET 64E\nVALID UNTIL 2355Z\nFL GA AND CSTL WTRS\nFROM 80SE CHS-150ENE TRV-90SE MIA-80WSW RSW-60WSW TLH-80SE CHS\nAREA TS MOV FROM 14010KT. TOPS ABV FL450.\nREF INTL SIGMET KILO SERIES.\n\nOUTLOOK VALID 072355-080355\nAREA 1...FROM 140SSE ILM-220ENE PBI-160SE MIA-80WSW EYW-210S\nCEW-CEW-140SSE ILM\nWST ISSUANCES EXPD. REFER TO MOST RECENT ACUS01 KWNS FROM STORM\nPREDICTION CENTER FOR SYNOPSIS AND METEOROLOGICAL DETAILS.\n\nAREA 2...FROM MLT-170ESE ECG-140SSE ILM-MSL-BVT-CLE-MLT\nREF WW 540.\nWST ISSUANCES EXPD. REFER TO MOST RECENT ACUS01 KWNS FROM STORM\nPREDICTION CENTER FOR SYNOPSIS AND METEOROLOGICAL DETAILS.\n\nAREA 3...FROM MSL-140SSE ILM-220ENE PBI-160SE MIA-80WSW EYW-100W\nPIE-170SE LEV-MSL\nWST ISSUANCES EXPD. REFER TO MOST RECENT ACUS01 KWNS FROM STORM\nPREDICTION CENTER FOR SYNOPSIS AND METEOROLOGICAL DETAILS.",
                "validTimeTo": [
                    "2026-08-07T23:55"
                ]
            }
        },
        {
            "type": "Feature",
            "geometry": {
                "type": "Polygon",
                "coordinates": [
                    [
                        [
                            -81.48,
                            34.215
                        ],
                        [
                            -80.04,
                            33.222
                        ],
                        [
                            -82.785,
                            31.305
                        ],
                        [
                            -83.286,
                            32.562
                        ],
                        [
                            -81.48,
                            34.215
                        ]
                    ]
                ]
            },
            "properties": {
                "airSigmetId": null,
                "airportIcao": "KKCI",
                "airSigmetType": "SIGMET",
                "hazard": "CONVECTIVE",
                "severity": 5,
                "altitudeLow1": null,
                "altitudeLow2": null,
                "altitudeHi1": 45000,
                "altitudeHi2": 60000,
                "movementDir": 200,
                "movementSpd": 5,
                "rawAirSigmet": "WSUS31 KKCI 072155\nSIGE \nCONVECTIVE SIGMET 65E\nVALID UNTIL 2355Z\nSC GA\nFROM 30NW CAE-20N CHS-20SW AMG-20ESE MCN-30NW CAE\nAREA TS MOV FROM 20005KT. TOPS ABV FL450.\n\nOUTLOOK VALID 072355-080355\nAREA 1...FROM 140SSE ILM-220ENE PBI-160SE MIA-80WSW EYW-210S\nCEW-CEW-140SSE ILM\nWST ISSUANCES EXPD. REFER TO MOST RECENT ACUS01 KWNS FROM STORM\nPREDICTION CENTER FOR SYNOPSIS AND METEOROLOGICAL DETAILS.\n\nAREA 2...FROM MLT-170ESE ECG-140SSE ILM-MSL-BVT-CLE-MLT\nREF WW 540.\nWST ISSUANCES EXPD. REFER TO MOST RECENT ACUS01 KWNS FROM STORM\nPREDICTION CENTER FOR SYNOPSIS AND METEOROLOGICAL DETAILS.\n\nAREA 3...FROM MSL-140SSE ILM-220ENE PBI-160SE MIA-80WSW EYW-100W\nPIE-170SE LEV-MSL\nWST ISSUANCES EXPD. REFER TO MOST RECENT ACUS01 KWNS FROM STORM\nPREDICTION CENTER FOR SYNOPSIS AND METEOROLOGICAL DETAILS.",
                "validTimeTo": [
                    "2026-08-07T23:55"
                ]
            }
        },
        {
            "type": "Feature",
            "geometry": {
                "type": "Polygon",
                "coordinates": [
                    [
                        [
                            -78.86,
                            35.712
                        ],
                        [
                            -77.437,
                            34.705
                        ],
                        [
                            -78.73,
                            33.907
                        ],
                        [
                            -79.426,
                            34.695
                        ],
                        [
                            -78.86,
                            35.712
                        ]
                    ]
                ]
            },
            "properties": {
                "airSigmetId": null,
                "airportIcao": "KKCI",
                "airSigmetType": "SIGMET",
                "hazard": "CONVECTIVE",
                "severity": 5,
                "altitudeLow1": null,
                "altitudeLow2": null,
                "altitudeHi1": 40000,
                "altitudeHi2": 40000,
                "movementDir": 180,
                "movementSpd": 10,
                "rawAirSigmet": "WSUS31 KKCI 072155\nSIGE \nCONVECTIVE SIGMET 66E\nVALID UNTIL 2355Z\nNC SC\nFROM 10SSW RDU-30NE ILM-50ESE FLO-30NNE FLO-10SSW RDU\nAREA TS MOV FROM 18010KT. TOPS TO FL400.\n\nOUTLOOK VALID 072355-080355\nAREA 1...FROM 140SSE ILM-220ENE PBI-160SE MIA-80WSW EYW-210S\nCEW-CEW-140SSE ILM\nWST ISSUANCES EXPD. REFER TO MOST RECENT ACUS01 KWNS FROM STORM\nPREDICTION CENTER FOR SYNOPSIS AND METEOROLOGICAL DETAILS.\n\nAREA 2...FROM MLT-170ESE ECG-140SSE ILM-MSL-BVT-CLE-MLT\nREF WW 540.\nWST ISSUANCES EXPD. REFER TO MOST RECENT ACUS01 KWNS FROM STORM\nPREDICTION CENTER FOR SYNOPSIS AND METEOROLOGICAL DETAILS.\n\nAREA 3...FROM MSL-140SSE ILM-220ENE PBI-160SE MIA-80WSW EYW-100W\nPIE-170SE LEV-MSL\nWST ISSUANCES EXPD. REFER TO MOST RECENT ACUS01 KWNS FROM STORM\nPREDICTION CENTER FOR SYNOPSIS AND METEOROLOGICAL DETAILS.",
                "validTimeTo": [
                    "2026-08-07T23:55"
                ]
            }
        },
        {
            "type": "Feature",
            "geometry": {
                "type": "Polygon",
                "coordinates": [
                    [
                        [
                            -79.871,
                            41.444
                        ],
                        [
                            -74.8,
                            39.1
                        ],
                        [
                            -79.743,
                            35.585
                        ],
                        [
                            -82.13,
                            36.611
                        ],
                        [
                            -79.871,
                            41.444
                        ]
                    ]
                ]
            },
            "properties": {
                "airSigmetId": null,
                "airportIcao": "KKCI",
                "airSigmetType": "SIGMET",
                "hazard": "CONVECTIVE",
                "severity": 5,
                "altitudeLow1": null,
                "altitudeLow2": null,
                "altitudeHi1": 45000,
                "altitudeHi2": 60000,
                "movementDir": 240,
                "movementSpd": 20,
                "rawAirSigmet": "WSUS31 KKCI 072155\nSIGE \nCONVECTIVE SIGMET 67E\nVALID UNTIL 2355Z\nNJ PA DE MD VA NC DC WV TN\nFROM 40NNE EWC-SIE-30SSE GSO-10N HMV-40NNE EWC\nAREA TS MOV FROM 24020KT. TOPS ABV FL450.\n\nOUTLOOK VALID 072355-080355\nAREA 1...FROM 140SSE ILM-220ENE PBI-160SE MIA-80WSW EYW-210S\nCEW-CEW-140SSE ILM\nWST ISSUANCES EXPD. REFER TO MOST RECENT ACUS01 KWNS FROM STORM\nPREDICTION CENTER FOR SYNOPSIS AND METEOROLOGICAL DETAILS.\n\nAREA 2...FROM MLT-170ESE ECG-140SSE ILM-MSL-BVT-CLE-MLT\nREF WW 540.\nWST ISSUANCES EXPD. REFER TO MOST RECENT ACUS01 KWNS FROM STORM\nPREDICTION CENTER FOR SYNOPSIS AND METEOROLOGICAL DETAILS.\n\nAREA 3...FROM MSL-140SSE ILM-220ENE PBI-160SE MIA-80WSW EYW-100W\nPIE-170SE LEV-MSL\nWST ISSUANCES EXPD. REFER TO MOST RECENT ACUS01 KWNS FROM STORM\nPREDICTION CENTER FOR SYNOPSIS AND METEOROLOGICAL DETAILS.",
                "validTimeTo": [
                    "2026-08-07T23:55"
                ]
            }
        },
        {
            "type": "Feature",
            "geometry": {
                "type": "Polygon",
                "coordinates": [
                    [
                        [
                            -83.672,
                            37.385
                        ],
                        [
                            -80.737,
                            35.793
                        ],
                        [
                            -86.68,
                            30.83
                        ],
                        [
                            -88.633,
                            30.495
                        ],
                        [
                            -86.44,
                            36.93
                        ],
                        [
                            -83.672,
                            37.385
                        ]
                    ]
                ]
            },
            "properties": {
                "airSigmetId": null,
                "airportIcao": "KKCI",
                "airSigmetType": "SIGMET",
                "hazard": "CONVECTIVE",
                "severity": 5,
                "altitudeLow1": null,
                "altitudeLow2": null,
                "altitudeHi1": 45000,
                "altitudeHi2": 45000,
                "movementDir": 230,
                "movementSpd": 20,
                "rawAirSigmet": "WSUS31 KKCI 072155\nSIGE \nCONVECTIVE SIGMET 68E\nVALID UNTIL 2355Z\nVA NC SC FL GA TN KY AL MS\nFROM 30NE LOZ-40WSW GSO-CEW-20SW SJI-BWG-30NE LOZ\nAREA SEV TS MOV FROM 23020KT. TOPS TO FL450.\nHAIL TO 1 IN...WIND GUSTS TO 55KT POSS.\n\nOUTLOOK VALID 072355-080355\nAREA 1...FROM 140SSE ILM-220ENE PBI-160SE MIA-80WSW EYW-210S\nCEW-CEW-140SSE ILM\nWST ISSUANCES EXPD. REFER TO MOST RECENT ACUS01 KWNS FROM STORM\nPREDICTION CENTER FOR SYNOPSIS AND METEOROLOGICAL DETAILS.\n\nAREA 2...FROM MLT-170ESE ECG-140SSE ILM-MSL-BVT-CLE-MLT\nREF WW 540.\nWST ISSUANCES EXPD. REFER TO MOST RECENT ACUS01 KWNS FROM STORM\nPREDICTION CENTER FOR SYNOPSIS AND METEOROLOGICAL DETAILS.\n\nAREA 3...FROM MSL-140SSE ILM-220ENE PBI-160SE MIA-80WSW EYW-100W\nPIE-170SE LEV-MSL\nWST ISSUANCES EXPD. REFER TO MOST RECENT ACUS01 KWNS FROM STORM\nPREDICTION CENTER FOR SYNOPSIS AND METEOROLOGICAL DETAILS.",
                "validTimeTo": [
                    "2026-08-07T23:55"
                ]
            }
        },
        {
            "type": "Feature",
            "geometry": {
                "type": "Polygon",
                "coordinates": [
                    [
                        [
                            -70.393,
                            43.745
                        ],
                        [
                            -70.149,
                            43.671
                        ],
                        [
                            -70.049,
                            43.494
                        ],
                        [
                            -70.15,
                            43.318
                        ],
                        [
                            -70.393,
                            43.245
                        ],
                        [
                            -70.636,
                            43.318
                        ],
                        [
                            -70.737,
                            43.494
                        ],
                        [
                            -70.637,
                            43.671
                        ],
                        [
                            -70.393,
                            43.745
                        ]
                    ]
                ]
            },
            "properties": {
                "airSigmetId": null,
                "airportIcao": "KKCI",
                "airSigmetType": "SIGMET",
                "hazard": "CONVECTIVE",
                "severity": 5,
                "altitudeLow1": null,
                "altitudeLow2": null,
                "altitudeHi1": 38000,
                "altitudeHi2": 38000,
                "movementDir": 260,
                "movementSpd": 15,
                "rawAirSigmet": "WSUS31 KKCI 072155\nSIGE \nCONVECTIVE SIGMET 69E\nVALID UNTIL 2355Z\nME AND CSTL WTRS\n10ENE ENE\nISOL TS D30 MOV FROM 26015KT. TOPS TO FL380.\n\nOUTLOOK VALID 072355-080355\nAREA 1...FROM 140SSE ILM-220ENE PBI-160SE MIA-80WSW EYW-210S\nCEW-CEW-140SSE ILM\nWST ISSUANCES EXPD. REFER TO MOST RECENT ACUS01 KWNS FROM STORM\nPREDICTION CENTER FOR SYNOPSIS AND METEOROLOGICAL DETAILS.\n\nAREA 2...FROM MLT-170ESE ECG-140SSE ILM-MSL-BVT-CLE-MLT\nREF WW 540.\nWST ISSUANCES EXPD. REFER TO MOST RECENT ACUS01 KWNS FROM STORM\nPREDICTION CENTER FOR SYNOPSIS AND METEOROLOGICAL DETAILS.\n\nAREA 3...FROM MSL-140SSE ILM-220ENE PBI-160SE MIA-80WSW EYW-100W\nPIE-170SE LEV-MSL\nWST ISSUANCES EXPD. REFER TO MOST RECENT ACUS01 KWNS FROM STORM\nPREDICTION CENTER FOR SYNOPSIS AND METEOROLOGICAL DETAILS.",
                "validTimeTo": [
                    "2026-08-07T23:55"
                ]
            }
        }
    ],
    "metadata": {
        "creationTime": "2026-08-07T22:46"
    }
}