{
    "type": "FeatureCollection",
    "features": [
        {
            "type": "Feature",
            "geometry": {
                "type": "Polygon",
                "coordinates": [
                    [
                        [
                            -90.494,
                            41.515
                        ],
                        [
                            -86.667,
                            40.432
                        ],
                        [
                            -87.002,
                            39.025
                        ],
                        [
                            -88.85,
                            38.733
                        ],
                        [
                            -91.028,
                            40.314
                        ],
                        [
                            -90.494,
                            41.515
                        ]
                    ]
                ]
            },
            "properties": {
                "airSigmetId": null,
                "airportIcao": "KKCI",
                "airSigmetType": "SIGMET",
                "hazard": "CONVECTIVE",
                "severity": 5,
                "altitudeLow1": null,
                "altitudeLow2": null,
                "altitudeHi1": 45000,
                "altitudeHi2": 60000,
                "movementDir": 270,
                "movementSpd": 30,
                "rawAirSigmet": "WSUS32 KKCI 161955\nSIGC \nCONVECTIVE SIGMET 92C\nVALID UNTIL 2155Z\nIN IL\nFROM 50E IOW-20ESE BVT-30SSE TTH-60S AXC-30NNE UIN-50E IOW\nAREA SEV EMBD TS MOV FROM 27030KT. TOPS ABV FL450.\nWIND GUSTS TO 50KT POSS.\n\nOUTLOOK VALID 162155-170155\nAREA 1...FROM 30W PMM-40NW BWG-MEM-TXK-40NE ABI-INK-30ENE\nTCC-GCK-ICT-MCI-IRK-40ESE DBQ-30W PMM\nWST ISSUANCES EXPD. REFER TO MOST RECENT ACUS01 KWNS FROM STORM\nPREDICTION CENTER FOR SYNOPSIS AND METEOROLOGICAL DETAILS.\n\nAREA 2...FROM 30SSW VUZ-130S CEW-40SSW LEV-30SE LCH-30NW\nMHZ-30SSW VUZ\nWST ISSUANCES EXPD. REFER TO MOST RECENT ACUS01 KWNS FROM STORM\nPREDICTION CENTER FOR SYNOPSIS AND METEOROLOGICAL DETAILS.\n\nAREA 3...FROM 50NNW GGW-60NE ISN-PIR-GCK-30ENE TCC-INK-80SSE\nFST-110SSE MRF-50SW MRF-ELP-40SE DMN-HBU-50NNW GGW\nWST ISSUANCES POSS. REFER TO MOST RECENT ACUS01 KWNS FROM STORM\nPREDICTION CENTER FOR SYNOPSIS AND METEOROLOGICAL DETAILS.",
                "validTimeTo": [
                    "2026-08-16T21:55"
                ]
            }
        },
        {
            "type": "Feature",
            "geometry": {
                "type": "Polygon",
                "coordinates": [
                    [
                        [
                            -103.44,
                            47.873
                        ],
                        [
                            -102.832,
                            44.287
                        ],
                        [
                            -103.449,
                            43.207
                        ],
                        [
                            -106.218,
                            45.428
                        ],
                        [
                            -105.586,
                            47.51
                        ],
                        [
                            -103.44,
                            47.873
                        ]
                    ]
                ]
            },
            "properties": {
                "airSigmetId": null,
                "airportIcao": "KKCI",
                "airSigmetType": "SIGMET",
                "hazard": "CONVECTIVE",
                "severity": 5,
                "altitudeLow1": null,
                "altitudeLow2": null,
                "altitudeHi1": 30000,
                "altitudeHi2": 30000,
                "movementDir": 260,
                "movementSpd": 25,
                "rawAirSigmet": "WSUS32 KKCI 161955\nSIGC \nCONVECTIVE SIGMET 93C\nVALID UNTIL 2155Z\nSD ND MT WY\nFROM 20SSE ISN-20NNE RAP-50SSW RAP-50NE SHR-60SE GGW-20SSE ISN\nAREA TS MOV FROM 26025KT. TOPS TO FL300.\n\nOUTLOOK VALID 162155-170155\nAREA 1...FROM 30W PMM-40NW BWG-MEM-TXK-40NE ABI-INK-30ENE\nTCC-GCK-ICT-MCI-IRK-40ESE DBQ-30W PMM\nWST ISSUANCES EXPD. REFER TO MOST RECENT ACUS01 KWNS FROM STORM\nPREDICTION CENTER FOR SYNOPSIS AND METEOROLOGICAL DETAILS.\n\nAREA 2...FROM 30SSW VUZ-130S CEW-40SSW LEV-30SE LCH-30NW\nMHZ-30SSW VUZ\nWST ISSUANCES EXPD. REFER TO MOST RECENT ACUS01 KWNS FROM STORM\nPREDICTION CENTER FOR SYNOPSIS AND METEOROLOGICAL DETAILS.\n\nAREA 3...FROM 50NNW GGW-60NE ISN-PIR-GCK-30ENE TCC-INK-80SSE\nFST-110SSE MRF-50SW MRF-ELP-40SE DMN-HBU-50NNW GGW\nWST ISSUANCES POSS. REFER TO MOST RECENT ACUS01 KWNS FROM STORM\nPREDICTION CENTER FOR SYNOPSIS AND METEOROLOGICAL DETAILS.",
                "validTimeTo": [
                    "2026-08-16T21:55"
                ]
            }
        },
        {
            "type": "Feature",
            "geometry": {
                "type": "Polygon",
                "coordinates": [
                    [
                        [
                            -91.585,
                            37.215
                        ],
                        [
                            -91.107,
                            35.803
                        ],
                        [
                            -92.033,
                            34.559
                        ],
                        [
                            -94.457,
                            34.281
                        ],
                        [
                            -93.571,
                            36.895
                        ],
                        [
                            -91.585,
                            37.215
                        ]
                    ]
                ]
            },
            "properties": {
                "airSigmetId": null,
                "airportIcao": "KKCI",
                "airSigmetType": "SIGMET",
                "hazard": "CONVECTIVE",
                "severity": 5,
                "altitudeLow1": null,
                "altitudeLow2": null,
                "altitudeHi1": 45000,
                "altitudeHi2": 60000,
                "movementDir": 270,
                "movementSpd": 10,
                "rawAirSigmet": "WSUS32 KKCI 161955\nSIGC \nCONVECTIVE SIGMET 94C\nVALID UNTIL 2155Z\nMO AR\nFROM 70WSW FAM-20SSW ARG-10SE LIT-50NNW TXK-30SSW SGF-70WSW FAM\nAREA TS MOV FROM 27010KT. TOPS ABV FL450.\n\nOUTLOOK VALID 162155-170155\nAREA 1...FROM 30W PMM-40NW BWG-MEM-TXK-40NE ABI-INK-30ENE\nTCC-GCK-ICT-MCI-IRK-40ESE DBQ-30W PMM\nWST ISSUANCES EXPD. REFER TO MOST RECENT ACUS01 KWNS FROM STORM\nPREDICTION CENTER FOR SYNOPSIS AND METEOROLOGICAL DETAILS.\n\nAREA 2...FROM 30SSW VUZ-130S CEW-40SSW LEV-30SE LCH-30NW\nMHZ-30SSW VUZ\nWST ISSUANCES EXPD. REFER TO MOST RECENT ACUS01 KWNS FROM STORM\nPREDICTION CENTER FOR SYNOPSIS AND METEOROLOGICAL DETAILS.\n\nAREA 3...FROM 50NNW GGW-60NE ISN-PIR-GCK-30ENE TCC-INK-80SSE\nFST-110SSE MRF-50SW MRF-ELP-40SE DMN-HBU-50NNW GGW\nWST ISSUANCES POSS. REFER TO MOST RECENT ACUS01 KWNS FROM STORM\nPREDICTION CENTER FOR SYNOPSIS AND METEOROLOGICAL DETAILS.",
                "validTimeTo": [
                    "2026-08-16T21:55"
                ]
            }
        },
        {
            "type": "Feature",
            "geometry": {
                "type": "Polygon",
                "coordinates": [
                    [
                        [
                            -103.091,
                            31.563
                        ],
                        [
                            -102.832,
                            30.643
                        ],
                        [
                            -104.317,
                            29.528
                        ],
                        [
                            -104.918,
                            30.296
                        ],
                        [
                            -104.773,
                            31.003
                        ],
                        [
                            -103.091,
                            31.563
                        ]
                    ]
                ]
            },
            "properties": {
                "airSigmetId": null,
                "airportIcao": "KKCI",
                "airSigmetType": "SIGMET",
                "hazard": "CONVECTIVE",
                "severity": 5,
                "altitudeLow1": null,
                "altitudeLow2": null,
                "altitudeHi1": 31000,
                "altitudeHi2": 31000,
                "movementDir": 270,
                "movementSpd": 25,
                "rawAirSigmet": "WSUS32 KKCI 161955\nSIGC \nCONVECTIVE SIGMET 95C\nVALID UNTIL 2155Z\nTX\nFROM 20SSE INK-20SSE FST-50SSW MRF-50W MRF-60NW MRF-20SSE INK\nAREA TS MOV FROM 27025KT. TOPS TO FL310.\n\nOUTLOOK VALID 162155-170155\nAREA 1...FROM 30W PMM-40NW BWG-MEM-TXK-40NE ABI-INK-30ENE\nTCC-GCK-ICT-MCI-IRK-40ESE DBQ-30W PMM\nWST ISSUANCES EXPD. REFER TO MOST RECENT ACUS01 KWNS FROM STORM\nPREDICTION CENTER FOR SYNOPSIS AND METEOROLOGICAL DETAILS.\n\nAREA 2...FROM 30SSW VUZ-130S CEW-40SSW LEV-30SE LCH-30NW\nMHZ-30SSW VUZ\nWST ISSUANCES EXPD. REFER TO MOST RECENT ACUS01 KWNS FROM STORM\nPREDICTION CENTER FOR SYNOPSIS AND METEOROLOGICAL DETAILS.\n\nAREA 3...FROM 50NNW GGW-60NE ISN-PIR-GCK-30ENE TCC-INK-80SSE\nFST-110SSE MRF-50SW MRF-ELP-40SE DMN-HBU-50NNW GGW\nWST ISSUANCES POSS. REFER TO MOST RECENT ACUS01 KWNS FROM STORM\nPREDICTION CENTER FOR SYNOPSIS AND METEOROLOGICAL DETAILS.",
                "validTimeTo": [
                    "2026-08-16T21:55"
                ]
            }
        },
        {
            "type": "Feature",
            "geometry": {
                "type": "Polygon",
                "coordinates": [
                    [
                        [
                            -88.151,
                            33.607
                        ],
                        [
                            -86.135,
                            30.359
                        ],
                        [
                            -89.73,
                            29.615
                        ],
                        [
                            -91.957,
                            31.066
                        ],
                        [
                            -90.51,
                            32.995
                        ],
                        [
                            -88.151,
                            33.607
                        ]
                    ]
                ]
            },
            "properties": {
                "airSigmetId": null,
                "airportIcao": "KKCI",
                "airSigmetType": "SIGMET",
                "hazard": "CONVECTIVE",
                "severity": 5,
                "altitudeLow1": null,
                "altitudeLow2": null,
                "altitudeHi1": 45000,
                "altitudeHi2": 60000,
                "movementDir": null,
                "movementSpd": null,
                "rawAirSigmet": "WSUS32 KKCI 161955\nSIGC \nCONVECTIVE SIGMET 96C\nVALID UNTIL 2155Z\nFL AL MS LA AND CSTL WTRS\nFROM 20ENE IGB-40SE CEW-20SE HRV-30ESE AEX-30SSW SQS-20ENE IGB\nAREA TS MOV LTL. TOPS ABV FL450.\n\nOUTLOOK VALID 162155-170155\nAREA 1...FROM 30W PMM-40NW BWG-MEM-TXK-40NE ABI-INK-30ENE\nTCC-GCK-ICT-MCI-IRK-40ESE DBQ-30W PMM\nWST ISSUANCES EXPD. REFER TO MOST RECENT ACUS01 KWNS FROM STORM\nPREDICTION CENTER FOR SYNOPSIS AND METEOROLOGICAL DETAILS.\n\nAREA 2...FROM 30SSW VUZ-130S CEW-40SSW LEV-30SE LCH-30NW\nMHZ-30SSW VUZ\nWST ISSUANCES EXPD. REFER TO MOST RECENT ACUS01 KWNS FROM STORM\nPREDICTION CENTER FOR SYNOPSIS AND METEOROLOGICAL DETAILS.\n\nAREA 3...FROM 50NNW GGW-60NE ISN-PIR-GCK-30ENE TCC-INK-80SSE\nFST-110SSE MRF-50SW MRF-ELP-40SE DMN-HBU-50NNW GGW\nWST ISSUANCES POSS. REFER TO MOST RECENT ACUS01 KWNS FROM STORM\nPREDICTION CENTER FOR SYNOPSIS AND METEOROLOGICAL DETAILS.",
                "validTimeTo": [
                    "2026-08-16T21:55"
                ]
            }
        },
        {
            "type": "Feature",
            "geometry": {
                "type": "Polygon",
                "coordinates": [
                    [
                        [
                            -104.512,
                            41.674
                        ],
                        [
                            -102.69,
                            39.035
                        ],
                        [
                            -103.975,
                            35.052
                        ],
                        [
                            -106.586,
                            34.575
                        ],
                        [
                            -106.832,
                            41.325
                        ],
                        [
                            -104.512,
                            41.674
                        ]
                    ]
                ]
            },
            "properties": {
                "airSigmetId": null,
                "airportIcao": "KKCI",
                "airSigmetType": "SIGMET",
                "hazard": "CONVECTIVE",
                "severity": 5,
                "altitudeLow1": null,
                "altitudeLow2": null,
                "altitudeHi1": 45000,
                "altitudeHi2": 60000,
                "movementDir": 270,
                "movementSpd": 10,
                "rawAirSigmet": "WSUS32 KKCI 161955\nSIGC \nCONVECTIVE SIGMET 97C\nVALID UNTIL 2155Z\nCO NM WY\nFROM 30NNE CYS-50N LAA-20WSW TCC-30SSE ABQ-50W LAR-30NNE CYS\nAREA SEV TS MOV FROM 27010KT. TOPS ABV FL450.\nHAIL TO 1 IN...WIND GUSTS TO 50KT POSS.\n\nOUTLOOK VALID 162155-170155\nAREA 1...FROM 30W PMM-40NW BWG-MEM-TXK-40NE ABI-INK-30ENE\nTCC-GCK-ICT-MCI-IRK-40ESE DBQ-30W PMM\nWST ISSUANCES EXPD. REFER TO MOST RECENT ACUS01 KWNS FROM STORM\nPREDICTION CENTER FOR SYNOPSIS AND METEOROLOGICAL DETAILS.\n\nAREA 2...FROM 30SSW VUZ-130S CEW-40SSW LEV-30SE LCH-30NW\nMHZ-30SSW VUZ\nWST ISSUANCES EXPD. REFER TO MOST RECENT ACUS01 KWNS FROM STORM\nPREDICTION CENTER FOR SYNOPSIS AND METEOROLOGICAL DETAILS.\n\nAREA 3...FROM 50NNW GGW-60NE ISN-PIR-GCK-30ENE TCC-INK-80SSE\nFST-110SSE MRF-50SW MRF-ELP-40SE DMN-HBU-50NNW GGW\nWST ISSUANCES POSS. REFER TO MOST RECENT ACUS01 KWNS FROM STORM\nPREDICTION CENTER FOR SYNOPSIS AND METEOROLOGICAL DETAILS.",
                "validTimeTo": [
                    "2026-08-16T21:55"
                ]
            }
        },
        {
            "type": "Feature",
            "geometry": {
                "type": "Polygon",
                "coordinates": [
                    [
                        [
                            -105.14,
                            34.825
                        ],
                        [
                            -105.191,
                            32.197
                        ],
                        [
                            -106.872,
                            31.819
                        ],
                        [
                            -107.28,
                            33.109
                        ],
                        [
                            -106.586,
                            34.575
                        ],
                        [
                            -105.14,
                            34.825
                        ]
                    ]
                ]
            },
            "properties": {
                "airSigmetId": null,
                "airportIcao": "KKCI",
                "airSigmetType": "SIGMET",
                "hazard": "CONVECTIVE",
                "severity": 5,
                "altitudeLow1": null,
                "altitudeLow2": null,
                "altitudeHi1": 45000,
                "altitudeHi2": 60000,
                "movementDir": null,
                "movementSpd": null,
                "rawAirSigmet": "WSUS32 KKCI 161955\nSIGC \nCONVECTIVE SIGMET 98C\nVALID UNTIL 2155Z\nTX NM\nFROM 50S FTI-60ENE ELP-30W ELP-10S TCS-30SSE ABQ-50S FTI\nDVLPG AREA TS MOV LTL. TOPS ABV FL450.\n\nOUTLOOK VALID 162155-170155\nAREA 1...FROM 30W PMM-40NW BWG-MEM-TXK-40NE ABI-INK-30ENE\nTCC-GCK-ICT-MCI-IRK-40ESE DBQ-30W PMM\nWST ISSUANCES EXPD. REFER TO MOST RECENT ACUS01 KWNS FROM STORM\nPREDICTION CENTER FOR SYNOPSIS AND METEOROLOGICAL DETAILS.\n\nAREA 2...FROM 30SSW VUZ-130S CEW-40SSW LEV-30SE LCH-30NW\nMHZ-30SSW VUZ\nWST ISSUANCES EXPD. REFER TO MOST RECENT ACUS01 KWNS FROM STORM\nPREDICTION CENTER FOR SYNOPSIS AND METEOROLOGICAL DETAILS.\n\nAREA 3...FROM 50NNW GGW-60NE ISN-PIR-GCK-30ENE TCC-INK-80SSE\nFST-110SSE MRF-50SW MRF-ELP-40SE DMN-HBU-50NNW GGW\nWST ISSUANCES POSS. REFER TO MOST RECENT ACUS01 KWNS FROM STORM\nPREDICTION CENTER FOR SYNOPSIS AND METEOROLOGICAL DETAILS.",
                "validTimeTo": [
                    "2026-08-16T21:55"
                ]
            }
        },
        {
            "type": "Feature",
            "geometry": {
                "type": "Polygon",
                "coordinates": [
                    [
                        [
                            -77.02,
                            40.895
                        ],
                        [
                            -75.275,
                            40.706
                        ],
                        [
                            -74.637,
                            38.793
                        ],
                        [
                            -76.645,
                            38.987
                        ],
                        [
                            -77.02,
                            40.895
                        ]
                    ]
                ]
            },
            "properties": {
                "airSigmetId": null,
                "airportIcao": "KKCI",
                "airSigmetType": "SIGMET",
                "hazard": "CONVECTIVE",
                "severity": 5,
                "altitudeLow1": null,
                "altitudeLow2": null,
                "altitudeHi1": 31000,
                "altitudeHi2": 31000,
                "movementDir": 260,
                "movementSpd": 25,
                "rawAirSigmet": "WSUS31 KKCI 161955\nSIGE \nCONVECTIVE SIGMET 61E\nVALID UNTIL 2155Z\nNJ PA DE MD AND NJ CSTL WTRS\nFROM 40N HAR-20ENE ETX-20SSE SIE-20ENE DCA-40N HAR\nAREA EMBD TS MOV FROM 26025KT. TOPS TO FL310.\n\nOUTLOOK VALID 162155-170155\nFROM 30NE ECK-DXO-40WNW CLE-BUF-ALB-HTO-60SSE ECG-50SSE\nSAV-TRV-130S CEW-30SSW VUZ-HMV-40NW BWG-30W PMM-30NE ECK\nREF WW 586.\nWST ISSUANCES EXPD. REFER TO MOST RECENT ACUS01 KWNS FROM STORM\nPREDICTION CENTER FOR SYNOPSIS AND METEOROLOGICAL DETAILS.",
                "validTimeTo": [
                    "2026-08-16T21:55"
                ]
            }
        },
        {
            "type": "Feature",
            "geometry": {
                "type": "Polygon",
                "coordinates": [
                    [
                        [
                            -80.039,
                            42.484
                        ],
                        [
                            -79.395,
                            41.082
                        ],
                        [
                            -80.1,
                            38.417
                        ],
                        [
                            -82.925,
                            38.041
                        ],
                        [
                            -82.165,
                            41.655
                        ],
                        [
                            -80.039,
                            42.484
                        ]
                    ]
                ]
            },
            "properties": {
                "airSigmetId": null,
                "airportIcao": "KKCI",
                "airSigmetType": "SIGMET",
                "hazard": "CONVECTIVE",
                "severity": 5,
                "altitudeLow1": null,
                "altitudeLow2": null,
                "altitudeHi1": 45000,
                "altitudeHi2": 60000,
                "movementDir": 280,
                "movementSpd": 30,
                "rawAirSigmet": "WSUS31 KKCI 161955\nSIGE \nCONVECTIVE SIGMET 62E\nVALID UNTIL 2155Z\nPA WV OH KY LE\nFROM 30NNE ERI-40ENE EWC-30S EKN-60SW HNN-20NW CLE-30NNE ERI\nAREA SEV EMBD TS MOV FROM 28030KT. TOPS ABV FL450.\nTORNADOES...HAIL TO 1 IN...WIND GUSTS TO 50KT POSS.\n\nOUTLOOK VALID 162155-170155\nFROM 30NE ECK-DXO-40WNW CLE-BUF-ALB-HTO-60SSE ECG-50SSE\nSAV-TRV-130S CEW-30SSW VUZ-HMV-40NW BWG-30W PMM-30NE ECK\nREF WW 586.\nWST ISSUANCES EXPD. REFER TO MOST RECENT ACUS01 KWNS FROM STORM\nPREDICTION CENTER FOR SYNOPSIS AND METEOROLOGICAL DETAILS.",
                "validTimeTo": [
                    "2026-08-16T21:55"
                ]
            }
        },
        {
            "type": "Feature",
            "geometry": {
                "type": "Polygon",
                "coordinates": [
                    [
                        [
                            -76.829,
                            36.888
                        ],
                        [
                            -76.556,
                            34.79
                        ],
                        [
                            -81.51,
                            30.169
                        ],
                        [
                            -84.591,
                            32.274
                        ],
                        [
                            -81.554,
                            36.246
                        ],
                        [
                            -76.829,
                            36.888
                        ]
                    ]
                ]
            },
            "properties": {
                "airSigmetId": null,
                "airportIcao": "KKCI",
                "airSigmetType": "SIGMET",
                "hazard": "CONVECTIVE",
                "severity": 5,
                "altitudeLow1": null,
                "altitudeLow2": null,
                "altitudeHi1": 45000,
                "altitudeHi2": 60000,
                "movementDir": null,
                "movementSpd": null,
                "rawAirSigmet": "WSUS31 KKCI 161955\nSIGE \nCONVECTIVE SIGMET 63E\nVALID UNTIL 2155Z\nVA NC SC FL GA AND NC FL SC GA CSTL WTRS\nFROM 30W ORF-70ENE ILM-10S CRG-40NNW PZD-30ESE HMV-30W ORF\nAREA SEV TS MOV LTL. TOPS ABV FL450.\nHAIL TO 1 IN...WIND GUSTS TO 50KT POSS.\n\nOUTLOOK VALID 162155-170155\nFROM 30NE ECK-DXO-40WNW CLE-BUF-ALB-HTO-60SSE ECG-50SSE\nSAV-TRV-130S CEW-30SSW VUZ-HMV-40NW BWG-30W PMM-30NE ECK\nREF WW 586.\nWST ISSUANCES EXPD. REFER TO MOST RECENT ACUS01 KWNS FROM STORM\nPREDICTION CENTER FOR SYNOPSIS AND METEOROLOGICAL DETAILS.",
                "validTimeTo": [
                    "2026-08-16T21:55"
                ]
            }
        },
        {
            "type": "Feature",
            "geometry": {
                "type": "Polygon",
                "coordinates": [
                    [
                        [
                            -82.481,
                            41.888
                        ],
                        [
                            -82.59,
                            40.321
                        ],
                        [
                            -86.37,
                            39.81
                        ],
                        [
                            -85.447,
                            41.444
                        ],
                        [
                            -82.481,
                            41.888
                        ]
                    ]
                ]
            },
            "properties": {
                "airSigmetId": null,
                "airportIcao": "KKCI",
                "airSigmetType": "SIGMET",
                "hazard": "CONVECTIVE",
                "severity": 5,
                "altitudeLow1": null,
                "altitudeLow2": null,
                "altitudeHi1": 45000,
                "altitudeHi2": 60000,
                "movementDir": 280,
                "movementSpd": 20,
                "rawAirSigmet": "WSUS31 KKCI 161955\nSIGE \nCONVECTIVE SIGMET 64E\nVALID UNTIL 2155Z\nOH IN LE\nFROM 40NW CLE-10N APE-IND-30NNW FWA-40NW CLE\nAREA TS MOV FROM 28020KT. TOPS ABV FL450.\n\nOUTLOOK VALID 162155-170155\nFROM 30NE ECK-DXO-40WNW CLE-BUF-ALB-HTO-60SSE ECG-50SSE\nSAV-TRV-130S CEW-30SSW VUZ-HMV-40NW BWG-30W PMM-30NE ECK\nREF WW 586.\nWST ISSUANCES EXPD. REFER TO MOST RECENT ACUS01 KWNS FROM STORM\nPREDICTION CENTER FOR SYNOPSIS AND METEOROLOGICAL DETAILS.",
                "validTimeTo": [
                    "2026-08-16T21:55"
                ]
            }
        },
        {
            "type": "Feature",
            "geometry": {
                "type": "Polygon",
                "coordinates": [
                    [
                        [
                            -84.591,
                            32.274
                        ],
                        [
                            -81.434,
                            30.182
                        ],
                        [
                            -80.81,
                            28.731
                        ],
                        [
                            -83.05,
                            28.935
                        ],
                        [
                            -84.446,
                            30.718
                        ],
                        [
                            -84.591,
                            32.274
                        ]
                    ]
                ]
            },
            "properties": {
                "airSigmetId": null,
                "airportIcao": "KKCI",
                "airSigmetType": "SIGMET",
                "hazard": "CONVECTIVE",
                "severity": 5,
                "altitudeLow1": null,
                "altitudeLow2": null,
                "altitudeHi1": 36000,
                "altitudeHi2": 36000,
                "movementDir": null,
                "movementSpd": null,
                "rawAirSigmet": "WSUS31 KKCI 161955\nSIGE \nCONVECTIVE SIGMET 65E\nVALID UNTIL 2155Z\nFL GA AND FL CSTL WTRS\nFROM 40NNW PZD-10SSE CRG-30ENE ORL-40S CTY-10NNW TLH-40NNW PZD\nAREA TS MOV LTL. TOPS TO FL360.\n\nOUTLOOK VALID 162155-170155\nFROM 30NE ECK-DXO-40WNW CLE-BUF-ALB-HTO-60SSE ECG-50SSE\nSAV-TRV-130S CEW-30SSW VUZ-HMV-40NW BWG-30W PMM-30NE ECK\nREF WW 586.\nWST ISSUANCES EXPD. REFER TO MOST RECENT ACUS01 KWNS FROM STORM\nPREDICTION CENTER FOR SYNOPSIS AND METEOROLOGICAL DETAILS.",
                "validTimeTo": [
                    "2026-08-16T21:55"
                ]
            }
        },
        {
            "type": "Feature",
            "geometry": {
                "type": "Polygon",
                "coordinates": [
                    [
                        [
                            -110.063,
                            49.004
                        ],
                        [
                            -112.228,
                            46.145
                        ],
                        [
                            -113.426,
                            45.501
                        ],
                        [
                            -116.942,
                            45.996
                        ],
                        [
                            -113.188,
                            49.015
                        ],
                        [
                            -110.063,
                            49.004
                        ]
                    ]
                ]
            },
            "properties": {
                "airSigmetId": null,
                "airportIcao": "KKCI",
                "airSigmetType": "SIGMET",
                "hazard": "CONVECTIVE",
                "severity": 5,
                "altitudeLow1": null,
                "altitudeLow2": null,
                "altitudeHi1": 34000,
                "altitudeHi2": 34000,
                "movementDir": 250,
                "movementSpd": 25,
                "rawAirSigmet": "WSUS33 KKCI 161955\nSIGW \nCONVECTIVE SIGMET 63W\nVALID UNTIL 2155Z\nMT ID\nFROM 30NNW HVR-30SSW HLN-40WNW DLN-80NNW DNJ-40SSW YQL-30NNW HVR\nAREA TS MOV FROM 25025KT. TOPS TO FL340.\n\nOUTLOOK VALID 162155-170155\nAREA 1...FROM HBU-40W ELP-60SW DMN-40S TUS-40SW PHX-50S\nEED-HEC-50S BTY-70NE LAS-TBC-HBU\nWST ISSUANCES POSS. REFER TO MOST RECENT ACUS01 KWNS FROM STORM\nPREDICTION CENTER FOR SYNOPSIS AND METEOROLOGICAL DETAILS.\n\nAREA 2...FROM 50N FCA-50NNW GGW-HBU-MTU-DTA-40SSW ELY-30SE\nBAM-50S BOI-30WSW BKE-50N FCA\nWST ISSUANCES POSS. REFER TO MOST RECENT ACUS01 KWNS FROM STORM\nPREDICTION CENTER FOR SYNOPSIS AND METEOROLOGICAL DETAILS.",
                "validTimeTo": [
                    "2026-08-16T21:55"
                ]
            }
        },
        {
            "type": "Feature",
            "geometry": {
                "type": "Polygon",
                "coordinates": [
                    [
                        [
                            -109.344,
                            36.744
                        ],
                        [
                            -107.056,
                            35.505
                        ],
                        [
                            -107.413,
                            32.345
                        ],
                        [
                            -110.267,
                            33.475
                        ],
                        [
                            -110.073,
                            35.649
                        ],
                        [
                            -109.344,
                            36.744
                        ]
                    ]
                ]
            },
            "properties": {
                "airSigmetId": null,
                "airportIcao": "KKCI",
                "airSigmetType": "SIGMET",
                "hazard": "CONVECTIVE",
                "severity": 5,
                "altitudeLow1": null,
                "altitudeLow2": null,
                "altitudeHi1": 35000,
                "altitudeHi2": 35000,
                "movementDir": null,
                "movementSpd": null,
                "rawAirSigmet": "WSUS33 KKCI 161955\nSIGW \nCONVECTIVE SIGMET 64W\nVALID UNTIL 2155Z\nNM AZ\nFROM 60W RSK-30NNW ABQ-10ENE DMN-80SW SJN-50NE INW-60W RSK\nDVLPG AREA TS MOV LTL. TOPS TO FL350.\n\nOUTLOOK VALID 162155-170155\nAREA 1...FROM HBU-40W ELP-60SW DMN-40S TUS-40SW PHX-50S\nEED-HEC-50S BTY-70NE LAS-TBC-HBU\nWST ISSUANCES POSS. REFER TO MOST RECENT ACUS01 KWNS FROM STORM\nPREDICTION CENTER FOR SYNOPSIS AND METEOROLOGICAL DETAILS.\n\nAREA 2...FROM 50N FCA-50NNW GGW-HBU-MTU-DTA-40SSW ELY-30SE\nBAM-50S BOI-30WSW BKE-50N FCA\nWST ISSUANCES POSS. REFER TO MOST RECENT ACUS01 KWNS FROM STORM\nPREDICTION CENTER FOR SYNOPSIS AND METEOROLOGICAL DETAILS.",
                "validTimeTo": [
                    "2026-08-16T21:55"
                ]
            }
        },
        {
            "type": "Feature",
            "geometry": {
                "type": "Polygon",
                "coordinates": [
                    [
                        [
                            -114.11,
                            35.426
                        ],
                        [
                            -111.206,
                            35.059
                        ],
                        [
                            -111.454,
                            33.899
                        ],
                        [
                            -114.097,
                            34.642
                        ],
                        [
                            -114.11,
                            35.426
                        ]
                    ]
                ]
            },
            "properties": {
                "airSigmetId": null,
                "airportIcao": "KKCI",
                "airSigmetType": "SIGMET",
                "hazard": "CONVECTIVE",
                "severity": 5,
                "altitudeLow1": null,
                "altitudeLow2": null,
                "altitudeHi1": 32000,
                "altitudeHi2": 32000,
                "movementDir": null,
                "movementSpd": null,
                "rawAirSigmet": "WSUS33 KKCI 161955\nSIGW \nCONVECTIVE SIGMET 65W\nVALID UNTIL 2155Z\nAZ\nFROM 30WSW PGS-20W INW-40NE PHX-20ESE EED-30WSW PGS\nDVLPG AREA TS MOV LTL. TOPS TO FL320.\n\nOUTLOOK VALID 162155-170155\nAREA 1...FROM HBU-40W ELP-60SW DMN-40S TUS-40SW PHX-50S\nEED-HEC-50S BTY-70NE LAS-TBC-HBU\nWST ISSUANCES POSS. REFER TO MOST RECENT ACUS01 KWNS FROM STORM\nPREDICTION CENTER FOR SYNOPSIS AND METEOROLOGICAL DETAILS.\n\nAREA 2...FROM 50N FCA-50NNW GGW-HBU-MTU-DTA-40SSW ELY-30SE\nBAM-50S BOI-30WSW BKE-50N FCA\nWST ISSUANCES POSS. REFER TO MOST RECENT ACUS01 KWNS FROM STORM\nPREDICTION CENTER FOR SYNOPSIS AND METEOROLOGICAL DETAILS.",
                "validTimeTo": [
                    "2026-08-16T21:55"
                ]
            }
        },
        {
            "type": "Feature",
            "geometry": {
                "type": "Polygon",
                "coordinates": [
                    [
                        [
                            -113.068,
                            42.742
                        ],
                        [
                            -112.927,
                            41.843
                        ],
                        [
                            -114.424,
                            40.728
                        ],
                        [
                            -116.322,
                            41.647
                        ],
                        [
                            -116.19,
                            42.715
                        ],
                        [
                            -113.068,
                            42.742
                        ]
                    ]
                ]
            },
            "properties": {
                "airSigmetId": null,
                "airportIcao": "KKCI",
                "airSigmetType": "SIGMET",
                "hazard": "CONVECTIVE",
                "severity": 5,
                "altitudeLow1": null,
                "altitudeLow2": null,
                "altitudeHi1": 38000,
                "altitudeHi2": 38000,
                "movementDir": 210,
                "movementSpd": 20,
                "rawAirSigmet": "WSUS33 KKCI 161955\nSIGW \nCONVECTIVE SIGMET 66W\nVALID UNTIL 2155Z\nUT ID NV\nFROM 20WSW PIH-30SW MLD-30W BVL-70NNE BAM-50S BOI-20WSW PIH\nDVLPG AREA TS MOV FROM 21020KT. TOPS TO FL380.\n\nOUTLOOK VALID 162155-170155\nAREA 1...FROM HBU-40W ELP-60SW DMN-40S TUS-40SW PHX-50S\nEED-HEC-50S BTY-70NE LAS-TBC-HBU\nWST ISSUANCES POSS. REFER TO MOST RECENT ACUS01 KWNS FROM STORM\nPREDICTION CENTER FOR SYNOPSIS AND METEOROLOGICAL DETAILS.\n\nAREA 2...FROM 50N FCA-50NNW GGW-HBU-MTU-DTA-40SSW ELY-30SE\nBAM-50S BOI-30WSW BKE-50N FCA\nWST ISSUANCES POSS. REFER TO MOST RECENT ACUS01 KWNS FROM STORM\nPREDICTION CENTER FOR SYNOPSIS AND METEOROLOGICAL DETAILS.",
                "validTimeTo": [
                    "2026-08-16T21:55"
                ]
            }
        },
        {
            "type": "Feature",
            "geometry": {
                "type": "Polygon",
                "coordinates": [
                    [
                        [
                            -113.987,
                            45.178
                        ],
                        [
                            -112.708,
                            44.445
                        ],
                        [
                            -113.092,
                            43.641
                        ],
                        [
                            -115.037,
                            43.544
                        ],
                        [
                            -115.855,
                            44.155
                        ],
                        [
                            -113.987,
                            45.178
                        ]
                    ]
                ]
            },
            "properties": {
                "airSigmetId": null,
                "airportIcao": "KKCI",
                "airSigmetType": "SIGMET",
                "hazard": "CONVECTIVE",
                "severity": 5,
                "altitudeLow1": null,
                "altitudeLow2": null,
                "altitudeHi1": 32000,
                "altitudeHi2": 32000,
                "movementDir": 240,
                "movementSpd": 20,
                "rawAirSigmet": "WSUS33 KKCI 161955\nSIGW \nCONVECTIVE SIGMET 67W\nVALID UNTIL 2155Z\nMT ID\nFROM 10NNE LKT-30NW DBS-50NNW PIH-50E BOI-40SSE DNJ-10NNE LKT\nDVLPG AREA TS MOV FROM 24020KT. TOPS TO FL320.\n\nOUTLOOK VALID 162155-170155\nAREA 1...FROM HBU-40W ELP-60SW DMN-40S TUS-40SW PHX-50S\nEED-HEC-50S BTY-70NE LAS-TBC-HBU\nWST ISSUANCES POSS. REFER TO MOST RECENT ACUS01 KWNS FROM STORM\nPREDICTION CENTER FOR SYNOPSIS AND METEOROLOGICAL DETAILS.\n\nAREA 2...FROM 50N FCA-50NNW GGW-HBU-MTU-DTA-40SSW ELY-30SE\nBAM-50S BOI-30WSW BKE-50N FCA\nWST ISSUANCES POSS. REFER TO MOST RECENT ACUS01 KWNS FROM STORM\nPREDICTION CENTER FOR SYNOPSIS AND METEOROLOGICAL DETAILS.",
                "validTimeTo": [
                    "2026-08-16T21:55"
                ]
            }
        },
        {
            "type": "Feature",
            "geometry": {
                "type": "Polygon",
                "coordinates": [
                    [
                        [
                            -110.242,
                            43.263
                        ],
                        [
                            -109.694,
                            42.452
                        ],
                        [
                            -111.171,
                            40.593
                        ],
                        [
                            -112.11,
                            41.585
                        ],
                        [
                            -110.242,
                            43.263
                        ]
                    ]
                ]
            },
            "properties": {
                "airSigmetId": null,
                "airportIcao": "KKCI",
                "airSigmetType": "SIGMET",
                "hazard": "CONVECTIVE",
                "severity": 5,
                "altitudeLow1": null,
                "altitudeLow2": null,
                "altitudeHi1": 31000,
                "altitudeHi2": 31000,
                "movementDir": 240,
                "movementSpd": 10,
                "rawAirSigmet": "WSUS33 KKCI 161955\nSIGW \nCONVECTIVE SIGMET 68W\nVALID UNTIL 2155Z\nWY UT ID\nFROM 30SE JAC-20ESE BPI-40ESE SLC-40SSE MLD-30SE JAC\nDVLPG AREA TS MOV FROM 24010KT. TOPS TO FL310.\n\nOUTLOOK VALID 162155-170155\nAREA 1...FROM HBU-40W ELP-60SW DMN-40S TUS-40SW PHX-50S\nEED-HEC-50S BTY-70NE LAS-TBC-HBU\nWST ISSUANCES POSS. REFER TO MOST RECENT ACUS01 KWNS FROM STORM\nPREDICTION CENTER FOR SYNOPSIS AND METEOROLOGICAL DETAILS.\n\nAREA 2...FROM 50N FCA-50NNW GGW-HBU-MTU-DTA-40SSW ELY-30SE\nBAM-50S BOI-30WSW BKE-50N FCA\nWST ISSUANCES POSS. REFER TO MOST RECENT ACUS01 KWNS FROM STORM\nPREDICTION CENTER FOR SYNOPSIS AND METEOROLOGICAL DETAILS.",
                "validTimeTo": [
                    "2026-08-16T21:55"
                ]
            }
        }
    ],
    "metadata": {
        "creationTime": "2026-08-16T20:30"
    }
}