{
    "type": "FeatureCollection",
    "features": [
        {
            "type": "Feature",
            "geometry": {
                "type": "Polygon",
                "coordinates": [
                    [
                        [
                            -94.076,
                            30.136
                        ],
                        [
                            -89.037,
                            29.847
                        ],
                        [
                            -89.737,
                            28.408
                        ],
                        [
                            -97.38,
                            26.755
                        ],
                        [
                            -97.046,
                            28.255
                        ],
                        [
                            -94.076,
                            30.136
                        ]
                    ]
                ]
            },
            "properties": {
                "airSigmetId": null,
                "airportIcao": "KKCI",
                "airSigmetType": "SIGMET",
                "hazard": "CONVECTIVE",
                "severity": 5,
                "altitudeLow1": null,
                "altitudeLow2": null,
                "altitudeHi1": 45000,
                "altitudeHi2": 45000,
                "movementDir": 100,
                "movementSpd": 10,
                "rawAirSigmet": "WSUS32 KKCI 081455\nSIGC \nCONVECTIVE SIGMET 64C\nVALID UNTIL 1655Z\nLA TX AND MS LA TX CSTL WTRS\nFROM 50W LCH-50E HRV-50SSE LEV-50N BRO-30NE CRP-50W LCH\nAREA TS MOV FROM 10010KT. TOPS TO FL450.\nREF INTL SIGMET FOXTROT SERIES.\n\nOUTLOOK VALID 081655-082055\nAREA 1...FROM PXV-130ESE LEV-130SSW LCH-70E BRO-BRO-RZC-PXV\nWST ISSUANCES EXPD. REFER TO MOST RECENT ACUS01 KWNS FROM STORM\nPREDICTION CENTER FOR SYNOPSIS AND METEOROLOGICAL DETAILS.\n\nAREA 2...FROM 60SSE ABR-PWE-MCK-40NE RAP-60SSE ABR\nWST ISSUANCES POSS. REFER TO MOST RECENT ACUS01 KWNS FROM STORM\nPREDICTION CENTER FOR SYNOPSIS AND METEOROLOGICAL DETAILS.",
                "validTimeTo": [
                    "2026-08-08T16:55"
                ]
            }
        },
        {
            "type": "Feature",
            "geometry": {
                "type": "Polygon",
                "coordinates": [
                    [
                        [
                            -99.195,
                            43.691
                        ],
                        [
                            -97.849,
                            40.458
                        ],
                        [
                            -100.59,
                            40.371
                        ],
                        [
                            -101.145,
                            43.691
                        ],
                        [
                            -99.195,
                            43.691
                        ]
                    ]
                ]
            },
            "properties": {
                "airSigmetId": null,
                "airportIcao": "KKCI",
                "airSigmetType": "SIGMET",
                "hazard": "CONVECTIVE",
                "severity": 5,
                "altitudeLow1": null,
                "altitudeLow2": null,
                "altitudeHi1": 45000,
                "altitudeHi2": 60000,
                "movementDir": 290,
                "movementSpd": 25,
                "rawAirSigmet": "WSUS32 KKCI 081455\nSIGC \nCONVECTIVE SIGMET 65C\nVALID UNTIL 1655Z\nNE SD\nFROM 60SE PIR-60SSE OBH-10N MCK-60SW PIR-60SE PIR\nAREA SEV TS MOV FROM 29025KT. TOPS ABV FL450.\nHAIL TO 1.25 IN POSS.\n\nOUTLOOK VALID 081655-082055\nAREA 1...FROM PXV-130ESE LEV-130SSW LCH-70E BRO-BRO-RZC-PXV\nWST ISSUANCES EXPD. REFER TO MOST RECENT ACUS01 KWNS FROM STORM\nPREDICTION CENTER FOR SYNOPSIS AND METEOROLOGICAL DETAILS.\n\nAREA 2...FROM 60SSE ABR-PWE-MCK-40NE RAP-60SSE ABR\nWST ISSUANCES POSS. REFER TO MOST RECENT ACUS01 KWNS FROM STORM\nPREDICTION CENTER FOR SYNOPSIS AND METEOROLOGICAL DETAILS.",
                "validTimeTo": [
                    "2026-08-08T16:55"
                ]
            }
        },
        {
            "type": "Feature",
            "geometry": {
                "type": "Polygon",
                "coordinates": [
                    [
                        [
                            -89.61,
                            35.785
                        ],
                        [
                            -89.833,
                            34.939
                        ],
                        [
                            -91.616,
                            34.486
                        ],
                        [
                            -91.262,
                            35.495
                        ],
                        [
                            -89.61,
                            35.785
                        ]
                    ]
                ]
            },
            "properties": {
                "airSigmetId": null,
                "airportIcao": "KKCI",
                "airSigmetType": "SIGMET",
                "hazard": "CONVECTIVE",
                "severity": 5,
                "altitudeLow1": null,
                "altitudeLow2": null,
                "altitudeHi1": 42000,
                "altitudeHi2": 42000,
                "movementDir": 240,
                "movementSpd": 15,
                "rawAirSigmet": "WSUS32 KKCI 081455\nSIGC \nCONVECTIVE SIGMET 66C\nVALID UNTIL 1655Z\nTN MS AR\nFROM 20SW DYR-10SE MEM-30ESE LIT-40SSW ARG-20SW DYR\nAREA TS MOV FROM 24015KT. TOPS TO FL420.\n\nOUTLOOK VALID 081655-082055\nAREA 1...FROM PXV-130ESE LEV-130SSW LCH-70E BRO-BRO-RZC-PXV\nWST ISSUANCES EXPD. REFER TO MOST RECENT ACUS01 KWNS FROM STORM\nPREDICTION CENTER FOR SYNOPSIS AND METEOROLOGICAL DETAILS.\n\nAREA 2...FROM 60SSE ABR-PWE-MCK-40NE RAP-60SSE ABR\nWST ISSUANCES POSS. REFER TO MOST RECENT ACUS01 KWNS FROM STORM\nPREDICTION CENTER FOR SYNOPSIS AND METEOROLOGICAL DETAILS.",
                "validTimeTo": [
                    "2026-08-08T16:55"
                ]
            }
        },
        {
            "type": "Feature",
            "geometry": {
                "type": "Polygon",
                "coordinates": [
                    [
                        [
                            -80.088,
                            33.874
                        ],
                        [
                            -76.324,
                            33.044
                        ],
                        [
                            -76.966,
                            27.79
                        ],
                        [
                            -80.227,
                            25.958
                        ],
                        [
                            -83.9,
                            31.659
                        ],
                        [
                            -80.088,
                            33.874
                        ]
                    ]
                ]
            },
            "properties": {
                "airSigmetId": null,
                "airportIcao": "KKCI",
                "airSigmetType": "SIGMET",
                "hazard": "CONVECTIVE",
                "severity": 5,
                "altitudeLow1": null,
                "altitudeLow2": null,
                "altitudeHi1": 45000,
                "altitudeHi2": 60000,
                "movementDir": 160,
                "movementSpd": 10,
                "rawAirSigmet": "WSUS31 KKCI 081455\nSIGE \nCONVECTIVE SIGMET 82E\nVALID UNTIL 1655Z\nSC FL GA AND NC FL SC GA CSTL WTRS\nFROM 30SW FLO-110SE ILM-180ENE PBI-10NNE MIA-20E PZD-30SW FLO\nAREA TS MOV FROM 16010KT. TOPS ABV FL450.\nREF INTL SIGMET ECHO SERIES.\n\nOUTLOOK VALID 081655-082055\nAREA 1...FROM SPA-60ENE ILM-220ENE PBI-160SE MIA-80WSW EYW-130ESE\nLEV-30ENE SJI-SPA\nWST ISSUANCES EXPD. REFER TO MOST RECENT ACUS01 KWNS FROM STORM\nPREDICTION CENTER FOR SYNOPSIS AND METEOROLOGICAL DETAILS.\n\nAREA 2...FROM PQI-60WSW YSJ-150ENE ACK-30NW RDU-60SSE\nBNA-CLE-MSS-60NE MPV-PQI\nWST ISSUANCES EXPD. REFER TO MOST RECENT ACUS01 KWNS FROM STORM\nPREDICTION CENTER FOR SYNOPSIS AND METEOROLOGICAL DETAILS.",
                "validTimeTo": [
                    "2026-08-08T16:55"
                ]
            }
        },
        {
            "type": "Feature",
            "geometry": {
                "type": "Polygon",
                "coordinates": [
                    [
                        [
                            -75.209,
                            40.935
                        ],
                        [
                            -76.821,
                            38.86
                        ],
                        [
                            -83.636,
                            37.95
                        ],
                        [
                            -81.688,
                            40.017
                        ],
                        [
                            -75.209,
                            40.935
                        ]
                    ]
                ]
            },
            "properties": {
                "airSigmetId": null,
                "airportIcao": "KKCI",
                "airSigmetType": "SIGMET",
                "hazard": "CONVECTIVE",
                "severity": 5,
                "altitudeLow1": null,
                "altitudeLow2": null,
                "altitudeHi1": 45000,
                "altitudeHi2": 45000,
                "movementDir": 240,
                "movementSpd": 30,
                "rawAirSigmet": "WSUS31 KKCI 081455\nSIGE \nCONVECTIVE SIGMET 83E\nVALID UNTIL 1655Z\nPA MD VA DC WV OH KY\nFROM 30NE ETX-10E DCA-60NNE LOZ-40W AIR-30NE ETX\nAREA SEV TS MOV FROM 24030KT. TOPS TO FL450.\nWIND GUSTS TO 50KT POSS.\n\nOUTLOOK VALID 081655-082055\nAREA 1...FROM SPA-60ENE ILM-220ENE PBI-160SE MIA-80WSW EYW-130ESE\nLEV-30ENE SJI-SPA\nWST ISSUANCES EXPD. REFER TO MOST RECENT ACUS01 KWNS FROM STORM\nPREDICTION CENTER FOR SYNOPSIS AND METEOROLOGICAL DETAILS.\n\nAREA 2...FROM PQI-60WSW YSJ-150ENE ACK-30NW RDU-60SSE\nBNA-CLE-MSS-60NE MPV-PQI\nWST ISSUANCES EXPD. REFER TO MOST RECENT ACUS01 KWNS FROM STORM\nPREDICTION CENTER FOR SYNOPSIS AND METEOROLOGICAL DETAILS.",
                "validTimeTo": [
                    "2026-08-08T16:55"
                ]
            }
        },
        {
            "type": "Feature",
            "geometry": {
                "type": "Polygon",
                "coordinates": [
                    [
                        [
                            -92.746,
                            34.871
                        ],
                        [
                            -92.74,
                            33.763
                        ],
                        [
                            -95.072,
                            33.506
                        ],
                        [
                            -94.733,
                            34.458
                        ],
                        [
                            -92.746,
                            34.871
                        ]
                    ]
                ]
            },
            "properties": {
                "airSigmetId": null,
                "airportIcao": "KKCI",
                "airSigmetType": "SIGMET",
                "hazard": "CONVECTIVE",
                "severity": 5,
                "altitudeLow1": null,
                "altitudeLow2": null,
                "altitudeHi1": 35000,
                "altitudeHi2": 35000,
                "movementDir": null,
                "movementSpd": null,
                "rawAirSigmet": "WSUS32 KKCI 081455\nSIGC \nCONVECTIVE SIGMET 67C\nVALID UNTIL 1655Z\nAR TX OK\nFROM 30WNW LIT-30N ELD-50W TXK-60SSW FSM-30WNW LIT\nAREA TS MOV LTL. TOPS TO FL350.\n\nOUTLOOK VALID 081655-082055\nAREA 1...FROM PXV-130ESE LEV-130SSW LCH-70E BRO-BRO-RZC-PXV\nWST ISSUANCES EXPD. REFER TO MOST RECENT ACUS01 KWNS FROM STORM\nPREDICTION CENTER FOR SYNOPSIS AND METEOROLOGICAL DETAILS.\n\nAREA 2...FROM 60SSE ABR-PWE-MCK-40NE RAP-60SSE ABR\nWST ISSUANCES POSS. REFER TO MOST RECENT ACUS01 KWNS FROM STORM\nPREDICTION CENTER FOR SYNOPSIS AND METEOROLOGICAL DETAILS.",
                "validTimeTo": [
                    "2026-08-08T16:55"
                ]
            }
        },
        {
            "type": "Feature",
            "geometry": {
                "type": "Polygon",
                "coordinates": [
                    [
                        [
                            -66.971,
                            44.995
                        ],
                        [
                            -67.246,
                            43.653
                        ],
                        [
                            -68.87,
                            44.005
                        ],
                        [
                            -68.647,
                            44.905
                        ],
                        [
                            -66.971,
                            44.995
                        ]
                    ]
                ]
            },
            "properties": {
                "airSigmetId": null,
                "airportIcao": "KKCI",
                "airSigmetType": "SIGMET",
                "hazard": "CONVECTIVE",
                "severity": 5,
                "altitudeLow1": null,
                "altitudeLow2": null,
                "altitudeHi1": 33000,
                "altitudeHi2": 33000,
                "movementDir": 230,
                "movementSpd": 25,
                "rawAirSigmet": "WSUS31 KKCI 081455\nSIGE \nCONVECTIVE SIGMET 84E\nVALID UNTIL 1655Z\nME AND CSTL WTRS\nFROM 50WSW YSJ-100SE BGR-50S BGR-10ENE BGR-50WSW YSJ\nAREA TS MOV FROM 23025KT. TOPS TO FL330.\n\nOUTLOOK VALID 081655-082055\nAREA 1...FROM SPA-60ENE ILM-220ENE PBI-160SE MIA-80WSW EYW-130ESE\nLEV-30ENE SJI-SPA\nWST ISSUANCES EXPD. REFER TO MOST RECENT ACUS01 KWNS FROM STORM\nPREDICTION CENTER FOR SYNOPSIS AND METEOROLOGICAL DETAILS.\n\nAREA 2...FROM PQI-60WSW YSJ-150ENE ACK-30NW RDU-60SSE\nBNA-CLE-MSS-60NE MPV-PQI\nWST ISSUANCES EXPD. REFER TO MOST RECENT ACUS01 KWNS FROM STORM\nPREDICTION CENTER FOR SYNOPSIS AND METEOROLOGICAL DETAILS.",
                "validTimeTo": [
                    "2026-08-08T16:55"
                ]
            }
        },
        {
            "type": "Feature",
            "geometry": {
                "type": "Polygon",
                "coordinates": [
                    [
                        [
                            -83.049,
                            26.32
                        ],
                        [
                            -81.638,
                            26.223
                        ],
                        [
                            -80.455,
                            24.075
                        ],
                        [
                            -82.078,
                            23.976
                        ],
                        [
                            -83.049,
                            26.32
                        ]
                    ]
                ]
            },
            "properties": {
                "airSigmetId": null,
                "airportIcao": "KKCI",
                "airSigmetType": "SIGMET",
                "hazard": "CONVECTIVE",
                "severity": 5,
                "altitudeLow1": null,
                "altitudeLow2": null,
                "altitudeHi1": 45000,
                "altitudeHi2": 60000,
                "movementDir": 150,
                "movementSpd": 10,
                "rawAirSigmet": "WSUS31 KKCI 081455\nSIGE \nCONVECTIVE SIGMET 85E\nVALID UNTIL 1655Z\nFL AND CSTL WTRS\nFROM 70SSW SRQ-20SSE RSW-80ESE EYW-40SSW EYW-70SSW SRQ\nAREA TS MOV FROM 15010KT. TOPS ABV FL450.\n\nOUTLOOK VALID 081655-082055\nAREA 1...FROM SPA-60ENE ILM-220ENE PBI-160SE MIA-80WSW EYW-130ESE\nLEV-30ENE SJI-SPA\nWST ISSUANCES EXPD. REFER TO MOST RECENT ACUS01 KWNS FROM STORM\nPREDICTION CENTER FOR SYNOPSIS AND METEOROLOGICAL DETAILS.\n\nAREA 2...FROM PQI-60WSW YSJ-150ENE ACK-30NW RDU-60SSE\nBNA-CLE-MSS-60NE MPV-PQI\nWST ISSUANCES EXPD. REFER TO MOST RECENT ACUS01 KWNS FROM STORM\nPREDICTION CENTER FOR SYNOPSIS AND METEOROLOGICAL DETAILS.",
                "validTimeTo": [
                    "2026-08-08T16:55"
                ]
            }
        },
        {
            "type": "Feature",
            "geometry": {
                "type": "Polygon",
                "coordinates": [
                    [
                        [
                            -82.911,
                            29.721
                        ],
                        [
                            -83.76,
                            26.948
                        ],
                        [
                            -87.659,
                            28.268
                        ],
                        [
                            -86.68,
                            29.168
                        ],
                        [
                            -82.911,
                            29.721
                        ]
                    ]
                ]
            },
            "properties": {
                "airSigmetId": null,
                "airportIcao": "KKCI",
                "airSigmetType": "SIGMET",
                "hazard": "CONVECTIVE",
                "severity": 5,
                "altitudeLow1": null,
                "altitudeLow2": null,
                "altitudeHi1": 45000,
                "altitudeHi2": 60000,
                "movementDir": 120,
                "movementSpd": 10,
                "rawAirSigmet": "WSUS31 KKCI 081455\nSIGE \nCONVECTIVE SIGMET 86E\nVALID UNTIL 1655Z\nFL AND FL AL CSTL WTRS\nFROM 10NE CTY-70WSW SRQ-140ESE LEV-100S CEW-10NE CTY\nAREA TS MOV FROM 12010KT. TOPS ABV FL450.\n\nOUTLOOK VALID 081655-082055\nAREA 1...FROM SPA-60ENE ILM-220ENE PBI-160SE MIA-80WSW EYW-130ESE\nLEV-30ENE SJI-SPA\nWST ISSUANCES EXPD. REFER TO MOST RECENT ACUS01 KWNS FROM STORM\nPREDICTION CENTER FOR SYNOPSIS AND METEOROLOGICAL DETAILS.\n\nAREA 2...FROM PQI-60WSW YSJ-150ENE ACK-30NW RDU-60SSE\nBNA-CLE-MSS-60NE MPV-PQI\nWST ISSUANCES EXPD. REFER TO MOST RECENT ACUS01 KWNS FROM STORM\nPREDICTION CENTER FOR SYNOPSIS AND METEOROLOGICAL DETAILS.",
                "validTimeTo": [
                    "2026-08-08T16:55"
                ]
            }
        },
        {
            "type": "Feature",
            "geometry": {
                "type": "Polygon",
                "coordinates": [
                    [
                        [
                            -74.72,
                            44.407
                        ],
                        [
                            -75.948,
                            42.251
                        ],
                        [
                            -79.886,
                            42.146
                        ],
                        [
                            -77.471,
                            43.535
                        ],
                        [
                            -74.72,
                            44.407
                        ]
                    ]
                ]
            },
            "properties": {
                "airSigmetId": null,
                "airportIcao": "KKCI",
                "airSigmetType": "SIGMET",
                "hazard": "CONVECTIVE",
                "severity": 5,
                "altitudeLow1": null,
                "altitudeLow2": null,
                "altitudeHi1": 38000,
                "altitudeHi2": 38000,
                "movementDir": 240,
                "movementSpd": 35,
                "rawAirSigmet": "WSUS31 KKCI 081455\nSIGE \nCONVECTIVE SIGMET 87E\nVALID UNTIL 1655Z\nNY PA LO LE\nFROM 30S MSS-30WNW HNK-20ENE ERI-60WNW SYR-30S MSS\nAREA TS MOV FROM 24035KT. TOPS TO FL380.\n\nOUTLOOK VALID 081655-082055\nAREA 1...FROM SPA-60ENE ILM-220ENE PBI-160SE MIA-80WSW EYW-130ESE\nLEV-30ENE SJI-SPA\nWST ISSUANCES EXPD. REFER TO MOST RECENT ACUS01 KWNS FROM STORM\nPREDICTION CENTER FOR SYNOPSIS AND METEOROLOGICAL DETAILS.\n\nAREA 2...FROM PQI-60WSW YSJ-150ENE ACK-30NW RDU-60SSE\nBNA-CLE-MSS-60NE MPV-PQI\nWST ISSUANCES EXPD. REFER TO MOST RECENT ACUS01 KWNS FROM STORM\nPREDICTION CENTER FOR SYNOPSIS AND METEOROLOGICAL DETAILS.",
                "validTimeTo": [
                    "2026-08-08T16:55"
                ]
            }
        },
        {
            "type": "Feature",
            "geometry": {
                "type": "Polygon",
                "coordinates": [
                    [
                        [
                            -82.693,
                            37.518
                        ],
                        [
                            -82.859,
                            35.896
                        ],
                        [
                            -85.15,
                            35.463
                        ],
                        [
                            -84.953,
                            37.027
                        ],
                        [
                            -82.693,
                            37.518
                        ]
                    ]
                ]
            },
            "properties": {
                "airSigmetId": null,
                "airportIcao": "KKCI",
                "airSigmetType": "SIGMET",
                "hazard": "CONVECTIVE",
                "severity": 5,
                "altitudeLow1": null,
                "altitudeLow2": null,
                "altitudeHi1": 42000,
                "altitudeHi2": 42000,
                "movementDir": 250,
                "movementSpd": 15,
                "rawAirSigmet": "WSUS31 KKCI 081455\nSIGE \nCONVECTIVE SIGMET 88E\nVALID UNTIL 1655Z\nVA NC TN KY\nFROM 70NNW HMV-50E VXV-30N GQO-40W LOZ-70NNW HMV\nAREA TS MOV FROM 25015KT. TOPS TO FL420.\n\nOUTLOOK VALID 081655-082055\nAREA 1...FROM SPA-60ENE ILM-220ENE PBI-160SE MIA-80WSW EYW-130ESE\nLEV-30ENE SJI-SPA\nWST ISSUANCES EXPD. REFER TO MOST RECENT ACUS01 KWNS FROM STORM\nPREDICTION CENTER FOR SYNOPSIS AND METEOROLOGICAL DETAILS.\n\nAREA 2...FROM PQI-60WSW YSJ-150ENE ACK-30NW RDU-60SSE\nBNA-CLE-MSS-60NE MPV-PQI\nWST ISSUANCES EXPD. REFER TO MOST RECENT ACUS01 KWNS FROM STORM\nPREDICTION CENTER FOR SYNOPSIS AND METEOROLOGICAL DETAILS.",
                "validTimeTo": [
                    "2026-08-08T16:55"
                ]
            }
        }
    ],
    "metadata": {
        "creationTime": "2026-08-08T15:36"
    }
}