{
    "type": "FeatureCollection",
    "features": [
        {
            "type": "Feature",
            "geometry": {
                "type": "Polygon",
                "coordinates": [
                    [
                        [
                            -72.728,
                            37.436
                        ],
                        [
                            -72.614,
                            34.987
                        ],
                        [
                            -78.624,
                            30.167
                        ],
                        [
                            -81.05,
                            33.357
                        ],
                        [
                            -72.728,
                            37.436
                        ]
                    ]
                ]
            },
            "properties": {
                "airSigmetId": null,
                "airportIcao": "KKCI",
                "airSigmetType": "SIGMET",
                "hazard": "CONVECTIVE",
                "severity": 5,
                "altitudeLow1": null,
                "altitudeLow2": null,
                "altitudeHi1": 45000,
                "altitudeHi2": 60000,
                "movementDir": 230,
                "movementSpd": 20,
                "rawAirSigmet": "WSUS31 KKCI 220255\nSIGE \nCONVECTIVE SIGMET 13E\nVALID UNTIL 0455Z\nNC SC AND MD NC VA FL SC GA CSTL WTRS\nFROM 140SE SIE-190ESE ECG-140ENE OMN-30S CAE-140SE SIE\nAREA TS MOV FROM 23020KT. TOPS ABV FL450.\nREF INTL SIGMET FOXTROT SERIES.\n\nOUTLOOK VALID 220455-220855\nAREA 1...FROM RIC-140SE SIE-180ESE ECG-140SSE ILM-160E\nPBI-PBI-ORL-150S CEW-VUZ-ATL-CLT-RIC\nWST ISSUANCES POSS. REFER TO MOST RECENT ACUS01 KWNS FROM STORM\nPREDICTION CENTER FOR SYNOPSIS AND METEOROLOGICAL DETAILS.\n\nAREA 2...FROM 80N SAW-40NNW SSM-40ENE ASP-40SW APE-30SSE TTH-80N\nSAW\nWST ISSUANCES POSS. REFER TO MOST RECENT ACUS01 KWNS FROM STORM\nPREDICTION CENTER FOR SYNOPSIS AND METEOROLOGICAL DETAILS.",
                "validTimeTo": [
                    "2026-08-22T04:55"
                ]
            }
        },
        {
            "type": "Feature",
            "geometry": {
                "type": "Polygon",
                "coordinates": [
                    [
                        [
                            -75.971,
                            37.993
                        ],
                        [
                            -76.2,
                            36.89
                        ],
                        [
                            -78.056,
                            35.277
                        ],
                        [
                            -79.538,
                            36.405
                        ],
                        [
                            -79.148,
                            37.408
                        ],
                        [
                            -75.971,
                            37.993
                        ]
                    ]
                ]
            },
            "properties": {
                "airSigmetId": null,
                "airportIcao": "KKCI",
                "airSigmetType": "SIGMET",
                "hazard": "CONVECTIVE",
                "severity": 5,
                "altitudeLow1": null,
                "altitudeLow2": null,
                "altitudeHi1": 34000,
                "altitudeHi2": 34000,
                "movementDir": 220,
                "movementSpd": 25,
                "rawAirSigmet": "WSUS31 KKCI 220255\nSIGE \nCONVECTIVE SIGMET 14E\nVALID UNTIL 0455Z\nVA NC\nFROM 30SW SBY-ORF-50SE RDU-30NE GSO-10NNE LYH-30SW SBY\nDMSHG AREA EMBD TS MOV FROM 22025KT. TOPS TO FL340.\n\nOUTLOOK VALID 220455-220855\nAREA 1...FROM RIC-140SE SIE-180ESE ECG-140SSE ILM-160E\nPBI-PBI-ORL-150S CEW-VUZ-ATL-CLT-RIC\nWST ISSUANCES POSS. REFER TO MOST RECENT ACUS01 KWNS FROM STORM\nPREDICTION CENTER FOR SYNOPSIS AND METEOROLOGICAL DETAILS.\n\nAREA 2...FROM 80N SAW-40NNW SSM-40ENE ASP-40SW APE-30SSE TTH-80N\nSAW\nWST ISSUANCES POSS. REFER TO MOST RECENT ACUS01 KWNS FROM STORM\nPREDICTION CENTER FOR SYNOPSIS AND METEOROLOGICAL DETAILS.",
                "validTimeTo": [
                    "2026-08-22T04:55"
                ]
            }
        },
        {
            "type": "Feature",
            "geometry": {
                "type": "Polygon",
                "coordinates": [
                    [
                        [
                            -80.717,
                            32.159
                        ],
                        [
                            -79.842,
                            31.707
                        ],
                        [
                            -81.434,
                            30.182
                        ],
                        [
                            -82.882,
                            30.768
                        ],
                        [
                            -82.695,
                            31.605
                        ],
                        [
                            -80.717,
                            32.159
                        ]
                    ]
                ]
            },
            "properties": {
                "airSigmetId": null,
                "airportIcao": "KKCI",
                "airSigmetType": "SIGMET",
                "hazard": "CONVECTIVE",
                "severity": 5,
                "altitudeLow1": null,
                "altitudeLow2": null,
                "altitudeHi1": 42000,
                "altitudeHi2": 42000,
                "movementDir": 280,
                "movementSpd": 20,
                "rawAirSigmet": "WSUS31 KKCI 220255\nSIGE \nCONVECTIVE SIGMET 15E\nVALID UNTIL 0455Z\nSC FL GA AND CSTL WTRS\nFROM 20E SAV-70ESE SAV-10SSE CRG-50SSW AMG-10WNW AMG-20E SAV\nAREA TS MOV FROM 28020KT. TOPS TO FL420.\n\nOUTLOOK VALID 220455-220855\nAREA 1...FROM RIC-140SE SIE-180ESE ECG-140SSE ILM-160E\nPBI-PBI-ORL-150S CEW-VUZ-ATL-CLT-RIC\nWST ISSUANCES POSS. REFER TO MOST RECENT ACUS01 KWNS FROM STORM\nPREDICTION CENTER FOR SYNOPSIS AND METEOROLOGICAL DETAILS.\n\nAREA 2...FROM 80N SAW-40NNW SSM-40ENE ASP-40SW APE-30SSE TTH-80N\nSAW\nWST ISSUANCES POSS. REFER TO MOST RECENT ACUS01 KWNS FROM STORM\nPREDICTION CENTER FOR SYNOPSIS AND METEOROLOGICAL DETAILS.",
                "validTimeTo": [
                    "2026-08-22T04:55"
                ]
            }
        },
        {
            "type": "Feature",
            "geometry": {
                "type": "Polygon",
                "coordinates": [
                    [
                        [
                            -81.568,
                            37.423
                        ],
                        [
                            -80.774,
                            35.527
                        ],
                        [
                            -81.927,
                            34.175
                        ],
                        [
                            -83.3,
                            34.7
                        ],
                        [
                            -82.61,
                            37.36
                        ],
                        [
                            -81.568,
                            37.423
                        ]
                    ]
                ]
            },
            "properties": {
                "airSigmetId": null,
                "airportIcao": "KKCI",
                "airSigmetType": "SIGMET",
                "hazard": "CONVECTIVE",
                "severity": 5,
                "altitudeLow1": null,
                "altitudeLow2": null,
                "altitudeHi1": 45000,
                "altitudeHi2": 45000,
                "movementDir": null,
                "movementSpd": null,
                "rawAirSigmet": "WSUS31 KKCI 220255\nSIGE \nCONVECTIVE SIGMET 16E\nVALID UNTIL 0455Z\nVA NC WV SC GA TN KY\nFROM 30SW BKW-20NNE CLT-30NNE IRQ-ODF-60NNW HMV-30SW BKW\nAREA TS MOV LTL. TOPS TO FL450.\n\nOUTLOOK VALID 220455-220855\nAREA 1...FROM RIC-140SE SIE-180ESE ECG-140SSE ILM-160E\nPBI-PBI-ORL-150S CEW-VUZ-ATL-CLT-RIC\nWST ISSUANCES POSS. REFER TO MOST RECENT ACUS01 KWNS FROM STORM\nPREDICTION CENTER FOR SYNOPSIS AND METEOROLOGICAL DETAILS.\n\nAREA 2...FROM 80N SAW-40NNW SSM-40ENE ASP-40SW APE-30SSE TTH-80N\nSAW\nWST ISSUANCES POSS. REFER TO MOST RECENT ACUS01 KWNS FROM STORM\nPREDICTION CENTER FOR SYNOPSIS AND METEOROLOGICAL DETAILS.",
                "validTimeTo": [
                    "2026-08-22T04:55"
                ]
            }
        },
        {
            "type": "Feature",
            "geometry": {
                "type": "Polygon",
                "coordinates": [
                    [
                        [
                            -93.278,
                            31.258
                        ],
                        [
                            -88.066,
                            30.116
                        ],
                        [
                            -87.775,
                            29.5
                        ],
                        [
                            -89.81,
                            28.566
                        ],
                        [
                            -93.477,
                            29.368
                        ],
                        [
                            -93.278,
                            31.258
                        ]
                    ]
                ]
            },
            "properties": {
                "airSigmetId": null,
                "airportIcao": "KKCI",
                "airSigmetType": "SIGMET",
                "hazard": "CONVECTIVE",
                "severity": 5,
                "altitudeLow1": null,
                "altitudeLow2": null,
                "altitudeHi1": 45000,
                "altitudeHi2": 60000,
                "movementDir": 10,
                "movementSpd": 20,
                "rawAirSigmet": "WSUS32 KKCI 220255\nSIGC \nCONVECTIVE SIGMET 21C\nVALID UNTIL 0455Z\nMS LA AND AL MS LA CSTL WTRS\nFROM 40W AEX-40SSE SJI-80SSE SJI-40SSE LEV-50SSW LCH-40W AEX\nAREA TS MOV FROM 01020KT. TOPS ABV FL450.\n\nOUTLOOK VALID 220455-220855\nAREA 1...FROM 40ESE YQT-80N SAW-30SE TTH-40E UIN-IOW-RHI-40ESE\nYQT\nREF WW 610.\nWST ISSUANCES EXPD. REFER TO MOST RECENT ACUS01 KWNS FROM STORM\nPREDICTION CENTER FOR SYNOPSIS AND METEOROLOGICAL DETAILS.\n\nAREA 2...FROM VUZ-150S CEW-120SSW LCH-IAH-30NNW LFK-MHZ-VUZ\nREFER TO MOST RECENT ACUS01 KWNS FROM STORM PREDICTION CENTER FOR\nSYNOPSIS AND METEOROLOGICAL DETAILS.\n\nAREA 3...FROM PIR-FSD-SGF-MLC-SPS-AMA-FTI-ABQ-30WNW CZI-40SW\nRAP-PIR\nREF WW 612 613.\nWST ISSUANCES POSS. REFER TO MOST RECENT ACUS01 KWNS FROM STORM\nPREDICTION CENTER FOR SYNOPSIS AND METEOROLOGICAL DETAILS.",
                "validTimeTo": [
                    "2026-08-22T04:55"
                ]
            }
        },
        {
            "type": "Feature",
            "geometry": {
                "type": "Polygon",
                "coordinates": [
                    [
                        [
                            -88.072,
                            42.287
                        ],
                        [
                            -87.325,
                            41.024
                        ],
                        [
                            -88.235,
                            40.198
                        ],
                        [
                            -90.504,
                            40.438
                        ],
                        [
                            -90.722,
                            41.517
                        ],
                        [
                            -88.072,
                            42.287
                        ]
                    ]
                ]
            },
            "properties": {
                "airSigmetId": null,
                "airportIcao": "KKCI",
                "airSigmetType": "SIGMET",
                "hazard": "CONVECTIVE",
                "severity": 5,
                "altitudeLow1": null,
                "altitudeLow2": null,
                "altitudeHi1": 45000,
                "altitudeHi2": 60000,
                "movementDir": 320,
                "movementSpd": 20,
                "rawAirSigmet": "WSUS32 KKCI 220255\nSIGC \nCONVECTIVE SIGMET 22C\nVALID UNTIL 0455Z\nIN IL IA\nFROM 20NNW ORD-30NNW BVT-40NE AXC-50NE UIN-40E IOW-20NNW ORD\nAREA TS MOV FROM 32020KT. TOPS ABV FL450.\n\nOUTLOOK VALID 220455-220855\nAREA 1...FROM 40ESE YQT-80N SAW-30SE TTH-40E UIN-IOW-RHI-40ESE\nYQT\nREF WW 610.\nWST ISSUANCES EXPD. REFER TO MOST RECENT ACUS01 KWNS FROM STORM\nPREDICTION CENTER FOR SYNOPSIS AND METEOROLOGICAL DETAILS.\n\nAREA 2...FROM VUZ-150S CEW-120SSW LCH-IAH-30NNW LFK-MHZ-VUZ\nREFER TO MOST RECENT ACUS01 KWNS FROM STORM PREDICTION CENTER FOR\nSYNOPSIS AND METEOROLOGICAL DETAILS.\n\nAREA 3...FROM PIR-FSD-SGF-MLC-SPS-AMA-FTI-ABQ-30WNW CZI-40SW\nRAP-PIR\nREF WW 612 613.\nWST ISSUANCES POSS. REFER TO MOST RECENT ACUS01 KWNS FROM STORM\nPREDICTION CENTER FOR SYNOPSIS AND METEOROLOGICAL DETAILS.",
                "validTimeTo": [
                    "2026-08-22T04:55"
                ]
            }
        },
        {
            "type": "Feature",
            "geometry": {
                "type": "Polygon",
                "coordinates": [
                    [
                        [
                            -84.44,
                            33.801
                        ],
                        [
                            -84.201,
                            32.496
                        ],
                        [
                            -86.68,
                            31.333
                        ],
                        [
                            -87.307,
                            32.216
                        ],
                        [
                            -87.052,
                            33.363
                        ],
                        [
                            -84.44,
                            33.801
                        ]
                    ]
                ]
            },
            "properties": {
                "airSigmetId": null,
                "airportIcao": "KKCI",
                "airSigmetType": "SIGMET",
                "hazard": "CONVECTIVE",
                "severity": 5,
                "altitudeLow1": null,
                "altitudeLow2": null,
                "altitudeHi1": 45000,
                "altitudeHi2": 60000,
                "movementDir": 300,
                "movementSpd": 10,
                "rawAirSigmet": "WSUS32 KKCI 220255\nSIGC \nCONVECTIVE SIGMET 23C\nVALID UNTIL 0455Z\nGA AL\nFROM 10N ATL-30WSW MCN-30N CEW-50W MGM-20SSW VUZ-10N ATL\nAREA TS MOV FROM 30010KT. TOPS ABV FL450.\n\nOUTLOOK VALID 220455-220855\nAREA 1...FROM 40ESE YQT-80N SAW-30SE TTH-40E UIN-IOW-RHI-40ESE\nYQT\nREF WW 610.\nWST ISSUANCES EXPD. REFER TO MOST RECENT ACUS01 KWNS FROM STORM\nPREDICTION CENTER FOR SYNOPSIS AND METEOROLOGICAL DETAILS.\n\nAREA 2...FROM VUZ-150S CEW-120SSW LCH-IAH-30NNW LFK-MHZ-VUZ\nREFER TO MOST RECENT ACUS01 KWNS FROM STORM PREDICTION CENTER FOR\nSYNOPSIS AND METEOROLOGICAL DETAILS.\n\nAREA 3...FROM PIR-FSD-SGF-MLC-SPS-AMA-FTI-ABQ-30WNW CZI-40SW\nRAP-PIR\nREF WW 612 613.\nWST ISSUANCES POSS. REFER TO MOST RECENT ACUS01 KWNS FROM STORM\nPREDICTION CENTER FOR SYNOPSIS AND METEOROLOGICAL DETAILS.",
                "validTimeTo": [
                    "2026-08-22T04:55"
                ]
            }
        },
        {
            "type": "Feature",
            "geometry": {
                "type": "Polygon",
                "coordinates": [
                    [
                        [
                            -87.4,
                            45.695
                        ],
                        [
                            -86.554,
                            45.371
                        ],
                        [
                            -87.101,
                            44.875
                        ],
                        [
                            -88.19,
                            44.228
                        ],
                        [
                            -88.692,
                            44.915
                        ],
                        [
                            -87.4,
                            45.695
                        ]
                    ]
                ]
            },
            "properties": {
                "airSigmetId": null,
                "airportIcao": "KKCI",
                "airSigmetType": "SIGMET",
                "hazard": "CONVECTIVE",
                "severity": 5,
                "altitudeLow1": null,
                "altitudeLow2": null,
                "altitudeHi1": 36000,
                "altitudeHi2": 36000,
                "movementDir": 310,
                "movementSpd": 20,
                "rawAirSigmet": "WSUS32 KKCI 220255\nSIGC \nCONVECTIVE SIGMET 24C\nVALID UNTIL 0455Z\nMI WI LM\nFROM 40S SAW-60NW TVC-50ENE GRB-20S GRB-30NW GRB-40S SAW\nAREA TS MOV FROM 31020KT. TOPS TO FL360.\n\nOUTLOOK VALID 220455-220855\nAREA 1...FROM 40ESE YQT-80N SAW-30SE TTH-40E UIN-IOW-RHI-40ESE\nYQT\nREF WW 610.\nWST ISSUANCES EXPD. REFER TO MOST RECENT ACUS01 KWNS FROM STORM\nPREDICTION CENTER FOR SYNOPSIS AND METEOROLOGICAL DETAILS.\n\nAREA 2...FROM VUZ-150S CEW-120SSW LCH-IAH-30NNW LFK-MHZ-VUZ\nREFER TO MOST RECENT ACUS01 KWNS FROM STORM PREDICTION CENTER FOR\nSYNOPSIS AND METEOROLOGICAL DETAILS.\n\nAREA 3...FROM PIR-FSD-SGF-MLC-SPS-AMA-FTI-ABQ-30WNW CZI-40SW\nRAP-PIR\nREF WW 612 613.\nWST ISSUANCES POSS. REFER TO MOST RECENT ACUS01 KWNS FROM STORM\nPREDICTION CENTER FOR SYNOPSIS AND METEOROLOGICAL DETAILS.",
                "validTimeTo": [
                    "2026-08-22T04:55"
                ]
            }
        },
        {
            "type": "Feature",
            "geometry": {
                "type": "Polygon",
                "coordinates": [
                    [
                        [
                            -93.749,
                            46.814
                        ],
                        [
                            -92.918,
                            46.025
                        ],
                        [
                            -93.23,
                            45.715
                        ],
                        [
                            -95.142,
                            46.025
                        ],
                        [
                            -93.749,
                            46.814
                        ]
                    ]
                ]
            },
            "properties": {
                "airSigmetId": null,
                "airportIcao": "KKCI",
                "airSigmetType": "SIGMET",
                "hazard": "CONVECTIVE",
                "severity": 5,
                "altitudeLow1": null,
                "altitudeLow2": null,
                "altitudeHi1": 39000,
                "altitudeHi2": 39000,
                "movementDir": 320,
                "movementSpd": 25,
                "rawAirSigmet": "WSUS32 KKCI 220255\nSIGC \nCONVECTIVE SIGMET 25C\nVALID UNTIL 0455Z\nMN\nFROM 30NNE BRD-50ESE BRD-50N MSP-50WSW BRD-30NNE BRD\nAREA TS MOV FROM 32025KT. TOPS TO FL390.\n\nOUTLOOK VALID 220455-220855\nAREA 1...FROM 40ESE YQT-80N SAW-30SE TTH-40E UIN-IOW-RHI-40ESE\nYQT\nREF WW 610.\nWST ISSUANCES EXPD. REFER TO MOST RECENT ACUS01 KWNS FROM STORM\nPREDICTION CENTER FOR SYNOPSIS AND METEOROLOGICAL DETAILS.\n\nAREA 2...FROM VUZ-150S CEW-120SSW LCH-IAH-30NNW LFK-MHZ-VUZ\nREFER TO MOST RECENT ACUS01 KWNS FROM STORM PREDICTION CENTER FOR\nSYNOPSIS AND METEOROLOGICAL DETAILS.\n\nAREA 3...FROM PIR-FSD-SGF-MLC-SPS-AMA-FTI-ABQ-30WNW CZI-40SW\nRAP-PIR\nREF WW 612 613.\nWST ISSUANCES POSS. REFER TO MOST RECENT ACUS01 KWNS FROM STORM\nPREDICTION CENTER FOR SYNOPSIS AND METEOROLOGICAL DETAILS.",
                "validTimeTo": [
                    "2026-08-22T04:55"
                ]
            }
        },
        {
            "type": "Feature",
            "geometry": {
                "type": "Polygon",
                "coordinates": [
                    [
                        [
                            -103.825,
                            42.504
                        ],
                        [
                            -100.947,
                            41.13
                        ],
                        [
                            -102.165,
                            40.475
                        ],
                        [
                            -103.987,
                            40.412
                        ],
                        [
                            -104.522,
                            42.205
                        ],
                        [
                            -103.825,
                            42.504
                        ]
                    ]
                ]
            },
            "properties": {
                "airSigmetId": null,
                "airportIcao": "KKCI",
                "airSigmetType": "SIGMET",
                "hazard": "CONVECTIVE",
                "severity": 5,
                "altitudeLow1": null,
                "altitudeLow2": null,
                "altitudeHi1": 45000,
                "altitudeHi2": 60000,
                "movementDir": 30,
                "movementSpd": 30,
                "rawAirSigmet": "WSUS32 KKCI 220255\nSIGC \nCONVECTIVE SIGMET 26C\nVALID UNTIL 0455Z\nNE CO WY\nFROM 40NNW BFF-10W LBF-50ENE AKO-40WNW AKO-50WNW BFF-40NNW BFF\nAREA SEV TS MOV FROM 03030KT. TOPS ABV FL450.\nHAIL TO 2.75 IN...WIND GUSTS TO 65KT POSS.\n\nOUTLOOK VALID 220455-220855\nAREA 1...FROM 40ESE YQT-80N SAW-30SE TTH-40E UIN-IOW-RHI-40ESE\nYQT\nREF WW 610.\nWST ISSUANCES EXPD. REFER TO MOST RECENT ACUS01 KWNS FROM STORM\nPREDICTION CENTER FOR SYNOPSIS AND METEOROLOGICAL DETAILS.\n\nAREA 2...FROM VUZ-150S CEW-120SSW LCH-IAH-30NNW LFK-MHZ-VUZ\nREFER TO MOST RECENT ACUS01 KWNS FROM STORM PREDICTION CENTER FOR\nSYNOPSIS AND METEOROLOGICAL DETAILS.\n\nAREA 3...FROM PIR-FSD-SGF-MLC-SPS-AMA-FTI-ABQ-30WNW CZI-40SW\nRAP-PIR\nREF WW 612 613.\nWST ISSUANCES POSS. REFER TO MOST RECENT ACUS01 KWNS FROM STORM\nPREDICTION CENTER FOR SYNOPSIS AND METEOROLOGICAL DETAILS.",
                "validTimeTo": [
                    "2026-08-22T04:55"
                ]
            }
        },
        {
            "type": "Feature",
            "geometry": {
                "type": "Polygon",
                "coordinates": [
                    [
                        [
                            -101.64,
                            34.787
                        ],
                        [
                            -100.846,
                            33.899
                        ],
                        [
                            -101.715,
                            33.7
                        ],
                        [
                            -102.437,
                            34.499
                        ],
                        [
                            -101.64,
                            34.787
                        ]
                    ]
                ]
            },
            "properties": {
                "airSigmetId": null,
                "airportIcao": "KKCI",
                "airSigmetType": "SIGMET",
                "hazard": "CONVECTIVE",
                "severity": 5,
                "altitudeLow1": null,
                "altitudeLow2": null,
                "altitudeHi1": 40000,
                "altitudeHi2": 40000,
                "movementDir": 30,
                "movementSpd": 15,
                "rawAirSigmet": "WSUS32 KKCI 220255\nSIGC \nCONVECTIVE SIGMET 27C\nVALID UNTIL 0455Z\nTX\nFROM 30S AMA-40SW CDS-10E LBB-20E TXO-30S AMA\nAREA TS MOV FROM 03015KT. TOPS TO FL400.\n\nOUTLOOK VALID 220455-220855\nAREA 1...FROM 40ESE YQT-80N SAW-30SE TTH-40E UIN-IOW-RHI-40ESE\nYQT\nREF WW 610.\nWST ISSUANCES EXPD. REFER TO MOST RECENT ACUS01 KWNS FROM STORM\nPREDICTION CENTER FOR SYNOPSIS AND METEOROLOGICAL DETAILS.\n\nAREA 2...FROM VUZ-150S CEW-120SSW LCH-IAH-30NNW LFK-MHZ-VUZ\nREFER TO MOST RECENT ACUS01 KWNS FROM STORM PREDICTION CENTER FOR\nSYNOPSIS AND METEOROLOGICAL DETAILS.\n\nAREA 3...FROM PIR-FSD-SGF-MLC-SPS-AMA-FTI-ABQ-30WNW CZI-40SW\nRAP-PIR\nREF WW 612 613.\nWST ISSUANCES POSS. REFER TO MOST RECENT ACUS01 KWNS FROM STORM\nPREDICTION CENTER FOR SYNOPSIS AND METEOROLOGICAL DETAILS.",
                "validTimeTo": [
                    "2026-08-22T04:55"
                ]
            }
        },
        {
            "type": "Feature",
            "geometry": {
                "type": "Polygon",
                "coordinates": [
                    [
                        [
                            -104.495,
                            39.503
                        ],
                        [
                            -102.482,
                            39.133
                        ],
                        [
                            -102.1,
                            38.006
                        ],
                        [
                            -103.843,
                            37.735
                        ],
                        [
                            -105.189,
                            38.878
                        ],
                        [
                            -104.495,
                            39.503
                        ]
                    ]
                ]
            },
            "properties": {
                "airSigmetId": null,
                "airportIcao": "KKCI",
                "airSigmetType": "SIGMET",
                "hazard": "CONVECTIVE",
                "severity": 5,
                "altitudeLow1": null,
                "altitudeLow2": null,
                "altitudeHi1": 45000,
                "altitudeHi2": 60000,
                "movementDir": 330,
                "movementSpd": 10,
                "rawAirSigmet": "WSUS32 KKCI 220255\nSIGC \nCONVECTIVE SIGMET 28C\nVALID UNTIL 0455Z\nCO\nFROM 20SSE DEN-40WSW GLD-30ESE LAA-30NNW TBE-50NW PUB-20SSE DEN\nAREA SEV TS MOV FROM 33010KT. TOPS ABV FL450.\nHAIL TO 1.5 IN...WIND GUSTS TO 50KT POSS.\n\nOUTLOOK VALID 220455-220855\nAREA 1...FROM 40ESE YQT-80N SAW-30SE TTH-40E UIN-IOW-RHI-40ESE\nYQT\nREF WW 610.\nWST ISSUANCES EXPD. REFER TO MOST RECENT ACUS01 KWNS FROM STORM\nPREDICTION CENTER FOR SYNOPSIS AND METEOROLOGICAL DETAILS.\n\nAREA 2...FROM VUZ-150S CEW-120SSW LCH-IAH-30NNW LFK-MHZ-VUZ\nREFER TO MOST RECENT ACUS01 KWNS FROM STORM PREDICTION CENTER FOR\nSYNOPSIS AND METEOROLOGICAL DETAILS.\n\nAREA 3...FROM PIR-FSD-SGF-MLC-SPS-AMA-FTI-ABQ-30WNW CZI-40SW\nRAP-PIR\nREF WW 612 613.\nWST ISSUANCES POSS. REFER TO MOST RECENT ACUS01 KWNS FROM STORM\nPREDICTION CENTER FOR SYNOPSIS AND METEOROLOGICAL DETAILS.",
                "validTimeTo": [
                    "2026-08-22T04:55"
                ]
            }
        },
        {
            "type": "Feature",
            "geometry": {
                "type": "Polygon",
                "coordinates": [
                    [
                        [
                            -114.166,
                            40.856
                        ],
                        [
                            -109.33,
                            39.893
                        ],
                        [
                            -108.847,
                            37.968
                        ],
                        [
                            -112.3,
                            37.358
                        ],
                        [
                            -114.39,
                            38.421
                        ],
                        [
                            -114.166,
                            40.856
                        ]
                    ]
                ]
            },
            "properties": {
                "airSigmetId": null,
                "airportIcao": "KKCI",
                "airSigmetType": "SIGMET",
                "hazard": "CONVECTIVE",
                "severity": 5,
                "altitudeLow1": null,
                "altitudeLow2": null,
                "altitudeHi1": 41000,
                "altitudeHi2": 41000,
                "movementDir": 190,
                "movementSpd": 20,
                "rawAirSigmet": "WSUS33 KKCI 220255\nSIGW \nCONVECTIVE SIGMET 9W\nVALID UNTIL 0455Z\nCO UT NV\nFROM 20WNW BVL-40ESE MTU-10NNE DVC-20S BCE-10N ILC-20WNW BVL\nAREA TS MOV FROM 19020KT. TOPS TO FL410.\n\nOUTLOOK VALID 220455-220855\nFROM MLP-HLN-60SSW BIL-30WNW CZI-ABQ-INW-60NNE PGS-ELY-70WSW\nTWF-30S BKE-70NE PDT-MLP\nWST ISSUANCES POSS. REFER TO MOST RECENT ACUS01 KWNS FROM STORM\nPREDICTION CENTER FOR SYNOPSIS AND METEOROLOGICAL DETAILS.",
                "validTimeTo": [
                    "2026-08-22T04:55"
                ]
            }
        },
        {
            "type": "Feature",
            "geometry": {
                "type": "Polygon",
                "coordinates": [
                    [
                        [
                            -110.236,
                            43.975
                        ],
                        [
                            -109.106,
                            42.866
                        ],
                        [
                            -110.11,
                            42.077
                        ],
                        [
                            -111.815,
                            42.613
                        ],
                        [
                            -112.034,
                            43.783
                        ],
                        [
                            -110.236,
                            43.975
                        ]
                    ]
                ]
            },
            "properties": {
                "airSigmetId": null,
                "airportIcao": "KKCI",
                "airSigmetType": "SIGMET",
                "hazard": "CONVECTIVE",
                "severity": 5,
                "altitudeLow1": null,
                "altitudeLow2": null,
                "altitudeHi1": 34000,
                "altitudeHi2": 34000,
                "movementDir": 210,
                "movementSpd": 10,
                "rawAirSigmet": "WSUS33 KKCI 220255\nSIGW \nCONVECTIVE SIGMET 10W\nVALID UNTIL 0455Z\nWY ID\nFROM 30NE JAC-50SW BOY-30S BPI-40ESE PIH-20SSE DBS-30NE JAC\nAREA TS MOV FROM 21010KT. TOPS TO FL340.\n\nOUTLOOK VALID 220455-220855\nFROM MLP-HLN-60SSW BIL-30WNW CZI-ABQ-INW-60NNE PGS-ELY-70WSW\nTWF-30S BKE-70NE PDT-MLP\nWST ISSUANCES POSS. REFER TO MOST RECENT ACUS01 KWNS FROM STORM\nPREDICTION CENTER FOR SYNOPSIS AND METEOROLOGICAL DETAILS.",
                "validTimeTo": [
                    "2026-08-22T04:55"
                ]
            }
        },
        {
            "type": "Feature",
            "geometry": {
                "type": "Polygon",
                "coordinates": [
                    [
                        [
                            -112.58,
                            32.959
                        ],
                        [
                            -111.106,
                            32.035
                        ],
                        [
                            -111.613,
                            31.507
                        ],
                        [
                            -113.627,
                            31.94
                        ],
                        [
                            -112.58,
                            32.959
                        ]
                    ]
                ]
            },
            "properties": {
                "airSigmetId": null,
                "airportIcao": "KKCI",
                "airSigmetType": "SIGMET",
                "hazard": "CONVECTIVE",
                "severity": 5,
                "altitudeLow1": null,
                "altitudeLow2": null,
                "altitudeHi1": 41000,
                "altitudeHi2": 41000,
                "movementDir": 130,
                "movementSpd": 15,
                "rawAirSigmet": "WSUS33 KKCI 220255\nSIGW \nCONVECTIVE SIGMET 11W\nVALID UNTIL 0455Z\nAZ\nFROM 40SW PHX-10WSW TUS-50SW TUS-70SE BZA-40SW PHX\nAREA TS MOV FROM 13015KT. TOPS TO FL410.\n\nOUTLOOK VALID 220455-220855\nFROM MLP-HLN-60SSW BIL-30WNW CZI-ABQ-INW-60NNE PGS-ELY-70WSW\nTWF-30S BKE-70NE PDT-MLP\nWST ISSUANCES POSS. REFER TO MOST RECENT ACUS01 KWNS FROM STORM\nPREDICTION CENTER FOR SYNOPSIS AND METEOROLOGICAL DETAILS.",
                "validTimeTo": [
                    "2026-08-22T04:55"
                ]
            }
        },
        {
            "type": "Feature",
            "geometry": {
                "type": "Polygon",
                "coordinates": [
                    [
                        [
                            -107.636,
                            37.978
                        ],
                        [
                            -105.82,
                            36.515
                        ],
                        [
                            -105.604,
                            34.738
                        ],
                        [
                            -108.278,
                            35.122
                        ],
                        [
                            -109.521,
                            37.338
                        ],
                        [
                            -107.636,
                            37.978
                        ]
                    ]
                ]
            },
            "properties": {
                "airSigmetId": null,
                "airportIcao": "KKCI",
                "airSigmetType": "SIGMET",
                "hazard": "CONVECTIVE",
                "severity": 5,
                "altitudeLow1": null,
                "altitudeLow2": null,
                "altitudeHi1": 42000,
                "altitudeHi2": 42000,
                "movementDir": 70,
                "movementSpd": 15,
                "rawAirSigmet": "WSUS33 KKCI 220255\nSIGW \nCONVECTIVE SIGMET 12W\nVALID UNTIL 0455Z\nCO NM AZ UT\nFROM 40SW HBU-50S ALS-60SSW FTI-60NE SJN-40SW DVC-40SW HBU\nAREA TS MOV FROM 07015KT. TOPS TO FL420.\n\nOUTLOOK VALID 220455-220855\nFROM MLP-HLN-60SSW BIL-30WNW CZI-ABQ-INW-60NNE PGS-ELY-70WSW\nTWF-30S BKE-70NE PDT-MLP\nWST ISSUANCES POSS. REFER TO MOST RECENT ACUS01 KWNS FROM STORM\nPREDICTION CENTER FOR SYNOPSIS AND METEOROLOGICAL DETAILS.",
                "validTimeTo": [
                    "2026-08-22T04:55"
                ]
            }
        },
        {
            "type": "Feature",
            "geometry": {
                "type": "Polygon",
                "coordinates": [
                    [
                        [
                            -111.419,
                            35.999
                        ],
                        [
                            -109.14,
                            34.752
                        ],
                        [
                            -109.963,
                            32.859
                        ],
                        [
                            -111.747,
                            35.376
                        ],
                        [
                            -111.419,
                            35.999
                        ]
                    ]
                ]
            },
            "properties": {
                "airSigmetId": null,
                "airportIcao": "KKCI",
                "airSigmetType": "SIGMET",
                "hazard": "CONVECTIVE",
                "severity": 5,
                "altitudeLow1": null,
                "altitudeLow2": null,
                "altitudeHi1": 32000,
                "altitudeHi2": 32000,
                "movementDir": null,
                "movementSpd": null,
                "rawAirSigmet": "WSUS33 KKCI 220255\nSIGW \nCONVECTIVE SIGMET 13W\nVALID UNTIL 0455Z\nAZ\nFROM 10SW TBC-20N SJN-50NW SSO-50WNW INW-10SW TBC\nAREA TS MOV LTL. TOPS TO FL320.\n\nOUTLOOK VALID 220455-220855\nFROM MLP-HLN-60SSW BIL-30WNW CZI-ABQ-INW-60NNE PGS-ELY-70WSW\nTWF-30S BKE-70NE PDT-MLP\nWST ISSUANCES POSS. REFER TO MOST RECENT ACUS01 KWNS FROM STORM\nPREDICTION CENTER FOR SYNOPSIS AND METEOROLOGICAL DETAILS.",
                "validTimeTo": [
                    "2026-08-22T04:55"
                ]
            }
        },
        {
            "type": "Feature",
            "geometry": {
                "type": "Polygon",
                "coordinates": [
                    [
                        [
                            -113.857,
                            44.954
                        ],
                        [
                            -112.55,
                            44.747
                        ],
                        [
                            -112.65,
                            43.202
                        ],
                        [
                            -114.08,
                            43.852
                        ],
                        [
                            -113.857,
                            44.954
                        ]
                    ]
                ]
            },
            "properties": {
                "airSigmetId": null,
                "airportIcao": "KKCI",
                "airSigmetType": "SIGMET",
                "hazard": "CONVECTIVE",
                "severity": 5,
                "altitudeLow1": null,
                "altitudeLow2": null,
                "altitudeHi1": 38000,
                "altitudeHi2": 38000,
                "movementDir": 160,
                "movementSpd": 10,
                "rawAirSigmet": "WSUS33 KKCI 220255\nSIGW \nCONVECTIVE SIGMET 14W\nVALID UNTIL 0455Z\nMT ID\nFROM 10ESE LKT-30S DLN-20N PIH-70S LKT-10ESE LKT\nAREA TS MOV FROM 16010KT. TOPS TO FL380.\n\nOUTLOOK VALID 220455-220855\nFROM MLP-HLN-60SSW BIL-30WNW CZI-ABQ-INW-60NNE PGS-ELY-70WSW\nTWF-30S BKE-70NE PDT-MLP\nWST ISSUANCES POSS. REFER TO MOST RECENT ACUS01 KWNS FROM STORM\nPREDICTION CENTER FOR SYNOPSIS AND METEOROLOGICAL DETAILS.",
                "validTimeTo": [
                    "2026-08-22T04:55"
                ]
            }
        }
    ],
    "metadata": {
        "creationTime": "2026-08-22T03:01"
    }
}