{
    "type": "FeatureCollection",
    "features": [
        {
            "type": "Feature",
            "geometry": {
                "type": "Polygon",
                "coordinates": [
                    [
                        [
                            -78.296,
                            38.639
                        ],
                        [
                            -77.216,
                            36.246
                        ],
                        [
                            -80.04,
                            32.89
                        ],
                        [
                            -86.464,
                            34.696
                        ],
                        [
                            -84.802,
                            37.843
                        ],
                        [
                            -78.296,
                            38.639
                        ]
                    ]
                ]
            },
            "properties": {
                "airSigmetId": null,
                "airportIcao": "KKCI",
                "airSigmetType": "SIGMET",
                "hazard": "CONVECTIVE",
                "severity": 5,
                "altitudeLow1": null,
                "altitudeLow2": null,
                "altitudeHi1": 45000,
                "altitudeHi2": 60000,
                "movementDir": 270,
                "movementSpd": 10,
                "rawAirSigmet": "WSUS31 KKCI 142055\nSIGE \nCONVECTIVE SIGMET 99E\nVALID UNTIL 2255Z\nVA NC WV SC GA TN KY AL\nFROM 20W CSN-50W ECG-CHS-50E MSL-40ESE IIU-20W CSN\nAREA SEV EMBD TS MOV FROM 27010KT. TOPS ABV FL450.\nHAIL TO 1 IN...WIND GUSTS TO 50KT POSS.\n\nOUTLOOK VALID 142255-150255\nAREA 1...FROM JOT-110S HTO-190ESE ECG-130SSE ILM-170E PBI-70E\nPBI-150SE MIA-80WSW EYW-100W SRQ-80SE LEV-JOT\nWST ISSUANCES EXPD. REFER TO MOST RECENT ACUS01 KWNS FROM STORM\nPREDICTION CENTER FOR SYNOPSIS AND METEOROLOGICAL DETAILS.\n\nAREA 2...FROM MSS-100E ACK-JFK-40NW SYR-MSS\nWST ISSUANCES EXPD. REFER TO MOST RECENT ACUS01 KWNS FROM STORM\nPREDICTION CENTER FOR SYNOPSIS AND METEOROLOGICAL DETAILS.",
                "validTimeTo": [
                    "2026-08-14T22:55"
                ]
            }
        },
        {
            "type": "Feature",
            "geometry": {
                "type": "Polygon",
                "coordinates": [
                    [
                        [
                            -74.549,
                            45.031
                        ],
                        [
                            -71.58,
                            43.22
                        ],
                        [
                            -71.43,
                            41.055
                        ],
                        [
                            -74.066,
                            41.425
                        ],
                        [
                            -76.466,
                            43.624
                        ],
                        [
                            -74.549,
                            45.031
                        ]
                    ]
                ]
            },
            "properties": {
                "airSigmetId": null,
                "airportIcao": "KKCI",
                "airSigmetType": "SIGMET",
                "hazard": "CONVECTIVE",
                "severity": 5,
                "altitudeLow1": null,
                "altitudeLow2": null,
                "altitudeHi1": 33000,
                "altitudeHi2": 33000,
                "movementDir": 300,
                "movementSpd": 25,
                "rawAirSigmet": "WSUS31 KKCI 142055\nSIGE \nCONVECTIVE SIGMET 01E\nVALID UNTIL 2255Z\nMA NH RI VT CT NY LO AND RI CT CSTL WTRS\nFROM 10NE MSS-CON-40S PVD-30NE SAX-30NNW SYR-10NE MSS\nAREA EMBD TS MOV FROM 30025KT. TOPS TO FL330.\n\nOUTLOOK VALID 142255-150255\nAREA 1...FROM JOT-110S HTO-190ESE ECG-130SSE ILM-170E PBI-70E\nPBI-150SE MIA-80WSW EYW-100W SRQ-80SE LEV-JOT\nWST ISSUANCES EXPD. REFER TO MOST RECENT ACUS01 KWNS FROM STORM\nPREDICTION CENTER FOR SYNOPSIS AND METEOROLOGICAL DETAILS.\n\nAREA 2...FROM MSS-100E ACK-JFK-40NW SYR-MSS\nWST ISSUANCES EXPD. REFER TO MOST RECENT ACUS01 KWNS FROM STORM\nPREDICTION CENTER FOR SYNOPSIS AND METEOROLOGICAL DETAILS.",
                "validTimeTo": [
                    "2026-08-14T22:55"
                ]
            }
        },
        {
            "type": "Feature",
            "geometry": {
                "type": "Polygon",
                "coordinates": [
                    [
                        [
                            -80.491,
                            39.405
                        ],
                        [
                            -78.633,
                            39.228
                        ],
                        [
                            -78.264,
                            38.767
                        ],
                        [
                            -80.795,
                            38.394
                        ],
                        [
                            -80.491,
                            39.405
                        ]
                    ]
                ]
            },
            "properties": {
                "airSigmetId": null,
                "airportIcao": "KKCI",
                "airSigmetType": "SIGMET",
                "hazard": "CONVECTIVE",
                "severity": 5,
                "altitudeLow1": null,
                "altitudeLow2": null,
                "altitudeHi1": 45000,
                "altitudeHi2": 60000,
                "movementDir": 290,
                "movementSpd": 25,
                "rawAirSigmet": "WSUS31 KKCI 142055\nSIGE \nCONVECTIVE SIGMET 02E\nVALID UNTIL 2255Z\nMD VA WV\nFROM 40SSE AIR-50NW CSN-20WNW CSN-40NNE BKW-40SSE AIR\nAREA TS MOV FROM 29025KT. TOPS ABV FL450.\n\nOUTLOOK VALID 142255-150255\nAREA 1...FROM JOT-110S HTO-190ESE ECG-130SSE ILM-170E PBI-70E\nPBI-150SE MIA-80WSW EYW-100W SRQ-80SE LEV-JOT\nWST ISSUANCES EXPD. REFER TO MOST RECENT ACUS01 KWNS FROM STORM\nPREDICTION CENTER FOR SYNOPSIS AND METEOROLOGICAL DETAILS.\n\nAREA 2...FROM MSS-100E ACK-JFK-40NW SYR-MSS\nWST ISSUANCES EXPD. REFER TO MOST RECENT ACUS01 KWNS FROM STORM\nPREDICTION CENTER FOR SYNOPSIS AND METEOROLOGICAL DETAILS.",
                "validTimeTo": [
                    "2026-08-14T22:55"
                ]
            }
        },
        {
            "type": "Feature",
            "geometry": {
                "type": "Polygon",
                "coordinates": [
                    [
                        [
                            -88.38,
                            32.024
                        ],
                        [
                            -84.37,
                            30.56
                        ],
                        [
                            -85.183,
                            29.852
                        ],
                        [
                            -88.36,
                            31.565
                        ],
                        [
                            -88.38,
                            32.024
                        ]
                    ]
                ]
            },
            "properties": {
                "airSigmetId": null,
                "airportIcao": "KKCI",
                "airSigmetType": "SIGMET",
                "hazard": "CONVECTIVE",
                "severity": 5,
                "altitudeLow1": null,
                "altitudeLow2": null,
                "altitudeHi1": 38000,
                "altitudeHi2": 38000,
                "movementDir": null,
                "movementSpd": null,
                "rawAirSigmet": "WSUS31 KKCI 142055\nSIGE \nCONVECTIVE SIGMET 03E\nVALID UNTIL 2255Z\nFL GA AL MS AND FL CSTL WTRS\nFROM 30SE MEI-TLH-60SW TLH-50N SJI-30SE MEI\nAREA TS MOV LTL. TOPS TO FL380.\n\nOUTLOOK VALID 142255-150255\nAREA 1...FROM JOT-110S HTO-190ESE ECG-130SSE ILM-170E PBI-70E\nPBI-150SE MIA-80WSW EYW-100W SRQ-80SE LEV-JOT\nWST ISSUANCES EXPD. REFER TO MOST RECENT ACUS01 KWNS FROM STORM\nPREDICTION CENTER FOR SYNOPSIS AND METEOROLOGICAL DETAILS.\n\nAREA 2...FROM MSS-100E ACK-JFK-40NW SYR-MSS\nWST ISSUANCES EXPD. REFER TO MOST RECENT ACUS01 KWNS FROM STORM\nPREDICTION CENTER FOR SYNOPSIS AND METEOROLOGICAL DETAILS.",
                "validTimeTo": [
                    "2026-08-14T22:55"
                ]
            }
        },
        {
            "type": "Feature",
            "geometry": {
                "type": "Polygon",
                "coordinates": [
                    [
                        [
                            -82.639,
                            29.955
                        ],
                        [
                            -80.929,
                            29.235
                        ],
                        [
                            -80.272,
                            28.145
                        ],
                        [
                            -83.672,
                            25.28
                        ],
                        [
                            -84.103,
                            26.817
                        ],
                        [
                            -82.639,
                            29.955
                        ]
                    ]
                ]
            },
            "properties": {
                "airSigmetId": null,
                "airportIcao": "KKCI",
                "airSigmetType": "SIGMET",
                "hazard": "CONVECTIVE",
                "severity": 5,
                "altitudeLow1": null,
                "altitudeLow2": null,
                "altitudeHi1": 45000,
                "altitudeHi2": 60000,
                "movementDir": 100,
                "movementSpd": 5,
                "rawAirSigmet": "WSUS31 KKCI 142055\nSIGE \nCONVECTIVE SIGMET 04E\nVALID UNTIL 2255Z\nFL AND CSTL WTRS\nFROM 30NE CTY-10ESE OMN-30NNE TRV-110WNW EYW-90WSW SRQ-30NE CTY\nAREA TS MOV FROM 10005KT. TOPS ABV FL450.\nREF INTL SIGMET JULIETT SERIES.\n\nOUTLOOK VALID 142255-150255\nAREA 1...FROM JOT-110S HTO-190ESE ECG-130SSE ILM-170E PBI-70E\nPBI-150SE MIA-80WSW EYW-100W SRQ-80SE LEV-JOT\nWST ISSUANCES EXPD. REFER TO MOST RECENT ACUS01 KWNS FROM STORM\nPREDICTION CENTER FOR SYNOPSIS AND METEOROLOGICAL DETAILS.\n\nAREA 2...FROM MSS-100E ACK-JFK-40NW SYR-MSS\nWST ISSUANCES EXPD. REFER TO MOST RECENT ACUS01 KWNS FROM STORM\nPREDICTION CENTER FOR SYNOPSIS AND METEOROLOGICAL DETAILS.",
                "validTimeTo": [
                    "2026-08-14T22:55"
                ]
            }
        },
        {
            "type": "Feature",
            "geometry": {
                "type": "Polygon",
                "coordinates": [
                    [
                        [
                            -87.053,
                            33.977
                        ],
                        [
                            -83.3,
                            33.865
                        ],
                        [
                            -81.336,
                            31.695
                        ],
                        [
                            -81.11,
                            29.3
                        ],
                        [
                            -88.38,
                            32.024
                        ],
                        [
                            -87.053,
                            33.977
                        ]
                    ]
                ]
            },
            "properties": {
                "airSigmetId": null,
                "airportIcao": "KKCI",
                "airSigmetType": "SIGMET",
                "hazard": "CONVECTIVE",
                "severity": 5,
                "altitudeLow1": null,
                "altitudeLow2": null,
                "altitudeHi1": 45000,
                "altitudeHi2": 60000,
                "movementDir": 290,
                "movementSpd": 5,
                "rawAirSigmet": "WSUS31 KKCI 142055\nSIGE \nCONVECTIVE SIGMET 05E\nVALID UNTIL 2255Z\nFL GA AL AND FL GA CSTL WTRS\nFROM 20NNW VUZ-50S ODF-30SSW SAV-OMN-30SE MEI-20NNW VUZ\nAREA SEV EMBD TS MOV FROM 29005KT. TOPS ABV FL450.\nWIND GUSTS TO 50KT POSS.\n\nOUTLOOK VALID 142255-150255\nAREA 1...FROM JOT-110S HTO-190ESE ECG-130SSE ILM-170E PBI-70E\nPBI-150SE MIA-80WSW EYW-100W SRQ-80SE LEV-JOT\nWST ISSUANCES EXPD. REFER TO MOST RECENT ACUS01 KWNS FROM STORM\nPREDICTION CENTER FOR SYNOPSIS AND METEOROLOGICAL DETAILS.\n\nAREA 2...FROM MSS-100E ACK-JFK-40NW SYR-MSS\nWST ISSUANCES EXPD. REFER TO MOST RECENT ACUS01 KWNS FROM STORM\nPREDICTION CENTER FOR SYNOPSIS AND METEOROLOGICAL DETAILS.",
                "validTimeTo": [
                    "2026-08-14T22:55"
                ]
            }
        },
        {
            "type": "Feature",
            "geometry": {
                "type": "Polygon",
                "coordinates": [
                    [
                        [
                            -74.43,
                            39.82
                        ],
                        [
                            -71.255,
                            38.915
                        ],
                        [
                            -71.297,
                            37.902
                        ],
                        [
                            -75.633,
                            35.17
                        ],
                        [
                            -76.18,
                            36.25
                        ],
                        [
                            -74.43,
                            39.82
                        ]
                    ]
                ]
            },
            "properties": {
                "airSigmetId": null,
                "airportIcao": "KKCI",
                "airSigmetType": "SIGMET",
                "hazard": "CONVECTIVE",
                "severity": 5,
                "altitudeLow1": null,
                "altitudeLow2": null,
                "altitudeHi1": 45000,
                "altitudeHi2": 60000,
                "movementDir": 280,
                "movementSpd": 25,
                "rawAirSigmet": "WSUS31 KKCI 142055\nSIGE \nCONVECTIVE SIGMET 06E\nVALID UNTIL 2255Z\nNJ DE MD VA NC AND DE NJ NY MD NC VA CSTL WTRS\nFROM CYN-130SSE HTO-180ESE SIE-70SSE ECG-ECG-CYN\nAREA TS MOV FROM 28025KT. TOPS ABV FL450.\nREF INTL SIGMET ECHO SERIES.\n\nOUTLOOK VALID 142255-150255\nAREA 1...FROM JOT-110S HTO-190ESE ECG-130SSE ILM-170E PBI-70E\nPBI-150SE MIA-80WSW EYW-100W SRQ-80SE LEV-JOT\nWST ISSUANCES EXPD. REFER TO MOST RECENT ACUS01 KWNS FROM STORM\nPREDICTION CENTER FOR SYNOPSIS AND METEOROLOGICAL DETAILS.\n\nAREA 2...FROM MSS-100E ACK-JFK-40NW SYR-MSS\nWST ISSUANCES EXPD. REFER TO MOST RECENT ACUS01 KWNS FROM STORM\nPREDICTION CENTER FOR SYNOPSIS AND METEOROLOGICAL DETAILS.",
                "validTimeTo": [
                    "2026-08-14T22:55"
                ]
            }
        },
        {
            "type": "Feature",
            "geometry": {
                "type": "Polygon",
                "coordinates": [
                    [
                        [
                            -79.056,
                            27.058
                        ],
                        [
                            -78.367,
                            24.021
                        ],
                        [
                            -83.145,
                            24.075
                        ],
                        [
                            -83.262,
                            24.583
                        ],
                        [
                            -79.056,
                            27.058
                        ]
                    ]
                ]
            },
            "properties": {
                "airSigmetId": null,
                "airportIcao": "KKCI",
                "airSigmetType": "SIGMET",
                "hazard": "CONVECTIVE",
                "severity": 5,
                "altitudeLow1": null,
                "altitudeLow2": null,
                "altitudeHi1": 45000,
                "altitudeHi2": 60000,
                "movementDir": 100,
                "movementSpd": 10,
                "rawAirSigmet": "WSUS31 KKCI 142055\nSIGE \nCONVECTIVE SIGMET 07E\nVALID UNTIL 2255Z\nFL AND CSTL WTRS\nFROM 60ENE PBI-150SE MIA-80WSW EYW-80W EYW-60ENE PBI\nAREA TS MOV FROM 10010KT. TOPS ABV FL450.\nREF INTL SIGMET DELTA AND JULIETT SERIES.\n\nOUTLOOK VALID 142255-150255\nAREA 1...FROM JOT-110S HTO-190ESE ECG-130SSE ILM-170E PBI-70E\nPBI-150SE MIA-80WSW EYW-100W SRQ-80SE LEV-JOT\nWST ISSUANCES EXPD. REFER TO MOST RECENT ACUS01 KWNS FROM STORM\nPREDICTION CENTER FOR SYNOPSIS AND METEOROLOGICAL DETAILS.\n\nAREA 2...FROM MSS-100E ACK-JFK-40NW SYR-MSS\nWST ISSUANCES EXPD. REFER TO MOST RECENT ACUS01 KWNS FROM STORM\nPREDICTION CENTER FOR SYNOPSIS AND METEOROLOGICAL DETAILS.",
                "validTimeTo": [
                    "2026-08-14T22:55"
                ]
            }
        },
        {
            "type": "Feature",
            "geometry": {
                "type": "Polygon",
                "coordinates": [
                    [
                        [
                            -114.18,
                            48.21
                        ],
                        [
                            -109.082,
                            45.037
                        ],
                        [
                            -114.142,
                            43.094
                        ],
                        [
                            -115.558,
                            44.576
                        ],
                        [
                            -115.65,
                            47.963
                        ],
                        [
                            -114.18,
                            48.21
                        ]
                    ]
                ]
            },
            "properties": {
                "airSigmetId": null,
                "airportIcao": "KKCI",
                "airSigmetType": "SIGMET",
                "hazard": "CONVECTIVE",
                "severity": 5,
                "altitudeLow1": null,
                "altitudeLow2": null,
                "altitudeHi1": 45000,
                "altitudeHi2": 45000,
                "movementDir": 240,
                "movementSpd": 15,
                "rawAirSigmet": "WSUS33 KKCI 142055\nSIGW \nCONVECTIVE SIGMET 98W\nVALID UNTIL 2255Z\nMT WY ID\nFROM FCA-50SSW BIL-40NNE TWF-30ESE DNJ-30N MLP-FCA\nDVLPG AREA TS MOV FROM 24015KT. TOPS TO FL450.\n\nOUTLOOK VALID 142255-150255\nFROM HUH-GGW-DMN-70SE SSO-50S TUS-BZA-MZB-OED-HUH\nWST ISSUANCES POSS. REFER TO MOST RECENT ACUS01 KWNS FROM STORM\nPREDICTION CENTER FOR SYNOPSIS AND METEOROLOGICAL DETAILS.",
                "validTimeTo": [
                    "2026-08-14T22:55"
                ]
            }
        },
        {
            "type": "Feature",
            "geometry": {
                "type": "Polygon",
                "coordinates": [
                    [
                        [
                            -109.02,
                            41.59
                        ],
                        [
                            -108.79,
                            39.06
                        ],
                        [
                            -110.09,
                            37.423
                        ],
                        [
                            -112.928,
                            40.071
                        ],
                        [
                            -111.641,
                            41.464
                        ],
                        [
                            -109.02,
                            41.59
                        ]
                    ]
                ]
            },
            "properties": {
                "airSigmetId": null,
                "airportIcao": "KKCI",
                "airSigmetType": "SIGMET",
                "hazard": "CONVECTIVE",
                "severity": 5,
                "altitudeLow1": null,
                "altitudeLow2": null,
                "altitudeHi1": 45000,
                "altitudeHi2": 60000,
                "movementDir": 230,
                "movementSpd": 20,
                "rawAirSigmet": "WSUS33 KKCI 142055\nSIGW \nCONVECTIVE SIGMET 99W\nVALID UNTIL 2255Z\nCO WY UT\nFROM OCS-JNC-60WSW DVC-50NNW DTA-40NNE SLC-OCS\nAREA TS MOV FROM 23020KT. TOPS ABV FL450.\n\nOUTLOOK VALID 142255-150255\nFROM HUH-GGW-DMN-70SE SSO-50S TUS-BZA-MZB-OED-HUH\nWST ISSUANCES POSS. REFER TO MOST RECENT ACUS01 KWNS FROM STORM\nPREDICTION CENTER FOR SYNOPSIS AND METEOROLOGICAL DETAILS.",
                "validTimeTo": [
                    "2026-08-14T22:55"
                ]
            }
        },
        {
            "type": "Feature",
            "geometry": {
                "type": "Polygon",
                "coordinates": [
                    [
                        [
                            -109.861,
                            35.009
                        ],
                        [
                            -106.586,
                            34.575
                        ],
                        [
                            -108.153,
                            31.809
                        ],
                        [
                            -108.122,
                            31.2
                        ],
                        [
                            -109.707,
                            31.348
                        ],
                        [
                            -109.861,
                            35.009
                        ]
                    ]
                ]
            },
            "properties": {
                "airSigmetId": null,
                "airportIcao": "KKCI",
                "airSigmetType": "SIGMET",
                "hazard": "CONVECTIVE",
                "severity": 5,
                "altitudeLow1": null,
                "altitudeLow2": null,
                "altitudeHi1": 40000,
                "altitudeHi2": 40000,
                "movementDir": 240,
                "movementSpd": 15,
                "rawAirSigmet": "WSUS33 KKCI 142055\nSIGW \nCONVECTIVE SIGMET 01W\nVALID UNTIL 2255Z\nNM AZ\nFROM 50NW SJN-30SSE ABQ-40SW DMN-70SSW DMN-60SSW SSO-50NW SJN\nAREA TS MOV FROM 24015KT. TOPS TO FL400.\n\nOUTLOOK VALID 142255-150255\nFROM HUH-GGW-DMN-70SE SSO-50S TUS-BZA-MZB-OED-HUH\nWST ISSUANCES POSS. REFER TO MOST RECENT ACUS01 KWNS FROM STORM\nPREDICTION CENTER FOR SYNOPSIS AND METEOROLOGICAL DETAILS.",
                "validTimeTo": [
                    "2026-08-14T22:55"
                ]
            }
        },
        {
            "type": "Feature",
            "geometry": {
                "type": "Polygon",
                "coordinates": [
                    [
                        [
                            -108.123,
                            45.453
                        ],
                        [
                            -107.06,
                            44.84
                        ],
                        [
                            -108.735,
                            42.687
                        ],
                        [
                            -115.7,
                            40.945
                        ],
                        [
                            -116.92,
                            41.567
                        ],
                        [
                            -108.123,
                            45.453
                        ]
                    ]
                ]
            },
            "properties": {
                "airSigmetId": null,
                "airportIcao": "KKCI",
                "airSigmetType": "SIGMET",
                "hazard": "CONVECTIVE",
                "severity": 5,
                "altitudeLow1": null,
                "altitudeLow2": null,
                "altitudeHi1": 44000,
                "altitudeHi2": 44000,
                "movementDir": 240,
                "movementSpd": 15,
                "rawAirSigmet": "WSUS33 KKCI 142055\nSIGW \nCONVECTIVE SIGMET 02W\nVALID UNTIL 2255Z\nMT WY UT ID NV\nFROM 30SE BIL-SHR-50SSW BOY-60ENE BAM-60N BAM-30SE BIL\nDVLPG AREA TS MOV FROM 24015KT. TOPS TO FL440.\n\nOUTLOOK VALID 142255-150255\nFROM HUH-GGW-DMN-70SE SSO-50S TUS-BZA-MZB-OED-HUH\nWST ISSUANCES POSS. REFER TO MOST RECENT ACUS01 KWNS FROM STORM\nPREDICTION CENTER FOR SYNOPSIS AND METEOROLOGICAL DETAILS.",
                "validTimeTo": [
                    "2026-08-14T22:55"
                ]
            }
        },
        {
            "type": "Feature",
            "geometry": {
                "type": "Polygon",
                "coordinates": [
                    [
                        [
                            -113.76,
                            40.73
                        ],
                        [
                            -109.059,
                            36.426
                        ],
                        [
                            -112.02,
                            33.43
                        ],
                        [
                            -116.067,
                            35.571
                        ],
                        [
                            -116.92,
                            40.57
                        ],
                        [
                            -113.76,
                            40.73
                        ]
                    ]
                ]
            },
            "properties": {
                "airSigmetId": null,
                "airportIcao": "KKCI",
                "airSigmetType": "SIGMET",
                "hazard": "CONVECTIVE",
                "severity": 5,
                "altitudeLow1": null,
                "altitudeLow2": null,
                "altitudeHi1": 45000,
                "altitudeHi2": 60000,
                "movementDir": 230,
                "movementSpd": 10,
                "rawAirSigmet": "WSUS33 KKCI 142055\nSIGW \nCONVECTIVE SIGMET 03W\nVALID UNTIL 2255Z\nNM AZ UT NV CA\nFROM BVL-50WSW RSK-PHX-50NNE HEC-BAM-BVL\nAREA TS MOV FROM 23010KT. TOPS ABV FL450.\n\nOUTLOOK VALID 142255-150255\nFROM HUH-GGW-DMN-70SE SSO-50S TUS-BZA-MZB-OED-HUH\nWST ISSUANCES POSS. REFER TO MOST RECENT ACUS01 KWNS FROM STORM\nPREDICTION CENTER FOR SYNOPSIS AND METEOROLOGICAL DETAILS.",
                "validTimeTo": [
                    "2026-08-14T22:55"
                ]
            }
        },
        {
            "type": "Feature",
            "geometry": {
                "type": "Polygon",
                "coordinates": [
                    [
                        [
                            -117.447,
                            45.454
                        ],
                        [
                            -116.432,
                            44.704
                        ],
                        [
                            -118.635,
                            44.246
                        ],
                        [
                            -118.315,
                            45.195
                        ],
                        [
                            -117.447,
                            45.454
                        ]
                    ]
                ]
            },
            "properties": {
                "airSigmetId": null,
                "airportIcao": "KKCI",
                "airSigmetType": "SIGMET",
                "hazard": "CONVECTIVE",
                "severity": 5,
                "altitudeLow1": null,
                "altitudeLow2": null,
                "altitudeHi1": 45000,
                "altitudeHi2": 45000,
                "movementDir": 230,
                "movementSpd": 15,
                "rawAirSigmet": "WSUS33 KKCI 142055\nSIGW \nCONVECTIVE SIGMET 04W\nVALID UNTIL 2255Z\nID OR\nFROM 40NNE BKE-10WSW DNJ-50SW BKE-30NW BKE-40NNE BKE\nAREA SEV TS MOV FROM 23015KT. TOPS TO FL450.\nHAIL TO 1 IN...WIND GUSTS TO 50KT POSS.\n\nOUTLOOK VALID 142255-150255\nFROM HUH-GGW-DMN-70SE SSO-50S TUS-BZA-MZB-OED-HUH\nWST ISSUANCES POSS. REFER TO MOST RECENT ACUS01 KWNS FROM STORM\nPREDICTION CENTER FOR SYNOPSIS AND METEOROLOGICAL DETAILS.",
                "validTimeTo": [
                    "2026-08-14T22:55"
                ]
            }
        },
        {
            "type": "Feature",
            "geometry": {
                "type": "Polygon",
                "coordinates": [
                    [
                        [
                            -120.79,
                            47.753
                        ],
                        [
                            -120.109,
                            47.57
                        ],
                        [
                            -120.816,
                            45.955
                        ],
                        [
                            -122.028,
                            46.975
                        ],
                        [
                            -120.79,
                            47.753
                        ]
                    ]
                ]
            },
            "properties": {
                "airSigmetId": null,
                "airportIcao": "KKCI",
                "airSigmetType": "SIGMET",
                "hazard": "CONVECTIVE",
                "severity": 5,
                "altitudeLow1": null,
                "altitudeLow2": null,
                "altitudeHi1": 32000,
                "altitudeHi2": 32000,
                "movementDir": 230,
                "movementSpd": 10,
                "rawAirSigmet": "WSUS33 KKCI 142055\nSIGW \nCONVECTIVE SIGMET 05W\nVALID UNTIL 2255Z\nWA\nFROM 60WNW EPH-30WNW EPH-40SSW YKM-30SSE SEA-60WNW EPH\nAREA TS MOV FROM 23010KT. TOPS TO FL320.\n\nOUTLOOK VALID 142255-150255\nFROM HUH-GGW-DMN-70SE SSO-50S TUS-BZA-MZB-OED-HUH\nWST ISSUANCES POSS. REFER TO MOST RECENT ACUS01 KWNS FROM STORM\nPREDICTION CENTER FOR SYNOPSIS AND METEOROLOGICAL DETAILS.",
                "validTimeTo": [
                    "2026-08-14T22:55"
                ]
            }
        },
        {
            "type": "Feature",
            "geometry": {
                "type": "Polygon",
                "coordinates": [
                    [
                        [
                            -99.568,
                            37.533
                        ],
                        [
                            -98.918,
                            36.656
                        ],
                        [
                            -101.085,
                            34.367
                        ],
                        [
                            -102.219,
                            35.759
                        ],
                        [
                            -99.568,
                            37.533
                        ]
                    ]
                ]
            },
            "properties": {
                "airSigmetId": null,
                "airportIcao": "KKCI",
                "airSigmetType": "SIGMET",
                "hazard": "CONVECTIVE",
                "severity": 5,
                "altitudeLow1": null,
                "altitudeLow2": null,
                "altitudeHi1": 45000,
                "altitudeHi2": 60000,
                "movementDir": 280,
                "movementSpd": 30,
                "rawAirSigmet": "WSUS32 KKCI 142055\nSIGC \nCONVECTIVE SIGMET 06C\nVALID UNTIL 2255Z\nTX OK KS\nFROM 60ESE GCK-50ENE MMB-40W CDS-40NW AMA-60ESE GCK\nAREA SEV TS MOV FROM 28030KT TOPS ABV FL450.\nWIND GUSTS TO 50KT POSS.\n\nOUTLOOK VALID 142255-150255\nAREA 1...FROM PIR-40ESE RWF-JOT-MEI-PIR\nWST ISSUANCES EXPD. REFER TO MOST RECENT ACUS01 KWNS FROM STORM\nPREDICTION CENTER FOR SYNOPSIS AND METEOROLOGICAL DETAILS.\n\nAREA 2...FROM ACT-80SE LEV-120SSW LCH-80E BRO-90W BRO-DLF-ACT\nWST ISSUANCES POSS. REFER TO MOST RECENT ACUS01 KWNS FROM STORM\nPREDICTION CENTER FOR SYNOPSIS AND METEOROLOGICAL DETAILS.\n\nAREA 3...FROM 60NNE GFK-PIR-MCI-CDS-DLF-90S MRF-ELP-DMN-GGW-60NNE\nGFK\nWST ISSUANCES POSS. REFER TO MOST RECENT ACUS01 KWNS FROM STORM\nPREDICTION CENTER FOR SYNOPSIS AND METEOROLOGICAL DETAILS.",
                "validTimeTo": [
                    "2026-08-14T22:55"
                ]
            }
        },
        {
            "type": "Feature",
            "geometry": {
                "type": "Polygon",
                "coordinates": [
                    [
                        [
                            -104.722,
                            34.793
                        ],
                        [
                            -101.92,
                            33.7
                        ],
                        [
                            -102.685,
                            30.336
                        ],
                        [
                            -104.492,
                            29.829
                        ],
                        [
                            -107.28,
                            33.28
                        ],
                        [
                            -104.722,
                            34.793
                        ]
                    ]
                ]
            },
            "properties": {
                "airSigmetId": null,
                "airportIcao": "KKCI",
                "airSigmetType": "SIGMET",
                "hazard": "CONVECTIVE",
                "severity": 5,
                "altitudeLow1": null,
                "altitudeLow2": null,
                "altitudeHi1": 45000,
                "altitudeHi2": 60000,
                "movementDir": 230,
                "movementSpd": 25,
                "rawAirSigmet": "WSUS32 KKCI 142055\nSIGC \nCONVECTIVE SIGMET 07C\nVALID UNTIL 2255Z\nTX NM\nFROM 60WSW TCC-LBB-40SSE FST-40SW MRF-TCS-60WSW TCC\nAREA SEV TS MOV FROM 23025KT. TOPS ABV FL450.\nWIND GUSTS TO 50KT POSS.\n\nOUTLOOK VALID 142255-150255\nAREA 1...FROM PIR-40ESE RWF-JOT-MEI-PIR\nWST ISSUANCES EXPD. REFER TO MOST RECENT ACUS01 KWNS FROM STORM\nPREDICTION CENTER FOR SYNOPSIS AND METEOROLOGICAL DETAILS.\n\nAREA 2...FROM ACT-80SE LEV-120SSW LCH-80E BRO-90W BRO-DLF-ACT\nWST ISSUANCES POSS. REFER TO MOST RECENT ACUS01 KWNS FROM STORM\nPREDICTION CENTER FOR SYNOPSIS AND METEOROLOGICAL DETAILS.\n\nAREA 3...FROM 60NNE GFK-PIR-MCI-CDS-DLF-90S MRF-ELP-DMN-GGW-60NNE\nGFK\nWST ISSUANCES POSS. REFER TO MOST RECENT ACUS01 KWNS FROM STORM\nPREDICTION CENTER FOR SYNOPSIS AND METEOROLOGICAL DETAILS.",
                "validTimeTo": [
                    "2026-08-14T22:55"
                ]
            }
        },
        {
            "type": "Feature",
            "geometry": {
                "type": "Polygon",
                "coordinates": [
                    [
                        [
                            -105.72,
                            41.33
                        ],
                        [
                            -103.18,
                            40.16
                        ],
                        [
                            -103.126,
                            36.348
                        ],
                        [
                            -107.389,
                            35.231
                        ],
                        [
                            -107.698,
                            39.692
                        ],
                        [
                            -105.72,
                            41.33
                        ]
                    ]
                ]
            },
            "properties": {
                "airSigmetId": null,
                "airportIcao": "KKCI",
                "airSigmetType": "SIGMET",
                "hazard": "CONVECTIVE",
                "severity": 5,
                "altitudeLow1": null,
                "altitudeLow2": null,
                "altitudeHi1": 45000,
                "altitudeHi2": 60000,
                "movementDir": 210,
                "movementSpd": 15,
                "rawAirSigmet": "WSUS32 KKCI 142055\nSIGC \nCONVECTIVE SIGMET 08C\nVALID UNTIL 2255Z\nCO NM WY\nFROM LAR-AKO-60SSE TBE-30WNW ABQ-40WNW DBL-LAR\nAREA SEV TS MOV FROM 21015KT. TOPS ABV FL450.\nHAIL TO 1 IN...WIND GUSTS TO 50KT POSS.\n\nOUTLOOK VALID 142255-150255\nAREA 1...FROM PIR-40ESE RWF-JOT-MEI-PIR\nWST ISSUANCES EXPD. REFER TO MOST RECENT ACUS01 KWNS FROM STORM\nPREDICTION CENTER FOR SYNOPSIS AND METEOROLOGICAL DETAILS.\n\nAREA 2...FROM ACT-80SE LEV-120SSW LCH-80E BRO-90W BRO-DLF-ACT\nWST ISSUANCES POSS. REFER TO MOST RECENT ACUS01 KWNS FROM STORM\nPREDICTION CENTER FOR SYNOPSIS AND METEOROLOGICAL DETAILS.\n\nAREA 3...FROM 60NNE GFK-PIR-MCI-CDS-DLF-90S MRF-ELP-DMN-GGW-60NNE\nGFK\nWST ISSUANCES POSS. REFER TO MOST RECENT ACUS01 KWNS FROM STORM\nPREDICTION CENTER FOR SYNOPSIS AND METEOROLOGICAL DETAILS.",
                "validTimeTo": [
                    "2026-08-14T22:55"
                ]
            }
        },
        {
            "type": "Feature",
            "geometry": {
                "type": "Polygon",
                "coordinates": [
                    [
                        [
                            -95.885,
                            31.155
                        ],
                        [
                            -94.263,
                            30.135
                        ],
                        [
                            -98.209,
                            27.028
                        ],
                        [
                            -99.225,
                            29.638
                        ],
                        [
                            -95.885,
                            31.155
                        ]
                    ]
                ]
            },
            "properties": {
                "airSigmetId": null,
                "airportIcao": "KKCI",
                "airSigmetType": "SIGMET",
                "hazard": "CONVECTIVE",
                "severity": 5,
                "altitudeLow1": null,
                "altitudeLow2": null,
                "altitudeHi1": 45000,
                "altitudeHi2": 60000,
                "movementDir": 170,
                "movementSpd": 15,
                "rawAirSigmet": "WSUS32 KKCI 142055\nSIGC \nCONVECTIVE SIGMET 09C\nVALID UNTIL 2255Z\nTX\nFROM 60W LFK-60W LCH-70ESE LRD-40W SAT-60W LFK\nAREA TS MOV FROM 17015KT. TOPS ABV FL450.\n\nOUTLOOK VALID 142255-150255\nAREA 1...FROM PIR-40ESE RWF-JOT-MEI-PIR\nWST ISSUANCES EXPD. REFER TO MOST RECENT ACUS01 KWNS FROM STORM\nPREDICTION CENTER FOR SYNOPSIS AND METEOROLOGICAL DETAILS.\n\nAREA 2...FROM ACT-80SE LEV-120SSW LCH-80E BRO-90W BRO-DLF-ACT\nWST ISSUANCES POSS. REFER TO MOST RECENT ACUS01 KWNS FROM STORM\nPREDICTION CENTER FOR SYNOPSIS AND METEOROLOGICAL DETAILS.\n\nAREA 3...FROM 60NNE GFK-PIR-MCI-CDS-DLF-90S MRF-ELP-DMN-GGW-60NNE\nGFK\nWST ISSUANCES POSS. REFER TO MOST RECENT ACUS01 KWNS FROM STORM\nPREDICTION CENTER FOR SYNOPSIS AND METEOROLOGICAL DETAILS.",
                "validTimeTo": [
                    "2026-08-14T22:55"
                ]
            }
        },
        {
            "type": "Feature",
            "geometry": {
                "type": "Polygon",
                "coordinates": [
                    [
                        [
                            -103.48,
                            42.393
                        ],
                        [
                            -103.005,
                            41.533
                        ],
                        [
                            -104.516,
                            40.745
                        ],
                        [
                            -105.72,
                            41.33
                        ],
                        [
                            -103.48,
                            42.393
                        ]
                    ]
                ]
            },
            "properties": {
                "airSigmetId": null,
                "airportIcao": "KKCI",
                "airSigmetType": "SIGMET",
                "hazard": "CONVECTIVE",
                "severity": 5,
                "altitudeLow1": null,
                "altitudeLow2": null,
                "altitudeHi1": 45000,
                "altitudeHi2": 60000,
                "movementDir": 230,
                "movementSpd": 15,
                "rawAirSigmet": "WSUS32 KKCI 142055\nSIGC \nCONVECTIVE SIGMET 10C\nVALID UNTIL 2255Z\nNE CO WY\nFROM 30N BFF-30SE BFF-30SSE CYS-LAR-30N BFF\nDVLPG AREA TS MOV FROM 23015KT. TOPS ABV FL450.\n\nOUTLOOK VALID 142255-150255\nAREA 1...FROM PIR-40ESE RWF-JOT-MEI-PIR\nWST ISSUANCES EXPD. REFER TO MOST RECENT ACUS01 KWNS FROM STORM\nPREDICTION CENTER FOR SYNOPSIS AND METEOROLOGICAL DETAILS.\n\nAREA 2...FROM ACT-80SE LEV-120SSW LCH-80E BRO-90W BRO-DLF-ACT\nWST ISSUANCES POSS. REFER TO MOST RECENT ACUS01 KWNS FROM STORM\nPREDICTION CENTER FOR SYNOPSIS AND METEOROLOGICAL DETAILS.\n\nAREA 3...FROM 60NNE GFK-PIR-MCI-CDS-DLF-90S MRF-ELP-DMN-GGW-60NNE\nGFK\nWST ISSUANCES POSS. REFER TO MOST RECENT ACUS01 KWNS FROM STORM\nPREDICTION CENTER FOR SYNOPSIS AND METEOROLOGICAL DETAILS.",
                "validTimeTo": [
                    "2026-08-14T22:55"
                ]
            }
        },
        {
            "type": "Feature",
            "geometry": {
                "type": "Polygon",
                "coordinates": [
                    [
                        [
                            -96.395,
                            26.956
                        ],
                        [
                            -96.06,
                            27.089
                        ],
                        [
                            -96.008,
                            26.422
                        ],
                        [
                            -96.352,
                            26.298
                        ],
                        [
                            -96.395,
                            26.956
                        ]
                    ]
                ]
            },
            "properties": {
                "airSigmetId": null,
                "airportIcao": "KKCI",
                "airSigmetType": "SIGMET",
                "hazard": "CONVECTIVE",
                "severity": 5,
                "altitudeLow1": null,
                "altitudeLow2": null,
                "altitudeHi1": 45000,
                "altitudeHi2": 60000,
                "movementDir": 270,
                "movementSpd": 10,
                "rawAirSigmet": "WSUS32 KKCI 142055\nSIGC \nCONVECTIVE SIGMET 11C\nVALID UNTIL 2255Z\nTX CSTL WTRS\nFROM 80SE CRP-100NE BRO-80ENE BRO-60ENE BRO-80SE CRP\nDVLPG AREA TS MOV FROM 27010KT. TOPS ABV FL450.\n\nOUTLOOK VALID 142255-150255\nAREA 1...FROM PIR-40ESE RWF-JOT-MEI-PIR\nWST ISSUANCES EXPD. REFER TO MOST RECENT ACUS01 KWNS FROM STORM\nPREDICTION CENTER FOR SYNOPSIS AND METEOROLOGICAL DETAILS.\n\nAREA 2...FROM ACT-80SE LEV-120SSW LCH-80E BRO-90W BRO-DLF-ACT\nWST ISSUANCES POSS. REFER TO MOST RECENT ACUS01 KWNS FROM STORM\nPREDICTION CENTER FOR SYNOPSIS AND METEOROLOGICAL DETAILS.\n\nAREA 3...FROM 60NNE GFK-PIR-MCI-CDS-DLF-90S MRF-ELP-DMN-GGW-60NNE\nGFK\nWST ISSUANCES POSS. REFER TO MOST RECENT ACUS01 KWNS FROM STORM\nPREDICTION CENTER FOR SYNOPSIS AND METEOROLOGICAL DETAILS.",
                "validTimeTo": [
                    "2026-08-14T22:55"
                ]
            }
        }
    ],
    "metadata": {
        "creationTime": "2026-08-14T21:32"
    }
}