{
    "type": "FeatureCollection",
    "features": [
        {
            "type": "Feature",
            "geometry": {
                "type": "Polygon",
                "coordinates": [
                    [
                        [
                            -108.79,
                            40.058
                        ],
                        [
                            -104.66,
                            39.477
                        ],
                        [
                            -105.959,
                            35.657
                        ],
                        [
                            -106.82,
                            35.705
                        ],
                        [
                            -109.262,
                            38.422
                        ],
                        [
                            -108.79,
                            40.058
                        ]
                    ]
                ]
            },
            "properties": {
                "airSigmetId": null,
                "airportIcao": "KKCI",
                "airSigmetType": "SIGMET",
                "hazard": "CONVECTIVE",
                "severity": 5,
                "altitudeLow1": null,
                "altitudeLow2": null,
                "altitudeHi1": 40000,
                "altitudeHi2": null,
                "movementDir": null,
                "movementSpd": 0,
                "rawAirSigmet": "WSUS33 KKCI 070055\nMKCW WST 070055\nCONVECTIVE SIGMET 1W\nVALID UNTIL 0255Z\nCO NM UT\nFROM 60N JNC-20S DEN-40W FTI-40N ABQ-40NNW DVC-60N JNC\nAREA TS MOV LTL. TOPS TO FL400.\n\n",
                "validTimeTo": [
                    "2026-10-07T02:55"
                ]
            }
        },
        {
            "type": "Feature",
            "geometry": {
                "type": "Polygon",
                "coordinates": [
                    [
                        [
                            -112.51,
                            38.468
                        ],
                        [
                            -110.7,
                            37.588
                        ],
                        [
                            -110.802,
                            37.045
                        ],
                        [
                            -112.036,
                            36.367
                        ],
                        [
                            -113.141,
                            37.687
                        ],
                        [
                            -112.51,
                            38.468
                        ]
                    ]
                ]
            },
            "properties": {
                "airSigmetId": null,
                "airportIcao": "KKCI",
                "airSigmetType": "SIGMET",
                "hazard": "CONVECTIVE",
                "severity": 5,
                "altitudeLow1": null,
                "altitudeLow2": null,
                "altitudeHi1": 31000,
                "altitudeHi2": null,
                "movementDir": 280,
                "movementSpd": 10,
                "rawAirSigmet": "WSUS33 KKCI 070055\nMKCW WST 070055\nCONVECTIVE SIGMET 2W\nVALID UNTIL 0255Z\nAZ UT\nFROM 50S DTA-50S HVE-60NNE TBC-40WNW TBC-40W BCE-50S DTA\nDMSHG AREA TS MOV FROM 28010KT. TOPS TO FL310.\n\n",
                "validTimeTo": [
                    "2026-10-07T02:55"
                ]
            }
        },
        {
            "type": "Feature",
            "geometry": {
                "type": "Polygon",
                "coordinates": [
                    [
                        [
                            -81.188,
                            27.928
                        ],
                        [
                            -79.919,
                            26.745
                        ],
                        [
                            -80.431,
                            25.682
                        ],
                        [
                            -81.097,
                            26.268
                        ],
                        [
                            -81.188,
                            27.928
                        ]
                    ]
                ]
            },
            "properties": {
                "airSigmetId": null,
                "airportIcao": "KKCI",
                "airSigmetType": "SIGMET",
                "hazard": "CONVECTIVE",
                "severity": 5,
                "altitudeLow1": null,
                "altitudeLow2": null,
                "altitudeHi1": 45000,
                "altitudeHi2": null,
                "movementDir": 250,
                "movementSpd": 10,
                "rawAirSigmet": "WSUS31 KKCI 070055\nMKCE WST 070055\nCONVECTIVE SIGMET 1E\nVALID UNTIL 0255Z\nFL AND CSTL WTRS\nFROM 40WNW TRV-10ENE PBI-10SW MIA-40ESE RSW-40WNW TRV\nAREA TS MOV FROM 25010KT. TOPS TO FL450.\n\n",
                "validTimeTo": [
                    "2026-10-07T02:55"
                ]
            }
        },
        {
            "type": "Feature",
            "geometry": {
                "type": "Polygon",
                "coordinates": [
                    [
                        [
                            -79.584,
                            29.291
                        ],
                        [
                            -78.44,
                            29.273
                        ],
                        [
                            -79.274,
                            28.13
                        ],
                        [
                            -80.393,
                            28.537
                        ],
                        [
                            -79.584,
                            29.291
                        ]
                    ]
                ]
            },
            "properties": {
                "airSigmetId": null,
                "airportIcao": "KKCI",
                "airSigmetType": "SIGMET",
                "hazard": "CONVECTIVE",
                "severity": 5,
                "altitudeLow1": null,
                "altitudeLow2": null,
                "altitudeHi1": 41000,
                "altitudeHi2": null,
                "movementDir": 250,
                "movementSpd": 10,
                "rawAirSigmet": "WSUS31 KKCI 070055\nMKCE WST 070055\nCONVECTIVE SIGMET 2E\nVALID UNTIL 0255Z\nFL CSTL WTRS\nFROM 80E OMN-140E OMN-70ENE TRV-50E ORL-80E OMN\nAREA TS MOV FROM 25010KT. TOPS TO FL410.\n\n",
                "validTimeTo": [
                    "2026-10-07T02:55"
                ]
            }
        },
        {
            "type": "Feature",
            "geometry": {
                "type": "Polygon",
                "coordinates": [
                    [
                        [
                            -83.05,
                            29.6
                        ],
                        [
                            -81.253,
                            28.991
                        ],
                        [
                            -81.384,
                            26.882
                        ],
                        [
                            -85.453,
                            26.265
                        ],
                        [
                            -84.277,
                            29.139
                        ],
                        [
                            -83.05,
                            29.6
                        ]
                    ]
                ]
            },
            "properties": {
                "airSigmetId": null,
                "airportIcao": "KKCI",
                "airSigmetType": "SIGMET",
                "hazard": "CONVECTIVE",
                "severity": 5,
                "altitudeLow1": null,
                "altitudeLow2": null,
                "altitudeHi1": 45000,
                "altitudeHi2": null,
                "movementDir": 270,
                "movementSpd": 15,
                "rawAirSigmet": "WSUS31 KKCI 070055\nMKCE WST 070055\nCONVECTIVE SIGMET 3E\nVALID UNTIL 0255Z\nFL AND CSTL WTRS\nFROM CTY-20SSW OMN-30NE RSW-170WSW SRQ-70WSW CTY-CTY\nAREA TS MOV FROM 27015KT. TOPS ABV FL450.\n\n",
                "validTimeTo": [
                    "2026-10-07T02:55"
                ]
            }
        },
        {
            "type": "Feature",
            "geometry": {
                "type": "Polygon",
                "coordinates": [
                    [
                        [
                            -95.869,
                            27.84
                        ],
                        [
                            -95.579,
                            27.227
                        ],
                        [
                            -97.039,
                            26.05
                        ],
                        [
                            -96.656,
                            27.192
                        ],
                        [
                            -95.869,
                            27.84
                        ]
                    ]
                ]
            },
            "properties": {
                "airSigmetId": null,
                "airportIcao": "KKCI",
                "airSigmetType": "SIGMET",
                "hazard": "CONVECTIVE",
                "severity": 5,
                "altitudeLow1": null,
                "altitudeLow2": null,
                "altitudeHi1": 36000,
                "altitudeHi2": null,
                "movementDir": 50,
                "movementSpd": 10,
                "rawAirSigmet": "WSUS32 KKCI 070055\nMKCC WST 070055\nCONVECTIVE SIGMET 1C\nVALID UNTIL 0255Z\nTX CSTL WTRS\nFROM 60SSE PSX-100SSE PSX-20ENE BRO-60SE CRP-60SSE PSX\nAREA TS MOV FROM 05010KT. TOPS TO FL360.\nREF INTL SIGMET HOTEL SERIES.\n\n",
                "validTimeTo": [
                    "2026-10-07T02:55"
                ]
            }
        }
    ],
    "metadata": {
        "creationTime": "2026-10-07T01:23"
    }
}