{
    "type": "FeatureCollection",
    "features": [
        {
            "type": "Feature",
            "geometry": {
                "type": "Polygon",
                "coordinates": [
                    [
                        [
                            -114.099,
                            41.344
                        ],
                        [
                            -109.094,
                            39.295
                        ],
                        [
                            -109.109,
                            32.577
                        ],
                        [
                            -111.223,
                            33.427
                        ],
                        [
                            -118.367,
                            39.523
                        ],
                        [
                            -114.099,
                            41.344
                        ]
                    ]
                ]
            },
            "properties": {
                "airSigmetId": null,
                "airportIcao": "KKCI",
                "airSigmetType": "SIGMET",
                "hazard": "CONVECTIVE",
                "severity": 5,
                "altitudeLow1": null,
                "altitudeLow2": null,
                "altitudeHi1": 45000,
                "altitudeHi2": 60000,
                "movementDir": 200,
                "movementSpd": 10,
                "rawAirSigmet": "WSUS33 KKCI 102255\nSIGW \nCONVECTIVE SIGMET 68W\nVALID UNTIL 0055Z\nCO NM AZ UT NV\nFROM 40NNW BVL-20NW JNC-20NNE SSO-40E PHX-60E FMG-40NNW BVL\nAREA SEV TS MOV FROM 20010KT. TOPS ABV FL450.\nHAIL TO 1 IN...WIND GUSTS TO 50KT POSS.\n\nOUTLOOK VALID 110055-110455\nFROM SHR-50SW ELP-50S TUS-40WSW BZA-30SE MZB-FMG-SHR\nWST ISSUANCES POSS. REFER TO MOST RECENT ACUS01 KWNS FROM STORM\nPREDICTION CENTER FOR SYNOPSIS AND METEOROLOGICAL DETAILS.",
                "validTimeTo": [
                    "2026-08-11T00:55"
                ]
            }
        },
        {
            "type": "Feature",
            "geometry": {
                "type": "Polygon",
                "coordinates": [
                    [
                        [
                            -107.494,
                            44.966
                        ],
                        [
                            -105.267,
                            40.001
                        ],
                        [
                            -109.25,
                            39.415
                        ],
                        [
                            -111.223,
                            40.145
                        ],
                        [
                            -109.906,
                            44.208
                        ],
                        [
                            -107.494,
                            44.966
                        ]
                    ]
                ]
            },
            "properties": {
                "airSigmetId": null,
                "airportIcao": "KKCI",
                "airSigmetType": "SIGMET",
                "hazard": "CONVECTIVE",
                "severity": 5,
                "altitudeLow1": null,
                "altitudeLow2": null,
                "altitudeHi1": 40000,
                "altitudeHi2": 40000,
                "movementDir": 270,
                "movementSpd": 15,
                "rawAirSigmet": "WSUS33 KKCI 102255\nSIGW \nCONVECTIVE SIGMET 69W\nVALID UNTIL 0055Z\nCO WY UT\nFROM 20WNW SHR-30WNW DEN-30NW JNC-50W MTU-50NE JAC-20WNW SHR\nAREA TS MOV FROM 27015KT. TOPS TO FL400.\n\nOUTLOOK VALID 110055-110455\nFROM SHR-50SW ELP-50S TUS-40WSW BZA-30SE MZB-FMG-SHR\nWST ISSUANCES POSS. REFER TO MOST RECENT ACUS01 KWNS FROM STORM\nPREDICTION CENTER FOR SYNOPSIS AND METEOROLOGICAL DETAILS.",
                "validTimeTo": [
                    "2026-08-11T00:55"
                ]
            }
        },
        {
            "type": "Feature",
            "geometry": {
                "type": "Polygon",
                "coordinates": [
                    [
                        [
                            -116.16,
                            34.133
                        ],
                        [
                            -116.16,
                            33.298
                        ],
                        [
                            -117,
                            33.245
                        ],
                        [
                            -116.728,
                            34.099
                        ],
                        [
                            -116.16,
                            34.133
                        ]
                    ]
                ]
            },
            "properties": {
                "airSigmetId": null,
                "airportIcao": "KKCI",
                "airSigmetType": "SIGMET",
                "hazard": "CONVECTIVE",
                "severity": 5,
                "altitudeLow1": null,
                "altitudeLow2": null,
                "altitudeHi1": 45000,
                "altitudeHi2": 45000,
                "movementDir": 180,
                "movementSpd": 5,
                "rawAirSigmet": "WSUS33 KKCI 102255\nSIGW \nCONVECTIVE SIGMET 70W\nVALID UNTIL 0055Z\nCA\nFROM 30N TRM-20S TRM-30NNE MZB-40NW TRM-30N TRM\nAREA TS MOV FROM 18005KT. TOPS TO FL450.\n\nOUTLOOK VALID 110055-110455\nFROM SHR-50SW ELP-50S TUS-40WSW BZA-30SE MZB-FMG-SHR\nWST ISSUANCES POSS. REFER TO MOST RECENT ACUS01 KWNS FROM STORM\nPREDICTION CENTER FOR SYNOPSIS AND METEOROLOGICAL DETAILS.",
                "validTimeTo": [
                    "2026-08-11T00:55"
                ]
            }
        },
        {
            "type": "Feature",
            "geometry": {
                "type": "Polygon",
                "coordinates": [
                    [
                        [
                            -115.602,
                            36.435
                        ],
                        [
                            -114.875,
                            34.769
                        ],
                        [
                            -116.891,
                            34.444
                        ],
                        [
                            -117.3,
                            35.72
                        ],
                        [
                            -115.602,
                            36.435
                        ]
                    ]
                ]
            },
            "properties": {
                "airSigmetId": null,
                "airportIcao": "KKCI",
                "airSigmetType": "SIGMET",
                "hazard": "CONVECTIVE",
                "severity": 5,
                "altitudeLow1": null,
                "altitudeLow2": null,
                "altitudeHi1": 45000,
                "altitudeHi2": 60000,
                "movementDir": 170,
                "movementSpd": 10,
                "rawAirSigmet": "WSUS33 KKCI 102255\nSIGW \nCONVECTIVE SIGMET 71W\nVALID UNTIL 0055Z\nNV CA\nFROM 30NW LAS-20W EED-30SW HEC-70SSW BTY-30NW LAS\nAREA TS MOV FROM 17010KT. TOPS ABV FL450.\n\nOUTLOOK VALID 110055-110455\nFROM SHR-50SW ELP-50S TUS-40WSW BZA-30SE MZB-FMG-SHR\nWST ISSUANCES POSS. REFER TO MOST RECENT ACUS01 KWNS FROM STORM\nPREDICTION CENTER FOR SYNOPSIS AND METEOROLOGICAL DETAILS.",
                "validTimeTo": [
                    "2026-08-11T00:55"
                ]
            }
        },
        {
            "type": "Feature",
            "geometry": {
                "type": "Polygon",
                "coordinates": [
                    [
                        [
                            -109.906,
                            44.208
                        ],
                        [
                            -110.526,
                            42.452
                        ],
                        [
                            -112.45,
                            41.697
                        ],
                        [
                            -113.347,
                            42.197
                        ],
                        [
                            -109.906,
                            44.208
                        ]
                    ]
                ]
            },
            "properties": {
                "airSigmetId": null,
                "airportIcao": "KKCI",
                "airSigmetType": "SIGMET",
                "hazard": "CONVECTIVE",
                "severity": 5,
                "altitudeLow1": null,
                "altitudeLow2": null,
                "altitudeHi1": 42000,
                "altitudeHi2": 42000,
                "movementDir": 250,
                "movementSpd": 15,
                "rawAirSigmet": "WSUS33 KKCI 102255\nSIGW \nCONVECTIVE SIGMET 72W\nVALID UNTIL 0055Z\nWY UT ID\nFROM 50NE JAC-20WSW BPI-30S MLD-40W MLD-50NE JAC\nAREA TS MOV FROM 25015KT. TOPS TO FL420.\n\nOUTLOOK VALID 110055-110455\nFROM SHR-50SW ELP-50S TUS-40WSW BZA-30SE MZB-FMG-SHR\nWST ISSUANCES POSS. REFER TO MOST RECENT ACUS01 KWNS FROM STORM\nPREDICTION CENTER FOR SYNOPSIS AND METEOROLOGICAL DETAILS.",
                "validTimeTo": [
                    "2026-08-11T00:55"
                ]
            }
        },
        {
            "type": "Feature",
            "geometry": {
                "type": "Polygon",
                "coordinates": [
                    [
                        [
                            -110.218,
                            32.689
                        ],
                        [
                            -108.122,
                            31.2
                        ],
                        [
                            -111.746,
                            31.392
                        ],
                        [
                            -114.179,
                            32.414
                        ],
                        [
                            -110.218,
                            32.689
                        ]
                    ]
                ]
            },
            "properties": {
                "airSigmetId": null,
                "airportIcao": "KKCI",
                "airSigmetType": "SIGMET",
                "hazard": "CONVECTIVE",
                "severity": 5,
                "altitudeLow1": null,
                "altitudeLow2": null,
                "altitudeHi1": 45000,
                "altitudeHi2": 60000,
                "movementDir": 90,
                "movementSpd": 10,
                "rawAirSigmet": "WSUS33 KKCI 102255\nSIGW \nCONVECTIVE SIGMET 73W\nVALID UNTIL 0055Z\nNM AZ\nFROM 50NE TUS-70SSW DMN-60SW TUS-30SE BZA-50NE TUS\nAREA SEV TS MOV FROM 09010KT. TOPS ABV FL450.\nHAIL TO 1 IN...WIND GUSTS TO 50KT POSS.\n\nOUTLOOK VALID 110055-110455\nFROM SHR-50SW ELP-50S TUS-40WSW BZA-30SE MZB-FMG-SHR\nWST ISSUANCES POSS. REFER TO MOST RECENT ACUS01 KWNS FROM STORM\nPREDICTION CENTER FOR SYNOPSIS AND METEOROLOGICAL DETAILS.",
                "validTimeTo": [
                    "2026-08-11T00:55"
                ]
            }
        },
        {
            "type": "Feature",
            "geometry": {
                "type": "Polygon",
                "coordinates": [
                    [
                        [
                            -118.367,
                            39.523
                        ],
                        [
                            -116.786,
                            38.316
                        ],
                        [
                            -118.851,
                            37.196
                        ],
                        [
                            -120.148,
                            38.608
                        ],
                        [
                            -118.367,
                            39.523
                        ]
                    ]
                ]
            },
            "properties": {
                "airSigmetId": null,
                "airportIcao": "KKCI",
                "airSigmetType": "SIGMET",
                "hazard": "CONVECTIVE",
                "severity": 5,
                "altitudeLow1": null,
                "altitudeLow2": null,
                "altitudeHi1": 45000,
                "altitudeHi2": 45000,
                "movementDir": 90,
                "movementSpd": 10,
                "rawAirSigmet": "WSUS33 KKCI 102255\nSIGW \nCONVECTIVE SIGMET 74W\nVALID UNTIL 0055Z\nNV CA\nFROM 60E FMG-50ENE OAL-50ENE CZQ-60SSW FMG-60E FMG\nAREA TS MOV FROM 09010KT. TOPS TO FL450.\n\nOUTLOOK VALID 110055-110455\nFROM SHR-50SW ELP-50S TUS-40WSW BZA-30SE MZB-FMG-SHR\nWST ISSUANCES POSS. REFER TO MOST RECENT ACUS01 KWNS FROM STORM\nPREDICTION CENTER FOR SYNOPSIS AND METEOROLOGICAL DETAILS.",
                "validTimeTo": [
                    "2026-08-11T00:55"
                ]
            }
        },
        {
            "type": "Feature",
            "geometry": {
                "type": "Polygon",
                "coordinates": [
                    [
                        [
                            -73.347,
                            42.749
                        ],
                        [
                            -71.621,
                            42.551
                        ],
                        [
                            -71.703,
                            41.111
                        ],
                        [
                            -72.32,
                            39.923
                        ],
                        [
                            -74.079,
                            40.395
                        ],
                        [
                            -73.347,
                            42.749
                        ]
                    ]
                ]
            },
            "properties": {
                "airSigmetId": null,
                "airportIcao": "KKCI",
                "airSigmetType": "SIGMET",
                "hazard": "CONVECTIVE",
                "severity": 5,
                "altitudeLow1": null,
                "altitudeLow2": null,
                "altitudeHi1": 42000,
                "altitudeHi2": 42000,
                "movementDir": 270,
                "movementSpd": 30,
                "rawAirSigmet": "WSUS31 KKCI 102255\nSIGE \nCONVECTIVE SIGMET 21E\nVALID UNTIL 0055Z\nMA RI CT NY NJ AND RI NJ NY CT CSTL WTRS\nFROM 20E ALB-30WNW BOS-30ENE HTO-60S HTO-20SW JFK-20E ALB\nAREA TS MOV FROM 27030KT. TOPS TO FL420.\n\nOUTLOOK VALID 110055-110455\nAREA 1...FROM BOS-50ENE ACK-120S ACK-190ESE ECG-OMN-30NNW\nTLH-GQO-APE-30E JFK-BOS\nREF WW 554 555 556 557 558.\nWST ISSUANCES EXPD. REFER TO MOST RECENT ACUS01\nKWNS FROM STORM PREDICTION CENTER FOR SYNOPSIS AND METEOROLOGICAL\nDETAILS.\n\nAREA 2...FROM 70NW PQI-30NNE PQI-130ESE ENE-60NW ALB-MSS-70NE\nMPV-70WNW MLT-70NW PQI\nWST ISSUANCES EXPD. REFER TO MOST RECENT ACUS01 KWNS FROM STORM\nPREDICTION CENTER FOR SYNOPSIS AND METEOROLOGICAL DETAILS.\n\nAREA 3...FROM 50NW MKG-DXO-30E IND-BVT-50NW MKG\nWST ISSUANCES POSS. REFER TO MOST RECENT ACUS01 KWNS FROM STORM\nPREDICTION CENTER FOR SYNOPSIS AND METEOROLOGICAL DETAILS.",
                "validTimeTo": [
                    "2026-08-11T00:55"
                ]
            }
        },
        {
            "type": "Feature",
            "geometry": {
                "type": "Polygon",
                "coordinates": [
                    [
                        [
                            -86.951,
                            43.166
                        ],
                        [
                            -84.677,
                            41.9
                        ],
                        [
                            -87.536,
                            40.203
                        ],
                        [
                            -90.029,
                            42.398
                        ],
                        [
                            -86.951,
                            43.166
                        ]
                    ]
                ]
            },
            "properties": {
                "airSigmetId": null,
                "airportIcao": "KKCI",
                "airSigmetType": "SIGMET",
                "hazard": "CONVECTIVE",
                "severity": 5,
                "altitudeLow1": null,
                "altitudeLow2": null,
                "altitudeHi1": 45000,
                "altitudeHi2": 45000,
                "movementDir": 290,
                "movementSpd": 25,
                "rawAirSigmet": "WSUS32 KKCI 102255\nSIGC \nCONVECTIVE SIGMET 36C\nVALID UNTIL 0055Z\nOH MI IN WI IL LM\nFROM 40W MKG-60NNE FWA-30SW BVT-30E DBQ-40W MKG\nINTSF AREA TS MOV FROM 29025KT. TOPS TO FL450.\n\nOUTLOOK VALID 110055-110455\nAREA 1...FROM 50NW MKG-BVT-40W BVT-40E DBQ-30NW BAE-50NW MKG\nWST ISSUANCES POSS. REFER TO MOST RECENT ACUS01 KWNS FROM STORM\nPREDICTION CENTER FOR SYNOPSIS AND METEOROLOGICAL DETAILS.\n\nAREA 2...FROM 30S ARG-50NNE MSL-40NNW CEW-110SSE PSX-30E ACT-30S\nARG\nWST ISSUANCES EXPD. REFER TO MOST RECENT ACUS01 KWNS FROM STORM\nPREDICTION CENTER FOR SYNOPSIS AND METEOROLOGICAL DETAILS.\n\nAREA 3...FROM 30ESE DIK-30S ABR-40NNW GCK-TCC-40NNE TCS-SHR-30ESE\nDIK\nREFER WW 559. WST ISSUANCES EXPD. REFER TO MOST RECENT ACUS01\nKWNS FROM STORM PREDICTION CENTER FOR SYNOPSIS AND METEOROLOGICAL\nDETAILS.",
                "validTimeTo": [
                    "2026-08-11T00:55"
                ]
            }
        },
        {
            "type": "Feature",
            "geometry": {
                "type": "Polygon",
                "coordinates": [
                    [
                        [
                            -95.837,
                            32.034
                        ],
                        [
                            -94.639,
                            30.212
                        ],
                        [
                            -97.752,
                            29.915
                        ],
                        [
                            -98.174,
                            31.337
                        ],
                        [
                            -95.837,
                            32.034
                        ]
                    ]
                ]
            },
            "properties": {
                "airSigmetId": null,
                "airportIcao": "KKCI",
                "airSigmetType": "SIGMET",
                "hazard": "CONVECTIVE",
                "severity": 5,
                "altitudeLow1": null,
                "altitudeLow2": null,
                "altitudeHi1": 38000,
                "altitudeHi2": 38000,
                "movementDir": 180,
                "movementSpd": 10,
                "rawAirSigmet": "WSUS32 KKCI 102255\nSIGC \nCONVECTIVE SIGMET 37C\nVALID UNTIL 0055Z\nTX\nFROM 60WSW GGG-40ENE IAH-30SSW CWK-50WSW ACT-60WSW GGG\nAREA TS MOV FROM 18010KT. TOPS TO FL380.\n\nOUTLOOK VALID 110055-110455\nAREA 1...FROM 50NW MKG-BVT-40W BVT-40E DBQ-30NW BAE-50NW MKG\nWST ISSUANCES POSS. REFER TO MOST RECENT ACUS01 KWNS FROM STORM\nPREDICTION CENTER FOR SYNOPSIS AND METEOROLOGICAL DETAILS.\n\nAREA 2...FROM 30S ARG-50NNE MSL-40NNW CEW-110SSE PSX-30E ACT-30S\nARG\nWST ISSUANCES EXPD. REFER TO MOST RECENT ACUS01 KWNS FROM STORM\nPREDICTION CENTER FOR SYNOPSIS AND METEOROLOGICAL DETAILS.\n\nAREA 3...FROM 30ESE DIK-30S ABR-40NNW GCK-TCC-40NNE TCS-SHR-30ESE\nDIK\nREFER WW 559. WST ISSUANCES EXPD. REFER TO MOST RECENT ACUS01\nKWNS FROM STORM PREDICTION CENTER FOR SYNOPSIS AND METEOROLOGICAL\nDETAILS.",
                "validTimeTo": [
                    "2026-08-11T00:55"
                ]
            }
        },
        {
            "type": "Feature",
            "geometry": {
                "type": "Polygon",
                "coordinates": [
                    [
                        [
                            -99.516,
                            29.254
                        ],
                        [
                            -98.726,
                            27.733
                        ],
                        [
                            -99.612,
                            27.48
                        ],
                        [
                            -100.406,
                            28.588
                        ],
                        [
                            -99.516,
                            29.254
                        ]
                    ]
                ]
            },
            "properties": {
                "airSigmetId": null,
                "airportIcao": "KKCI",
                "airSigmetType": "SIGMET",
                "hazard": "CONVECTIVE",
                "severity": 5,
                "altitudeLow1": null,
                "altitudeLow2": null,
                "altitudeHi1": 45000,
                "altitudeHi2": 60000,
                "movementDir": 180,
                "movementSpd": 5,
                "rawAirSigmet": "WSUS32 KKCI 102255\nSIGC \nCONVECTIVE SIGMET 38C\nVALID UNTIL 0055Z\nTX\nFROM 60WSW SAT-40ENE LRD-10W LRD-50SSE DLF-60WSW SAT\nAREA TS MOV FROM 18005KT. TOPS ABV FL450.\n\nOUTLOOK VALID 110055-110455\nAREA 1...FROM 50NW MKG-BVT-40W BVT-40E DBQ-30NW BAE-50NW MKG\nWST ISSUANCES POSS. REFER TO MOST RECENT ACUS01 KWNS FROM STORM\nPREDICTION CENTER FOR SYNOPSIS AND METEOROLOGICAL DETAILS.\n\nAREA 2...FROM 30S ARG-50NNE MSL-40NNW CEW-110SSE PSX-30E ACT-30S\nARG\nWST ISSUANCES EXPD. REFER TO MOST RECENT ACUS01 KWNS FROM STORM\nPREDICTION CENTER FOR SYNOPSIS AND METEOROLOGICAL DETAILS.\n\nAREA 3...FROM 30ESE DIK-30S ABR-40NNW GCK-TCC-40NNE TCS-SHR-30ESE\nDIK\nREFER WW 559. WST ISSUANCES EXPD. REFER TO MOST RECENT ACUS01\nKWNS FROM STORM PREDICTION CENTER FOR SYNOPSIS AND METEOROLOGICAL\nDETAILS.",
                "validTimeTo": [
                    "2026-08-11T00:55"
                ]
            }
        },
        {
            "type": "Feature",
            "geometry": {
                "type": "Polygon",
                "coordinates": [
                    [
                        [
                            -89.98,
                            35.392
                        ],
                        [
                            -86.088,
                            34.637
                        ],
                        [
                            -89.294,
                            29.594
                        ],
                        [
                            -92.528,
                            30.139
                        ],
                        [
                            -93.196,
                            34.676
                        ],
                        [
                            -89.98,
                            35.392
                        ]
                    ]
                ]
            },
            "properties": {
                "airSigmetId": null,
                "airportIcao": "KKCI",
                "airSigmetType": "SIGMET",
                "hazard": "CONVECTIVE",
                "severity": 5,
                "altitudeLow1": null,
                "altitudeLow2": null,
                "altitudeHi1": 45000,
                "altitudeHi2": 60000,
                "movementDir": 220,
                "movementSpd": 5,
                "rawAirSigmet": "WSUS32 KKCI 102255\nSIGC \nCONVECTIVE SIGMET 39C\nVALID UNTIL 0055Z\nTN AL MS LA AR AND MS LA CSTL WTRS\nFROM 20N MEM-50WSW GQO-40ESE HRV-30E LCH-50W LIT-20N MEM\nAREA TS MOV FROM 22005KT. TOPS ABV FL450.\n\nOUTLOOK VALID 110055-110455\nAREA 1...FROM 50NW MKG-BVT-40W BVT-40E DBQ-30NW BAE-50NW MKG\nWST ISSUANCES POSS. REFER TO MOST RECENT ACUS01 KWNS FROM STORM\nPREDICTION CENTER FOR SYNOPSIS AND METEOROLOGICAL DETAILS.\n\nAREA 2...FROM 30S ARG-50NNE MSL-40NNW CEW-110SSE PSX-30E ACT-30S\nARG\nWST ISSUANCES EXPD. REFER TO MOST RECENT ACUS01 KWNS FROM STORM\nPREDICTION CENTER FOR SYNOPSIS AND METEOROLOGICAL DETAILS.\n\nAREA 3...FROM 30ESE DIK-30S ABR-40NNW GCK-TCC-40NNE TCS-SHR-30ESE\nDIK\nREFER WW 559. WST ISSUANCES EXPD. REFER TO MOST RECENT ACUS01\nKWNS FROM STORM PREDICTION CENTER FOR SYNOPSIS AND METEOROLOGICAL\nDETAILS.",
                "validTimeTo": [
                    "2026-08-11T00:55"
                ]
            }
        },
        {
            "type": "Feature",
            "geometry": {
                "type": "Polygon",
                "coordinates": [
                    [
                        [
                            -106.601,
                            42.855
                        ],
                        [
                            -101.124,
                            42.564
                        ],
                        [
                            -102.341,
                            39.388
                        ],
                        [
                            -105.267,
                            40.001
                        ],
                        [
                            -106.601,
                            42.855
                        ]
                    ]
                ]
            },
            "properties": {
                "airSigmetId": null,
                "airportIcao": "KKCI",
                "airSigmetType": "SIGMET",
                "hazard": "CONVECTIVE",
                "severity": 5,
                "altitudeLow1": null,
                "altitudeLow2": null,
                "altitudeHi1": 45000,
                "altitudeHi2": 60000,
                "movementDir": 280,
                "movementSpd": 30,
                "rawAirSigmet": "WSUS32 KKCI 102255\nSIGC \nCONVECTIVE SIGMET 40C\nVALID UNTIL 0055Z\nNE CO WY\nFROM 20SW DDY-50W ANW-30W GLD-30WNW DEN-20SW DDY\nAREA SEV TS MOV FROM 28030KT. TOPS ABV FL450.\nHAIL TO 1 IN...WIND GUSTS TO 50KT POSS.\n\nOUTLOOK VALID 110055-110455\nAREA 1...FROM 50NW MKG-BVT-40W BVT-40E DBQ-30NW BAE-50NW MKG\nWST ISSUANCES POSS. REFER TO MOST RECENT ACUS01 KWNS FROM STORM\nPREDICTION CENTER FOR SYNOPSIS AND METEOROLOGICAL DETAILS.\n\nAREA 2...FROM 30S ARG-50NNE MSL-40NNW CEW-110SSE PSX-30E ACT-30S\nARG\nWST ISSUANCES EXPD. REFER TO MOST RECENT ACUS01 KWNS FROM STORM\nPREDICTION CENTER FOR SYNOPSIS AND METEOROLOGICAL DETAILS.\n\nAREA 3...FROM 30ESE DIK-30S ABR-40NNW GCK-TCC-40NNE TCS-SHR-30ESE\nDIK\nREFER WW 559. WST ISSUANCES EXPD. REFER TO MOST RECENT ACUS01\nKWNS FROM STORM PREDICTION CENTER FOR SYNOPSIS AND METEOROLOGICAL\nDETAILS.",
                "validTimeTo": [
                    "2026-08-11T00:55"
                ]
            }
        },
        {
            "type": "Feature",
            "geometry": {
                "type": "Polygon",
                "coordinates": [
                    [
                        [
                            -105.267,
                            40.001
                        ],
                        [
                            -102.341,
                            39.388
                        ],
                        [
                            -104.215,
                            35.178
                        ],
                        [
                            -109.109,
                            32.577
                        ],
                        [
                            -108.972,
                            36.042
                        ],
                        [
                            -105.267,
                            40.001
                        ]
                    ]
                ]
            },
            "properties": {
                "airSigmetId": null,
                "airportIcao": "KKCI",
                "airSigmetType": "SIGMET",
                "hazard": "CONVECTIVE",
                "severity": 5,
                "altitudeLow1": null,
                "altitudeLow2": null,
                "altitudeHi1": 45000,
                "altitudeHi2": 45000,
                "movementDir": null,
                "movementSpd": null,
                "rawAirSigmet": "WSUS32 KKCI 102255\nSIGC \nCONVECTIVE SIGMET 41C\nVALID UNTIL 0055Z\nCO NM AZ\nFROM 30WNW DEN-30W GLD-30W TCC-20NNE SSO-60SW RSK-30WNW DEN\nAREA TS MOV LTL. TOPS TO FL450.\n\nOUTLOOK VALID 110055-110455\nAREA 1...FROM 50NW MKG-BVT-40W BVT-40E DBQ-30NW BAE-50NW MKG\nWST ISSUANCES POSS. REFER TO MOST RECENT ACUS01 KWNS FROM STORM\nPREDICTION CENTER FOR SYNOPSIS AND METEOROLOGICAL DETAILS.\n\nAREA 2...FROM 30S ARG-50NNE MSL-40NNW CEW-110SSE PSX-30E ACT-30S\nARG\nWST ISSUANCES EXPD. REFER TO MOST RECENT ACUS01 KWNS FROM STORM\nPREDICTION CENTER FOR SYNOPSIS AND METEOROLOGICAL DETAILS.\n\nAREA 3...FROM 30ESE DIK-30S ABR-40NNW GCK-TCC-40NNE TCS-SHR-30ESE\nDIK\nREFER WW 559. WST ISSUANCES EXPD. REFER TO MOST RECENT ACUS01\nKWNS FROM STORM PREDICTION CENTER FOR SYNOPSIS AND METEOROLOGICAL\nDETAILS.",
                "validTimeTo": [
                    "2026-08-11T00:55"
                ]
            }
        },
        {
            "type": "Feature",
            "geometry": {
                "type": "Polygon",
                "coordinates": [
                    [
                        [
                            -103.786,
                            31.676
                        ],
                        [
                            -101.212,
                            30.28
                        ],
                        [
                            -103.294,
                            28.912
                        ],
                        [
                            -105.205,
                            30.741
                        ],
                        [
                            -103.786,
                            31.676
                        ]
                    ]
                ]
            },
            "properties": {
                "airSigmetId": null,
                "airportIcao": "KKCI",
                "airSigmetType": "SIGMET",
                "hazard": "CONVECTIVE",
                "severity": 5,
                "altitudeLow1": null,
                "altitudeLow2": null,
                "altitudeHi1": 45000,
                "altitudeHi2": 60000,
                "movementDir": 150,
                "movementSpd": 10,
                "rawAirSigmet": "WSUS32 KKCI 102255\nSIGC \nCONVECTIVE SIGMET 42C\nVALID UNTIL 0055Z\nTX\nFROM 30WSW INK-60NNW DLF-90SSE MRF-70WNW MRF-30WSW INK\nAREA TS MOV FROM 15010KT. TOPS ABV FL450.\n\nOUTLOOK VALID 110055-110455\nAREA 1...FROM 50NW MKG-BVT-40W BVT-40E DBQ-30NW BAE-50NW MKG\nWST ISSUANCES POSS. REFER TO MOST RECENT ACUS01 KWNS FROM STORM\nPREDICTION CENTER FOR SYNOPSIS AND METEOROLOGICAL DETAILS.\n\nAREA 2...FROM 30S ARG-50NNE MSL-40NNW CEW-110SSE PSX-30E ACT-30S\nARG\nWST ISSUANCES EXPD. REFER TO MOST RECENT ACUS01 KWNS FROM STORM\nPREDICTION CENTER FOR SYNOPSIS AND METEOROLOGICAL DETAILS.\n\nAREA 3...FROM 30ESE DIK-30S ABR-40NNW GCK-TCC-40NNE TCS-SHR-30ESE\nDIK\nREFER WW 559. WST ISSUANCES EXPD. REFER TO MOST RECENT ACUS01\nKWNS FROM STORM PREDICTION CENTER FOR SYNOPSIS AND METEOROLOGICAL\nDETAILS.",
                "validTimeTo": [
                    "2026-08-11T00:55"
                ]
            }
        },
        {
            "type": "Feature",
            "geometry": {
                "type": "Polygon",
                "coordinates": [
                    [
                        [
                            -101.29,
                            47.928
                        ],
                        [
                            -100.574,
                            46.928
                        ],
                        [
                            -103.451,
                            46.388
                        ],
                        [
                            -103.644,
                            47.447
                        ],
                        [
                            -101.29,
                            47.928
                        ]
                    ]
                ]
            },
            "properties": {
                "airSigmetId": null,
                "airportIcao": "KKCI",
                "airSigmetType": "SIGMET",
                "hazard": "CONVECTIVE",
                "severity": 5,
                "altitudeLow1": null,
                "altitudeLow2": null,
                "altitudeHi1": 37000,
                "altitudeHi2": 37000,
                "movementDir": 280,
                "movementSpd": 30,
                "rawAirSigmet": "WSUS32 KKCI 102255\nSIGC \nCONVECTIVE SIGMET 43C\nVALID UNTIL 0055Z\nND\nFROM 20S MOT-10NNE BIS-40SW DIK-50NW DIK-20S MOT\nAREA TS MOV FROM 28030KT. TOPS TO FL370.\n\nOUTLOOK VALID 110055-110455\nAREA 1...FROM 50NW MKG-BVT-40W BVT-40E DBQ-30NW BAE-50NW MKG\nWST ISSUANCES POSS. REFER TO MOST RECENT ACUS01 KWNS FROM STORM\nPREDICTION CENTER FOR SYNOPSIS AND METEOROLOGICAL DETAILS.\n\nAREA 2...FROM 30S ARG-50NNE MSL-40NNW CEW-110SSE PSX-30E ACT-30S\nARG\nWST ISSUANCES EXPD. REFER TO MOST RECENT ACUS01 KWNS FROM STORM\nPREDICTION CENTER FOR SYNOPSIS AND METEOROLOGICAL DETAILS.\n\nAREA 3...FROM 30ESE DIK-30S ABR-40NNW GCK-TCC-40NNE TCS-SHR-30ESE\nDIK\nREFER WW 559. WST ISSUANCES EXPD. REFER TO MOST RECENT ACUS01\nKWNS FROM STORM PREDICTION CENTER FOR SYNOPSIS AND METEOROLOGICAL\nDETAILS.",
                "validTimeTo": [
                    "2026-08-11T00:55"
                ]
            }
        },
        {
            "type": "Feature",
            "geometry": {
                "type": "Polygon",
                "coordinates": [
                    [
                        [
                            -75.428,
                            40.115
                        ],
                        [
                            -73.775,
                            39.818
                        ],
                        [
                            -74.045,
                            37.166
                        ],
                        [
                            -80.481,
                            34.329
                        ],
                        [
                            -81.494,
                            35.385
                        ],
                        [
                            -75.428,
                            40.115
                        ]
                    ]
                ]
            },
            "properties": {
                "airSigmetId": null,
                "airportIcao": "KKCI",
                "airSigmetType": "SIGMET",
                "hazard": "CONVECTIVE",
                "severity": 5,
                "altitudeLow1": null,
                "altitudeLow2": null,
                "altitudeHi1": 45000,
                "altitudeHi2": 60000,
                "movementDir": 270,
                "movementSpd": 35,
                "rawAirSigmet": "WSUS31 KKCI 102255\nSIGE \nCONVECTIVE SIGMET 22E\nVALID UNTIL 0055Z\nNJ PA DE MD VA NC DC SC AND DE NJ MD NC VA CSTL WTRS\nFROM 30SSE ETX-30E CYN-100SE SBY-40NE CAE-30NE SPA-30SSE ETX\nAREA SEV TS MOV FROM 27035KT. TOPS ABV FL450.\nTORNADOES...HAIL TO 1 IN...WIND GUSTS TO 50KT POSS.\n\nOUTLOOK VALID 110055-110455\nAREA 1...FROM BOS-50ENE ACK-120S ACK-190ESE ECG-OMN-30NNW\nTLH-GQO-APE-30E JFK-BOS\nREF WW 554 555 556 557 558.\nWST ISSUANCES EXPD. REFER TO MOST RECENT ACUS01\nKWNS FROM STORM PREDICTION CENTER FOR SYNOPSIS AND METEOROLOGICAL\nDETAILS.\n\nAREA 2...FROM 70NW PQI-30NNE PQI-130ESE ENE-60NW ALB-MSS-70NE\nMPV-70WNW MLT-70NW PQI\nWST ISSUANCES EXPD. REFER TO MOST RECENT ACUS01 KWNS FROM STORM\nPREDICTION CENTER FOR SYNOPSIS AND METEOROLOGICAL DETAILS.\n\nAREA 3...FROM 50NW MKG-DXO-30E IND-BVT-50NW MKG\nWST ISSUANCES POSS. REFER TO MOST RECENT ACUS01 KWNS FROM STORM\nPREDICTION CENTER FOR SYNOPSIS AND METEOROLOGICAL DETAILS.",
                "validTimeTo": [
                    "2026-08-11T00:55"
                ]
            }
        },
        {
            "type": "Feature",
            "geometry": {
                "type": "Polygon",
                "coordinates": [
                    [
                        [
                            -81.287,
                            40.375
                        ],
                        [
                            -80.215,
                            39.826
                        ],
                        [
                            -80.82,
                            39.355
                        ],
                        [
                            -81.425,
                            39.826
                        ],
                        [
                            -81.287,
                            40.375
                        ]
                    ]
                ]
            },
            "properties": {
                "airSigmetId": null,
                "airportIcao": "KKCI",
                "airSigmetType": "SIGMET",
                "hazard": "CONVECTIVE",
                "severity": 5,
                "altitudeLow1": null,
                "altitudeLow2": null,
                "altitudeHi1": 41000,
                "altitudeHi2": 41000,
                "movementDir": 280,
                "movementSpd": 20,
                "rawAirSigmet": "WSUS31 KKCI 102255\nSIGE \nCONVECTIVE SIGMET 23E\nVALID UNTIL 0055Z\nPA WV OH\nFROM 30NW AIR-30ESE AIR-40S AIR-30WSW AIR-30NW AIR\nAREA TS MOV FROM 28020KT. TOPS TO FL410.\n\nOUTLOOK VALID 110055-110455\nAREA 1...FROM BOS-50ENE ACK-120S ACK-190ESE ECG-OMN-30NNW\nTLH-GQO-APE-30E JFK-BOS\nREF WW 554 555 556 557 558.\nWST ISSUANCES EXPD. REFER TO MOST RECENT ACUS01\nKWNS FROM STORM PREDICTION CENTER FOR SYNOPSIS AND METEOROLOGICAL\nDETAILS.\n\nAREA 2...FROM 70NW PQI-30NNE PQI-130ESE ENE-60NW ALB-MSS-70NE\nMPV-70WNW MLT-70NW PQI\nWST ISSUANCES EXPD. REFER TO MOST RECENT ACUS01 KWNS FROM STORM\nPREDICTION CENTER FOR SYNOPSIS AND METEOROLOGICAL DETAILS.\n\nAREA 3...FROM 50NW MKG-DXO-30E IND-BVT-50NW MKG\nWST ISSUANCES POSS. REFER TO MOST RECENT ACUS01 KWNS FROM STORM\nPREDICTION CENTER FOR SYNOPSIS AND METEOROLOGICAL DETAILS.",
                "validTimeTo": [
                    "2026-08-11T00:55"
                ]
            }
        },
        {
            "type": "Feature",
            "geometry": {
                "type": "Polygon",
                "coordinates": [
                    [
                        [
                            -81.701,
                            39.364
                        ],
                        [
                            -81.365,
                            38.245
                        ],
                        [
                            -82.275,
                            38.285
                        ],
                        [
                            -82.637,
                            39.218
                        ],
                        [
                            -81.701,
                            39.364
                        ]
                    ]
                ]
            },
            "properties": {
                "airSigmetId": null,
                "airportIcao": "KKCI",
                "airSigmetType": "SIGMET",
                "hazard": "CONVECTIVE",
                "severity": 5,
                "altitudeLow1": null,
                "altitudeLow2": null,
                "altitudeHi1": 45000,
                "altitudeHi2": 60000,
                "movementDir": 290,
                "movementSpd": 15,
                "rawAirSigmet": "WSUS31 KKCI 102255\nSIGE \nCONVECTIVE SIGMET 24E\nVALID UNTIL 0055Z\nWV OH\nFROM 40NNE HNN-30NNW BKW-30SSW HNN-40NW HNN-40NNE HNN\nAREA SEV TS MOV FROM 29015KT. TOPS ABV FL450.\nTORNADOES...WIND GUSTS TO 50KT POSS.\n\nOUTLOOK VALID 110055-110455\nAREA 1...FROM BOS-50ENE ACK-120S ACK-190ESE ECG-OMN-30NNW\nTLH-GQO-APE-30E JFK-BOS\nREF WW 554 555 556 557 558.\nWST ISSUANCES EXPD. REFER TO MOST RECENT ACUS01\nKWNS FROM STORM PREDICTION CENTER FOR SYNOPSIS AND METEOROLOGICAL\nDETAILS.\n\nAREA 2...FROM 70NW PQI-30NNE PQI-130ESE ENE-60NW ALB-MSS-70NE\nMPV-70WNW MLT-70NW PQI\nWST ISSUANCES EXPD. REFER TO MOST RECENT ACUS01 KWNS FROM STORM\nPREDICTION CENTER FOR SYNOPSIS AND METEOROLOGICAL DETAILS.\n\nAREA 3...FROM 50NW MKG-DXO-30E IND-BVT-50NW MKG\nWST ISSUANCES POSS. REFER TO MOST RECENT ACUS01 KWNS FROM STORM\nPREDICTION CENTER FOR SYNOPSIS AND METEOROLOGICAL DETAILS.",
                "validTimeTo": [
                    "2026-08-11T00:55"
                ]
            }
        },
        {
            "type": "Feature",
            "geometry": {
                "type": "Polygon",
                "coordinates": [
                    [
                        [
                            -74.045,
                            37.166
                        ],
                        [
                            -73.918,
                            35.465
                        ],
                        [
                            -77.87,
                            32.517
                        ],
                        [
                            -80.481,
                            34.329
                        ],
                        [
                            -76.18,
                            36.25
                        ],
                        [
                            -74.045,
                            37.166
                        ]
                    ]
                ]
            },
            "properties": {
                "airSigmetId": null,
                "airportIcao": "KKCI",
                "airSigmetType": "SIGMET",
                "hazard": "CONVECTIVE",
                "severity": 5,
                "altitudeLow1": null,
                "altitudeLow2": null,
                "altitudeHi1": 45000,
                "altitudeHi2": 60000,
                "movementDir": 270,
                "movementSpd": 20,
                "rawAirSigmet": "WSUS31 KKCI 102255\nSIGE \nCONVECTIVE SIGMET 25E\nVALID UNTIL 0055Z\nNC SC AND NC VA SC CSTL WTRS\nFROM 100SE SBY-120ESE ECG-110S ILM-40NE CAE-ECG-100SE SBY\nAREA SEV TS MOV FROM 27020KT. TOPS ABV FL450.\nHAIL TO 1 IN...WIND GUSTS TO 50KT POSS.\n\nOUTLOOK VALID 110055-110455\nAREA 1...FROM BOS-50ENE ACK-120S ACK-190ESE ECG-OMN-30NNW\nTLH-GQO-APE-30E JFK-BOS\nREF WW 554 555 556 557 558.\nWST ISSUANCES EXPD. REFER TO MOST RECENT ACUS01\nKWNS FROM STORM PREDICTION CENTER FOR SYNOPSIS AND METEOROLOGICAL\nDETAILS.\n\nAREA 2...FROM 70NW PQI-30NNE PQI-130ESE ENE-60NW ALB-MSS-70NE\nMPV-70WNW MLT-70NW PQI\nWST ISSUANCES EXPD. REFER TO MOST RECENT ACUS01 KWNS FROM STORM\nPREDICTION CENTER FOR SYNOPSIS AND METEOROLOGICAL DETAILS.\n\nAREA 3...FROM 50NW MKG-DXO-30E IND-BVT-50NW MKG\nWST ISSUANCES POSS. REFER TO MOST RECENT ACUS01 KWNS FROM STORM\nPREDICTION CENTER FOR SYNOPSIS AND METEOROLOGICAL DETAILS.",
                "validTimeTo": [
                    "2026-08-11T00:55"
                ]
            }
        },
        {
            "type": "Feature",
            "geometry": {
                "type": "Polygon",
                "coordinates": [
                    [
                        [
                            -81.93,
                            35.533
                        ],
                        [
                            -81.281,
                            33.395
                        ],
                        [
                            -83.878,
                            32.225
                        ],
                        [
                            -85.305,
                            34.653
                        ],
                        [
                            -81.93,
                            35.533
                        ]
                    ]
                ]
            },
            "properties": {
                "airSigmetId": null,
                "airportIcao": "KKCI",
                "airSigmetType": "SIGMET",
                "hazard": "CONVECTIVE",
                "severity": 5,
                "altitudeLow1": null,
                "altitudeLow2": null,
                "altitudeHi1": 45000,
                "altitudeHi2": 60000,
                "movementDir": null,
                "movementSpd": null,
                "rawAirSigmet": "WSUS31 KKCI 102255\nSIGE \nCONVECTIVE SIGMET 26E\nVALID UNTIL 0055Z\nNC SC GA\nFROM 30N SPA-30SSW CAE-30SSW MCN-20SSW GQO-30N SPA\nAREA TS MOV FROM FROM 27010KT. TOPS ABV FL450.\n\nOUTLOOK VALID 110055-110455\nAREA 1...FROM BOS-50ENE ACK-120S ACK-190ESE ECG-OMN-30NNW\nTLH-GQO-APE-30E JFK-BOS\nREF WW 554 555 556 557 558.\nWST ISSUANCES EXPD. REFER TO MOST RECENT ACUS01\nKWNS FROM STORM PREDICTION CENTER FOR SYNOPSIS AND METEOROLOGICAL\nDETAILS.\n\nAREA 2...FROM 70NW PQI-30NNE PQI-130ESE ENE-60NW ALB-MSS-70NE\nMPV-70WNW MLT-70NW PQI\nWST ISSUANCES EXPD. REFER TO MOST RECENT ACUS01 KWNS FROM STORM\nPREDICTION CENTER FOR SYNOPSIS AND METEOROLOGICAL DETAILS.\n\nAREA 3...FROM 50NW MKG-DXO-30E IND-BVT-50NW MKG\nWST ISSUANCES POSS. REFER TO MOST RECENT ACUS01 KWNS FROM STORM\nPREDICTION CENTER FOR SYNOPSIS AND METEOROLOGICAL DETAILS.",
                "validTimeTo": [
                    "2026-08-11T00:55"
                ]
            }
        },
        {
            "type": "Feature",
            "geometry": {
                "type": "Polygon",
                "coordinates": [
                    [
                        [
                            -72.118,
                            44.991
                        ],
                        [
                            -72.141,
                            44.346
                        ],
                        [
                            -74.15,
                            43.364
                        ],
                        [
                            -75.804,
                            44.585
                        ],
                        [
                            -75.189,
                            44.909
                        ],
                        [
                            -72.118,
                            44.991
                        ]
                    ]
                ]
            },
            "properties": {
                "airSigmetId": null,
                "airportIcao": "KKCI",
                "airSigmetType": "SIGMET",
                "hazard": "CONVECTIVE",
                "severity": 5,
                "altitudeLow1": null,
                "altitudeLow2": null,
                "altitudeHi1": 41000,
                "altitudeHi2": 41000,
                "movementDir": 270,
                "movementSpd": 15,
                "rawAirSigmet": "WSUS31 KKCI 102255\nSIGE \nCONVECTIVE SIGMET 27E\nVALID UNTIL 0055Z\nVT NY\nFROM 50NNE MPV-20ENE MPV-40NNW ALB-50WSW MSS-20W MSS-50NNE MPV\nAREA TS MOV FROM 27015KT. TOPS TO FL410.\n\nOUTLOOK VALID 110055-110455\nAREA 1...FROM BOS-50ENE ACK-120S ACK-190ESE ECG-OMN-30NNW\nTLH-GQO-APE-30E JFK-BOS\nREF WW 554 555 556 557 558.\nWST ISSUANCES EXPD. REFER TO MOST RECENT ACUS01\nKWNS FROM STORM PREDICTION CENTER FOR SYNOPSIS AND METEOROLOGICAL\nDETAILS.\n\nAREA 2...FROM 70NW PQI-30NNE PQI-130ESE ENE-60NW ALB-MSS-70NE\nMPV-70WNW MLT-70NW PQI\nWST ISSUANCES EXPD. REFER TO MOST RECENT ACUS01 KWNS FROM STORM\nPREDICTION CENTER FOR SYNOPSIS AND METEOROLOGICAL DETAILS.\n\nAREA 3...FROM 50NW MKG-DXO-30E IND-BVT-50NW MKG\nWST ISSUANCES POSS. REFER TO MOST RECENT ACUS01 KWNS FROM STORM\nPREDICTION CENTER FOR SYNOPSIS AND METEOROLOGICAL DETAILS.",
                "validTimeTo": [
                    "2026-08-11T00:55"
                ]
            }
        },
        {
            "type": "Feature",
            "geometry": {
                "type": "Polygon",
                "coordinates": [
                    [
                        [
                            -80.595,
                            33.081
                        ],
                        [
                            -78.225,
                            32.241
                        ],
                        [
                            -82.22,
                            30.084
                        ],
                        [
                            -83.471,
                            30.877
                        ],
                        [
                            -80.595,
                            33.081
                        ]
                    ]
                ]
            },
            "properties": {
                "airSigmetId": null,
                "airportIcao": "KKCI",
                "airSigmetType": "SIGMET",
                "hazard": "CONVECTIVE",
                "severity": 5,
                "altitudeLow1": null,
                "altitudeLow2": null,
                "altitudeHi1": 45000,
                "altitudeHi2": 60000,
                "movementDir": 270,
                "movementSpd": 5,
                "rawAirSigmet": "WSUS31 KKCI 102255\nSIGE \nCONVECTIVE SIGMET 28E\nVALID UNTIL 0055Z\nSC FL GA AND CSTL WTRS\nFROM 30WNW CHS-100ESE CHS-40WSW CRG-50ENE TLH-30WNW CHS\nAREA TS MOV FROM 27005KT. TOPS ABV FL450.\n\nOUTLOOK VALID 110055-110455\nAREA 1...FROM BOS-50ENE ACK-120S ACK-190ESE ECG-OMN-30NNW\nTLH-GQO-APE-30E JFK-BOS\nREF WW 554 555 556 557 558.\nWST ISSUANCES EXPD. REFER TO MOST RECENT ACUS01\nKWNS FROM STORM PREDICTION CENTER FOR SYNOPSIS AND METEOROLOGICAL\nDETAILS.\n\nAREA 2...FROM 70NW PQI-30NNE PQI-130ESE ENE-60NW ALB-MSS-70NE\nMPV-70WNW MLT-70NW PQI\nWST ISSUANCES EXPD. REFER TO MOST RECENT ACUS01 KWNS FROM STORM\nPREDICTION CENTER FOR SYNOPSIS AND METEOROLOGICAL DETAILS.\n\nAREA 3...FROM 50NW MKG-DXO-30E IND-BVT-50NW MKG\nWST ISSUANCES POSS. REFER TO MOST RECENT ACUS01 KWNS FROM STORM\nPREDICTION CENTER FOR SYNOPSIS AND METEOROLOGICAL DETAILS.",
                "validTimeTo": [
                    "2026-08-11T00:55"
                ]
            }
        },
        {
            "type": "Feature",
            "geometry": {
                "type": "Polygon",
                "coordinates": [
                    [
                        [
                            -82.487,
                            27.91
                        ],
                        [
                            -81.016,
                            27.872
                        ],
                        [
                            -80.859,
                            25.799
                        ],
                        [
                            -82.563,
                            25.823
                        ],
                        [
                            -82.487,
                            27.91
                        ]
                    ]
                ]
            },
            "properties": {
                "airSigmetId": null,
                "airportIcao": "KKCI",
                "airSigmetType": "SIGMET",
                "hazard": "CONVECTIVE",
                "severity": 5,
                "altitudeLow1": null,
                "altitudeLow2": null,
                "altitudeHi1": 45000,
                "altitudeHi2": 60000,
                "movementDir": null,
                "movementSpd": null,
                "rawAirSigmet": "WSUS31 KKCI 102255\nSIGE \nCONVECTIVE SIGMET 29E\nVALID UNTIL 0055Z\nFL AND CSTL WTRS\nFROM 10E PIE-30WNW TRV-30W MIA-60SW RSW-10E PIE\nAREA TS MOV FROM FROM 11010KT. TOPS ABV FL450.\n\nOUTLOOK VALID 110055-110455\nAREA 1...FROM BOS-50ENE ACK-120S ACK-190ESE ECG-OMN-30NNW\nTLH-GQO-APE-30E JFK-BOS\nREF WW 554 555 556 557 558.\nWST ISSUANCES EXPD. REFER TO MOST RECENT ACUS01\nKWNS FROM STORM PREDICTION CENTER FOR SYNOPSIS AND METEOROLOGICAL\nDETAILS.\n\nAREA 2...FROM 70NW PQI-30NNE PQI-130ESE ENE-60NW ALB-MSS-70NE\nMPV-70WNW MLT-70NW PQI\nWST ISSUANCES EXPD. REFER TO MOST RECENT ACUS01 KWNS FROM STORM\nPREDICTION CENTER FOR SYNOPSIS AND METEOROLOGICAL DETAILS.\n\nAREA 3...FROM 50NW MKG-DXO-30E IND-BVT-50NW MKG\nWST ISSUANCES POSS. REFER TO MOST RECENT ACUS01 KWNS FROM STORM\nPREDICTION CENTER FOR SYNOPSIS AND METEOROLOGICAL DETAILS.",
                "validTimeTo": [
                    "2026-08-11T00:55"
                ]
            }
        },
        {
            "type": "Feature",
            "geometry": {
                "type": "Polygon",
                "coordinates": [
                    [
                        [
                            -96.31,
                            28.257
                        ],
                        [
                            -94.984,
                            27.578
                        ],
                        [
                            -95.831,
                            26.486
                        ],
                        [
                            -97.45,
                            28.403
                        ],
                        [
                            -96.31,
                            28.257
                        ]
                    ]
                ]
            },
            "properties": {
                "airSigmetId": null,
                "airportIcao": "KKCI",
                "airSigmetType": "SIGMET",
                "hazard": "CONVECTIVE",
                "severity": 5,
                "altitudeLow1": null,
                "altitudeLow2": null,
                "altitudeHi1": 45000,
                "altitudeHi2": 45000,
                "movementDir": 160,
                "movementSpd": 10,
                "rawAirSigmet": "WSUS32 KKCI 102255\nSIGC \nCONVECTIVE SIGMET 44C\nVALID UNTIL 0055Z\nTX AND CSTL WTRS\nFROM 30S PSX-100SE PSX-90ENE BRO-30N CRP-30S PSX\nAREA TS MOV FROM 16010KT. TOPS TO FL450.\n\nOUTLOOK VALID 110055-110455\nAREA 1...FROM 50NW MKG-BVT-40W BVT-40E DBQ-30NW BAE-50NW MKG\nWST ISSUANCES POSS. REFER TO MOST RECENT ACUS01 KWNS FROM STORM\nPREDICTION CENTER FOR SYNOPSIS AND METEOROLOGICAL DETAILS.\n\nAREA 2...FROM 30S ARG-50NNE MSL-40NNW CEW-110SSE PSX-30E ACT-30S\nARG\nWST ISSUANCES EXPD. REFER TO MOST RECENT ACUS01 KWNS FROM STORM\nPREDICTION CENTER FOR SYNOPSIS AND METEOROLOGICAL DETAILS.\n\nAREA 3...FROM 30ESE DIK-30S ABR-40NNW GCK-TCC-40NNE TCS-SHR-30ESE\nDIK\nREFER WW 559. WST ISSUANCES EXPD. REFER TO MOST RECENT ACUS01\nKWNS FROM STORM PREDICTION CENTER FOR SYNOPSIS AND METEOROLOGICAL\nDETAILS.",
                "validTimeTo": [
                    "2026-08-11T00:55"
                ]
            }
        }
    ],
    "metadata": {
        "creationTime": "2026-08-10T23:42"
    }
}