{
    "type": "FeatureCollection",
    "features": [
        {
            "type": "Feature",
            "geometry": {
                "type": "Polygon",
                "coordinates": [
                    [
                        [
                            -86.455,
                            31.295
                        ],
                        [
                            -82.28,
                            30.338
                        ],
                        [
                            -81.11,
                            29.3
                        ],
                        [
                            -82.153,
                            28.102
                        ],
                        [
                            -86.68,
                            28.171
                        ],
                        [
                            -86.455,
                            31.295
                        ]
                    ]
                ]
            },
            "properties": {
                "airSigmetId": null,
                "airportIcao": "KKCI",
                "airSigmetType": "SIGMET",
                "hazard": "CONVECTIVE",
                "severity": 5,
                "altitudeLow1": null,
                "altitudeLow2": null,
                "altitudeHi1": 45000,
                "altitudeHi2": 60000,
                "movementDir": 280,
                "movementSpd": 15,
                "rawAirSigmet": "WSUS31 KKCI 011455\nSIGE \nCONVECTIVE SIGMET 63E\nVALID UNTIL 1655Z\nFL GA AL AND FL CSTL WTRS\nFROM 30NNE CEW-40W CRG-OMN-30ENE PIE-160S CEW-30NNE CEW\nAREA EMBD TS MOV FROM 28015KT. TOPS ABV FL450.\n\nOUTLOOK VALID 011655-012055\nAREA 1...FROM MGM-SAV-50E CRG-190SE CHS-230E PBI-70E PBI-160SE\nMIA-40S EYW-RSW-110SW SRQ-210S CEW-70S CEW-MGM\nWST ISSUANCES EXPD. REFER TO MOST RECENT ACUS01 KWNS FROM STORM\nPREDICTION CENTER FOR SYNOPSIS AND METEOROLOGICAL DETAILS.\n\nAREA 2...FROM GRR-50NW HNN-40NNE ODF-30N CLT-SAV-MGM-30SW\nMHZ-SQS-MSL-30S TTH-AXC-30E UIN-30NE DBQ-GRR\nWST ISSUANCES EXDS. REFER TO MOST RECENT ACUS01 KWNS FROM STORM\nPREDICTION CENTER FOR SYNOPSIS AND METEOROLOGICAL DETAILS.",
                "validTimeTo": [
                    "2026-08-01T16:55"
                ]
            }
        },
        {
            "type": "Feature",
            "geometry": {
                "type": "Polygon",
                "coordinates": [
                    [
                        [
                            -77.047,
                            30.269
                        ],
                        [
                            -75.628,
                            26.61
                        ],
                        [
                            -79.346,
                            26.678
                        ],
                        [
                            -78.247,
                            29.269
                        ],
                        [
                            -77.047,
                            30.269
                        ]
                    ]
                ]
            },
            "properties": {
                "airSigmetId": null,
                "airportIcao": "KKCI",
                "airSigmetType": "SIGMET",
                "hazard": "CONVECTIVE",
                "severity": 5,
                "altitudeLow1": null,
                "altitudeLow2": null,
                "altitudeHi1": 45000,
                "altitudeHi2": 60000,
                "movementDir": 270,
                "movementSpd": 10,
                "rawAirSigmet": "WSUS31 KKCI 011455\nSIGE \nCONVECTIVE SIGMET 64E\nVALID UNTIL 1655Z\nFL CSTL WTRS\nFROM 220SE CHS-240E PBI-40E PBI-150E OMN-220SE CHS\nAREA TS MOV FROM 27010KT. TOPS ABV FL450.\nREF INTL SIGMET INDIA SERIES.\n\nOUTLOOK VALID 011655-012055\nAREA 1...FROM MGM-SAV-50E CRG-190SE CHS-230E PBI-70E PBI-160SE\nMIA-40S EYW-RSW-110SW SRQ-210S CEW-70S CEW-MGM\nWST ISSUANCES EXPD. REFER TO MOST RECENT ACUS01 KWNS FROM STORM\nPREDICTION CENTER FOR SYNOPSIS AND METEOROLOGICAL DETAILS.\n\nAREA 2...FROM GRR-50NW HNN-40NNE ODF-30N CLT-SAV-MGM-30SW\nMHZ-SQS-MSL-30S TTH-AXC-30E UIN-30NE DBQ-GRR\nWST ISSUANCES EXDS. REFER TO MOST RECENT ACUS01 KWNS FROM STORM\nPREDICTION CENTER FOR SYNOPSIS AND METEOROLOGICAL DETAILS.",
                "validTimeTo": [
                    "2026-08-01T16:55"
                ]
            }
        },
        {
            "type": "Feature",
            "geometry": {
                "type": "Polygon",
                "coordinates": [
                    [
                        [
                            -79.389,
                            24.971
                        ],
                        [
                            -78.244,
                            23.905
                        ],
                        [
                            -79.465,
                            23.955
                        ],
                        [
                            -79.389,
                            24.971
                        ]
                    ]
                ]
            },
            "properties": {
                "airSigmetId": null,
                "airportIcao": "KKCI",
                "airSigmetType": "SIGMET",
                "hazard": "CONVECTIVE",
                "severity": 5,
                "altitudeLow1": null,
                "altitudeLow2": null,
                "altitudeHi1": 45000,
                "altitudeHi2": 45000,
                "movementDir": null,
                "movementSpd": null,
                "rawAirSigmet": "WSUS31 KKCI 011455\nSIGE \nCONVECTIVE SIGMET 65E\nVALID UNTIL 1655Z\nFL CSTL WTRS\nFROM 70SE MIA-160SE MIA-120SSE MIA-70SE MIA\nDMSHG AREA TS MOV LTL. TOPS TO FL450.\nREF INTL SIGMET JULIETT SERIES.\n\nOUTLOOK VALID 011655-012055\nAREA 1...FROM MGM-SAV-50E CRG-190SE CHS-230E PBI-70E PBI-160SE\nMIA-40S EYW-RSW-110SW SRQ-210S CEW-70S CEW-MGM\nWST ISSUANCES EXPD. REFER TO MOST RECENT ACUS01 KWNS FROM STORM\nPREDICTION CENTER FOR SYNOPSIS AND METEOROLOGICAL DETAILS.\n\nAREA 2...FROM GRR-50NW HNN-40NNE ODF-30N CLT-SAV-MGM-30SW\nMHZ-SQS-MSL-30S TTH-AXC-30E UIN-30NE DBQ-GRR\nWST ISSUANCES EXDS. REFER TO MOST RECENT ACUS01 KWNS FROM STORM\nPREDICTION CENTER FOR SYNOPSIS AND METEOROLOGICAL DETAILS.",
                "validTimeTo": [
                    "2026-08-01T16:55"
                ]
            }
        },
        {
            "type": "Feature",
            "geometry": {
                "type": "Polygon",
                "coordinates": [
                    [
                        [
                            -85.166,
                            37.025
                        ],
                        [
                            -83.906,
                            37.03
                        ],
                        [
                            -84.085,
                            35.835
                        ],
                        [
                            -86.747,
                            33.977
                        ],
                        [
                            -86.905,
                            35.169
                        ],
                        [
                            -85.166,
                            37.025
                        ]
                    ]
                ]
            },
            "properties": {
                "airSigmetId": null,
                "airportIcao": "KKCI",
                "airSigmetType": "SIGMET",
                "hazard": "CONVECTIVE",
                "severity": 5,
                "altitudeLow1": null,
                "altitudeLow2": null,
                "altitudeHi1": 40000,
                "altitudeHi2": 40000,
                "movementDir": 250,
                "movementSpd": 30,
                "rawAirSigmet": "WSUS31 KKCI 011455\nSIGE \nCONVECTIVE SIGMET 66E\nVALID UNTIL 1655Z\nGA TN KY AL\nFROM 50W LOZ-10E LOZ-10WSW VXV-20NNE VUZ-40NE MSL-50W LOZ\nAREA EMBD TS MOV FROM 25030KT. TOPS TO FL400.\n\nOUTLOOK VALID 011655-012055\nAREA 1...FROM MGM-SAV-50E CRG-190SE CHS-230E PBI-70E PBI-160SE\nMIA-40S EYW-RSW-110SW SRQ-210S CEW-70S CEW-MGM\nWST ISSUANCES EXPD. REFER TO MOST RECENT ACUS01 KWNS FROM STORM\nPREDICTION CENTER FOR SYNOPSIS AND METEOROLOGICAL DETAILS.\n\nAREA 2...FROM GRR-50NW HNN-40NNE ODF-30N CLT-SAV-MGM-30SW\nMHZ-SQS-MSL-30S TTH-AXC-30E UIN-30NE DBQ-GRR\nWST ISSUANCES EXDS. REFER TO MOST RECENT ACUS01 KWNS FROM STORM\nPREDICTION CENTER FOR SYNOPSIS AND METEOROLOGICAL DETAILS.",
                "validTimeTo": [
                    "2026-08-01T16:55"
                ]
            }
        },
        {
            "type": "Feature",
            "geometry": {
                "type": "Polygon",
                "coordinates": [
                    [
                        [
                            -85.492,
                            34.529
                        ],
                        [
                            -86.127,
                            32.404
                        ],
                        [
                            -85.694,
                            31.19
                        ],
                        [
                            -85.042,
                            31.358
                        ],
                        [
                            -85.411,
                            32.417
                        ],
                        [
                            -84.808,
                            34.384
                        ],
                        [
                            -85.492,
                            34.529
                        ]
                    ]
                ]
            },
            "properties": {
                "airSigmetId": null,
                "airportIcao": "KKCI",
                "airSigmetType": "SIGMET",
                "hazard": "CONVECTIVE",
                "severity": 5,
                "altitudeLow1": null,
                "altitudeLow2": null,
                "altitudeHi1": 40000,
                "altitudeHi2": 40000,
                "movementDir": 290,
                "movementSpd": 15,
                "rawAirSigmet": "WSUS31 KKCI 011455\nSIGE \nCONVECTIVE SIGMET 67E\nVALID UNTIL 1655Z\nGA AL\nFROM 30S GQO-30ENE MGM-60WSW PZD\nLINE TS 35 NM WIDE MOV FROM 29015KT. TOPS TO FL400.\n\nOUTLOOK VALID 011655-012055\nAREA 1...FROM MGM-SAV-50E CRG-190SE CHS-230E PBI-70E PBI-160SE\nMIA-40S EYW-RSW-110SW SRQ-210S CEW-70S CEW-MGM\nWST ISSUANCES EXPD. REFER TO MOST RECENT ACUS01 KWNS FROM STORM\nPREDICTION CENTER FOR SYNOPSIS AND METEOROLOGICAL DETAILS.\n\nAREA 2...FROM GRR-50NW HNN-40NNE ODF-30N CLT-SAV-MGM-30SW\nMHZ-SQS-MSL-30S TTH-AXC-30E UIN-30NE DBQ-GRR\nWST ISSUANCES EXDS. REFER TO MOST RECENT ACUS01 KWNS FROM STORM\nPREDICTION CENTER FOR SYNOPSIS AND METEOROLOGICAL DETAILS.",
                "validTimeTo": [
                    "2026-08-01T16:55"
                ]
            }
        },
        {
            "type": "Feature",
            "geometry": {
                "type": "Polygon",
                "coordinates": [
                    [
                        [
                            -85.024,
                            40.308
                        ],
                        [
                            -83.672,
                            38.57
                        ],
                        [
                            -82.942,
                            38.915
                        ],
                        [
                            -84.276,
                            40.653
                        ],
                        [
                            -85.024,
                            40.308
                        ]
                    ]
                ]
            },
            "properties": {
                "airSigmetId": null,
                "airportIcao": "KKCI",
                "airSigmetType": "SIGMET",
                "hazard": "CONVECTIVE",
                "severity": 5,
                "altitudeLow1": null,
                "altitudeLow2": null,
                "altitudeHi1": 36000,
                "altitudeHi2": 36000,
                "movementDir": 230,
                "movementSpd": 30,
                "rawAirSigmet": "WSUS31 KKCI 011455\nSIGE \nCONVECTIVE SIGMET 68E\nVALID UNTIL 1655Z\nOH KY IN\nFROM 30WNW ROD-60W HNN\nLINE EMBD TS 40 NM WIDE MOV FROM 23030KT. TOPS TO FL360.\n\nOUTLOOK VALID 011655-012055\nAREA 1...FROM MGM-SAV-50E CRG-190SE CHS-230E PBI-70E PBI-160SE\nMIA-40S EYW-RSW-110SW SRQ-210S CEW-70S CEW-MGM\nWST ISSUANCES EXPD. REFER TO MOST RECENT ACUS01 KWNS FROM STORM\nPREDICTION CENTER FOR SYNOPSIS AND METEOROLOGICAL DETAILS.\n\nAREA 2...FROM GRR-50NW HNN-40NNE ODF-30N CLT-SAV-MGM-30SW\nMHZ-SQS-MSL-30S TTH-AXC-30E UIN-30NE DBQ-GRR\nWST ISSUANCES EXDS. REFER TO MOST RECENT ACUS01 KWNS FROM STORM\nPREDICTION CENTER FOR SYNOPSIS AND METEOROLOGICAL DETAILS.",
                "validTimeTo": [
                    "2026-08-01T16:55"
                ]
            }
        },
        {
            "type": "Feature",
            "geometry": {
                "type": "Polygon",
                "coordinates": [
                    [
                        [
                            -89.033,
                            28.236
                        ],
                        [
                            -86.68,
                            28.171
                        ],
                        [
                            -85.874,
                            27.323
                        ],
                        [
                            -87.593,
                            26.921
                        ],
                        [
                            -89.033,
                            28.236
                        ]
                    ]
                ]
            },
            "properties": {
                "airSigmetId": null,
                "airportIcao": "KKCI",
                "airSigmetType": "SIGMET",
                "hazard": "CONVECTIVE",
                "severity": 5,
                "altitudeLow1": null,
                "altitudeLow2": null,
                "altitudeHi1": 45000,
                "altitudeHi2": 45000,
                "movementDir": 280,
                "movementSpd": 10,
                "rawAirSigmet": "WSUS31 KKCI 011455\nSIGE \nCONVECTIVE SIGMET 69E\nVALID UNTIL 1655Z\nFL AL MS LA CSTL WTRS\nFROM 80SE LEV-160S CEW-210SSW TLH-190SE LEV-80SE LEV\nDVLPG AREA TS MOV FROM 28010KT. TOPS TO FL450.\n\nOUTLOOK VALID 011655-012055\nAREA 1...FROM MGM-SAV-50E CRG-190SE CHS-230E PBI-70E PBI-160SE\nMIA-40S EYW-RSW-110SW SRQ-210S CEW-70S CEW-MGM\nWST ISSUANCES EXPD. REFER TO MOST RECENT ACUS01 KWNS FROM STORM\nPREDICTION CENTER FOR SYNOPSIS AND METEOROLOGICAL DETAILS.\n\nAREA 2...FROM GRR-50NW HNN-40NNE ODF-30N CLT-SAV-MGM-30SW\nMHZ-SQS-MSL-30S TTH-AXC-30E UIN-30NE DBQ-GRR\nWST ISSUANCES EXDS. REFER TO MOST RECENT ACUS01 KWNS FROM STORM\nPREDICTION CENTER FOR SYNOPSIS AND METEOROLOGICAL DETAILS.",
                "validTimeTo": [
                    "2026-08-01T16:55"
                ]
            }
        },
        {
            "type": "Feature",
            "geometry": {
                "type": "Polygon",
                "coordinates": [
                    [
                        [
                            -111.187,
                            34.288
                        ],
                        [
                            -109.294,
                            34.113
                        ],
                        [
                            -108.981,
                            32.505
                        ],
                        [
                            -109.679,
                            31.914
                        ],
                        [
                            -111.738,
                            33.665
                        ],
                        [
                            -111.187,
                            34.288
                        ]
                    ]
                ]
            },
            "properties": {
                "airSigmetId": null,
                "airportIcao": "KKCI",
                "airSigmetType": "SIGMET",
                "hazard": "CONVECTIVE",
                "severity": 5,
                "altitudeLow1": null,
                "altitudeLow2": null,
                "altitudeHi1": 35000,
                "altitudeHi2": 35000,
                "movementDir": 30,
                "movementSpd": 10,
                "rawAirSigmet": "WSUS33 KKCI 011455\nSIGW \nCONVECTIVE SIGMET 16W\nVALID UNTIL 1655Z\nNM AZ\nFROM 50SSW INW-20SSW SJN-20NE SSO-30SW SSO-20NE PHX-50SSW INW\nAREA TS MOV FROM 03010KT. TOPS TO FL350.\n\nOUTLOOK VALID 011655-012055\nFROM 40E DRK-30N TCS-60S DMN-50S TUS-40E DRK\nWST ISSUANCES POSS. REFER TO MOST RECENT ACUS01 KWNS FROM STORM\nPREDICTION CENTER FOR SYNOPSIS AND METEOROLOGICAL DETAILS.",
                "validTimeTo": [
                    "2026-08-01T16:55"
                ]
            }
        }
    ],
    "metadata": {
        "creationTime": "2026-08-01T15:07"
    }
}