{
    "type": "FeatureCollection",
    "features": [
        {
            "type": "Feature",
            "geometry": {
                "type": "Polygon",
                "coordinates": [
                    [
                        [
                            -112.3,
                            37.69
                        ],
                        [
                            -107.674,
                            34.332
                        ],
                        [
                            -108.151,
                            32.471
                        ],
                        [
                            -112.634,
                            34.393
                        ],
                        [
                            -112.983,
                            36.698
                        ],
                        [
                            -112.3,
                            37.69
                        ]
                    ]
                ]
            },
            "properties": {
                "airSigmetId": null,
                "airportIcao": "KKCI",
                "airSigmetType": "SIGMET",
                "hazard": "CONVECTIVE",
                "severity": 5,
                "altitudeLow1": null,
                "altitudeLow2": null,
                "altitudeHi1": 45000,
                "altitudeHi2": 60000,
                "movementDir": 260,
                "movementSpd": 20,
                "rawAirSigmet": "WSUS33 KKCI 112055\nSIGW \nCONVECTIVE SIGMET 44W\nVALID UNTIL 2255Z\nNM AZ UT\nFROM BCE-60SW ABQ-30WNW DMN-20SSW DRK-70NNE PGS-BCE\nAREA SEV TS MOV FROM 26020KT. TOPS ABV FL450.\nHAIL TO 1 IN...WIND GUSTS TO 50KT POSS.\n\nOUTLOOK VALID 112255-120255\nFROM DBL-ELP-50S TUS-60WSW TUS-ELY-DBL\nWST ISSUANCES EXPD. REFER TO MOST RECENT ACUS01 KWNS FROM STORM\nPREDICTION CENTER FOR SYNOPSIS AND METEOROLOGICAL DETAILS.",
                "validTimeTo": [
                    "2026-09-11T22:55"
                ]
            }
        },
        {
            "type": "Feature",
            "geometry": {
                "type": "Polygon",
                "coordinates": [
                    [
                        [
                            -110.386,
                            33.178
                        ],
                        [
                            -108.292,
                            31.441
                        ],
                        [
                            -110.92,
                            31.265
                        ],
                        [
                            -111.828,
                            31.777
                        ],
                        [
                            -110.386,
                            33.178
                        ]
                    ]
                ]
            },
            "properties": {
                "airSigmetId": null,
                "airportIcao": "KKCI",
                "airSigmetType": "SIGMET",
                "hazard": "CONVECTIVE",
                "severity": 5,
                "altitudeLow1": null,
                "altitudeLow2": null,
                "altitudeHi1": 45000,
                "altitudeHi2": 60000,
                "movementDir": 350,
                "movementSpd": 5,
                "rawAirSigmet": "WSUS33 KKCI 112055\nSIGW \nCONVECTIVE SIGMET 45W\nVALID UNTIL 2255Z\nNM AZ\nFROM 70NNE TUS-70SE SSO-50S TUS-50WSW TUS-70NNE TUS\nAREA TS MOV FROM 35005KT. TOPS ABV FL450.\n\nOUTLOOK VALID 112255-120255\nFROM DBL-ELP-50S TUS-60WSW TUS-ELY-DBL\nWST ISSUANCES EXPD. REFER TO MOST RECENT ACUS01 KWNS FROM STORM\nPREDICTION CENTER FOR SYNOPSIS AND METEOROLOGICAL DETAILS.",
                "validTimeTo": [
                    "2026-09-11T22:55"
                ]
            }
        },
        {
            "type": "Feature",
            "geometry": {
                "type": "Polygon",
                "coordinates": [
                    [
                        [
                            -110.947,
                            38.885
                        ],
                        [
                            -109.09,
                            37.503
                        ],
                        [
                            -110.953,
                            36.734
                        ],
                        [
                            -112.3,
                            37.69
                        ],
                        [
                            -110.947,
                            38.885
                        ]
                    ]
                ]
            },
            "properties": {
                "airSigmetId": null,
                "airportIcao": "KKCI",
                "airSigmetType": "SIGMET",
                "hazard": "CONVECTIVE",
                "severity": 5,
                "altitudeLow1": null,
                "altitudeLow2": null,
                "altitudeHi1": 38000,
                "altitudeHi2": 38000,
                "movementDir": 270,
                "movementSpd": 10,
                "rawAirSigmet": "WSUS33 KKCI 112055\nSIGW \nCONVECTIVE SIGMET 46W\nVALID UNTIL 2255Z\nAZ UT\nFROM 30NNW HVE-20SSW DVC-40NNE TBC-BCE-30NNW HVE\nAREA TS MOV FROM 27010KT. TOPS TO FL380.\n\nOUTLOOK VALID 112255-120255\nFROM DBL-ELP-50S TUS-60WSW TUS-ELY-DBL\nWST ISSUANCES EXPD. REFER TO MOST RECENT ACUS01 KWNS FROM STORM\nPREDICTION CENTER FOR SYNOPSIS AND METEOROLOGICAL DETAILS.",
                "validTimeTo": [
                    "2026-09-11T22:55"
                ]
            }
        },
        {
            "type": "Feature",
            "geometry": {
                "type": "Polygon",
                "coordinates": [
                    [
                        [
                            -114.18,
                            48.542
                        ],
                        [
                            -113.481,
                            47.738
                        ],
                        [
                            -114.906,
                            47.458
                        ],
                        [
                            -115.106,
                            48.461
                        ],
                        [
                            -114.18,
                            48.542
                        ]
                    ]
                ]
            },
            "properties": {
                "airSigmetId": null,
                "airportIcao": "KKCI",
                "airSigmetType": "SIGMET",
                "hazard": "CONVECTIVE",
                "severity": 5,
                "altitudeLow1": null,
                "altitudeLow2": null,
                "altitudeHi1": 30000,
                "altitudeHi2": 30000,
                "movementDir": 270,
                "movementSpd": 10,
                "rawAirSigmet": "WSUS33 KKCI 112055\nSIGW \nCONVECTIVE SIGMET 47W\nVALID UNTIL 2255Z\nMT\nFROM 20N FCA-40SE FCA-30E MLP-40WNW FCA-20N FCA\nAREA TS MOV FROM 27010KT. TOPS TO FL300.\n\nOUTLOOK VALID 112255-120255\nFROM DBL-ELP-50S TUS-60WSW TUS-ELY-DBL\nWST ISSUANCES EXPD. REFER TO MOST RECENT ACUS01 KWNS FROM STORM\nPREDICTION CENTER FOR SYNOPSIS AND METEOROLOGICAL DETAILS.",
                "validTimeTo": [
                    "2026-09-11T22:55"
                ]
            }
        },
        {
            "type": "Feature",
            "geometry": {
                "type": "Polygon",
                "coordinates": [
                    [
                        [
                            -75.943,
                            35.785
                        ],
                        [
                            -75.857,
                            34.334
                        ],
                        [
                            -81.791,
                            31.284
                        ],
                        [
                            -84.37,
                            30.56
                        ],
                        [
                            -81.497,
                            34.674
                        ],
                        [
                            -75.943,
                            35.785
                        ]
                    ]
                ]
            },
            "properties": {
                "airSigmetId": null,
                "airportIcao": "KKCI",
                "airSigmetType": "SIGMET",
                "hazard": "CONVECTIVE",
                "severity": 5,
                "altitudeLow1": null,
                "altitudeLow2": null,
                "altitudeHi1": 45000,
                "altitudeHi2": 60000,
                "movementDir": 250,
                "movementSpd": 15,
                "rawAirSigmet": "WSUS31 KKCI 112055\nSIGE \nCONVECTIVE SIGMET 06E\nVALID UNTIL 2255Z\nNC SC FL GA AND NC SC GA CSTL WTRS\nFROM 30SSE ECG-100E ILM-40ESE AMG-TLH-30SE SPA-30SSE ECG\nAREA TS MOV FROM 25015KT. TOPS ABV FL450.\nREF INTL SIGMET HOTEL SERIES.\n\nOUTLOOK VALID 112255-120255\nFROM PXV-150SE SIE-180ESE ECG-130SSE ILM-190ENE PBI-150SE\nMIA-80WSW EYW-120WSW PIE-170SE LEV-PXV\nWST ISSUANCES EXPD. REFER TO MOST RECENT ACUS01 KWNS FROM STORM\nPREDICTION CENTER FOR SYNOPSIS AND METEOROLOGICAL DETAILS.",
                "validTimeTo": [
                    "2026-09-11T22:55"
                ]
            }
        },
        {
            "type": "Feature",
            "geometry": {
                "type": "Polygon",
                "coordinates": [
                    [
                        [
                            -94.704,
                            35.024
                        ],
                        [
                            -92.74,
                            33.26
                        ],
                        [
                            -96.466,
                            29.994
                        ],
                        [
                            -100.228,
                            29.829
                        ],
                        [
                            -100.46,
                            31.38
                        ],
                        [
                            -94.704,
                            35.024
                        ]
                    ]
                ]
            },
            "properties": {
                "airSigmetId": null,
                "airportIcao": "KKCI",
                "airSigmetType": "SIGMET",
                "hazard": "CONVECTIVE",
                "severity": 5,
                "altitudeLow1": null,
                "altitudeLow2": null,
                "altitudeHi1": 45000,
                "altitudeHi2": 60000,
                "movementDir": 310,
                "movementSpd": 10,
                "rawAirSigmet": "WSUS32 KKCI 112055\nSIGC \nCONVECTIVE SIGMET 09C\nVALID UNTIL 2255Z\nLA AR TX OK\nFROM 30SW FSM-ELD-60ESE CWK-40NE DLF-SJT-30SW FSM\nAREA TS MOV FROM 31010KT. TOPS ABV FL450.\n\nOUTLOOK VALID 112255-120255\nAREA 1...FROM 30NNW INL-30S YQT-RHI-MSP-70NW RWF-60SSE YWG-30NNW\nINL\nWST ISSUANCES EXPD. REFER TO MOST RECENT ACUS01 KWNS FROM STORM\nPREDICTION CENTER FOR SYNOPSIS AND METEOROLOGICAL DETAILS.\n\nAREA 2...FROM PXV-160S CEW-110SSW LCH-70E BRO-90SSE LRD-DLF-80SSE\nMRF-ELP-PXV\nWST ISSUANCES EXPD. REFER TO MOST RECENT ACUS01 KWNS FROM STORM\nPREDICTION CENTER FOR SYNOPSIS AND METEOROLOGICAL DETAILS.",
                "validTimeTo": [
                    "2026-09-11T22:55"
                ]
            }
        },
        {
            "type": "Feature",
            "geometry": {
                "type": "Polygon",
                "coordinates": [
                    [
                        [
                            -81.791,
                            31.284
                        ],
                        [
                            -78.878,
                            27.122
                        ],
                        [
                            -78.752,
                            24.382
                        ],
                        [
                            -84.014,
                            25.402
                        ],
                        [
                            -84.37,
                            30.56
                        ],
                        [
                            -81.791,
                            31.284
                        ]
                    ]
                ]
            },
            "properties": {
                "airSigmetId": null,
                "airportIcao": "KKCI",
                "airSigmetType": "SIGMET",
                "hazard": "CONVECTIVE",
                "severity": 5,
                "altitudeLow1": null,
                "altitudeLow2": null,
                "altitudeHi1": 45000,
                "altitudeHi2": 60000,
                "movementDir": 130,
                "movementSpd": 10,
                "rawAirSigmet": "WSUS31 KKCI 112055\nSIGE \nCONVECTIVE SIGMET 07E\nVALID UNTIL 2255Z\nFL GA AND CSTL WTRS\nFROM 40ESE AMG-70ENE PBI-120SE MIA-130WNW EYW-TLH-40ESE AMG\nAREA TS MOV FROM 13010KT. TOPS ABV FL450.\nREF INTL SIGMET DELTA SERIES.\n\nOUTLOOK VALID 112255-120255\nFROM PXV-150SE SIE-180ESE ECG-130SSE ILM-190ENE PBI-150SE\nMIA-80WSW EYW-120WSW PIE-170SE LEV-PXV\nWST ISSUANCES EXPD. REFER TO MOST RECENT ACUS01 KWNS FROM STORM\nPREDICTION CENTER FOR SYNOPSIS AND METEOROLOGICAL DETAILS.",
                "validTimeTo": [
                    "2026-09-11T22:55"
                ]
            }
        },
        {
            "type": "Feature",
            "geometry": {
                "type": "Polygon",
                "coordinates": [
                    [
                        [
                            -84.37,
                            30.56
                        ],
                        [
                            -84.24,
                            27.327
                        ],
                        [
                            -87.828,
                            28.332
                        ],
                        [
                            -87.632,
                            29.193
                        ],
                        [
                            -84.37,
                            30.56
                        ]
                    ]
                ]
            },
            "properties": {
                "airSigmetId": null,
                "airportIcao": "KKCI",
                "airSigmetType": "SIGMET",
                "hazard": "CONVECTIVE",
                "severity": 5,
                "altitudeLow1": null,
                "altitudeLow2": null,
                "altitudeHi1": 45000,
                "altitudeHi2": 60000,
                "movementDir": 200,
                "movementSpd": 10,
                "rawAirSigmet": "WSUS31 KKCI 112055\nSIGE \nCONVECTIVE SIGMET 08E\nVALID UNTIL 2255Z\nFL AND FL AL CSTL WTRS\nFROM TLH-90WSW PIE-130ESE LEV-100SSE SJI-TLH\nAREA EMBD TS MOV FROM 20010KT. TOPS ABV FL450.\nREF INTL SIGMET INDIA SERIES.\n\nOUTLOOK VALID 112255-120255\nFROM PXV-150SE SIE-180ESE ECG-130SSE ILM-190ENE PBI-150SE\nMIA-80WSW EYW-120WSW PIE-170SE LEV-PXV\nWST ISSUANCES EXPD. REFER TO MOST RECENT ACUS01 KWNS FROM STORM\nPREDICTION CENTER FOR SYNOPSIS AND METEOROLOGICAL DETAILS.",
                "validTimeTo": [
                    "2026-09-11T22:55"
                ]
            }
        },
        {
            "type": "Feature",
            "geometry": {
                "type": "Polygon",
                "coordinates": [
                    [
                        [
                            -87.48,
                            35.535
                        ],
                        [
                            -81.877,
                            33.945
                        ],
                        [
                            -83.874,
                            31.304
                        ],
                        [
                            -88.8,
                            32.38
                        ],
                        [
                            -89.98,
                            35.06
                        ],
                        [
                            -87.48,
                            35.535
                        ]
                    ]
                ]
            },
            "properties": {
                "airSigmetId": null,
                "airportIcao": "KKCI",
                "airSigmetType": "SIGMET",
                "hazard": "CONVECTIVE",
                "severity": 5,
                "altitudeLow1": null,
                "altitudeLow2": null,
                "altitudeHi1": 45000,
                "altitudeHi2": 60000,
                "movementDir": 190,
                "movementSpd": 10,
                "rawAirSigmet": "WSUS31 KKCI 112055\nSIGE \nCONVECTIVE SIGMET 09E\nVALID UNTIL 2255Z\nSC GA TN AL MS\nFROM 50N MSL-20NE IRQ-30SE PZD-MEI-MEM-50N MSL\nAREA TS MOV FROM 19010KT. TOPS ABV FL450.\n\nOUTLOOK VALID 112255-120255\nFROM PXV-150SE SIE-180ESE ECG-130SSE ILM-190ENE PBI-150SE\nMIA-80WSW EYW-120WSW PIE-170SE LEV-PXV\nWST ISSUANCES EXPD. REFER TO MOST RECENT ACUS01 KWNS FROM STORM\nPREDICTION CENTER FOR SYNOPSIS AND METEOROLOGICAL DETAILS.",
                "validTimeTo": [
                    "2026-09-11T22:55"
                ]
            }
        },
        {
            "type": "Feature",
            "geometry": {
                "type": "Polygon",
                "coordinates": [
                    [
                        [
                            -79.645,
                            38.563
                        ],
                        [
                            -77.87,
                            38.137
                        ],
                        [
                            -76.18,
                            36.25
                        ],
                        [
                            -78.78,
                            35.87
                        ],
                        [
                            -80.71,
                            37.09
                        ],
                        [
                            -79.645,
                            38.563
                        ]
                    ]
                ]
            },
            "properties": {
                "airSigmetId": null,
                "airportIcao": "KKCI",
                "airSigmetType": "SIGMET",
                "hazard": "CONVECTIVE",
                "severity": 5,
                "altitudeLow1": null,
                "altitudeLow2": null,
                "altitudeHi1": 45000,
                "altitudeHi2": 60000,
                "movementDir": 270,
                "movementSpd": 10,
                "rawAirSigmet": "WSUS31 KKCI 112055\nSIGE \nCONVECTIVE SIGMET 10E\nVALID UNTIL 2255Z\nVA NC WV\nFROM 30SE EKN-30S CSN-ECG-RDU-PSK-30SE EKN\nAREA TS MOV FROM 27010KT. TOPS ABV FL450.\n\nOUTLOOK VALID 112255-120255\nFROM PXV-150SE SIE-180ESE ECG-130SSE ILM-190ENE PBI-150SE\nMIA-80WSW EYW-120WSW PIE-170SE LEV-PXV\nWST ISSUANCES EXPD. REFER TO MOST RECENT ACUS01 KWNS FROM STORM\nPREDICTION CENTER FOR SYNOPSIS AND METEOROLOGICAL DETAILS.",
                "validTimeTo": [
                    "2026-09-11T22:55"
                ]
            }
        },
        {
            "type": "Feature",
            "geometry": {
                "type": "Polygon",
                "coordinates": [
                    [
                        [
                            -93.112,
                            48.105
                        ],
                        [
                            -89.607,
                            47.905
                        ],
                        [
                            -92.567,
                            46.185
                        ],
                        [
                            -94.035,
                            47.576
                        ],
                        [
                            -93.112,
                            48.105
                        ]
                    ]
                ]
            },
            "properties": {
                "airSigmetId": null,
                "airportIcao": "KKCI",
                "airSigmetType": "SIGMET",
                "hazard": "CONVECTIVE",
                "severity": 5,
                "altitudeLow1": null,
                "altitudeLow2": null,
                "altitudeHi1": 45000,
                "altitudeHi2": 60000,
                "movementDir": 240,
                "movementSpd": 35,
                "rawAirSigmet": "WSUS32 KKCI 112055\nSIGC \nCONVECTIVE SIGMET 10C\nVALID UNTIL 2255Z\nWI MN LS\nFROM 30SSE INL-30SSW YQT-40SSW DLH-40E BJI-30SSE INL\nAREA TS MOV FROM 24035KT. TOPS ABV FL450.\n\nOUTLOOK VALID 112255-120255\nAREA 1...FROM 30NNW INL-30S YQT-RHI-MSP-70NW RWF-60SSE YWG-30NNW\nINL\nWST ISSUANCES EXPD. REFER TO MOST RECENT ACUS01 KWNS FROM STORM\nPREDICTION CENTER FOR SYNOPSIS AND METEOROLOGICAL DETAILS.\n\nAREA 2...FROM PXV-160S CEW-110SSW LCH-70E BRO-90SSE LRD-DLF-80SSE\nMRF-ELP-PXV\nWST ISSUANCES EXPD. REFER TO MOST RECENT ACUS01 KWNS FROM STORM\nPREDICTION CENTER FOR SYNOPSIS AND METEOROLOGICAL DETAILS.",
                "validTimeTo": [
                    "2026-09-11T22:55"
                ]
            }
        },
        {
            "type": "Feature",
            "geometry": {
                "type": "Polygon",
                "coordinates": [
                    [
                        [
                            -90.192,
                            35.853
                        ],
                        [
                            -88.8,
                            32.38
                        ],
                        [
                            -90,
                            29.85
                        ],
                        [
                            -92.204,
                            30.646
                        ],
                        [
                            -90.192,
                            35.853
                        ]
                    ]
                ]
            },
            "properties": {
                "airSigmetId": null,
                "airportIcao": "KKCI",
                "airSigmetType": "SIGMET",
                "hazard": "CONVECTIVE",
                "severity": 5,
                "altitudeLow1": null,
                "altitudeLow2": null,
                "altitudeHi1": 45000,
                "altitudeHi2": 60000,
                "movementDir": 250,
                "movementSpd": 10,
                "rawAirSigmet": "WSUS32 KKCI 112055\nSIGC \nCONVECTIVE SIGMET 11C\nVALID UNTIL 2255Z\nTN MS LA AR\nFROM 40ESE ARG-MEI-HRV-40SSE AEX-40ESE ARG\nAREA TS MOV FROM 25010KT. TOPS ABV FL450.\n\nOUTLOOK VALID 112255-120255\nAREA 1...FROM 30NNW INL-30S YQT-RHI-MSP-70NW RWF-60SSE YWG-30NNW\nINL\nWST ISSUANCES EXPD. REFER TO MOST RECENT ACUS01 KWNS FROM STORM\nPREDICTION CENTER FOR SYNOPSIS AND METEOROLOGICAL DETAILS.\n\nAREA 2...FROM PXV-160S CEW-110SSW LCH-70E BRO-90SSE LRD-DLF-80SSE\nMRF-ELP-PXV\nWST ISSUANCES EXPD. REFER TO MOST RECENT ACUS01 KWNS FROM STORM\nPREDICTION CENTER FOR SYNOPSIS AND METEOROLOGICAL DETAILS.",
                "validTimeTo": [
                    "2026-09-11T22:55"
                ]
            }
        },
        {
            "type": "Feature",
            "geometry": {
                "type": "Polygon",
                "coordinates": [
                    [
                        [
                            -93.943,
                            31.158
                        ],
                        [
                            -92.193,
                            30.157
                        ],
                        [
                            -94.738,
                            28.177
                        ],
                        [
                            -96.238,
                            29.637
                        ],
                        [
                            -93.943,
                            31.158
                        ]
                    ]
                ]
            },
            "properties": {
                "airSigmetId": null,
                "airportIcao": "KKCI",
                "airSigmetType": "SIGMET",
                "hazard": "CONVECTIVE",
                "severity": 5,
                "altitudeLow1": null,
                "altitudeLow2": null,
                "altitudeHi1": 45000,
                "altitudeHi2": 60000,
                "movementDir": 320,
                "movementSpd": 10,
                "rawAirSigmet": "WSUS32 KKCI 112055\nSIGC \nCONVECTIVE SIGMET 12C\nVALID UNTIL 2255Z\nLA TX AND CSTL WTRS\nFROM 40E LFK-50WSW LSU-90ESE PSX-50WSW IAH-40E LFK\nAREA TS MOV FROM 32010KT. TOPS ABV FL450.\nREF INTL SIGMET GOLF SERIES.\n\nOUTLOOK VALID 112255-120255\nAREA 1...FROM 30NNW INL-30S YQT-RHI-MSP-70NW RWF-60SSE YWG-30NNW\nINL\nWST ISSUANCES EXPD. REFER TO MOST RECENT ACUS01 KWNS FROM STORM\nPREDICTION CENTER FOR SYNOPSIS AND METEOROLOGICAL DETAILS.\n\nAREA 2...FROM PXV-160S CEW-110SSW LCH-70E BRO-90SSE LRD-DLF-80SSE\nMRF-ELP-PXV\nWST ISSUANCES EXPD. REFER TO MOST RECENT ACUS01 KWNS FROM STORM\nPREDICTION CENTER FOR SYNOPSIS AND METEOROLOGICAL DETAILS.",
                "validTimeTo": [
                    "2026-09-11T22:55"
                ]
            }
        },
        {
            "type": "Feature",
            "geometry": {
                "type": "Polygon",
                "coordinates": [
                    [
                        [
                            -104.809,
                            33.275
                        ],
                        [
                            -101.91,
                            30.564
                        ],
                        [
                            -104.317,
                            29.528
                        ],
                        [
                            -105.457,
                            32.632
                        ],
                        [
                            -104.809,
                            33.275
                        ]
                    ]
                ]
            },
            "properties": {
                "airSigmetId": null,
                "airportIcao": "KKCI",
                "airSigmetType": "SIGMET",
                "hazard": "CONVECTIVE",
                "severity": 5,
                "altitudeLow1": null,
                "altitudeLow2": null,
                "altitudeHi1": 45000,
                "altitudeHi2": 60000,
                "movementDir": 320,
                "movementSpd": 10,
                "rawAirSigmet": "WSUS32 KKCI 112055\nSIGC \nCONVECTIVE SIGMET 13C\nVALID UNTIL 2255Z\nTX NM\nFROM 10WSW CME-60ESE FST-50SSW MRF-60SW CME-10WSW CME\nDVLPG AREA TS MOV FROM 32010KT. TOPS ABV FL450.\n\nOUTLOOK VALID 112255-120255\nAREA 1...FROM 30NNW INL-30S YQT-RHI-MSP-70NW RWF-60SSE YWG-30NNW\nINL\nWST ISSUANCES EXPD. REFER TO MOST RECENT ACUS01 KWNS FROM STORM\nPREDICTION CENTER FOR SYNOPSIS AND METEOROLOGICAL DETAILS.\n\nAREA 2...FROM PXV-160S CEW-110SSW LCH-70E BRO-90SSE LRD-DLF-80SSE\nMRF-ELP-PXV\nWST ISSUANCES EXPD. REFER TO MOST RECENT ACUS01 KWNS FROM STORM\nPREDICTION CENTER FOR SYNOPSIS AND METEOROLOGICAL DETAILS.",
                "validTimeTo": [
                    "2026-09-11T22:55"
                ]
            }
        }
    ],
    "metadata": {
        "creationTime": "2026-09-11T21:39"
    }
}