{
    "type": "FeatureCollection",
    "features": [
        {
            "type": "Feature",
            "geometry": {
                "type": "Polygon",
                "coordinates": [
                    [
                        [
                            -101.789,
                            48.259
                        ],
                        [
                            -101.577,
                            47.795
                        ],
                        [
                            -103.475,
                            45.575
                        ],
                        [
                            -106.603,
                            45.611
                        ],
                        [
                            -104.78,
                            47.855
                        ],
                        [
                            -101.789,
                            48.259
                        ]
                    ]
                ]
            },
            "properties": {
                "airSigmetId": null,
                "airportIcao": "KKCI",
                "airSigmetType": "SIGMET",
                "hazard": "CONVECTIVE",
                "severity": 5,
                "altitudeLow1": null,
                "altitudeLow2": null,
                "altitudeHi1": 45000,
                "altitudeHi2": 60000,
                "movementDir": 250,
                "movementSpd": 25,
                "rawAirSigmet": "WSUS32 KKCI 291855\nSIGC \nCONVECTIVE SIGMET 53C\nVALID UNTIL 2055Z\nSD ND MT\nFROM 20W MOT-30SSW MOT-80WNW DPR-50NNE SHR-50WSW ISN-20W MOT\nAREA SEV TS MOV FROM 25025KT. TOPS ABV FL450.\nWIND GUSTS TO 50KT POSS.\n\nOUTLOOK VALID 292055-300055\nAREA 1...FROM 30ESE ISN-50N TCC-TCS-CZI-50WSW ISN-30ESE ISN\nWST ISSUANCES EXPD. REFER TO MOST RECENT ACUS01 KWNS FROM STORM\nPREDICTION CENTER FOR SYNOPSIS AND METEOROLOGICAL DETAILS.\n\nAREA 2...FROM OSW-30NNW VUZ-60SSW CEW-30SSW SJI-40ESE MLC-OSW\nWST ISSUANCES POSS. REFER TO MOST RECENT ACUS01 KWNS FROM STORM\nPREDICTION CENTER FOR SYNOPSIS AND METEOROLOGICAL DETAILS.",
                "validTimeTo": [
                    "2026-07-29T20:55"
                ]
            }
        },
        {
            "type": "Feature",
            "geometry": {
                "type": "Polygon",
                "coordinates": [
                    [
                        [
                            -94.122,
                            35.501
                        ],
                        [
                            -93.917,
                            33.817
                        ],
                        [
                            -94.637,
                            33.979
                        ],
                        [
                            -95.493,
                            35.085
                        ],
                        [
                            -94.122,
                            35.501
                        ]
                    ]
                ]
            },
            "properties": {
                "airSigmetId": null,
                "airportIcao": "KKCI",
                "airSigmetType": "SIGMET",
                "hazard": "CONVECTIVE",
                "severity": 5,
                "altitudeLow1": null,
                "altitudeLow2": null,
                "altitudeHi1": 38000,
                "altitudeHi2": 38000,
                "movementDir": 330,
                "movementSpd": 15,
                "rawAirSigmet": "WSUS32 KKCI 291855\nSIGC \nCONVECTIVE SIGMET 54C\nVALID UNTIL 2055Z\nAR OK\nFROM 10NE FSM-20NNE TXK-40NW TXK-20NE MLC-10NE FSM\nAREA TS MOV FROM 33015KT. TOPS TO FL380.\n\nOUTLOOK VALID 292055-300055\nAREA 1...FROM 30ESE ISN-50N TCC-TCS-CZI-50WSW ISN-30ESE ISN\nWST ISSUANCES EXPD. REFER TO MOST RECENT ACUS01 KWNS FROM STORM\nPREDICTION CENTER FOR SYNOPSIS AND METEOROLOGICAL DETAILS.\n\nAREA 2...FROM OSW-30NNW VUZ-60SSW CEW-30SSW SJI-40ESE MLC-OSW\nWST ISSUANCES POSS. REFER TO MOST RECENT ACUS01 KWNS FROM STORM\nPREDICTION CENTER FOR SYNOPSIS AND METEOROLOGICAL DETAILS.",
                "validTimeTo": [
                    "2026-07-29T20:55"
                ]
            }
        },
        {
            "type": "Feature",
            "geometry": {
                "type": "Polygon",
                "coordinates": [
                    [
                        [
                            -93.653,
                            35.378
                        ],
                        [
                            -91.806,
                            34.807
                        ],
                        [
                            -92.925,
                            34.423
                        ],
                        [
                            -93.836,
                            35.024
                        ],
                        [
                            -93.653,
                            35.378
                        ]
                    ]
                ]
            },
            "properties": {
                "airSigmetId": null,
                "airportIcao": "KKCI",
                "airSigmetType": "SIGMET",
                "hazard": "CONVECTIVE",
                "severity": 5,
                "altitudeLow1": null,
                "altitudeLow2": null,
                "altitudeHi1": 41000,
                "altitudeHi2": 41000,
                "movementDir": 350,
                "movementSpd": 5,
                "rawAirSigmet": "WSUS32 KKCI 291855\nSIGC \nCONVECTIVE SIGMET 55C\nVALID UNTIL 2055Z\nAR\nFROM 30E FSM-20ENE LIT-40WSW LIT-30SE FSM-30E FSM\nAREA TS MOV FROM 35005KT. TOPS TO FL410.\n\nOUTLOOK VALID 292055-300055\nAREA 1...FROM 30ESE ISN-50N TCC-TCS-CZI-50WSW ISN-30ESE ISN\nWST ISSUANCES EXPD. REFER TO MOST RECENT ACUS01 KWNS FROM STORM\nPREDICTION CENTER FOR SYNOPSIS AND METEOROLOGICAL DETAILS.\n\nAREA 2...FROM OSW-30NNW VUZ-60SSW CEW-30SSW SJI-40ESE MLC-OSW\nWST ISSUANCES POSS. REFER TO MOST RECENT ACUS01 KWNS FROM STORM\nPREDICTION CENTER FOR SYNOPSIS AND METEOROLOGICAL DETAILS.",
                "validTimeTo": [
                    "2026-07-29T20:55"
                ]
            }
        },
        {
            "type": "Feature",
            "geometry": {
                "type": "Polygon",
                "coordinates": [
                    [
                        [
                            -106.603,
                            45.611
                        ],
                        [
                            -104.511,
                            45.031
                        ],
                        [
                            -106.28,
                            43.09
                        ],
                        [
                            -107.842,
                            43.459
                        ],
                        [
                            -106.603,
                            45.611
                        ]
                    ]
                ]
            },
            "properties": {
                "airSigmetId": null,
                "airportIcao": "KKCI",
                "airSigmetType": "SIGMET",
                "hazard": "CONVECTIVE",
                "severity": 5,
                "altitudeLow1": null,
                "altitudeLow2": null,
                "altitudeHi1": 41000,
                "altitudeHi2": 41000,
                "movementDir": 250,
                "movementSpd": 10,
                "rawAirSigmet": "WSUS32 KKCI 291855\nSIGC \nCONVECTIVE SIGMET 56C\nVALID UNTIL 2055Z\nMT WY\nFROM 50NNE SHR-90NW RAP-DDY-20E BOY-50NNE SHR\nAREA TS MOV FROM 25010KT. TOPS TO FL410.\n\nOUTLOOK VALID 292055-300055\nAREA 1...FROM 30ESE ISN-50N TCC-TCS-CZI-50WSW ISN-30ESE ISN\nWST ISSUANCES EXPD. REFER TO MOST RECENT ACUS01 KWNS FROM STORM\nPREDICTION CENTER FOR SYNOPSIS AND METEOROLOGICAL DETAILS.\n\nAREA 2...FROM OSW-30NNW VUZ-60SSW CEW-30SSW SJI-40ESE MLC-OSW\nWST ISSUANCES POSS. REFER TO MOST RECENT ACUS01 KWNS FROM STORM\nPREDICTION CENTER FOR SYNOPSIS AND METEOROLOGICAL DETAILS.",
                "validTimeTo": [
                    "2026-07-29T20:55"
                ]
            }
        },
        {
            "type": "Feature",
            "geometry": {
                "type": "Polygon",
                "coordinates": [
                    [
                        [
                            -110.7,
                            39.085
                        ],
                        [
                            -111.206,
                            35.059
                        ],
                        [
                            -114.848,
                            35.465
                        ],
                        [
                            -115.153,
                            39.065
                        ],
                        [
                            -110.7,
                            39.085
                        ]
                    ]
                ]
            },
            "properties": {
                "airSigmetId": null,
                "airportIcao": "KKCI",
                "airSigmetType": "SIGMET",
                "hazard": "CONVECTIVE",
                "severity": 5,
                "altitudeLow1": null,
                "altitudeLow2": null,
                "altitudeHi1": 45000,
                "altitudeHi2": 60000,
                "movementDir": 200,
                "movementSpd": 15,
                "rawAirSigmet": "WSUS33 KKCI 291855\nSIGW \nCONVECTIVE SIGMET 66W\nVALID UNTIL 2055Z\nAZ UT NV\nFROM 40N HVE-20W INW-40SSE LAS-20SW ELY-40N HVE\nAREA SEV TS MOV FROM 20015KT. TOPS ABV FL450.\nHAIL TO 1 IN...WIND GUSTS TO 50KT POSS.\n\nOUTLOOK VALID 292055-300055\nFROM LWT-30W CZI-TCS-70SSW DMN-50SSW TUS-DRK-40WNW ILC-80WSW\nTWF-30WSW LKT-LWT\nWST ISSUANCES EXPD. REFER TO MOST RECENT ACUS01 KWNS FROM STORM\nPREDICTION CENTER FOR SYNOPSIS AND METEOROLOGICAL DETAILS.",
                "validTimeTo": [
                    "2026-07-29T20:55"
                ]
            }
        },
        {
            "type": "Feature",
            "geometry": {
                "type": "Polygon",
                "coordinates": [
                    [
                        [
                            -111.747,
                            44.089
                        ],
                        [
                            -110.73,
                            43.62
                        ],
                        [
                            -112.014,
                            43.061
                        ],
                        [
                            -112.561,
                            43.475
                        ],
                        [
                            -111.747,
                            44.089
                        ]
                    ]
                ]
            },
            "properties": {
                "airSigmetId": null,
                "airportIcao": "KKCI",
                "airSigmetType": "SIGMET",
                "hazard": "CONVECTIVE",
                "severity": 5,
                "altitudeLow1": null,
                "altitudeLow2": null,
                "altitudeHi1": 36000,
                "altitudeHi2": 36000,
                "movementDir": 230,
                "movementSpd": 10,
                "rawAirSigmet": "WSUS33 KKCI 291855\nSIGW \nCONVECTIVE SIGMET 67W\nVALID UNTIL 2055Z\nWY ID\nFROM 20E DBS-JAC-30ENE PIH-40SSW DBS-20E DBS\nAREA TS MOV FROM 23010KT. TOPS TO FL360.\n\nOUTLOOK VALID 292055-300055\nFROM LWT-30W CZI-TCS-70SSW DMN-50SSW TUS-DRK-40WNW ILC-80WSW\nTWF-30WSW LKT-LWT\nWST ISSUANCES EXPD. REFER TO MOST RECENT ACUS01 KWNS FROM STORM\nPREDICTION CENTER FOR SYNOPSIS AND METEOROLOGICAL DETAILS.",
                "validTimeTo": [
                    "2026-07-29T20:55"
                ]
            }
        },
        {
            "type": "Feature",
            "geometry": {
                "type": "Polygon",
                "coordinates": [
                    [
                        [
                            -108.3,
                            44.457
                        ],
                        [
                            -108.3,
                            43.963
                        ],
                        [
                            -109.369,
                            43.775
                        ],
                        [
                            -109.744,
                            44.321
                        ],
                        [
                            -108.3,
                            44.457
                        ]
                    ]
                ]
            },
            "properties": {
                "airSigmetId": null,
                "airportIcao": "KKCI",
                "airSigmetType": "SIGMET",
                "hazard": "CONVECTIVE",
                "severity": 5,
                "altitudeLow1": null,
                "altitudeLow2": null,
                "altitudeHi1": 36000,
                "altitudeHi2": 36000,
                "movementDir": null,
                "movementSpd": null,
                "rawAirSigmet": "WSUS33 KKCI 291855\nSIGW \nCONVECTIVE SIGMET 68W\nVALID UNTIL 2055Z\nWY\nFROM 60N BOY-30N BOY-50WNW BOY-60NE JAC-60N BOY\nAREA TS MOV LTL. TOPS TO FL360.\n\nOUTLOOK VALID 292055-300055\nFROM LWT-30W CZI-TCS-70SSW DMN-50SSW TUS-DRK-40WNW ILC-80WSW\nTWF-30WSW LKT-LWT\nWST ISSUANCES EXPD. REFER TO MOST RECENT ACUS01 KWNS FROM STORM\nPREDICTION CENTER FOR SYNOPSIS AND METEOROLOGICAL DETAILS.",
                "validTimeTo": [
                    "2026-07-29T20:55"
                ]
            }
        },
        {
            "type": "Feature",
            "geometry": {
                "type": "Polygon",
                "coordinates": [
                    [
                        [
                            -109.115,
                            40.465
                        ],
                        [
                            -107.31,
                            40.52
                        ],
                        [
                            -109.092,
                            38.117
                        ],
                        [
                            -109.88,
                            39.685
                        ],
                        [
                            -109.115,
                            40.465
                        ]
                    ]
                ]
            },
            "properties": {
                "airSigmetId": null,
                "airportIcao": "KKCI",
                "airSigmetType": "SIGMET",
                "hazard": "CONVECTIVE",
                "severity": 5,
                "altitudeLow1": null,
                "altitudeLow2": null,
                "altitudeHi1": 35000,
                "altitudeHi2": 35000,
                "movementDir": 210,
                "movementSpd": 10,
                "rawAirSigmet": "WSUS33 KKCI 291855\nSIGW \nCONVECTIVE SIGMET 69W\nVALID UNTIL 2055Z\nCO UT\nFROM 50ENE MTU-CHE-20NNW DVC-30SSE MTU-50ENE MTU\nAREA TS MOV FROM 21010KT. TOPS TO FL350.\n\nOUTLOOK VALID 292055-300055\nFROM LWT-30W CZI-TCS-70SSW DMN-50SSW TUS-DRK-40WNW ILC-80WSW\nTWF-30WSW LKT-LWT\nWST ISSUANCES EXPD. REFER TO MOST RECENT ACUS01 KWNS FROM STORM\nPREDICTION CENTER FOR SYNOPSIS AND METEOROLOGICAL DETAILS.",
                "validTimeTo": [
                    "2026-07-29T20:55"
                ]
            }
        },
        {
            "type": "Feature",
            "geometry": {
                "type": "Polygon",
                "coordinates": [
                    [
                        [
                            -109.031,
                            32.735
                        ],
                        [
                            -108.961,
                            31.655
                        ],
                        [
                            -109.559,
                            31.655
                        ],
                        [
                            -109.489,
                            32.735
                        ],
                        [
                            -109.031,
                            32.735
                        ]
                    ]
                ]
            },
            "properties": {
                "airSigmetId": null,
                "airportIcao": "KKCI",
                "airSigmetType": "SIGMET",
                "hazard": "CONVECTIVE",
                "severity": 5,
                "altitudeLow1": null,
                "altitudeLow2": null,
                "altitudeHi1": 41000,
                "altitudeHi2": 41000,
                "movementDir": 190,
                "movementSpd": 5,
                "rawAirSigmet": "WSUS33 KKCI 291855\nSIGW \nCONVECTIVE SIGMET 70W\nVALID UNTIL 2055Z\nNM AZ\nFROM 30NNE SSO-40SSE SSO-40SSW SSO-30NNW SSO-30NNE SSO\nAREA TS MOV FROM 19005KT. TOPS TO FL410.\n\nOUTLOOK VALID 292055-300055\nFROM LWT-30W CZI-TCS-70SSW DMN-50SSW TUS-DRK-40WNW ILC-80WSW\nTWF-30WSW LKT-LWT\nWST ISSUANCES EXPD. REFER TO MOST RECENT ACUS01 KWNS FROM STORM\nPREDICTION CENTER FOR SYNOPSIS AND METEOROLOGICAL DETAILS.",
                "validTimeTo": [
                    "2026-07-29T20:55"
                ]
            }
        },
        {
            "type": "Feature",
            "geometry": {
                "type": "Polygon",
                "coordinates": [
                    [
                        [
                            -79.689,
                            28.383
                        ],
                        [
                            -79.432,
                            26.088
                        ],
                        [
                            -79.78,
                            25.329
                        ],
                        [
                            -82.465,
                            26.274
                        ],
                        [
                            -82.824,
                            27.603
                        ],
                        [
                            -79.689,
                            28.383
                        ]
                    ]
                ]
            },
            "properties": {
                "airSigmetId": null,
                "airportIcao": "KKCI",
                "airSigmetType": "SIGMET",
                "hazard": "CONVECTIVE",
                "severity": 5,
                "altitudeLow1": null,
                "altitudeLow2": null,
                "altitudeHi1": 45000,
                "altitudeHi2": 45000,
                "movementDir": 270,
                "movementSpd": 30,
                "rawAirSigmet": "WSUS31 KKCI 291855\nSIGE \nCONVECTIVE SIGMET 79E\nVALID UNTIL 2055Z\nFL AND CSTL WTRS\nFROM 60NE TRV-50SE PBI-40SE MIA-40WSW RSW-20SSW PIE-60NE TRV\nDVLPG AREA TS MOV FROM 27030KT. TOPS TO FL450.\n\nOUTLOOK VALID 292055-300055\nAREA 1...FROM MSS-60NE MPV-200SE ACK-180S ACK-180ESE SIE-60NE\nSLT-40NW SYR-MSS\nWST ISSUANCES POSS. REFER TO MOST RECENT ACUS01 KWNS FROM STORM\nPREDICTION CENTER FOR SYNOPSIS AND METEOROLOGICAL DETAILS.\n\nAREA 2...FROM 40NW MGM-130SSE ILM-220ENE OMN-60E PBI-100SE\nMIA-40SSW EYW-100WSW PIE-140W PIE-170S CEW-40NW MGM\nREF WW 532.\nWST ISSUANCES EXPD. REFER TO MOST RECENT ACUS01 KWNS FROM STORM\nPREDICTION CENTER FOR SYNOPSIS AND METEOROLOGICAL DETAILS.",
                "validTimeTo": [
                    "2026-07-29T20:55"
                ]
            }
        },
        {
            "type": "Feature",
            "geometry": {
                "type": "Polygon",
                "coordinates": [
                    [
                        [
                            -86.68,
                            28.997
                        ],
                        [
                            -83.485,
                            28.678
                        ],
                        [
                            -82.64,
                            26.208
                        ],
                        [
                            -84.251,
                            25.859
                        ],
                        [
                            -85.631,
                            26.221
                        ],
                        [
                            -86.68,
                            28.997
                        ]
                    ]
                ]
            },
            "properties": {
                "airSigmetId": null,
                "airportIcao": "KKCI",
                "airSigmetType": "SIGMET",
                "hazard": "CONVECTIVE",
                "severity": 5,
                "altitudeLow1": null,
                "altitudeLow2": null,
                "altitudeHi1": 45000,
                "altitudeHi2": 60000,
                "movementDir": null,
                "movementSpd": null,
                "rawAirSigmet": "WSUS31 KKCI 291855\nSIGE \nCONVECTIVE SIGMET 80E\nVALID UNTIL 2055Z\nFL CSTL WTRS\nFROM 110S CEW-60SSW CTY-50WSW RSW-130SW SRQ-180WSW SRQ-110S CEW\nAREA TS MOV LTL. TOPS ABV FL450.\n\nOUTLOOK VALID 292055-300055\nAREA 1...FROM MSS-60NE MPV-200SE ACK-180S ACK-180ESE SIE-60NE\nSLT-40NW SYR-MSS\nWST ISSUANCES POSS. REFER TO MOST RECENT ACUS01 KWNS FROM STORM\nPREDICTION CENTER FOR SYNOPSIS AND METEOROLOGICAL DETAILS.\n\nAREA 2...FROM 40NW MGM-130SSE ILM-220ENE OMN-60E PBI-100SE\nMIA-40SSW EYW-100WSW PIE-140W PIE-170S CEW-40NW MGM\nREF WW 532.\nWST ISSUANCES EXPD. REFER TO MOST RECENT ACUS01 KWNS FROM STORM\nPREDICTION CENTER FOR SYNOPSIS AND METEOROLOGICAL DETAILS.",
                "validTimeTo": [
                    "2026-07-29T20:55"
                ]
            }
        },
        {
            "type": "Feature",
            "geometry": {
                "type": "Polygon",
                "coordinates": [
                    [
                        [
                            -75.355,
                            43.411
                        ],
                        [
                            -75.32,
                            41.395
                        ],
                        [
                            -76.854,
                            41.505
                        ],
                        [
                            -77.509,
                            42.924
                        ],
                        [
                            -75.355,
                            43.411
                        ]
                    ]
                ]
            },
            "properties": {
                "airSigmetId": null,
                "airportIcao": "KKCI",
                "airSigmetType": "SIGMET",
                "hazard": "CONVECTIVE",
                "severity": 5,
                "altitudeLow1": null,
                "altitudeLow2": null,
                "altitudeHi1": 35000,
                "altitudeHi2": 35000,
                "movementDir": 350,
                "movementSpd": 15,
                "rawAirSigmet": "WSUS31 KKCI 291855\nSIGE \nCONVECTIVE SIGMET 81E\nVALID UNTIL 2055Z\nNY PA\nFROM 40ENE SYR-40S HNK-50E SLT-50E BUF-40ENE SYR\nAREA EMBD TS MOV FROM 35015KT. TOPS TO FL350.\n\nOUTLOOK VALID 292055-300055\nAREA 1...FROM MSS-60NE MPV-200SE ACK-180S ACK-180ESE SIE-60NE\nSLT-40NW SYR-MSS\nWST ISSUANCES POSS. REFER TO MOST RECENT ACUS01 KWNS FROM STORM\nPREDICTION CENTER FOR SYNOPSIS AND METEOROLOGICAL DETAILS.\n\nAREA 2...FROM 40NW MGM-130SSE ILM-220ENE OMN-60E PBI-100SE\nMIA-40SSW EYW-100WSW PIE-140W PIE-170S CEW-40NW MGM\nREF WW 532.\nWST ISSUANCES EXPD. REFER TO MOST RECENT ACUS01 KWNS FROM STORM\nPREDICTION CENTER FOR SYNOPSIS AND METEOROLOGICAL DETAILS.",
                "validTimeTo": [
                    "2026-07-29T20:55"
                ]
            }
        },
        {
            "type": "Feature",
            "geometry": {
                "type": "Polygon",
                "coordinates": [
                    [
                        [
                            -89.282,
                            31.296
                        ],
                        [
                            -86.82,
                            30.709
                        ],
                        [
                            -87.195,
                            29.75
                        ],
                        [
                            -89.573,
                            30.707
                        ],
                        [
                            -89.282,
                            31.296
                        ]
                    ]
                ]
            },
            "properties": {
                "airSigmetId": null,
                "airportIcao": "KKCI",
                "airSigmetType": "SIGMET",
                "hazard": "CONVECTIVE",
                "severity": 5,
                "altitudeLow1": null,
                "altitudeLow2": null,
                "altitudeHi1": 39000,
                "altitudeHi2": 39000,
                "movementDir": 220,
                "movementSpd": 5,
                "rawAirSigmet": "WSUS31 KKCI 291855\nSIGE \nCONVECTIVE SIGMET 82E\nVALID UNTIL 2055Z\nFL AL MS AND CSTL WTRS\nFROM 50E MCB-10SW CEW-70SSW CEW-50SE MCB-50E MCB\nAREA TS MOV FROM 22005KT. TOPS TO FL390.\n\nOUTLOOK VALID 292055-300055\nAREA 1...FROM MSS-60NE MPV-200SE ACK-180S ACK-180ESE SIE-60NE\nSLT-40NW SYR-MSS\nWST ISSUANCES POSS. REFER TO MOST RECENT ACUS01 KWNS FROM STORM\nPREDICTION CENTER FOR SYNOPSIS AND METEOROLOGICAL DETAILS.\n\nAREA 2...FROM 40NW MGM-130SSE ILM-220ENE OMN-60E PBI-100SE\nMIA-40SSW EYW-100WSW PIE-140W PIE-170S CEW-40NW MGM\nREF WW 532.\nWST ISSUANCES EXPD. REFER TO MOST RECENT ACUS01 KWNS FROM STORM\nPREDICTION CENTER FOR SYNOPSIS AND METEOROLOGICAL DETAILS.",
                "validTimeTo": [
                    "2026-07-29T20:55"
                ]
            }
        },
        {
            "type": "Feature",
            "geometry": {
                "type": "Polygon",
                "coordinates": [
                    [
                        [
                            -80.97,
                            30.531
                        ],
                        [
                            -81.478,
                            28.661
                        ],
                        [
                            -83.485,
                            28.678
                        ],
                        [
                            -83.344,
                            30.214
                        ],
                        [
                            -80.97,
                            30.531
                        ]
                    ]
                ]
            },
            "properties": {
                "airSigmetId": null,
                "airportIcao": "KKCI",
                "airSigmetType": "SIGMET",
                "hazard": "CONVECTIVE",
                "severity": 5,
                "altitudeLow1": null,
                "altitudeLow2": null,
                "altitudeHi1": 45000,
                "altitudeHi2": 60000,
                "movementDir": 290,
                "movementSpd": 10,
                "rawAirSigmet": "WSUS31 KKCI 291855\nSIGE \nCONVECTIVE SIGMET 83E\nVALID UNTIL 2055Z\nFL GA AND FL CSTL WTRS\nFROM 30ENE CRG-10NW ORL-60SSW CTY-40NNW CTY-30ENE CRG\nAREA TS MOV FROM 29010KT. TOPS ABV FL450.\n\nOUTLOOK VALID 292055-300055\nAREA 1...FROM MSS-60NE MPV-200SE ACK-180S ACK-180ESE SIE-60NE\nSLT-40NW SYR-MSS\nWST ISSUANCES POSS. REFER TO MOST RECENT ACUS01 KWNS FROM STORM\nPREDICTION CENTER FOR SYNOPSIS AND METEOROLOGICAL DETAILS.\n\nAREA 2...FROM 40NW MGM-130SSE ILM-220ENE OMN-60E PBI-100SE\nMIA-40SSW EYW-100WSW PIE-140W PIE-170S CEW-40NW MGM\nREF WW 532.\nWST ISSUANCES EXPD. REFER TO MOST RECENT ACUS01 KWNS FROM STORM\nPREDICTION CENTER FOR SYNOPSIS AND METEOROLOGICAL DETAILS.",
                "validTimeTo": [
                    "2026-07-29T20:55"
                ]
            }
        },
        {
            "type": "Feature",
            "geometry": {
                "type": "Polygon",
                "coordinates": [
                    [
                        [
                            -105.591,
                            43.088
                        ],
                        [
                            -104.522,
                            42.205
                        ],
                        [
                            -104.43,
                            38.29
                        ],
                        [
                            -107.04,
                            38.118
                        ],
                        [
                            -107.31,
                            40.52
                        ],
                        [
                            -105.591,
                            43.088
                        ]
                    ]
                ]
            },
            "properties": {
                "airSigmetId": null,
                "airportIcao": "KKCI",
                "airSigmetType": "SIGMET",
                "hazard": "CONVECTIVE",
                "severity": 5,
                "altitudeLow1": null,
                "altitudeLow2": null,
                "altitudeHi1": 41000,
                "altitudeHi2": 41000,
                "movementDir": 230,
                "movementSpd": 5,
                "rawAirSigmet": "WSUS32 KKCI 291855\nSIGC \nCONVECTIVE SIGMET 57C\nVALID UNTIL 2055Z\nCO WY\nFROM 30E DDY-50WNW BFF-PUB-20S HBU-CHE-30E DDY\nAREA TS MOV FROM 23005KT. TOPS TO FL410.\n\nOUTLOOK VALID 292055-300055\nAREA 1...FROM 30ESE ISN-50N TCC-TCS-CZI-50WSW ISN-30ESE ISN\nWST ISSUANCES EXPD. REFER TO MOST RECENT ACUS01 KWNS FROM STORM\nPREDICTION CENTER FOR SYNOPSIS AND METEOROLOGICAL DETAILS.\n\nAREA 2...FROM OSW-30NNW VUZ-60SSW CEW-30SSW SJI-40ESE MLC-OSW\nWST ISSUANCES POSS. REFER TO MOST RECENT ACUS01 KWNS FROM STORM\nPREDICTION CENTER FOR SYNOPSIS AND METEOROLOGICAL DETAILS.",
                "validTimeTo": [
                    "2026-07-29T20:55"
                ]
            }
        },
        {
            "type": "Feature",
            "geometry": {
                "type": "Polygon",
                "coordinates": [
                    [
                        [
                            -95.617,
                            37.149
                        ],
                        [
                            -93.918,
                            36.888
                        ],
                        [
                            -93.981,
                            35.615
                        ],
                        [
                            -95.213,
                            36.391
                        ],
                        [
                            -95.617,
                            37.149
                        ]
                    ]
                ]
            },
            "properties": {
                "airSigmetId": null,
                "airportIcao": "KKCI",
                "airSigmetType": "SIGMET",
                "hazard": "CONVECTIVE",
                "severity": 5,
                "altitudeLow1": null,
                "altitudeLow2": null,
                "altitudeHi1": 44000,
                "altitudeHi2": 44000,
                "movementDir": 340,
                "movementSpd": 5,
                "rawAirSigmet": "WSUS32 KKCI 291855\nSIGC \nCONVECTIVE SIGMET 58C\nVALID UNTIL 2055Z\nMO AR OK KS\nFROM 20W OSW-40SW SGF-20NE FSM-30ENE TUL-20W OSW\nDVLPG AREA TS MOV FROM 34005KT. TOPS TO FL440.\n\nOUTLOOK VALID 292055-300055\nAREA 1...FROM 30ESE ISN-50N TCC-TCS-CZI-50WSW ISN-30ESE ISN\nWST ISSUANCES EXPD. REFER TO MOST RECENT ACUS01 KWNS FROM STORM\nPREDICTION CENTER FOR SYNOPSIS AND METEOROLOGICAL DETAILS.\n\nAREA 2...FROM OSW-30NNW VUZ-60SSW CEW-30SSW SJI-40ESE MLC-OSW\nWST ISSUANCES POSS. REFER TO MOST RECENT ACUS01 KWNS FROM STORM\nPREDICTION CENTER FOR SYNOPSIS AND METEOROLOGICAL DETAILS.",
                "validTimeTo": [
                    "2026-07-29T20:55"
                ]
            }
        },
        {
            "type": "Feature",
            "geometry": {
                "type": "Polygon",
                "coordinates": [
                    [
                        [
                            -82.922,
                            32.434
                        ],
                        [
                            -80.558,
                            31.689
                        ],
                        [
                            -80.97,
                            30.531
                        ],
                        [
                            -83.05,
                            30.265
                        ],
                        [
                            -85.626,
                            31.627
                        ],
                        [
                            -82.922,
                            32.434
                        ]
                    ]
                ]
            },
            "properties": {
                "airSigmetId": null,
                "airportIcao": "KKCI",
                "airSigmetType": "SIGMET",
                "hazard": "CONVECTIVE",
                "severity": 5,
                "altitudeLow1": null,
                "altitudeLow2": null,
                "altitudeHi1": 45000,
                "altitudeHi2": 60000,
                "movementDir": 300,
                "movementSpd": 5,
                "rawAirSigmet": "WSUS31 KKCI 291855\nSIGE \nCONVECTIVE SIGMET 84E\nVALID UNTIL 2055Z\nFL GA AL AND FL GA CSTL WTRS\nFROM 40ESE MCN-40SE SAV-30ENE CRG-40N CTY-50SE MGM-40ESE MCN\nAREA SEV TS MOV FROM 30005KT. TOPS ABV FL450.\nHAIL TO 0.88 IN...WIND GUSTS TO 50KT POSS.\n\nOUTLOOK VALID 292055-300055\nAREA 1...FROM MSS-60NE MPV-200SE ACK-180S ACK-180ESE SIE-60NE\nSLT-40NW SYR-MSS\nWST ISSUANCES POSS. REFER TO MOST RECENT ACUS01 KWNS FROM STORM\nPREDICTION CENTER FOR SYNOPSIS AND METEOROLOGICAL DETAILS.\n\nAREA 2...FROM 40NW MGM-130SSE ILM-220ENE OMN-60E PBI-100SE\nMIA-40SSW EYW-100WSW PIE-140W PIE-170S CEW-40NW MGM\nREF WW 532.\nWST ISSUANCES EXPD. REFER TO MOST RECENT ACUS01 KWNS FROM STORM\nPREDICTION CENTER FOR SYNOPSIS AND METEOROLOGICAL DETAILS.",
                "validTimeTo": [
                    "2026-07-29T20:55"
                ]
            }
        }
    ],
    "metadata": {
        "creationTime": "2026-07-29T19:35"
    }
}