{
    "type": "FeatureCollection",
    "features": [
        {
            "type": "Feature",
            "geometry": {
                "type": "Polygon",
                "coordinates": [
                    [
                        [
                            -73.536,
                            43.214
                        ],
                        [
                            -72.895,
                            42.746
                        ],
                        [
                            -74.345,
                            39.978
                        ],
                        [
                            -76.956,
                            39.018
                        ],
                        [
                            -77.559,
                            41.636
                        ],
                        [
                            -73.536,
                            43.214
                        ]
                    ]
                ]
            },
            "properties": {
                "airSigmetId": null,
                "airportIcao": "KKCI",
                "airSigmetType": "SIGMET",
                "hazard": "CONVECTIVE",
                "severity": 5,
                "altitudeLow1": null,
                "altitudeLow2": null,
                "altitudeHi1": 43000,
                "altitudeHi2": 43000,
                "movementDir": 240,
                "movementSpd": 25,
                "rawAirSigmet": "WSUS31 KKCI 280455\nSIGE \nCONVECTIVE SIGMET 42E\nVALID UNTIL 0655Z\nMA VT CT NY NJ PA DE MD AND NJ CSTL WTRS\nFROM 30NNE ALB-40E ALB-10NNE CYN-10NNE DCA-20ENE SLT-30NNE ALB\nAREA TS MOV FROM 24025KT. TOPS TO FL430.\n\nOUTLOOK VALID 280655-281055\nFROM 150ENE ACK-200SE ACK-160SE SIE-180ESE ECG-130SSE ILM-210ENE\nPBI-70ENE PBI-40NNE PBI-30N CRG-40W BKW-SAX-150ENE ACK\nWST ISSUANCES EXPD. REFER TO MOST RECENT ACUS01 KWNS FROM STORM\nPREDICTION CENTER FOR SYNOPSIS AND METEOROLOGICAL DETAILS.",
                "validTimeTo": [
                    "2026-08-28T06:55"
                ]
            }
        },
        {
            "type": "Feature",
            "geometry": {
                "type": "Polygon",
                "coordinates": [
                    [
                        [
                            -73.909,
                            36.868
                        ],
                        [
                            -72.983,
                            35.124
                        ],
                        [
                            -75.502,
                            32.326
                        ],
                        [
                            -75.889,
                            36.015
                        ],
                        [
                            -73.909,
                            36.868
                        ]
                    ]
                ]
            },
            "properties": {
                "airSigmetId": null,
                "airportIcao": "KKCI",
                "airSigmetType": "SIGMET",
                "hazard": "CONVECTIVE",
                "severity": 5,
                "altitudeLow1": null,
                "altitudeLow2": null,
                "altitudeHi1": 45000,
                "altitudeHi2": 60000,
                "movementDir": 210,
                "movementSpd": 20,
                "rawAirSigmet": "WSUS31 KKCI 280455\nSIGE \nCONVECTIVE SIGMET 43E\nVALID UNTIL 0655Z\nNC AND NC VA CSTL WTRS\nFROM 110E ORF-170ESE ECG-170SE ILM-20SE ECG-110E ORF\nAREA TS MOV FROM 21020KT. TOPS ABV FL450.\n\nOUTLOOK VALID 280655-281055\nFROM 150ENE ACK-200SE ACK-160SE SIE-180ESE ECG-130SSE ILM-210ENE\nPBI-70ENE PBI-40NNE PBI-30N CRG-40W BKW-SAX-150ENE ACK\nWST ISSUANCES EXPD. REFER TO MOST RECENT ACUS01 KWNS FROM STORM\nPREDICTION CENTER FOR SYNOPSIS AND METEOROLOGICAL DETAILS.",
                "validTimeTo": [
                    "2026-08-28T06:55"
                ]
            }
        },
        {
            "type": "Feature",
            "geometry": {
                "type": "Polygon",
                "coordinates": [
                    [
                        [
                            -71.255,
                            38.915
                        ],
                        [
                            -70.03,
                            37.291
                        ],
                        [
                            -72.983,
                            35.124
                        ],
                        [
                            -74.045,
                            37.166
                        ],
                        [
                            -71.255,
                            38.915
                        ]
                    ]
                ]
            },
            "properties": {
                "airSigmetId": null,
                "airportIcao": "KKCI",
                "airSigmetType": "SIGMET",
                "hazard": "CONVECTIVE",
                "severity": 5,
                "altitudeLow1": null,
                "altitudeLow2": null,
                "altitudeHi1": 38000,
                "altitudeHi2": 38000,
                "movementDir": 190,
                "movementSpd": 20,
                "rawAirSigmet": "WSUS31 KKCI 280455\nSIGE \nCONVECTIVE SIGMET 44E\nVALID UNTIL 0655Z\nRI DE NJ NY MD NC VA CSTL WTRS\nFROM 130SSE HTO-240S ACK-170ESE ECG-100SE SBY-130SSE HTO\nAREA TS MOV FROM 19020KT. TOPS TO FL380.\n\nOUTLOOK VALID 280655-281055\nFROM 150ENE ACK-200SE ACK-160SE SIE-180ESE ECG-130SSE ILM-210ENE\nPBI-70ENE PBI-40NNE PBI-30N CRG-40W BKW-SAX-150ENE ACK\nWST ISSUANCES EXPD. REFER TO MOST RECENT ACUS01 KWNS FROM STORM\nPREDICTION CENTER FOR SYNOPSIS AND METEOROLOGICAL DETAILS.",
                "validTimeTo": [
                    "2026-08-28T06:55"
                ]
            }
        },
        {
            "type": "Feature",
            "geometry": {
                "type": "Polygon",
                "coordinates": [
                    [
                        [
                            -83.827,
                            30.089
                        ],
                        [
                            -82.016,
                            29.129
                        ],
                        [
                            -83.76,
                            26.948
                        ],
                        [
                            -84.56,
                            27.897
                        ],
                        [
                            -83.827,
                            30.089
                        ]
                    ]
                ]
            },
            "properties": {
                "airSigmetId": null,
                "airportIcao": "KKCI",
                "airSigmetType": "SIGMET",
                "hazard": "CONVECTIVE",
                "severity": 5,
                "altitudeLow1": null,
                "altitudeLow2": null,
                "altitudeHi1": 45000,
                "altitudeHi2": 60000,
                "movementDir": null,
                "movementSpd": null,
                "rawAirSigmet": "WSUS31 KKCI 280455\nSIGE \nCONVECTIVE SIGMET 45E\nVALID UNTIL 0655Z\nFL AND CSTL WTRS\nFROM 40SE TLH-50NW ORL-70WSW SRQ-100W PIE-40SE TLH\nAREA TS MOV LTL. TOPS ABV FL450.\n\nOUTLOOK VALID 280655-281055\nFROM 150ENE ACK-200SE ACK-160SE SIE-180ESE ECG-130SSE ILM-210ENE\nPBI-70ENE PBI-40NNE PBI-30N CRG-40W BKW-SAX-150ENE ACK\nWST ISSUANCES EXPD. REFER TO MOST RECENT ACUS01 KWNS FROM STORM\nPREDICTION CENTER FOR SYNOPSIS AND METEOROLOGICAL DETAILS.",
                "validTimeTo": [
                    "2026-08-28T06:55"
                ]
            }
        },
        {
            "type": "Feature",
            "geometry": {
                "type": "Polygon",
                "coordinates": [
                    [
                        [
                            -76.727,
                            35.17
                        ],
                        [
                            -76.26,
                            34.339
                        ],
                        [
                            -78.586,
                            32.373
                        ],
                        [
                            -79.118,
                            33.206
                        ],
                        [
                            -76.727,
                            35.17
                        ]
                    ]
                ]
            },
            "properties": {
                "airSigmetId": null,
                "airportIcao": "KKCI",
                "airSigmetType": "SIGMET",
                "hazard": "CONVECTIVE",
                "severity": 5,
                "altitudeLow1": null,
                "altitudeLow2": null,
                "altitudeHi1": 42000,
                "altitudeHi2": 42000,
                "movementDir": 230,
                "movementSpd": 20,
                "rawAirSigmet": "WSUS31 KKCI 280455\nSIGE \nCONVECTIVE SIGMET 46E\nVALID UNTIL 0655Z\nNC AND NC SC CSTL WTRS\nFROM 70SSW ECG-80E ILM-80ESE CHS-50ENE CHS-70SSW ECG\nAREA TS MOV FROM 23020KT. TOPS TO FL420.\n\nOUTLOOK VALID 280655-281055\nFROM 150ENE ACK-200SE ACK-160SE SIE-180ESE ECG-130SSE ILM-210ENE\nPBI-70ENE PBI-40NNE PBI-30N CRG-40W BKW-SAX-150ENE ACK\nWST ISSUANCES EXPD. REFER TO MOST RECENT ACUS01 KWNS FROM STORM\nPREDICTION CENTER FOR SYNOPSIS AND METEOROLOGICAL DETAILS.",
                "validTimeTo": [
                    "2026-08-28T06:55"
                ]
            }
        },
        {
            "type": "Feature",
            "geometry": {
                "type": "Polygon",
                "coordinates": [
                    [
                        [
                            -100.224,
                            32.352
                        ],
                        [
                            -96.366,
                            31.337
                        ],
                        [
                            -97.717,
                            28.135
                        ],
                        [
                            -100.089,
                            28.069
                        ],
                        [
                            -100.77,
                            29.028
                        ],
                        [
                            -100.224,
                            32.352
                        ]
                    ]
                ]
            },
            "properties": {
                "airSigmetId": null,
                "airportIcao": "KKCI",
                "airSigmetType": "SIGMET",
                "hazard": "CONVECTIVE",
                "severity": 5,
                "altitudeLow1": null,
                "altitudeLow2": null,
                "altitudeHi1": 45000,
                "altitudeHi2": 60000,
                "movementDir": 30,
                "movementSpd": 10,
                "rawAirSigmet": "WSUS32 KKCI 280455\nSIGC \nCONVECTIVE SIGMET 22C\nVALID UNTIL 0655Z\nTX\nFROM 20WSW ABI-50ESE ACT-20NW CRP-50NW LRD-20S DLF-20WSW ABI\nAREA TS MOV FROM 03010KT. TOPS ABV FL450.\n\nOUTLOOK VALID 280655-281055\nAREA 1...FROM 60ENE BFF-OBH-ICT-40WSW GCK-40WSW LBB-30NE\nELP-ABQ-60ENE BFF\nWST ISSUANCES EXPD. REFER TO MOST RECENT ACUS01 KWNS FROM STORM\nPREDICTION CENTER FOR SYNOPSIS AND METEOROLOGICAL DETAILS.\nREF WW 635.\n\nAREA 2...FROM SJT-ACT-30WNW LSU-40SW AMG-30WNW PIE-130ESE\nPSX-30NNW LRD-SJT\nWST ISSUANCES EXPD. REFER TO MOST RECENT ACUS01 KWNS FROM STORM\nPREDICTION CENTER FOR SYNOPSIS AND METEOROLOGICAL DETAILS.",
                "validTimeTo": [
                    "2026-08-28T06:55"
                ]
            }
        },
        {
            "type": "Feature",
            "geometry": {
                "type": "Polygon",
                "coordinates": [
                    [
                        [
                            -88.003,
                            30.602
                        ],
                        [
                            -86.903,
                            30.365
                        ],
                        [
                            -87.339,
                            29.442
                        ],
                        [
                            -90.805,
                            29.433
                        ],
                        [
                            -90.889,
                            30.124
                        ],
                        [
                            -88.003,
                            30.602
                        ]
                    ]
                ]
            },
            "properties": {
                "airSigmetId": null,
                "airportIcao": "KKCI",
                "airSigmetType": "SIGMET",
                "hazard": "CONVECTIVE",
                "severity": 5,
                "altitudeLow1": null,
                "altitudeLow2": null,
                "altitudeHi1": 44000,
                "altitudeHi2": 44000,
                "movementDir": null,
                "movementSpd": null,
                "rawAirSigmet": "WSUS32 KKCI 280455\nSIGC \nCONVECTIVE SIGMET 23C\nVALID UNTIL 0655Z\nFL AL MS LA AND CSTL WTRS\nFROM 20ESE SJI-30SSW CEW-90SSW CEW-40WNW LEV-30SE LSU-20ESE SJI\nAREA TS MOV LTL. TOPS TO FL440.\n\nOUTLOOK VALID 280655-281055\nAREA 1...FROM 60ENE BFF-OBH-ICT-40WSW GCK-40WSW LBB-30NE\nELP-ABQ-60ENE BFF\nWST ISSUANCES EXPD. REFER TO MOST RECENT ACUS01 KWNS FROM STORM\nPREDICTION CENTER FOR SYNOPSIS AND METEOROLOGICAL DETAILS.\nREF WW 635.\n\nAREA 2...FROM SJT-ACT-30WNW LSU-40SW AMG-30WNW PIE-130ESE\nPSX-30NNW LRD-SJT\nWST ISSUANCES EXPD. REFER TO MOST RECENT ACUS01 KWNS FROM STORM\nPREDICTION CENTER FOR SYNOPSIS AND METEOROLOGICAL DETAILS.",
                "validTimeTo": [
                    "2026-08-28T06:55"
                ]
            }
        },
        {
            "type": "Feature",
            "geometry": {
                "type": "Polygon",
                "coordinates": [
                    [
                        [
                            -104.62,
                            33.843
                        ],
                        [
                            -104.018,
                            33.339
                        ],
                        [
                            -106.43,
                            32.127
                        ],
                        [
                            -107.091,
                            33.345
                        ],
                        [
                            -104.62,
                            33.843
                        ]
                    ]
                ]
            },
            "properties": {
                "airSigmetId": null,
                "airportIcao": "KKCI",
                "airSigmetType": "SIGMET",
                "hazard": "CONVECTIVE",
                "severity": 5,
                "altitudeLow1": null,
                "altitudeLow2": null,
                "altitudeHi1": 42000,
                "altitudeHi2": 42000,
                "movementDir": 340,
                "movementSpd": 10,
                "rawAirSigmet": "WSUS32 KKCI 280455\nSIGC \nCONVECTIVE SIGMET 24C\nVALID UNTIL 0655Z\nNM\nFROM 30N CME-30E CME-20NNW ELP-10ENE TCS-30N CME\nAREA TS MOV FROM 34010KT. TOPS TO FL420.\n\nOUTLOOK VALID 280655-281055\nAREA 1...FROM 60ENE BFF-OBH-ICT-40WSW GCK-40WSW LBB-30NE\nELP-ABQ-60ENE BFF\nWST ISSUANCES EXPD. REFER TO MOST RECENT ACUS01 KWNS FROM STORM\nPREDICTION CENTER FOR SYNOPSIS AND METEOROLOGICAL DETAILS.\nREF WW 635.\n\nAREA 2...FROM SJT-ACT-30WNW LSU-40SW AMG-30WNW PIE-130ESE\nPSX-30NNW LRD-SJT\nWST ISSUANCES EXPD. REFER TO MOST RECENT ACUS01 KWNS FROM STORM\nPREDICTION CENTER FOR SYNOPSIS AND METEOROLOGICAL DETAILS.",
                "validTimeTo": [
                    "2026-08-28T06:55"
                ]
            }
        },
        {
            "type": "Feature",
            "geometry": {
                "type": "Polygon",
                "coordinates": [
                    [
                        [
                            -105.237,
                            37.156
                        ],
                        [
                            -103.013,
                            36.798
                        ],
                        [
                            -102.256,
                            35.288
                        ],
                        [
                            -105.966,
                            34.332
                        ],
                        [
                            -107.012,
                            34.975
                        ],
                        [
                            -105.237,
                            37.156
                        ]
                    ]
                ]
            },
            "properties": {
                "airSigmetId": null,
                "airportIcao": "KKCI",
                "airSigmetType": "SIGMET",
                "hazard": "CONVECTIVE",
                "severity": 5,
                "altitudeLow1": null,
                "altitudeLow2": null,
                "altitudeHi1": 45000,
                "altitudeHi2": 60000,
                "movementDir": 330,
                "movementSpd": 15,
                "rawAirSigmet": "WSUS33 KKCI 280455\nSIGW \nCONVECTIVE SIGMET 26W\nVALID UNTIL 0655Z\nTX OK CO NM\nFROM 30ESE ALS-40SE TBE-30W AMA-60SE ABQ-10WSW ABQ-30ESE ALS\nAREA TS MOV FROM 33015KT. TOPS ABV FL450.\n\nOUTLOOK VALID 280655-281055\nAREA 1...FROM 40S YQL-70NE GGW-30WSW MLS-JNC-60NNE TBC-ELY-40S\nYQL\nWST ISSUANCES EXPD. REFER TO MOST RECENT ACUS01 KWNS FROM STORM\nPREDICTION CENTER FOR SYNOPSIS AND METEOROLOGICAL DETAILS.\n\nAREA 2...FROM 30NW ABQ-70SSW DMN-50S TUS-100W TUS-DRK-30NW ABQ\nWST ISSUANCES POSS. REFER TO MOST RECENT ACUS01 KWNS FROM STORM\nPREDICTION CENTER FOR SYNOPSIS AND METEOROLOGICAL DETAILS.",
                "validTimeTo": [
                    "2026-08-28T06:55"
                ]
            }
        },
        {
            "type": "Feature",
            "geometry": {
                "type": "Polygon",
                "coordinates": [
                    [
                        [
                            -100.623,
                            42.098
                        ],
                        [
                            -96.851,
                            41.99
                        ],
                        [
                            -95.202,
                            39.645
                        ],
                        [
                            -99.954,
                            37.663
                        ],
                        [
                            -102.771,
                            39.385
                        ],
                        [
                            -100.623,
                            42.098
                        ]
                    ]
                ]
            },
            "properties": {
                "airSigmetId": null,
                "airportIcao": "KKCI",
                "airSigmetType": "SIGMET",
                "hazard": "CONVECTIVE",
                "severity": 5,
                "altitudeLow1": null,
                "altitudeLow2": null,
                "altitudeHi1": 45000,
                "altitudeHi2": 60000,
                "movementDir": 340,
                "movementSpd": 15,
                "rawAirSigmet": "WSUS32 KKCI 280455\nSIGC \nCONVECTIVE SIGMET 25C\nVALID UNTIL 0655Z\nKS NE CO\nFROM 40SW ANW-70NW OVR-30NW MCI-40ESE GCK-50W GLD-40SW ANW\nAREA SEV TS MOV FROM 34015KT. TOPS ABV FL450.\nHAIL TO 1.5 IN...WIND GUSTS TO 75KT POSS.\n\nOUTLOOK VALID 280655-281055\nAREA 1...FROM 60ENE BFF-OBH-ICT-40WSW GCK-40WSW LBB-30NE\nELP-ABQ-60ENE BFF\nWST ISSUANCES EXPD. REFER TO MOST RECENT ACUS01 KWNS FROM STORM\nPREDICTION CENTER FOR SYNOPSIS AND METEOROLOGICAL DETAILS.\nREF WW 635.\n\nAREA 2...FROM SJT-ACT-30WNW LSU-40SW AMG-30WNW PIE-130ESE\nPSX-30NNW LRD-SJT\nWST ISSUANCES EXPD. REFER TO MOST RECENT ACUS01 KWNS FROM STORM\nPREDICTION CENTER FOR SYNOPSIS AND METEOROLOGICAL DETAILS.",
                "validTimeTo": [
                    "2026-08-28T06:55"
                ]
            }
        },
        {
            "type": "Feature",
            "geometry": {
                "type": "Polygon",
                "coordinates": [
                    [
                        [
                            -111.967,
                            42.555
                        ],
                        [
                            -110.93,
                            39.893
                        ],
                        [
                            -112.263,
                            38.835
                        ],
                        [
                            -113.76,
                            41.727
                        ],
                        [
                            -111.967,
                            42.555
                        ]
                    ]
                ]
            },
            "properties": {
                "airSigmetId": null,
                "airportIcao": "KKCI",
                "airSigmetType": "SIGMET",
                "hazard": "CONVECTIVE",
                "severity": 5,
                "altitudeLow1": null,
                "altitudeLow2": null,
                "altitudeHi1": 35000,
                "altitudeHi2": 35000,
                "movementDir": 240,
                "movementSpd": 25,
                "rawAirSigmet": "WSUS33 KKCI 280455\nSIGW \nCONVECTIVE SIGMET 27W\nVALID UNTIL 0655Z\nUT ID\nFROM 30NE MLD-40WSW MTU-30SSE DTA-60N BVL-30NE MLD\nAREA TS MOV FROM 24025KT. TOPS TO FL350.\n\nOUTLOOK VALID 280655-281055\nAREA 1...FROM 40S YQL-70NE GGW-30WSW MLS-JNC-60NNE TBC-ELY-40S\nYQL\nWST ISSUANCES EXPD. REFER TO MOST RECENT ACUS01 KWNS FROM STORM\nPREDICTION CENTER FOR SYNOPSIS AND METEOROLOGICAL DETAILS.\n\nAREA 2...FROM 30NW ABQ-70SSW DMN-50S TUS-100W TUS-DRK-30NW ABQ\nWST ISSUANCES POSS. REFER TO MOST RECENT ACUS01 KWNS FROM STORM\nPREDICTION CENTER FOR SYNOPSIS AND METEOROLOGICAL DETAILS.",
                "validTimeTo": [
                    "2026-08-28T06:55"
                ]
            }
        },
        {
            "type": "Feature",
            "geometry": {
                "type": "Polygon",
                "coordinates": [
                    [
                        [
                            -106.63,
                            49.055
                        ],
                        [
                            -107.393,
                            45.075
                        ],
                        [
                            -111.72,
                            46.675
                        ],
                        [
                            -111.414,
                            48.975
                        ],
                        [
                            -106.63,
                            49.055
                        ]
                    ]
                ]
            },
            "properties": {
                "airSigmetId": null,
                "airportIcao": "KKCI",
                "airSigmetType": "SIGMET",
                "hazard": "CONVECTIVE",
                "severity": 5,
                "altitudeLow1": null,
                "altitudeLow2": null,
                "altitudeHi1": 40000,
                "altitudeHi2": 40000,
                "movementDir": 250,
                "movementSpd": 30,
                "rawAirSigmet": "WSUS33 KKCI 280455\nSIGW \nCONVECTIVE SIGMET 28W\nVALID UNTIL 0655Z\nMT\nFROM 50N GGW-20NW SHR-10ENE HLN-70WNW HVR-50N GGW\nAREA TS MOV FROM 25030KT. TOPS TO FL400.\n\nOUTLOOK VALID 280655-281055\nAREA 1...FROM 40S YQL-70NE GGW-30WSW MLS-JNC-60NNE TBC-ELY-40S\nYQL\nWST ISSUANCES EXPD. REFER TO MOST RECENT ACUS01 KWNS FROM STORM\nPREDICTION CENTER FOR SYNOPSIS AND METEOROLOGICAL DETAILS.\n\nAREA 2...FROM 30NW ABQ-70SSW DMN-50S TUS-100W TUS-DRK-30NW ABQ\nWST ISSUANCES POSS. REFER TO MOST RECENT ACUS01 KWNS FROM STORM\nPREDICTION CENTER FOR SYNOPSIS AND METEOROLOGICAL DETAILS.",
                "validTimeTo": [
                    "2026-08-28T06:55"
                ]
            }
        },
        {
            "type": "Feature",
            "geometry": {
                "type": "Polygon",
                "coordinates": [
                    [
                        [
                            -111.835,
                            45.248
                        ],
                        [
                            -107.718,
                            45.031
                        ],
                        [
                            -107.364,
                            43.996
                        ],
                        [
                            -109.936,
                            42.887
                        ],
                        [
                            -111.809,
                            43.121
                        ],
                        [
                            -111.835,
                            45.248
                        ]
                    ]
                ]
            },
            "properties": {
                "airSigmetId": null,
                "airportIcao": "KKCI",
                "airSigmetType": "SIGMET",
                "hazard": "CONVECTIVE",
                "severity": 5,
                "altitudeLow1": null,
                "altitudeLow2": null,
                "altitudeHi1": 36000,
                "altitudeHi2": 36000,
                "movementDir": 240,
                "movementSpd": 20,
                "rawAirSigmet": "WSUS33 KKCI 280455\nSIGW \nCONVECTIVE SIGMET 29W\nVALID UNTIL 0655Z\nMT WY ID\nFROM 30E DLN-30WNW SHR-40W CZI-20NNE BPI-40ENE PIH-30E DLN\nAREA TS MOV FROM 24020KT. TOPS TO FL360.\n\nOUTLOOK VALID 280655-281055\nAREA 1...FROM 40S YQL-70NE GGW-30WSW MLS-JNC-60NNE TBC-ELY-40S\nYQL\nWST ISSUANCES EXPD. REFER TO MOST RECENT ACUS01 KWNS FROM STORM\nPREDICTION CENTER FOR SYNOPSIS AND METEOROLOGICAL DETAILS.\n\nAREA 2...FROM 30NW ABQ-70SSW DMN-50S TUS-100W TUS-DRK-30NW ABQ\nWST ISSUANCES POSS. REFER TO MOST RECENT ACUS01 KWNS FROM STORM\nPREDICTION CENTER FOR SYNOPSIS AND METEOROLOGICAL DETAILS.",
                "validTimeTo": [
                    "2026-08-28T06:55"
                ]
            }
        },
        {
            "type": "Feature",
            "geometry": {
                "type": "Polygon",
                "coordinates": [
                    [
                        [
                            -110.8,
                            34.063
                        ],
                        [
                            -109.14,
                            33.585
                        ],
                        [
                            -108.813,
                            31.348
                        ],
                        [
                            -110.094,
                            31.392
                        ],
                        [
                            -111.47,
                            32.291
                        ],
                        [
                            -110.8,
                            34.063
                        ]
                    ]
                ]
            },
            "properties": {
                "airSigmetId": null,
                "airportIcao": "KKCI",
                "airSigmetType": "SIGMET",
                "hazard": "CONVECTIVE",
                "severity": 5,
                "altitudeLow1": null,
                "altitudeLow2": null,
                "altitudeHi1": 42000,
                "altitudeHi2": 42000,
                "movementDir": 110,
                "movementSpd": 5,
                "rawAirSigmet": "WSUS33 KKCI 280455\nSIGW \nCONVECTIVE SIGMET 30W\nVALID UNTIL 0655Z\nNM AZ\nFROM 60S INW-50S SJN-60SSE SSO-60SE TUS-30WNW TUS-60S INW\nAREA TS MOV FROM 11005KT. TOPS TO FL420.\n\nOUTLOOK VALID 280655-281055\nAREA 1...FROM 40S YQL-70NE GGW-30WSW MLS-JNC-60NNE TBC-ELY-40S\nYQL\nWST ISSUANCES EXPD. REFER TO MOST RECENT ACUS01 KWNS FROM STORM\nPREDICTION CENTER FOR SYNOPSIS AND METEOROLOGICAL DETAILS.\n\nAREA 2...FROM 30NW ABQ-70SSW DMN-50S TUS-100W TUS-DRK-30NW ABQ\nWST ISSUANCES POSS. REFER TO MOST RECENT ACUS01 KWNS FROM STORM\nPREDICTION CENTER FOR SYNOPSIS AND METEOROLOGICAL DETAILS.",
                "validTimeTo": [
                    "2026-08-28T06:55"
                ]
            }
        },
        {
            "type": "Feature",
            "geometry": {
                "type": "Polygon",
                "coordinates": [
                    [
                        [
                            -78.83,
                            39.817
                        ],
                        [
                            -78.118,
                            39.105
                        ],
                        [
                            -80.92,
                            37.845
                        ],
                        [
                            -81.445,
                            38.394
                        ],
                        [
                            -78.83,
                            39.817
                        ]
                    ]
                ]
            },
            "properties": {
                "airSigmetId": null,
                "airportIcao": "KKCI",
                "airSigmetType": "SIGMET",
                "hazard": "CONVECTIVE",
                "severity": 5,
                "altitudeLow1": null,
                "altitudeLow2": null,
                "altitudeHi1": 38000,
                "altitudeHi2": 38000,
                "movementDir": 250,
                "movementSpd": 20,
                "rawAirSigmet": "WSUS31 KKCI 280455\nSIGE \nCONVECTIVE SIGMET 47E\nVALID UNTIL 0655Z\nPA MD VA WV\nFROM 30S JST-30NNW CSN-10ENE BKW-40NNW BKW-30S JST\nAREA TS MOV FROM 25020KT. TOPS TO FL380.\n\nOUTLOOK VALID 280655-281055\nFROM 150ENE ACK-200SE ACK-160SE SIE-180ESE ECG-130SSE ILM-210ENE\nPBI-70ENE PBI-40NNE PBI-30N CRG-40W BKW-SAX-150ENE ACK\nWST ISSUANCES EXPD. REFER TO MOST RECENT ACUS01 KWNS FROM STORM\nPREDICTION CENTER FOR SYNOPSIS AND METEOROLOGICAL DETAILS.",
                "validTimeTo": [
                    "2026-08-28T06:55"
                ]
            }
        },
        {
            "type": "Feature",
            "geometry": {
                "type": "Polygon",
                "coordinates": [
                    [
                        [
                            -79.693,
                            38.147
                        ],
                        [
                            -77.87,
                            38.137
                        ],
                        [
                            -78.913,
                            36.635
                        ],
                        [
                            -83.867,
                            34.891
                        ],
                        [
                            -84.651,
                            36.152
                        ],
                        [
                            -79.693,
                            38.147
                        ]
                    ]
                ]
            },
            "properties": {
                "airSigmetId": null,
                "airportIcao": "KKCI",
                "airSigmetType": "SIGMET",
                "hazard": "CONVECTIVE",
                "severity": 5,
                "altitudeLow1": null,
                "altitudeLow2": null,
                "altitudeHi1": 45000,
                "altitudeHi2": 45000,
                "movementDir": 250,
                "movementSpd": 10,
                "rawAirSigmet": "WSUS31 KKCI 280455\nSIGE \nCONVECTIVE SIGMET 48E\nVALID UNTIL 0655Z\nVA NC WV GA TN KY\nFROM 50SSE EKN-30S CSN-40SSE LYH-30WNW ODF-40WNW VXV-50SSE EKN\nAREA TS MOV FROM 25010KT. TOPS TO FL450.\n\nOUTLOOK VALID 280655-281055\nFROM 150ENE ACK-200SE ACK-160SE SIE-180ESE ECG-130SSE ILM-210ENE\nPBI-70ENE PBI-40NNE PBI-30N CRG-40W BKW-SAX-150ENE ACK\nWST ISSUANCES EXPD. REFER TO MOST RECENT ACUS01 KWNS FROM STORM\nPREDICTION CENTER FOR SYNOPSIS AND METEOROLOGICAL DETAILS.",
                "validTimeTo": [
                    "2026-08-28T06:55"
                ]
            }
        },
        {
            "type": "Feature",
            "geometry": {
                "type": "Polygon",
                "coordinates": [
                    [
                        [
                            -78.586,
                            32.373
                        ],
                        [
                            -77.865,
                            32.108
                        ],
                        [
                            -78.634,
                            25.791
                        ],
                        [
                            -79.906,
                            25.444
                        ],
                        [
                            -78.586,
                            32.373
                        ]
                    ]
                ]
            },
            "properties": {
                "airSigmetId": null,
                "airportIcao": "KKCI",
                "airSigmetType": "SIGMET",
                "hazard": "CONVECTIVE",
                "severity": 5,
                "altitudeLow1": null,
                "altitudeLow2": null,
                "altitudeHi1": 35000,
                "altitudeHi2": 35000,
                "movementDir": null,
                "movementSpd": null,
                "rawAirSigmet": "WSUS31 KKCI 280455\nSIGE \nCONVECTIVE SIGMET 49E\nVALID UNTIL 0655Z\nFL SC GA CSTL WTRS\nFROM 80ESE CHS-120ESE CHS-90E MIA-30SE MIA-80ESE CHS\nAREA TS MOV LTL. TOPS TO FL350.\n\nOUTLOOK VALID 280655-281055\nFROM 150ENE ACK-200SE ACK-160SE SIE-180ESE ECG-130SSE ILM-210ENE\nPBI-70ENE PBI-40NNE PBI-30N CRG-40W BKW-SAX-150ENE ACK\nWST ISSUANCES EXPD. REFER TO MOST RECENT ACUS01 KWNS FROM STORM\nPREDICTION CENTER FOR SYNOPSIS AND METEOROLOGICAL DETAILS.",
                "validTimeTo": [
                    "2026-08-28T06:55"
                ]
            }
        }
    ],
    "metadata": {
        "creationTime": "2026-08-28T05:12"
    }
}