{
    "type": "FeatureCollection",
    "features": [
        {
            "type": "Feature",
            "geometry": {
                "type": "Polygon",
                "coordinates": [
                    [
                        [
                            -95.034,
                            34.593
                        ],
                        [
                            -91.726,
                            33.134
                        ],
                        [
                            -92.274,
                            31.725
                        ],
                        [
                            -95.719,
                            31.591
                        ],
                        [
                            -97.735,
                            33.739
                        ],
                        [
                            -95.034,
                            34.593
                        ]
                    ]
                ]
            },
            "properties": {
                "airSigmetId": null,
                "airportIcao": "KKCI",
                "airSigmetType": "SIGMET",
                "hazard": "CONVECTIVE",
                "severity": 5,
                "altitudeLow1": null,
                "altitudeLow2": null,
                "altitudeHi1": 43000,
                "altitudeHi2": 43000,
                "movementDir": 340,
                "movementSpd": 30,
                "rawAirSigmet": "WSUS32 KKCI 251055\nSIGC \nCONVECTIVE SIGMET 59C\nVALID UNTIL 1255Z\nLA AR TX OK\nFROM 40ESE MLC-40NNE MLU-30NNE AEX-70SW GGG-40SW ADM-40ESE MLC\nAREA TS MOV FROM 34030KT. TOPS TO FL430.\n\nOUTLOOK VALID 251255-251655\nAREA 1...FROM RZC-BNA-VUZ-MCB-50WSW LSU-60ENE CWK-40WSW\nTTT-ADM-RZC\nWST ISSUANCES POSS. REFER TO MOST RECENT ACUS01 KWNS FROM STORM\nPREDICTION CENTER FOR SYNOPSIS AND METEOROLOGICAL DETAILS.\n\nAREA 2...FROM 40N FOD-40S MCW-DSM-SLN-70E GCK-LAA-50SW ANW-40N\nFOD\nWST ISSUANCES POSS. REFER TO MOST RECENT ACUS01 KWNS FROM STORM\nPREDICTION CENTER FOR SYNOPSIS AND METEOROLOGICAL DETAILS.\n\nAREA 3...FROM CEW-210S CEW-80SE LEV-120SSW LCH-80SSW LSU-CEW\nWST ISSUANCES POSS. REFER TO MOST RECENT ACUS01 KWNS FROM STORM\nPREDICTION CENTER FOR SYNOPSIS AND METEOROLOGICAL DETAILS.\n\nAREA 4...FROM INL-30SSE YQT-70E DLH-40N BRD-INL\nWST ISSUANCES POSS. REFER TO MOST RECENT ACUS01 KWNS FROM STORM\nPREDICTION CENTER FOR SYNOPSIS AND METEOROLOGICAL DETAILS.",
                "validTimeTo": [
                    "2026-08-25T12:55"
                ]
            }
        },
        {
            "type": "Feature",
            "geometry": {
                "type": "Polygon",
                "coordinates": [
                    [
                        [
                            -93.4,
                            48.902
                        ],
                        [
                            -90.24,
                            48.112
                        ],
                        [
                            -92.104,
                            46.958
                        ],
                        [
                            -94.841,
                            47.459
                        ],
                        [
                            -93.4,
                            48.902
                        ]
                    ]
                ]
            },
            "properties": {
                "airSigmetId": null,
                "airportIcao": "KKCI",
                "airSigmetType": "SIGMET",
                "hazard": "CONVECTIVE",
                "severity": 5,
                "altitudeLow1": null,
                "altitudeLow2": null,
                "altitudeHi1": 45000,
                "altitudeHi2": 60000,
                "movementDir": 280,
                "movementSpd": 25,
                "rawAirSigmet": "WSUS32 KKCI 251055\nSIGC \nCONVECTIVE SIGMET 60C\nVALID UNTIL 1255Z\nMN\nFROM 20N INL-40WSW YQT-10NNE DLH-10SE BJI-20N INL\nAREA TS MOV FROM 28025KT. TOPS ABV FL450.\n\nOUTLOOK VALID 251255-251655\nAREA 1...FROM RZC-BNA-VUZ-MCB-50WSW LSU-60ENE CWK-40WSW\nTTT-ADM-RZC\nWST ISSUANCES POSS. REFER TO MOST RECENT ACUS01 KWNS FROM STORM\nPREDICTION CENTER FOR SYNOPSIS AND METEOROLOGICAL DETAILS.\n\nAREA 2...FROM 40N FOD-40S MCW-DSM-SLN-70E GCK-LAA-50SW ANW-40N\nFOD\nWST ISSUANCES POSS. REFER TO MOST RECENT ACUS01 KWNS FROM STORM\nPREDICTION CENTER FOR SYNOPSIS AND METEOROLOGICAL DETAILS.\n\nAREA 3...FROM CEW-210S CEW-80SE LEV-120SSW LCH-80SSW LSU-CEW\nWST ISSUANCES POSS. REFER TO MOST RECENT ACUS01 KWNS FROM STORM\nPREDICTION CENTER FOR SYNOPSIS AND METEOROLOGICAL DETAILS.\n\nAREA 4...FROM INL-30SSE YQT-70E DLH-40N BRD-INL\nWST ISSUANCES POSS. REFER TO MOST RECENT ACUS01 KWNS FROM STORM\nPREDICTION CENTER FOR SYNOPSIS AND METEOROLOGICAL DETAILS.",
                "validTimeTo": [
                    "2026-08-25T12:55"
                ]
            }
        },
        {
            "type": "Feature",
            "geometry": {
                "type": "Polygon",
                "coordinates": [
                    [
                        [
                            -98.69,
                            43.305
                        ],
                        [
                            -97.237,
                            41.375
                        ],
                        [
                            -99.31,
                            39.961
                        ],
                        [
                            -102.55,
                            39.387
                        ],
                        [
                            -101.817,
                            42.387
                        ],
                        [
                            -98.69,
                            43.305
                        ]
                    ]
                ]
            },
            "properties": {
                "airSigmetId": null,
                "airportIcao": "KKCI",
                "airSigmetType": "SIGMET",
                "hazard": "CONVECTIVE",
                "severity": 5,
                "altitudeLow1": null,
                "altitudeLow2": null,
                "altitudeHi1": 45000,
                "altitudeHi2": 60000,
                "movementDir": 300,
                "movementSpd": 25,
                "rawAirSigmet": "WSUS32 KKCI 251055\nSIGC \nCONVECTIVE SIGMET 61C\nVALID UNTIL 1255Z\nKS NE SD CO\nFROM 50N ONL-50E OBH-60NE HLC-40W GLD-80ENE BFF-50N ONL\nAREA TS MOV FROM 30025KT. TOPS ABV FL450.\n\nOUTLOOK VALID 251255-251655\nAREA 1...FROM RZC-BNA-VUZ-MCB-50WSW LSU-60ENE CWK-40WSW\nTTT-ADM-RZC\nWST ISSUANCES POSS. REFER TO MOST RECENT ACUS01 KWNS FROM STORM\nPREDICTION CENTER FOR SYNOPSIS AND METEOROLOGICAL DETAILS.\n\nAREA 2...FROM 40N FOD-40S MCW-DSM-SLN-70E GCK-LAA-50SW ANW-40N\nFOD\nWST ISSUANCES POSS. REFER TO MOST RECENT ACUS01 KWNS FROM STORM\nPREDICTION CENTER FOR SYNOPSIS AND METEOROLOGICAL DETAILS.\n\nAREA 3...FROM CEW-210S CEW-80SE LEV-120SSW LCH-80SSW LSU-CEW\nWST ISSUANCES POSS. REFER TO MOST RECENT ACUS01 KWNS FROM STORM\nPREDICTION CENTER FOR SYNOPSIS AND METEOROLOGICAL DETAILS.\n\nAREA 4...FROM INL-30SSE YQT-70E DLH-40N BRD-INL\nWST ISSUANCES POSS. REFER TO MOST RECENT ACUS01 KWNS FROM STORM\nPREDICTION CENTER FOR SYNOPSIS AND METEOROLOGICAL DETAILS.",
                "validTimeTo": [
                    "2026-08-25T12:55"
                ]
            }
        },
        {
            "type": "Feature",
            "geometry": {
                "type": "Polygon",
                "coordinates": [
                    [
                        [
                            -72.472,
                            36.193
                        ],
                        [
                            -72.614,
                            34.987
                        ],
                        [
                            -75.915,
                            32.689
                        ],
                        [
                            -75.659,
                            33.567
                        ],
                        [
                            -72.472,
                            36.193
                        ]
                    ]
                ]
            },
            "properties": {
                "airSigmetId": null,
                "airportIcao": "KKCI",
                "airSigmetType": "SIGMET",
                "hazard": "CONVECTIVE",
                "severity": 5,
                "altitudeLow1": null,
                "altitudeLow2": null,
                "altitudeHi1": 45000,
                "altitudeHi2": 60000,
                "movementDir": 240,
                "movementSpd": 20,
                "rawAirSigmet": "WSUS31 KKCI 251055\nSIGE \nCONVECTIVE SIGMET 55E\nVALID UNTIL 1255Z\nNC CSTL WTRS\nFROM 180E ECG-190ESE ECG-140SE ILM-120ESE ILM-180E ECG\nAREA TS MOV FROM 24020KT. TOPS ABV FL450.\nREF INTL SIGMET INDIA SERIES.\n\nOUTLOOK VALID 251255-251655\nAREA 1...FROM 160SE SIE-190ESE ECG-160SSE ILM-210ENE PBI-70E\nPBI-CRG-80E CHS-100SSE ECG-160SE SIE\nWST ISSUANCES POSS. REFER TO MOST RECENT ACUS01 KWNS FROM STORM\nPREDICTION CENTER FOR SYNOPSIS AND METEOROLOGICAL DETAILS.\n\nAREA 2...FROM CEW-CRG-70E PBI-80ESE MIA-150SE MIA-80WSW EYW-90WSW\nPIE-210S CEW-CEW\nWST ISSUANCES POSS. REFER TO MOST RECENT ACUS01 KWNS FROM STORM\nPREDICTION CENTER FOR SYNOPSIS AND METEOROLOGICAL DETAILS.\n\nAREA 3...FROM 150ESE ACK-200SE ACK-170S ACK-150ESE ACK\nWST ISSUANCES POSS. REFER TO MOST RECENT ACUS01 KWNS FROM STORM\nPREDICTION CENTER FOR SYNOPSIS AND METEOROLOGICAL DETAILS.",
                "validTimeTo": [
                    "2026-08-25T12:55"
                ]
            }
        },
        {
            "type": "Feature",
            "geometry": {
                "type": "Polygon",
                "coordinates": [
                    [
                        [
                            -78.214,
                            28.49
                        ],
                        [
                            -78.709,
                            27.182
                        ],
                        [
                            -80.09,
                            27.324
                        ],
                        [
                            -80.087,
                            28.035
                        ],
                        [
                            -78.214,
                            28.49
                        ]
                    ]
                ]
            },
            "properties": {
                "airSigmetId": null,
                "airportIcao": "KKCI",
                "airSigmetType": "SIGMET",
                "hazard": "CONVECTIVE",
                "severity": 5,
                "altitudeLow1": null,
                "altitudeLow2": null,
                "altitudeHi1": 43000,
                "altitudeHi2": 43000,
                "movementDir": 260,
                "movementSpd": 15,
                "rawAirSigmet": "WSUS31 KKCI 251055\nSIGE \nCONVECTIVE SIGMET 56E\nVALID UNTIL 1255Z\nFL CSTL WTRS\nFROM 130ENE TRV-80ENE PBI-30SE TRV-30NE TRV-130ENE TRV\nAREA TS MOV FROM 26015KT. TOPS TO FL430.\n\nOUTLOOK VALID 251255-251655\nAREA 1...FROM 160SE SIE-190ESE ECG-160SSE ILM-210ENE PBI-70E\nPBI-CRG-80E CHS-100SSE ECG-160SE SIE\nWST ISSUANCES POSS. REFER TO MOST RECENT ACUS01 KWNS FROM STORM\nPREDICTION CENTER FOR SYNOPSIS AND METEOROLOGICAL DETAILS.\n\nAREA 2...FROM CEW-CRG-70E PBI-80ESE MIA-150SE MIA-80WSW EYW-90WSW\nPIE-210S CEW-CEW\nWST ISSUANCES POSS. REFER TO MOST RECENT ACUS01 KWNS FROM STORM\nPREDICTION CENTER FOR SYNOPSIS AND METEOROLOGICAL DETAILS.\n\nAREA 3...FROM 150ESE ACK-200SE ACK-170S ACK-150ESE ACK\nWST ISSUANCES POSS. REFER TO MOST RECENT ACUS01 KWNS FROM STORM\nPREDICTION CENTER FOR SYNOPSIS AND METEOROLOGICAL DETAILS.",
                "validTimeTo": [
                    "2026-08-25T12:55"
                ]
            }
        },
        {
            "type": "Feature",
            "geometry": {
                "type": "Polygon",
                "coordinates": [
                    [
                        [
                            -80.09,
                            26.68
                        ],
                        [
                            -78.721,
                            26.165
                        ],
                        [
                            -78.367,
                            24.021
                        ],
                        [
                            -80.455,
                            24.075
                        ],
                        [
                            -80.09,
                            26.68
                        ]
                    ]
                ]
            },
            "properties": {
                "airSigmetId": null,
                "airportIcao": "KKCI",
                "airSigmetType": "SIGMET",
                "hazard": "CONVECTIVE",
                "severity": 5,
                "altitudeLow1": null,
                "altitudeLow2": null,
                "altitudeHi1": 45000,
                "altitudeHi2": 60000,
                "movementDir": 60,
                "movementSpd": 15,
                "rawAirSigmet": "WSUS31 KKCI 251055\nSIGE \nCONVECTIVE SIGMET 57E\nVALID UNTIL 1255Z\nFL AND CSTL WTRS\nFROM PBI-80ESE PBI-150SE MIA-80ESE EYW-PBI\nAREA TS MOV FROM 06015KT. TOPS ABV FL450.\n\nOUTLOOK VALID 251255-251655\nAREA 1...FROM 160SE SIE-190ESE ECG-160SSE ILM-210ENE PBI-70E\nPBI-CRG-80E CHS-100SSE ECG-160SE SIE\nWST ISSUANCES POSS. REFER TO MOST RECENT ACUS01 KWNS FROM STORM\nPREDICTION CENTER FOR SYNOPSIS AND METEOROLOGICAL DETAILS.\n\nAREA 2...FROM CEW-CRG-70E PBI-80ESE MIA-150SE MIA-80WSW EYW-90WSW\nPIE-210S CEW-CEW\nWST ISSUANCES POSS. REFER TO MOST RECENT ACUS01 KWNS FROM STORM\nPREDICTION CENTER FOR SYNOPSIS AND METEOROLOGICAL DETAILS.\n\nAREA 3...FROM 150ESE ACK-200SE ACK-170S ACK-150ESE ACK\nWST ISSUANCES POSS. REFER TO MOST RECENT ACUS01 KWNS FROM STORM\nPREDICTION CENTER FOR SYNOPSIS AND METEOROLOGICAL DETAILS.",
                "validTimeTo": [
                    "2026-08-25T12:55"
                ]
            }
        },
        {
            "type": "Feature",
            "geometry": {
                "type": "Polygon",
                "coordinates": [
                    [
                        [
                            -87.049,
                            30.058
                        ],
                        [
                            -81.11,
                            29.632
                        ],
                        [
                            -82.55,
                            27.4
                        ],
                        [
                            -86.68,
                            27.506
                        ],
                        [
                            -87.049,
                            30.058
                        ]
                    ]
                ]
            },
            "properties": {
                "airSigmetId": null,
                "airportIcao": "KKCI",
                "airSigmetType": "SIGMET",
                "hazard": "CONVECTIVE",
                "severity": 5,
                "altitudeLow1": null,
                "altitudeLow2": null,
                "altitudeHi1": 45000,
                "altitudeHi2": 60000,
                "movementDir": null,
                "movementSpd": null,
                "rawAirSigmet": "WSUS31 KKCI 251055\nSIGE \nCONVECTIVE SIGMET 58E\nVALID UNTIL 1255Z\nFL AND CSTL WTRS\nFROM 50SSW CEW-20N OMN-SRQ-200S CEW-50SSW CEW\nAREA TS MOV LTL. TOPS ABV FL450.\n\nOUTLOOK VALID 251255-251655\nAREA 1...FROM 160SE SIE-190ESE ECG-160SSE ILM-210ENE PBI-70E\nPBI-CRG-80E CHS-100SSE ECG-160SE SIE\nWST ISSUANCES POSS. REFER TO MOST RECENT ACUS01 KWNS FROM STORM\nPREDICTION CENTER FOR SYNOPSIS AND METEOROLOGICAL DETAILS.\n\nAREA 2...FROM CEW-CRG-70E PBI-80ESE MIA-150SE MIA-80WSW EYW-90WSW\nPIE-210S CEW-CEW\nWST ISSUANCES POSS. REFER TO MOST RECENT ACUS01 KWNS FROM STORM\nPREDICTION CENTER FOR SYNOPSIS AND METEOROLOGICAL DETAILS.\n\nAREA 3...FROM 150ESE ACK-200SE ACK-170S ACK-150ESE ACK\nWST ISSUANCES POSS. REFER TO MOST RECENT ACUS01 KWNS FROM STORM\nPREDICTION CENTER FOR SYNOPSIS AND METEOROLOGICAL DETAILS.",
                "validTimeTo": [
                    "2026-08-25T12:55"
                ]
            }
        }
    ],
    "metadata": {
        "creationTime": "2026-08-25T11:34"
    }
}