{
    "type": "FeatureCollection",
    "features": [
        {
            "type": "Feature",
            "geometry": {
                "type": "Polygon",
                "coordinates": [
                    [
                        [
                            -85.713,
                            47.086
                        ],
                        [
                            -84.982,
                            47.136
                        ],
                        [
                            -84.789,
                            45.844
                        ],
                        [
                            -85.519,
                            45.793
                        ],
                        [
                            -85.713,
                            47.086
                        ]
                    ]
                ]
            },
            "properties": {
                "airSigmetId": null,
                "airportIcao": "KKCI",
                "airSigmetType": "SIGMET",
                "hazard": "CONVECTIVE",
                "severity": 5,
                "altitudeLow1": null,
                "altitudeLow2": null,
                "altitudeHi1": 36000,
                "altitudeHi2": null,
                "movementDir": 270,
                "movementSpd": 35,
                "rawAirSigmet": "WSUS31 KKCI 062055\nMKCE WST 062055\nCONVECTIVE SIGMET 50E\nVALID UNTIL 2255Z\nMI LS LM\nFROM 60NW SSM-50SW SSM\nLINE TS 30 NM WIDE MOV FROM 27035KT. TOPS TO FL360.\n\n",
                "validTimeTo": [
                    "2026-10-06T22:55"
                ]
            }
        },
        {
            "type": "Feature",
            "geometry": {
                "type": "Polygon",
                "coordinates": [
                    [
                        [
                            -114.974,
                            39.39
                        ],
                        [
                            -114.33,
                            39.339
                        ],
                        [
                            -114.452,
                            38.419
                        ],
                        [
                            -114.099,
                            37.861
                        ],
                        [
                            -114.681,
                            37.641
                        ],
                        [
                            -115.115,
                            38.328
                        ],
                        [
                            -114.974,
                            39.39
                        ]
                    ]
                ]
            },
            "properties": {
                "airSigmetId": null,
                "airportIcao": "KKCI",
                "airSigmetType": "SIGMET",
                "hazard": "CONVECTIVE",
                "severity": 5,
                "altitudeLow1": null,
                "altitudeLow2": null,
                "altitudeHi1": 32000,
                "altitudeHi2": null,
                "movementDir": null,
                "movementSpd": 0,
                "rawAirSigmet": "WSUS33 KKCI 062055\nMKCW WST 062055\nCONVECTIVE SIGMET 30W\nVALID UNTIL 2255Z\nUT NV\nFROM 10ENE ELY-20WNW ILC-30S ILC\nDVLPG LINE TS 30 NM WIDE MOV LTL. TOPS TO FL320.\n\n",
                "validTimeTo": [
                    "2026-10-06T22:55"
                ]
            }
        },
        {
            "type": "Feature",
            "geometry": {
                "type": "Polygon",
                "coordinates": [
                    [
                        [
                            -86.68,
                            29.665
                        ],
                        [
                            -82.064,
                            29.297
                        ],
                        [
                            -81.34,
                            27.875
                        ],
                        [
                            -82.434,
                            25.94
                        ],
                        [
                            -84.775,
                            26.537
                        ],
                        [
                            -86.68,
                            29.665
                        ]
                    ]
                ]
            },
            "properties": {
                "airSigmetId": null,
                "airportIcao": "KKCI",
                "airSigmetType": "SIGMET",
                "hazard": "CONVECTIVE",
                "severity": 5,
                "altitudeLow1": null,
                "altitudeLow2": null,
                "altitudeHi1": 45000,
                "altitudeHi2": null,
                "movementDir": 270,
                "movementSpd": 15,
                "rawAirSigmet": "WSUS31 KKCI 062055\nMKCE WST 062055\nCONVECTIVE SIGMET 49E\nVALID UNTIL 2255Z\nFL AND CSTL WTRS\nFROM 70S CEW-50W OMN-40S ORL-50SW RSW-130WSW SRQ-70S CEW\nAREA TS MOV FROM 27015KT. TOPS ABV FL450.\n\n",
                "validTimeTo": [
                    "2026-10-06T22:55"
                ]
            }
        },
        {
            "type": "Feature",
            "geometry": {
                "type": "Polygon",
                "coordinates": [
                    [
                        [
                            -94.747,
                            28.166
                        ],
                        [
                            -93.11,
                            27.977
                        ],
                        [
                            -95.345,
                            25.906
                        ],
                        [
                            -96.455,
                            25.917
                        ],
                        [
                            -96.788,
                            27.31
                        ],
                        [
                            -94.747,
                            28.166
                        ]
                    ]
                ]
            },
            "properties": {
                "airSigmetId": null,
                "airportIcao": "KKCI",
                "airSigmetType": "SIGMET",
                "hazard": "CONVECTIVE",
                "severity": 5,
                "altitudeLow1": null,
                "altitudeLow2": null,
                "altitudeHi1": 40000,
                "altitudeHi2": null,
                "movementDir": 50,
                "movementSpd": 10,
                "rawAirSigmet": "WSUS32 KKCI 062055\nMKCC WST 062055\nCONVECTIVE SIGMET 20C\nVALID UNTIL 2255Z\nTX CSTL WTRS\nFROM 90ESE PSX-130S LCH-110E BRO-50E BRO-50SE CRP-90ESE PSX\nAREA TS MOV FROM 05010KT. TOPS TO FL400.\nREF INTL SIGMET HOTEL SERIES.\n\n",
                "validTimeTo": [
                    "2026-10-06T22:55"
                ]
            }
        },
        {
            "type": "Feature",
            "geometry": {
                "type": "Polygon",
                "coordinates": [
                    [
                        [
                            -110.241,
                            41.193
                        ],
                        [
                            -109.718,
                            40.921
                        ],
                        [
                            -110.741,
                            39.678
                        ],
                        [
                            -111.371,
                            41.043
                        ],
                        [
                            -110.241,
                            41.193
                        ]
                    ]
                ]
            },
            "properties": {
                "airSigmetId": null,
                "airportIcao": "KKCI",
                "airSigmetType": "SIGMET",
                "hazard": "CONVECTIVE",
                "severity": 5,
                "altitudeLow1": null,
                "altitudeLow2": null,
                "altitudeHi1": 35000,
                "altitudeHi2": null,
                "movementDir": 240,
                "movementSpd": 10,
                "rawAirSigmet": "WSUS33 KKCI 062055\nMKCW WST 062055\nCONVECTIVE SIGMET 27W\nVALID UNTIL 2255Z\nWY UT\nFROM 60WSW OCS-50NNE MTU-40SW MTU-30ENE SLC-60WSW OCS\nAREA TS MOV FROM 24010KT. TOPS TO FL350.\n\n",
                "validTimeTo": [
                    "2026-10-06T22:55"
                ]
            }
        },
        {
            "type": "Feature",
            "geometry": {
                "type": "Polygon",
                "coordinates": [
                    [
                        [
                            -107.554,
                            40.057
                        ],
                        [
                            -105.093,
                            39.809
                        ],
                        [
                            -105.208,
                            38.027
                        ],
                        [
                            -106.285,
                            36.424
                        ],
                        [
                            -108.766,
                            37.504
                        ],
                        [
                            -107.554,
                            40.057
                        ]
                    ]
                ]
            },
            "properties": {
                "airSigmetId": null,
                "airportIcao": "KKCI",
                "airSigmetType": "SIGMET",
                "hazard": "CONVECTIVE",
                "severity": 5,
                "altitudeLow1": null,
                "altitudeLow2": null,
                "altitudeHi1": 42000,
                "altitudeHi2": null,
                "movementDir": null,
                "movementSpd": 0,
                "rawAirSigmet": "WSUS33 KKCI 062055\nMKCW WST 062055\nCONVECTIVE SIGMET 28W\nVALID UNTIL 2255Z\nCO NM\nFROM 30SSW CHE-20W DEN-40WSW PUB-60SSW ALS-20SSE DVC-30SSW CHE\nAREA TS MOV LTL. TOPS TO FL420.\n\n",
                "validTimeTo": [
                    "2026-10-06T22:55"
                ]
            }
        },
        {
            "type": "Feature",
            "geometry": {
                "type": "Polygon",
                "coordinates": [
                    [
                        [
                            -111.337,
                            38.418
                        ],
                        [
                            -110.7,
                            37.422
                        ],
                        [
                            -112.036,
                            36.367
                        ],
                        [
                            -113.351,
                            37.685
                        ],
                        [
                            -111.337,
                            38.418
                        ]
                    ]
                ]
            },
            "properties": {
                "airSigmetId": null,
                "airportIcao": "KKCI",
                "airSigmetType": "SIGMET",
                "hazard": "CONVECTIVE",
                "severity": 5,
                "altitudeLow1": null,
                "altitudeLow2": null,
                "altitudeHi1": 32000,
                "altitudeHi2": null,
                "movementDir": 260,
                "movementSpd": 10,
                "rawAirSigmet": "WSUS33 KKCI 062055\nMKCW WST 062055\nCONVECTIVE SIGMET 29W\nVALID UNTIL 2255Z\nAZ UT\nFROM 30W HVE-60S HVE-40WNW TBC-50W BCE-30W HVE\nAREA TS MOV FROM 26010KT. TOPS TO FL320.\n\n",
                "validTimeTo": [
                    "2026-10-06T22:55"
                ]
            }
        },
        {
            "type": "Feature",
            "geometry": {
                "type": "Polygon",
                "coordinates": [
                    [
                        [
                            -80.961,
                            28.539
                        ],
                        [
                            -79.688,
                            28.384
                        ],
                        [
                            -79.295,
                            27.384
                        ],
                        [
                            -80.979,
                            25.538
                        ],
                        [
                            -81.78,
                            26.863
                        ],
                        [
                            -80.961,
                            28.539
                        ]
                    ]
                ]
            },
            "properties": {
                "airSigmetId": null,
                "airportIcao": "KKCI",
                "airSigmetType": "SIGMET",
                "hazard": "CONVECTIVE",
                "severity": 5,
                "altitudeLow1": null,
                "altitudeLow2": null,
                "altitudeHi1": 45000,
                "altitudeHi2": null,
                "movementDir": 250,
                "movementSpd": 10,
                "rawAirSigmet": "WSUS31 KKCI 062055\nMKCE WST 062055\nCONVECTIVE SIGMET 48E\nVALID UNTIL 2255Z\nFL AND CSTL WTRS\nFROM 20E ORL-60NE TRV-60NE PBI-40WSW MIA-20N RSW-20E ORL\nAREA TS MOV FROM 25010KT. TOPS TO FL450.\n\n",
                "validTimeTo": [
                    "2026-10-06T22:55"
                ]
            }
        }
    ],
    "metadata": {
        "creationTime": "2026-10-06T21:33"
    }
}