{
    "type": "FeatureCollection",
    "features": [
        {
            "type": "Feature",
            "geometry": {
                "type": "Polygon",
                "coordinates": [
                    [
                        [
                            -78.385,
                            31.467
                        ],
                        [
                            -76.978,
                            31.748
                        ],
                        [
                            -76.99,
                            28.936
                        ],
                        [
                            -80.262,
                            30.789
                        ],
                        [
                            -78.385,
                            31.467
                        ]
                    ]
                ]
            },
            "properties": {
                "airSigmetId": null,
                "airportIcao": "KKCI",
                "airSigmetType": "SIGMET",
                "hazard": "CONVECTIVE",
                "severity": 5,
                "altitudeLow1": null,
                "altitudeLow2": null,
                "altitudeHi1": 34000,
                "altitudeHi2": null,
                "movementDir": null,
                "movementSpd": 0,
                "rawAirSigmet": "WSUS31 KKCI 060955\nMKCE WST 060955\nCONVECTIVE SIGMET 23E\nVALID UNTIL 1155Z\nFL GA CSTL WTRS\nFROM 120SE CHS-170ESE CHS-200ENE TRV-70ENE CRG-120SE CHS\nAREA EMBD TS MOV LTL. TOPS TO FL340.\n\n",
                "validTimeTo": [
                    "2026-10-06T11:55"
                ]
            }
        },
        {
            "type": "Feature",
            "geometry": {
                "type": "Polygon",
                "coordinates": [
                    [
                        [
                            -85.503,
                            27.881
                        ],
                        [
                            -83.888,
                            27.45
                        ],
                        [
                            -83.991,
                            26.099
                        ],
                        [
                            -85.453,
                            26.265
                        ],
                        [
                            -85.503,
                            27.881
                        ]
                    ]
                ]
            },
            "properties": {
                "airSigmetId": null,
                "airportIcao": "KKCI",
                "airSigmetType": "SIGMET",
                "hazard": "CONVECTIVE",
                "severity": 5,
                "altitudeLow1": null,
                "altitudeLow2": null,
                "altitudeHi1": 32000,
                "altitudeHi2": null,
                "movementDir": 290,
                "movementSpd": 15,
                "rawAirSigmet": "WSUS31 KKCI 060955\nMKCE WST 060955\nCONVECTIVE SIGMET 24E\nVALID UNTIL 1155Z\nFL CSTL WTRS\nFROM 150W PIE-70WSW PIE-110SW SRQ-170WSW SRQ-150W PIE\nAREA TS MOV FROM 29015KT. TOPS TO FL320.\n\n",
                "validTimeTo": [
                    "2026-10-06T11:55"
                ]
            }
        },
        {
            "type": "Feature",
            "geometry": {
                "type": "Polygon",
                "coordinates": [
                    [
                        [
                            -82.689,
                            30.371
                        ],
                        [
                            -82.68,
                            28.243
                        ],
                        [
                            -84.751,
                            27.895
                        ],
                        [
                            -85.999,
                            30.24
                        ],
                        [
                            -82.689,
                            30.371
                        ]
                    ]
                ]
            },
            "properties": {
                "airSigmetId": null,
                "airportIcao": "KKCI",
                "airSigmetType": "SIGMET",
                "hazard": "CONVECTIVE",
                "severity": 5,
                "altitudeLow1": null,
                "altitudeLow2": null,
                "altitudeHi1": 45000,
                "altitudeHi2": null,
                "movementDir": 270,
                "movementSpd": 15,
                "rawAirSigmet": "WSUS31 KKCI 060955\nMKCE WST 060955\nCONVECTIVE SIGMET 25E\nVALID UNTIL 1155Z\nFL AND CSTL WTRS\nFROM 50NNE CTY-20N PIE-110W PIE-50SE CEW-50NNE CTY\nAREA TS MOV FROM 27015KT. TOPS ABV FL450.\n\n",
                "validTimeTo": [
                    "2026-10-06T11:55"
                ]
            }
        },
        {
            "type": "Feature",
            "geometry": {
                "type": "Polygon",
                "coordinates": [
                    [
                        [
                            -112.657,
                            42.135
                        ],
                        [
                            -113.155,
                            39.298
                        ],
                        [
                            -114.766,
                            39.147
                        ],
                        [
                            -114.49,
                            42.147
                        ],
                        [
                            -112.657,
                            42.135
                        ]
                    ]
                ]
            },
            "properties": {
                "airSigmetId": null,
                "airportIcao": "KKCI",
                "airSigmetType": "SIGMET",
                "hazard": "CONVECTIVE",
                "severity": 5,
                "altitudeLow1": null,
                "altitudeLow2": null,
                "altitudeHi1": 34000,
                "altitudeHi2": null,
                "movementDir": null,
                "movementSpd": 0,
                "rawAirSigmet": "WSUS33 KKCI 060955\nMKCW WST 060955\nCONVECTIVE SIGMET 11W\nVALID UNTIL 1155Z\nUT ID NV\nFROM 10WSW MLD-30W DTA-10SSE ELY-20S TWF-10WSW MLD\nAREA TS MOV LTL. TOPS TO FL340.\n\n",
                "validTimeTo": [
                    "2026-10-06T11:55"
                ]
            }
        }
    ],
    "metadata": {
        "creationTime": "2026-10-06T10:03"
    }
}