{
    "type": "FeatureCollection",
    "features": [
        {
            "type": "Feature",
            "geometry": {
                "type": "Polygon",
                "coordinates": [
                    [
                        [
                            -94.803,
                            48.943
                        ],
                        [
                            -92.935,
                            48.696
                        ],
                        [
                            -88.273,
                            47.66
                        ],
                        [
                            -89.914,
                            46.401
                        ],
                        [
                            -94.03,
                            46.853
                        ],
                        [
                            -94.803,
                            48.943
                        ]
                    ]
                ]
            },
            "properties": {
                "airSigmetId": null,
                "airportIcao": "KKCI",
                "airSigmetType": "SIGMET",
                "hazard": "CONVECTIVE",
                "severity": 5,
                "altitudeLow1": null,
                "altitudeLow2": null,
                "altitudeHi1": 45000,
                "altitudeHi2": 60000,
                "movementDir": 290,
                "movementSpd": 30,
                "rawAirSigmet": "WSUS32 KKCI 250655\nSIGC \nCONVECTIVE SIGMET 26C\nVALID UNTIL 0855Z\nMI WI MN LS\nFROM 60WNW INL-20ENE INL-60SE YQT-50NNW RHI-30N BRD-60WNW INL\nAREA TS MOV FROM 29030KT. TOPS ABV FL450.\n\nOUTLOOK VALID 250855-251255\nAREA 1...FROM BDF-TTH-50SSW BNA-60NE DYR-30SSE COU-IRK-BDF\nWST ISSUANCES POSS. REFER TO MOST RECENT ACUS01 KWNS FROM STORM\nPREDICTION CENTER FOR SYNOPSIS AND METEOROLOGICAL DETAILS.\n\nAREA 2...FROM 80NE GFK-40E YQT-80NNE SAW-60E GRB-50NE MSP-80NE\nGFK\nWST ISSUANCES EXPD. REFER TO MOST RECENT ACUS01 KWNS FROM STORM\nPREDICTION CENTER FOR SYNOPSIS AND METEOROLOGICAL DETAILS.",
                "validTimeTo": [
                    "2026-07-25T08:55"
                ]
            }
        },
        {
            "type": "Feature",
            "geometry": {
                "type": "Polygon",
                "coordinates": [
                    [
                        [
                            -75.43,
                            37.142
                        ],
                        [
                            -72.061,
                            36.179
                        ],
                        [
                            -74.831,
                            31.727
                        ],
                        [
                            -76.818,
                            32.196
                        ],
                        [
                            -75.43,
                            37.142
                        ]
                    ]
                ]
            },
            "properties": {
                "airSigmetId": null,
                "airportIcao": "KKCI",
                "airSigmetType": "SIGMET",
                "hazard": "CONVECTIVE",
                "severity": 5,
                "altitudeLow1": null,
                "altitudeLow2": null,
                "altitudeHi1": 45000,
                "altitudeHi2": 60000,
                "movementDir": 240,
                "movementSpd": 15,
                "rawAirSigmet": "WSUS31 KKCI 250655\nSIGE \nCONVECTIVE SIGMET 30E\nVALID UNTIL 0855Z\nNC AND NC VA SC CSTL WTRS\nFROM 40ENE ORF-200E ECG-220SE ILM-140SSE ILM-40ENE ORF\nAREA EMBD TS MOV FROM 24015KT. TOPS ABV FL450.\nREF INTL SIGMET BRAVO SERIES.\n\nOUTLOOK VALID 250855-251255\nAREA 1...FROM SIE-200SSE ACK-150SE SIE-190ESE ECG-130SSE\nILM-210ENE PBI-160SE MIA-MIA-CRG-RDU-SIE\nWST ISSUANCES EXPD. REFER TO MOST RECENT ACUS01 KWNS FROM STORM\nPREDICTION CENTER FOR SYNOPSIS AND METEOROLOGICAL DETAILS.\n\nAREA 2...FROM 80NNE SAW-60NNE ASP-60ESE GRB-80NNE SAW\nWST ISSUANCES POSS. REFER TO MOST RECENT ACUS01 KWNS FROM STORM\nPREDICTION CENTER FOR SYNOPSIS AND METEOROLOGICAL DETAILS.\n\nAREA 3...FROM TTH-40SSE IND-60WNW VXV-50WSW GQO-40SSW BNA-TTH\nWST ISSUANCES POSS. REFER TO MOST RECENT ACUS01 KWNS FROM STORM\nPREDICTION CENTER FOR SYNOPSIS AND METEOROLOGICAL DETAILS.",
                "validTimeTo": [
                    "2026-07-25T08:55"
                ]
            }
        },
        {
            "type": "Feature",
            "geometry": {
                "type": "Polygon",
                "coordinates": [
                    [
                        [
                            -83.05,
                            29.097
                        ],
                        [
                            -82.55,
                            26.735
                        ],
                        [
                            -83.993,
                            26.097
                        ],
                        [
                            -84.754,
                            27.894
                        ],
                        [
                            -83.05,
                            29.097
                        ]
                    ]
                ]
            },
            "properties": {
                "airSigmetId": null,
                "airportIcao": "KKCI",
                "airSigmetType": "SIGMET",
                "hazard": "CONVECTIVE",
                "severity": 5,
                "altitudeLow1": null,
                "altitudeLow2": null,
                "altitudeHi1": 45000,
                "altitudeHi2": 60000,
                "movementDir": 120,
                "movementSpd": 10,
                "rawAirSigmet": "WSUS31 KKCI 250655\nSIGE \nCONVECTIVE SIGMET 31E\nVALID UNTIL 0855Z\nFL AND CSTL WTRS\nFROM 30S CTY-40S SRQ-110SW SRQ-110W PIE-30S CTY\nAREA TS MOV FROM 12010KT. TOPS ABV FL450.\n\nOUTLOOK VALID 250855-251255\nAREA 1...FROM SIE-200SSE ACK-150SE SIE-190ESE ECG-130SSE\nILM-210ENE PBI-160SE MIA-MIA-CRG-RDU-SIE\nWST ISSUANCES EXPD. REFER TO MOST RECENT ACUS01 KWNS FROM STORM\nPREDICTION CENTER FOR SYNOPSIS AND METEOROLOGICAL DETAILS.\n\nAREA 2...FROM 80NNE SAW-60NNE ASP-60ESE GRB-80NNE SAW\nWST ISSUANCES POSS. REFER TO MOST RECENT ACUS01 KWNS FROM STORM\nPREDICTION CENTER FOR SYNOPSIS AND METEOROLOGICAL DETAILS.\n\nAREA 3...FROM TTH-40SSE IND-60WNW VXV-50WSW GQO-40SSW BNA-TTH\nWST ISSUANCES POSS. REFER TO MOST RECENT ACUS01 KWNS FROM STORM\nPREDICTION CENTER FOR SYNOPSIS AND METEOROLOGICAL DETAILS.",
                "validTimeTo": [
                    "2026-07-25T08:55"
                ]
            }
        },
        {
            "type": "Feature",
            "geometry": {
                "type": "Polygon",
                "coordinates": [
                    [
                        [
                            -81.678,
                            27.717
                        ],
                        [
                            -81.182,
                            27.424
                        ],
                        [
                            -81.707,
                            26.372
                        ],
                        [
                            -82.407,
                            27.093
                        ],
                        [
                            -81.678,
                            27.717
                        ]
                    ]
                ]
            },
            "properties": {
                "airSigmetId": null,
                "airportIcao": "KKCI",
                "airSigmetType": "SIGMET",
                "hazard": "CONVECTIVE",
                "severity": 5,
                "altitudeLow1": null,
                "altitudeLow2": null,
                "altitudeHi1": 42000,
                "altitudeHi2": 42000,
                "movementDir": 120,
                "movementSpd": 15,
                "rawAirSigmet": "WSUS31 KKCI 250655\nSIGE \nCONVECTIVE SIGMET 32E\nVALID UNTIL 0855Z\nFL\nFROM 50ENE SRQ-40WSW TRV-10SSE RSW-20SSE SRQ-50ENE SRQ\nAREA TS MOV FROM 12015KT. TOPS TO FL420.\n\nOUTLOOK VALID 250855-251255\nAREA 1...FROM SIE-200SSE ACK-150SE SIE-190ESE ECG-130SSE\nILM-210ENE PBI-160SE MIA-MIA-CRG-RDU-SIE\nWST ISSUANCES EXPD. REFER TO MOST RECENT ACUS01 KWNS FROM STORM\nPREDICTION CENTER FOR SYNOPSIS AND METEOROLOGICAL DETAILS.\n\nAREA 2...FROM 80NNE SAW-60NNE ASP-60ESE GRB-80NNE SAW\nWST ISSUANCES POSS. REFER TO MOST RECENT ACUS01 KWNS FROM STORM\nPREDICTION CENTER FOR SYNOPSIS AND METEOROLOGICAL DETAILS.\n\nAREA 3...FROM TTH-40SSE IND-60WNW VXV-50WSW GQO-40SSW BNA-TTH\nWST ISSUANCES POSS. REFER TO MOST RECENT ACUS01 KWNS FROM STORM\nPREDICTION CENTER FOR SYNOPSIS AND METEOROLOGICAL DETAILS.",
                "validTimeTo": [
                    "2026-07-25T08:55"
                ]
            }
        },
        {
            "type": "Feature",
            "geometry": {
                "type": "Polygon",
                "coordinates": [
                    [
                        [
                            -78.463,
                            29.431
                        ],
                        [
                            -76.743,
                            26.641
                        ],
                        [
                            -77.758,
                            24.822
                        ],
                        [
                            -79.931,
                            25.8
                        ],
                        [
                            -80.767,
                            28.539
                        ],
                        [
                            -78.463,
                            29.431
                        ]
                    ]
                ]
            },
            "properties": {
                "airSigmetId": null,
                "airportIcao": "KKCI",
                "airSigmetType": "SIGMET",
                "hazard": "CONVECTIVE",
                "severity": 5,
                "altitudeLow1": null,
                "altitudeLow2": null,
                "altitudeHi1": 42000,
                "altitudeHi2": 42000,
                "movementDir": 150,
                "movementSpd": 20,
                "rawAirSigmet": "WSUS31 KKCI 250655\nSIGE \nCONVECTIVE SIGMET 33E\nVALID UNTIL 0855Z\nFL AND CSTL WTRS\nFROM 150NE TRV-180E PBI-150ESE MIA-20E MIA-30E ORL-150NE TRV\nDVLPG AREA TS MOV FROM 15020KT. TOPS TO FL420.\n\nOUTLOOK VALID 250855-251255\nAREA 1...FROM SIE-200SSE ACK-150SE SIE-190ESE ECG-130SSE\nILM-210ENE PBI-160SE MIA-MIA-CRG-RDU-SIE\nWST ISSUANCES EXPD. REFER TO MOST RECENT ACUS01 KWNS FROM STORM\nPREDICTION CENTER FOR SYNOPSIS AND METEOROLOGICAL DETAILS.\n\nAREA 2...FROM 80NNE SAW-60NNE ASP-60ESE GRB-80NNE SAW\nWST ISSUANCES POSS. REFER TO MOST RECENT ACUS01 KWNS FROM STORM\nPREDICTION CENTER FOR SYNOPSIS AND METEOROLOGICAL DETAILS.\n\nAREA 3...FROM TTH-40SSE IND-60WNW VXV-50WSW GQO-40SSW BNA-TTH\nWST ISSUANCES POSS. REFER TO MOST RECENT ACUS01 KWNS FROM STORM\nPREDICTION CENTER FOR SYNOPSIS AND METEOROLOGICAL DETAILS.",
                "validTimeTo": [
                    "2026-07-25T08:55"
                ]
            }
        },
        {
            "type": "Feature",
            "geometry": {
                "type": "Polygon",
                "coordinates": [
                    [
                        [
                            -114.093,
                            40.115
                        ],
                        [
                            -113.053,
                            38.278
                        ],
                        [
                            -114.39,
                            37.253
                        ],
                        [
                            -115.014,
                            38.993
                        ],
                        [
                            -114.093,
                            40.115
                        ]
                    ]
                ]
            },
            "properties": {
                "airSigmetId": null,
                "airportIcao": "KKCI",
                "airSigmetType": "SIGMET",
                "hazard": "CONVECTIVE",
                "severity": 5,
                "altitudeLow1": null,
                "altitudeLow2": null,
                "altitudeHi1": 39000,
                "altitudeHi2": 39000,
                "movementDir": 220,
                "movementSpd": 15,
                "rawAirSigmet": "WSUS33 KKCI 250655\nSIGW \nCONVECTIVE SIGMET 41W\nVALID UNTIL 0855Z\nUT NV\nFROM 40SSW BVL-50NW BCE-60S ILC-20SSW ELY-40SSW BVL\nAREA TS MOV FROM 22015KT. TOPS TO FL390.\n\nOUTLOOK VALID 250855-251255\nTS ARE NOT EXPD TO REQUIRE WST ISSUANCES.",
                "validTimeTo": [
                    "2026-07-25T08:55"
                ]
            }
        },
        {
            "type": "Feature",
            "geometry": {
                "type": "Polygon",
                "coordinates": [
                    [
                        [
                            -106.396,
                            46.506
                        ],
                        [
                            -105.95,
                            45.545
                        ],
                        [
                            -107.334,
                            45.304
                        ],
                        [
                            -107.516,
                            46.124
                        ],
                        [
                            -106.396,
                            46.506
                        ]
                    ]
                ]
            },
            "properties": {
                "airSigmetId": null,
                "airportIcao": "KKCI",
                "airSigmetType": "SIGMET",
                "hazard": "CONVECTIVE",
                "severity": 5,
                "altitudeLow1": null,
                "altitudeLow2": null,
                "altitudeHi1": 41000,
                "altitudeHi2": 41000,
                "movementDir": 250,
                "movementSpd": 30,
                "rawAirSigmet": "WSUS33 KKCI 250655\nSIGW \nCONVECTIVE SIGMET 42W\nVALID UNTIL 0855Z\nMT\nFROM 20WNW MLS-50S MLS-30NNW SHR-50ENE BIL-20WNW MLS\nDMSHG AREA TS MOV FROM 25030KT. TOPS TO FL410.\n\nOUTLOOK VALID 250855-251255\nTS ARE NOT EXPD TO REQUIRE WST ISSUANCES.",
                "validTimeTo": [
                    "2026-07-25T08:55"
                ]
            }
        },
        {
            "type": "Feature",
            "geometry": {
                "type": "Polygon",
                "coordinates": [
                    [
                        [
                            -114.862,
                            40.725
                        ],
                        [
                            -114.765,
                            39.458
                        ],
                        [
                            -117.617,
                            38.121
                        ],
                        [
                            -118.26,
                            38.92
                        ],
                        [
                            -116.31,
                            40.376
                        ],
                        [
                            -114.862,
                            40.725
                        ]
                    ]
                ]
            },
            "properties": {
                "airSigmetId": null,
                "airportIcao": "KKCI",
                "airSigmetType": "SIGMET",
                "hazard": "CONVECTIVE",
                "severity": 5,
                "altitudeLow1": null,
                "altitudeLow2": null,
                "altitudeHi1": 37000,
                "altitudeHi2": 37000,
                "movementDir": 200,
                "movementSpd": 10,
                "rawAirSigmet": "WSUS33 KKCI 250655\nSIGW \nCONVECTIVE SIGMET 43W\nVALID UNTIL 0855Z\nNV\nFROM 50W BVL-10NNE ELY-10NE OAL-60NNW OAL-30ESE BAM-50W BVL\nDMSHG AREA TS MOV FROM 20010KT. TOPS TO FL370.\n\nOUTLOOK VALID 250855-251255\nTS ARE NOT EXPD TO REQUIRE WST ISSUANCES.",
                "validTimeTo": [
                    "2026-07-25T08:55"
                ]
            }
        },
        {
            "type": "Feature",
            "geometry": {
                "type": "Polygon",
                "coordinates": [
                    [
                        [
                            -109.557,
                            36.741
                        ],
                        [
                            -108.65,
                            35.67
                        ],
                        [
                            -110.514,
                            34.825
                        ],
                        [
                            -111.378,
                            35.529
                        ],
                        [
                            -110.828,
                            36.475
                        ],
                        [
                            -109.557,
                            36.741
                        ]
                    ]
                ]
            },
            "properties": {
                "airSigmetId": null,
                "airportIcao": "KKCI",
                "airSigmetType": "SIGMET",
                "hazard": "CONVECTIVE",
                "severity": 5,
                "altitudeLow1": null,
                "altitudeLow2": null,
                "altitudeHi1": 37000,
                "altitudeHi2": 37000,
                "movementDir": null,
                "movementSpd": null,
                "rawAirSigmet": "WSUS33 KKCI 250655\nSIGW \nCONVECTIVE SIGMET 44W\nVALID UNTIL 0855Z\nNM AZ\nFROM 70W RSK-70SSW RSK-20SE INW-40NW INW-30NE TBC-70W RSK\nDMSHG AREA TS MOV LTL. TOPS TO FL370.\n\nOUTLOOK VALID 250855-251255\nTS ARE NOT EXPD TO REQUIRE WST ISSUANCES.",
                "validTimeTo": [
                    "2026-07-25T08:55"
                ]
            }
        }
    ],
    "metadata": {
        "creationTime": "2026-07-25T07:23"
    }
}