{
    "type": "FeatureCollection",
    "features": [
        {
            "type": "Feature",
            "geometry": {
                "type": "Polygon",
                "coordinates": [
                    [
                        [
                            -85.416,
                            40.98
                        ],
                        [
                            -85.379,
                            38.165
                        ],
                        [
                            -89.163,
                            35.713
                        ],
                        [
                            -97.261,
                            37.135
                        ],
                        [
                            -92.985,
                            39.408
                        ],
                        [
                            -85.416,
                            40.98
                        ]
                    ]
                ]
            },
            "properties": {
                "airSigmetId": null,
                "airportIcao": "KKCI",
                "airSigmetType": "SIGMET",
                "hazard": "CONVECTIVE",
                "severity": 5,
                "altitudeLow1": null,
                "altitudeLow2": null,
                "altitudeHi1": 45000,
                "altitudeHi2": 60000,
                "movementDir": 280,
                "movementSpd": 35,
                "rawAirSigmet": "WSUS32 KKCI 191255\nSIGC \nCONVECTIVE SIGMET 60C\nVALID UNTIL 1455Z\nTN KY IN IL MO AR OK KS\nFROM 10W FWA-10ENE IIU-20SSE DYR-40SSE ICT-50NW COU-10W FWA\nAREA EMBD TS MOV FROM 28035KT. TOPS ABV FL450.\n\nOUTLOOK VALID 191455-191855\nFROM 60NNE PIR-50NNW RWF-50ENE OVR-40S IND-60ESE DYR-40SE\nLAA-60NE PUB-40NNE HLC-60NNE PIR\nWST ISSUANCES EXPD. REFER TO MOST RECENT ACUS01 KWNS FROM STORM\nPREDICTION CENTER FOR SYNOPSIS AND METEOROLOGICAL DETAILS.",
                "validTimeTo": [
                    "2026-08-19T14:55"
                ]
            }
        },
        {
            "type": "Feature",
            "geometry": {
                "type": "Polygon",
                "coordinates": [
                    [
                        [
                            -98.35,
                            40.877
                        ],
                        [
                            -92.985,
                            39.408
                        ],
                        [
                            -97.261,
                            37.135
                        ],
                        [
                            -105.021,
                            38.096
                        ],
                        [
                            -106.9,
                            39.44
                        ],
                        [
                            -98.35,
                            40.877
                        ]
                    ]
                ]
            },
            "properties": {
                "airSigmetId": null,
                "airportIcao": "KKCI",
                "airSigmetType": "SIGMET",
                "hazard": "CONVECTIVE",
                "severity": 5,
                "altitudeLow1": null,
                "altitudeLow2": null,
                "altitudeHi1": 45000,
                "altitudeHi2": 60000,
                "movementDir": 280,
                "movementSpd": 40,
                "rawAirSigmet": "WSUS32 KKCI 191255\nSIGC \nCONVECTIVE SIGMET 61C\nVALID UNTIL 1455Z\nMO KS NE CO\nFROM 30S OBH-50NW COU-40SSE ICT-30WSW PUB-DBL-30S OBH\nAREA EMBD TS MOV FROM 28040KT. TOPS ABV FL450.\n\nOUTLOOK VALID 191455-191855\nFROM 60NNE PIR-50NNW RWF-50ENE OVR-40S IND-60ESE DYR-40SE\nLAA-60NE PUB-40NNE HLC-60NNE PIR\nWST ISSUANCES EXPD. REFER TO MOST RECENT ACUS01 KWNS FROM STORM\nPREDICTION CENTER FOR SYNOPSIS AND METEOROLOGICAL DETAILS.",
                "validTimeTo": [
                    "2026-08-19T14:55"
                ]
            }
        },
        {
            "type": "Feature",
            "geometry": {
                "type": "Polygon",
                "coordinates": [
                    [
                        [
                            -99.691,
                            45.794
                        ],
                        [
                            -94.676,
                            45.241
                        ],
                        [
                            -96.559,
                            41.421
                        ],
                        [
                            -100.619,
                            42.376
                        ],
                        [
                            -99.691,
                            45.794
                        ]
                    ]
                ]
            },
            "properties": {
                "airSigmetId": null,
                "airportIcao": "KKCI",
                "airSigmetType": "SIGMET",
                "hazard": "CONVECTIVE",
                "severity": 5,
                "altitudeLow1": null,
                "altitudeLow2": null,
                "altitudeHi1": 45000,
                "altitudeHi2": 60000,
                "movementDir": 280,
                "movementSpd": 25,
                "rawAirSigmet": "WSUS32 KKCI 191255\nSIGC \nCONVECTIVE SIGMET 62C\nVALID UNTIL 1455Z\nMN IA NE SD\nFROM 60WNW ABR-50NNE RWF-40WNW OVR-30WSW ANW-60WNW ABR\nAREA TS MOV FROM 28025KT. TOPS ABV FL450.\n\nOUTLOOK VALID 191455-191855\nFROM 60NNE PIR-50NNW RWF-50ENE OVR-40S IND-60ESE DYR-40SE\nLAA-60NE PUB-40NNE HLC-60NNE PIR\nWST ISSUANCES EXPD. REFER TO MOST RECENT ACUS01 KWNS FROM STORM\nPREDICTION CENTER FOR SYNOPSIS AND METEOROLOGICAL DETAILS.",
                "validTimeTo": [
                    "2026-08-19T14:55"
                ]
            }
        },
        {
            "type": "Feature",
            "geometry": {
                "type": "Polygon",
                "coordinates": [
                    [
                        [
                            -88.36,
                            29.895
                        ],
                        [
                            -87.846,
                            29.65
                        ],
                        [
                            -88.382,
                            29.169
                        ],
                        [
                            -88.762,
                            29.397
                        ],
                        [
                            -88.36,
                            29.895
                        ]
                    ]
                ]
            },
            "properties": {
                "airSigmetId": null,
                "airportIcao": "KKCI",
                "airSigmetType": "SIGMET",
                "hazard": "CONVECTIVE",
                "severity": 5,
                "altitudeLow1": null,
                "altitudeLow2": null,
                "altitudeHi1": 39000,
                "altitudeHi2": 39000,
                "movementDir": null,
                "movementSpd": null,
                "rawAirSigmet": "WSUS32 KKCI 191255\nSIGC \nCONVECTIVE SIGMET 63C\nVALID UNTIL 1455Z\nAL MS CSTL WTRS\nFROM 50S SJI-70SSE SJI-90E LEV-70ESE HRV-50S SJI\nAREA TS MOV LTL. TOPS TO FL390.\n\nOUTLOOK VALID 191455-191855\nFROM 60NNE PIR-50NNW RWF-50ENE OVR-40S IND-60ESE DYR-40SE\nLAA-60NE PUB-40NNE HLC-60NNE PIR\nWST ISSUANCES EXPD. REFER TO MOST RECENT ACUS01 KWNS FROM STORM\nPREDICTION CENTER FOR SYNOPSIS AND METEOROLOGICAL DETAILS.",
                "validTimeTo": [
                    "2026-08-19T14:55"
                ]
            }
        },
        {
            "type": "Feature",
            "geometry": {
                "type": "Polygon",
                "coordinates": [
                    [
                        [
                            -84.37,
                            29.392
                        ],
                        [
                            -84.257,
                            28.475
                        ],
                        [
                            -84.937,
                            27.892
                        ],
                        [
                            -85.881,
                            27.873
                        ],
                        [
                            -84.37,
                            29.392
                        ]
                    ]
                ]
            },
            "properties": {
                "airSigmetId": null,
                "airportIcao": "KKCI",
                "airSigmetType": "SIGMET",
                "hazard": "CONVECTIVE",
                "severity": 5,
                "altitudeLow1": null,
                "altitudeLow2": null,
                "altitudeHi1": 35000,
                "altitudeHi2": 35000,
                "movementDir": 320,
                "movementSpd": 10,
                "rawAirSigmet": "WSUS31 KKCI 191255\nSIGE \nCONVECTIVE SIGMET 30E\nVALID UNTIL 1455Z\nFL CSTL WTRS\nFROM 70S TLH-90WNW PIE-120W PIE-170W PIE-70S TLH\nAREA EMBD TS MOV FROM 32010KT. TOPS TO FL350.\n\nOUTLOOK VALID 191455-191855\nAREA 1...FROM 60W MGM-40SSW CRG-50SE EYW-80WSW EYW-90SW SRQ-40SSW\nLEV-60W MGM\nWST ISSUANCES POSS. REFER TO MOST RECENT ACUS01 KWNS FROM STORM\nPREDICTION CENTER FOR SYNOPSIS AND METEOROLOGICAL DETAILS.\n\nAREA 2...FROM MSS-50E MSS-50NNW ALB-40SSW SYR-30WNW\nEWC-CLE-BUF-YYZ-40NW SYR-MSS\nWST ISSUANCES POSS. REFER TO MOST RECENT ACUS01 KWNS FROM STORM\nPREDICTION CENTER FOR SYNOPSIS AND METEOROLOGICAL DETAILS.",
                "validTimeTo": [
                    "2026-08-19T14:55"
                ]
            }
        },
        {
            "type": "Feature",
            "geometry": {
                "type": "Polygon",
                "coordinates": [
                    [
                        [
                            -77.316,
                            27.671
                        ],
                        [
                            -77.703,
                            25.77
                        ],
                        [
                            -79.003,
                            25.794
                        ],
                        [
                            -78.531,
                            27.246
                        ],
                        [
                            -77.316,
                            27.671
                        ]
                    ]
                ]
            },
            "properties": {
                "airSigmetId": null,
                "airportIcao": "KKCI",
                "airSigmetType": "SIGMET",
                "hazard": "CONVECTIVE",
                "severity": 5,
                "altitudeLow1": null,
                "altitudeLow2": null,
                "altitudeHi1": 35000,
                "altitudeHi2": 35000,
                "movementDir": null,
                "movementSpd": null,
                "rawAirSigmet": "WSUS31 KKCI 191255\nSIGE \nCONVECTIVE SIGMET 31E\nVALID UNTIL 1455Z\nFL CSTL WTRS\nFROM 160ENE PBI-140ESE PBI-70E MIA-90ENE PBI-160ENE PBI\nAREA EMBD TS MOV LTL. TOPS TO FL350.\n\nOUTLOOK VALID 191455-191855\nAREA 1...FROM 60W MGM-40SSW CRG-50SE EYW-80WSW EYW-90SW SRQ-40SSW\nLEV-60W MGM\nWST ISSUANCES POSS. REFER TO MOST RECENT ACUS01 KWNS FROM STORM\nPREDICTION CENTER FOR SYNOPSIS AND METEOROLOGICAL DETAILS.\n\nAREA 2...FROM MSS-50E MSS-50NNW ALB-40SSW SYR-30WNW\nEWC-CLE-BUF-YYZ-40NW SYR-MSS\nWST ISSUANCES POSS. REFER TO MOST RECENT ACUS01 KWNS FROM STORM\nPREDICTION CENTER FOR SYNOPSIS AND METEOROLOGICAL DETAILS.",
                "validTimeTo": [
                    "2026-08-19T14:55"
                ]
            }
        },
        {
            "type": "Feature",
            "geometry": {
                "type": "Polygon",
                "coordinates": [
                    [
                        [
                            -74.062,
                            45.101
                        ],
                        [
                            -77.002,
                            42.566
                        ],
                        [
                            -79.597,
                            41.833
                        ],
                        [
                            -80.977,
                            42.018
                        ],
                        [
                            -74.943,
                            44.975
                        ],
                        [
                            -74.062,
                            45.101
                        ]
                    ]
                ]
            },
            "properties": {
                "airSigmetId": null,
                "airportIcao": "KKCI",
                "airSigmetType": "SIGMET",
                "hazard": "CONVECTIVE",
                "severity": 5,
                "altitudeLow1": null,
                "altitudeLow2": null,
                "altitudeHi1": 32000,
                "altitudeHi2": 32000,
                "movementDir": 240,
                "movementSpd": 30,
                "rawAirSigmet": "WSUS31 KKCI 191255\nSIGE \nCONVECTIVE SIGMET 32E\nVALID UNTIL 1455Z\nNY PA OH LO LE\nFROM 30ENE MSS-50SW SYR-30SW JHW-30W ERI-10WNW MSS-30ENE MSS\nAREA EMBD TS MOV FROM 24030KT. TOPS TO FL320.\n\nOUTLOOK VALID 191455-191855\nAREA 1...FROM 60W MGM-40SSW CRG-50SE EYW-80WSW EYW-90SW SRQ-40SSW\nLEV-60W MGM\nWST ISSUANCES POSS. REFER TO MOST RECENT ACUS01 KWNS FROM STORM\nPREDICTION CENTER FOR SYNOPSIS AND METEOROLOGICAL DETAILS.\n\nAREA 2...FROM MSS-50E MSS-50NNW ALB-40SSW SYR-30WNW\nEWC-CLE-BUF-YYZ-40NW SYR-MSS\nWST ISSUANCES POSS. REFER TO MOST RECENT ACUS01 KWNS FROM STORM\nPREDICTION CENTER FOR SYNOPSIS AND METEOROLOGICAL DETAILS.",
                "validTimeTo": [
                    "2026-08-19T14:55"
                ]
            }
        }
    ],
    "metadata": {
        "creationTime": "2026-08-19T13:50"
    }
}