{
    "type": "FeatureCollection",
    "features": [
        {
            "type": "Feature",
            "geometry": {
                "type": "Polygon",
                "coordinates": [
                    [
                        [
                            -94.701,
                            44.342
                        ],
                        [
                            -93.751,
                            43.216
                        ],
                        [
                            -96.081,
                            41.784
                        ],
                        [
                            -96.78,
                            42.653
                        ],
                        [
                            -94.701,
                            44.342
                        ]
                    ]
                ]
            },
            "properties": {
                "airSigmetId": null,
                "airportIcao": "KKCI",
                "airSigmetType": "SIGMET",
                "hazard": "CONVECTIVE",
                "severity": 5,
                "altitudeLow1": null,
                "altitudeLow2": null,
                "altitudeHi1": 36000,
                "altitudeHi2": 36000,
                "movementDir": 250,
                "movementSpd": 20,
                "rawAirSigmet": "WSUS32 KKCI 152055\nSIGC \nCONVECTIVE SIGMET 19C\nVALID UNTIL 2255Z\nMN IA NE SD\nFROM 20ESE RWF-20WNW MCW-40NNW OVR-60S FSD-20ESE RWF\nAREA TS MOV FROM 25020KT. TOPS TO FL360.\n\nOUTLOOK VALID 152255-160255\nTS ARE NOT EXPD TO REQUIRE WST ISSUANCES.",
                "validTimeTo": [
                    "2026-08-15T22:55"
                ]
            }
        },
        {
            "type": "Feature",
            "geometry": {
                "type": "Polygon",
                "coordinates": [
                    [
                        [
                            -105.406,
                            45.457
                        ],
                        [
                            -102.227,
                            45.435
                        ],
                        [
                            -102.021,
                            42.328
                        ],
                        [
                            -104.438,
                            42.591
                        ],
                        [
                            -106.44,
                            44.503
                        ],
                        [
                            -105.406,
                            45.457
                        ]
                    ]
                ]
            },
            "properties": {
                "airSigmetId": null,
                "airportIcao": "KKCI",
                "airSigmetType": "SIGMET",
                "hazard": "CONVECTIVE",
                "severity": 5,
                "altitudeLow1": null,
                "altitudeLow2": null,
                "altitudeHi1": 37000,
                "altitudeHi2": 37000,
                "movementDir": 260,
                "movementSpd": 20,
                "rawAirSigmet": "WSUS32 KKCI 152055\nSIGC \nCONVECTIVE SIGMET 20C\nVALID UNTIL 2255Z\nNE SD MT WY\nFROM 60SSE MLS-30NW DPR-70ENE BFF-60NW BFF-30N CZI-60SSE MLS\nAREA TS MOV FROM 26020KT. TOPS TO FL370.\n\nOUTLOOK VALID 152255-160255\nTS ARE NOT EXPD TO REQUIRE WST ISSUANCES.",
                "validTimeTo": [
                    "2026-08-15T22:55"
                ]
            }
        },
        {
            "type": "Feature",
            "geometry": {
                "type": "Polygon",
                "coordinates": [
                    [
                        [
                            -99.747,
                            38.236
                        ],
                        [
                            -98.803,
                            37.052
                        ],
                        [
                            -100.705,
                            36.337
                        ],
                        [
                            -101.6,
                            37.038
                        ],
                        [
                            -99.747,
                            38.236
                        ]
                    ]
                ]
            },
            "properties": {
                "airSigmetId": null,
                "airportIcao": "KKCI",
                "airSigmetType": "SIGMET",
                "hazard": "CONVECTIVE",
                "severity": 5,
                "altitudeLow1": null,
                "altitudeLow2": null,
                "altitudeHi1": 45000,
                "altitudeHi2": 60000,
                "movementDir": 160,
                "movementSpd": 15,
                "rawAirSigmet": "WSUS32 KKCI 152055\nSIGC \nCONVECTIVE SIGMET 21C\nVALID UNTIL 2255Z\nTX OK KS\nFROM 50ENE GCK-60NW END-40W MMB-30W LBL-50ENE GCK\nAREA TS MOV FROM 16015KT. TOPS ABV FL450.\n\nOUTLOOK VALID 152255-160255\nTS ARE NOT EXPD TO REQUIRE WST ISSUANCES.",
                "validTimeTo": [
                    "2026-08-15T22:55"
                ]
            }
        },
        {
            "type": "Feature",
            "geometry": {
                "type": "Polygon",
                "coordinates": [
                    [
                        [
                            -115.077,
                            48.797
                        ],
                        [
                            -106.407,
                            44.646
                        ],
                        [
                            -110.955,
                            41.165
                        ],
                        [
                            -113.347,
                            42.197
                        ],
                        [
                            -119.275,
                            45.464
                        ],
                        [
                            -115.077,
                            48.797
                        ]
                    ]
                ]
            },
            "properties": {
                "airSigmetId": null,
                "airportIcao": "KKCI",
                "airSigmetType": "SIGMET",
                "hazard": "CONVECTIVE",
                "severity": 5,
                "altitudeLow1": null,
                "altitudeLow2": null,
                "altitudeHi1": 45000,
                "altitudeHi2": 45000,
                "movementDir": 210,
                "movementSpd": 20,
                "rawAirSigmet": "WSUS33 KKCI 152055\nSIGW \nCONVECTIVE SIGMET 95W\nVALID UNTIL 2255Z\nMT WY UT ID OR WA\nFROM 50NW FCA-30ESE SHR-50ENE SLC-40W MLD-20SW PDT-50NW FCA\nAREA TS MOV FROM 21020KT. TOPS TO FL450.\n\nOUTLOOK VALID 152255-160255\nTS ARE NOT EXPD TO REQUIRE WST ISSUANCES.",
                "validTimeTo": [
                    "2026-08-15T22:55"
                ]
            }
        },
        {
            "type": "Feature",
            "geometry": {
                "type": "Polygon",
                "coordinates": [
                    [
                        [
                            -118.519,
                            44.838
                        ],
                        [
                            -114.704,
                            42.545
                        ],
                        [
                            -116.135,
                            41.158
                        ],
                        [
                            -120.071,
                            43.261
                        ],
                        [
                            -118.519,
                            44.838
                        ]
                    ]
                ]
            },
            "properties": {
                "airSigmetId": null,
                "airportIcao": "KKCI",
                "airSigmetType": "SIGMET",
                "hazard": "CONVECTIVE",
                "severity": 5,
                "altitudeLow1": null,
                "altitudeLow2": null,
                "altitudeHi1": 40000,
                "altitudeHi2": 40000,
                "movementDir": 210,
                "movementSpd": 20,
                "rawAirSigmet": "WSUS33 KKCI 152055\nSIGW \nCONVECTIVE SIGMET 96W\nVALID UNTIL 2255Z\nID NV OR\nFROM 30W BKE-10WNW TWF-50NE BAM-50NNE LKV-30W BKE\nAREA TS MOV FROM 21020KT. TOPS TO FL400.\n\nOUTLOOK VALID 152255-160255\nTS ARE NOT EXPD TO REQUIRE WST ISSUANCES.",
                "validTimeTo": [
                    "2026-08-15T22:55"
                ]
            }
        },
        {
            "type": "Feature",
            "geometry": {
                "type": "Polygon",
                "coordinates": [
                    [
                        [
                            -74.462,
                            34.827
                        ],
                        [
                            -73.903,
                            34.348
                        ],
                        [
                            -76.049,
                            32.806
                        ],
                        [
                            -76.744,
                            33.405
                        ],
                        [
                            -74.462,
                            34.827
                        ]
                    ]
                ]
            },
            "properties": {
                "airSigmetId": null,
                "airportIcao": "KKCI",
                "airSigmetType": "SIGMET",
                "hazard": "CONVECTIVE",
                "severity": 5,
                "altitudeLow1": null,
                "altitudeLow2": null,
                "altitudeHi1": 45000,
                "altitudeHi2": 60000,
                "movementDir": 270,
                "movementSpd": 20,
                "rawAirSigmet": "WSUS31 KKCI 152055\nSIGE \nCONVECTIVE SIGMET 05E\nVALID UNTIL 2255Z\nNC CSTL WTRS\nFROM 120SE ECG-160SE ECG-130SE ILM-80SE ILM-120SE ECG\nAREA TS MOV FROM 27020KT. TOPS ABV FL450.\nREFER INTL SIGMET KILO SERIES.\n\nOUTLOOK VALID 152255-160255\nTS ARE NOT EXPD TO REQUIRE WST ISSUANCES.",
                "validTimeTo": [
                    "2026-08-15T22:55"
                ]
            }
        },
        {
            "type": "Feature",
            "geometry": {
                "type": "Polygon",
                "coordinates": [
                    [
                        [
                            -81.11,
                            29.129
                        ],
                        [
                            -79.964,
                            27.872
                        ],
                        [
                            -79.906,
                            25.444
                        ],
                        [
                            -82.081,
                            25.204
                        ],
                        [
                            -82.814,
                            27.165
                        ],
                        [
                            -81.11,
                            29.129
                        ]
                    ]
                ]
            },
            "properties": {
                "airSigmetId": null,
                "airportIcao": "KKCI",
                "airSigmetType": "SIGMET",
                "hazard": "CONVECTIVE",
                "severity": 5,
                "altitudeLow1": null,
                "altitudeLow2": null,
                "altitudeHi1": 45000,
                "altitudeHi2": 60000,
                "movementDir": null,
                "movementSpd": null,
                "rawAirSigmet": "WSUS31 KKCI 152055\nSIGE \nCONVECTIVE SIGMET 06E\nVALID UNTIL 2255Z\nFL AND CSTL WTRS\nFROM 10S OMN-30ENE TRV-30SE MIA-40NNW EYW-20SW SRQ-10S OMN\nAREA TS MOV LTL. TOPS ABV FL450.\n\nOUTLOOK VALID 152255-160255\nTS ARE NOT EXPD TO REQUIRE WST ISSUANCES.",
                "validTimeTo": [
                    "2026-08-15T22:55"
                ]
            }
        },
        {
            "type": "Feature",
            "geometry": {
                "type": "Polygon",
                "coordinates": [
                    [
                        [
                            -84.497,
                            39.085
                        ],
                        [
                            -82.185,
                            38.871
                        ],
                        [
                            -78.908,
                            37.864
                        ],
                        [
                            -80.201,
                            31.837
                        ],
                        [
                            -84.517,
                            32.125
                        ],
                        [
                            -84.497,
                            39.085
                        ]
                    ]
                ]
            },
            "properties": {
                "airSigmetId": null,
                "airportIcao": "KKCI",
                "airSigmetType": "SIGMET",
                "hazard": "CONVECTIVE",
                "severity": 5,
                "altitudeLow1": null,
                "altitudeLow2": null,
                "altitudeHi1": 45000,
                "altitudeHi2": 60000,
                "movementDir": 350,
                "movementSpd": 5,
                "rawAirSigmet": "WSUS31 KKCI 152055\nSIGE \nCONVECTIVE SIGMET 07E\nVALID UNTIL 2255Z\nVA NC WV SC OH GA TN KY AND SC GA CSTL WTRS\nFROM 10ENE CVG-10NW HNN-40NNE LYH-50ESE SAV-30NNW PZD-10ENE CVG\nAREA SEV EMBD TS MOV FROM 35005KT. TOPS ABV FL450.\nHAIL TO 1 IN...WIND GUSTS TO 50KT POSS.\n\nOUTLOOK VALID 152255-160255\nTS ARE NOT EXPD TO REQUIRE WST ISSUANCES.",
                "validTimeTo": [
                    "2026-08-15T22:55"
                ]
            }
        },
        {
            "type": "Feature",
            "geometry": {
                "type": "Polygon",
                "coordinates": [
                    [
                        [
                            -83.231,
                            29.665
                        ],
                        [
                            -82.285,
                            29.598
                        ],
                        [
                            -81.868,
                            28.346
                        ],
                        [
                            -82.814,
                            27.165
                        ],
                        [
                            -82.947,
                            28.145
                        ],
                        [
                            -83.231,
                            29.665
                        ]
                    ]
                ]
            },
            "properties": {
                "airSigmetId": null,
                "airportIcao": "KKCI",
                "airSigmetType": "SIGMET",
                "hazard": "CONVECTIVE",
                "severity": 5,
                "altitudeLow1": null,
                "altitudeLow2": null,
                "altitudeHi1": 42000,
                "altitudeHi2": 42000,
                "movementDir": null,
                "movementSpd": null,
                "rawAirSigmet": "WSUS31 KKCI 152055\nSIGE \nCONVECTIVE SIGMET 08E\nVALID UNTIL 2255Z\nFL AND CSTL WTRS\nFROM 10WNW CTY-40E CTY-30WSW ORL-20SW SRQ-20NW PIE-10WNW CTY\nAREA TS MOV LTL. TOPS TO FL420.\n\nOUTLOOK VALID 152255-160255\nTS ARE NOT EXPD TO REQUIRE WST ISSUANCES.",
                "validTimeTo": [
                    "2026-08-15T22:55"
                ]
            }
        },
        {
            "type": "Feature",
            "geometry": {
                "type": "Polygon",
                "coordinates": [
                    [
                        [
                            -111.893,
                            36.118
                        ],
                        [
                            -109.75,
                            34.418
                        ],
                        [
                            -110.721,
                            33.87
                        ],
                        [
                            -112.48,
                            34.035
                        ],
                        [
                            -113.229,
                            35.005
                        ],
                        [
                            -111.893,
                            36.118
                        ]
                    ]
                ]
            },
            "properties": {
                "airSigmetId": null,
                "airportIcao": "KKCI",
                "airSigmetType": "SIGMET",
                "hazard": "CONVECTIVE",
                "severity": 5,
                "altitudeLow1": null,
                "altitudeLow2": null,
                "altitudeHi1": 29000,
                "altitudeHi2": 29000,
                "movementDir": null,
                "movementSpd": null,
                "rawAirSigmet": "WSUS33 KKCI 152055\nSIGW \nCONVECTIVE SIGMET 97W\nVALID UNTIL 2255Z\nAZ\nFROM 30W TBC-30W SJN-70ENE PHX-40S DRK-40SSE PGS-30W TBC\nAREA TS MOV LTL. TOPS TO FL290.\n\nOUTLOOK VALID 152255-160255\nTS ARE NOT EXPD TO REQUIRE WST ISSUANCES.",
                "validTimeTo": [
                    "2026-08-15T22:55"
                ]
            }
        },
        {
            "type": "Feature",
            "geometry": {
                "type": "Polygon",
                "coordinates": [
                    [
                        [
                            -107.993,
                            32.279
                        ],
                        [
                            -108.122,
                            31.2
                        ],
                        [
                            -110.92,
                            31.265
                        ],
                        [
                            -111.121,
                            32.1
                        ],
                        [
                            -107.993,
                            32.279
                        ]
                    ]
                ]
            },
            "properties": {
                "airSigmetId": null,
                "airportIcao": "KKCI",
                "airSigmetType": "SIGMET",
                "hazard": "CONVECTIVE",
                "severity": 5,
                "altitudeLow1": null,
                "altitudeLow2": null,
                "altitudeHi1": 35000,
                "altitudeHi2": 35000,
                "movementDir": null,
                "movementSpd": null,
                "rawAirSigmet": "WSUS33 KKCI 152055\nSIGW \nCONVECTIVE SIGMET 98W\nVALID UNTIL 2255Z\nNM AZ\nFROM 20W DMN-70SSW DMN-50S TUS-10W TUS-20W DMN\nAREA TS MOV LTL. TOPS TO FL350.\n\nOUTLOOK VALID 152255-160255\nTS ARE NOT EXPD TO REQUIRE WST ISSUANCES.",
                "validTimeTo": [
                    "2026-08-15T22:55"
                ]
            }
        },
        {
            "type": "Feature",
            "geometry": {
                "type": "Polygon",
                "coordinates": [
                    [
                        [
                            -106.407,
                            44.646
                        ],
                        [
                            -104.438,
                            42.591
                        ],
                        [
                            -109.729,
                            40.022
                        ],
                        [
                            -110.876,
                            40.845
                        ],
                        [
                            -106.407,
                            44.646
                        ]
                    ]
                ]
            },
            "properties": {
                "airSigmetId": null,
                "airportIcao": "KKCI",
                "airSigmetType": "SIGMET",
                "hazard": "CONVECTIVE",
                "severity": 5,
                "altitudeLow1": null,
                "altitudeLow2": null,
                "altitudeHi1": 41000,
                "altitudeHi2": 41000,
                "movementDir": 210,
                "movementSpd": 20,
                "rawAirSigmet": "WSUS33 KKCI 152055\nSIGW \nCONVECTIVE SIGMET 99W\nVALID UNTIL 2255Z\nCO WY UT\nFROM 30ESE SHR-60NW BFF-20ESE MTU-50E SLC-30ESE SHR\nAREA TS MOV FROM 21020KT. TOPS TO FL410.\n\nOUTLOOK VALID 152255-160255\nTS ARE NOT EXPD TO REQUIRE WST ISSUANCES.",
                "validTimeTo": [
                    "2026-08-15T22:55"
                ]
            }
        },
        {
            "type": "Feature",
            "geometry": {
                "type": "Polygon",
                "coordinates": [
                    [
                        [
                            -115.477,
                            36.694
                        ],
                        [
                            -114.538,
                            36.078
                        ],
                        [
                            -115.413,
                            35.086
                        ],
                        [
                            -116.294,
                            35.693
                        ],
                        [
                            -115.477,
                            36.694
                        ]
                    ]
                ]
            },
            "properties": {
                "airSigmetId": null,
                "airportIcao": "KKCI",
                "airSigmetType": "SIGMET",
                "hazard": "CONVECTIVE",
                "severity": 5,
                "altitudeLow1": null,
                "altitudeLow2": null,
                "altitudeHi1": 43000,
                "altitudeHi2": 43000,
                "movementDir": null,
                "movementSpd": null,
                "rawAirSigmet": "WSUS33 KKCI 152055\nSIGW \nCONVECTIVE SIGMET 01W\nVALID UNTIL 2255Z\nAZ NV CA\nFROM 40NNW LAS-30E LAS-50WNW EED-60WSW LAS-40NNW LAS\nAREA TS MOV LTL. TOPS TO FL430.\n\nOUTLOOK VALID 152255-160255\nTS ARE NOT EXPD TO REQUIRE WST ISSUANCES.",
                "validTimeTo": [
                    "2026-08-15T22:55"
                ]
            }
        },
        {
            "type": "Feature",
            "geometry": {
                "type": "Polygon",
                "coordinates": [
                    [
                        [
                            -113.593,
                            40.423
                        ],
                        [
                            -111.911,
                            39.106
                        ],
                        [
                            -114.39,
                            37.253
                        ],
                        [
                            -115.905,
                            38.469
                        ],
                        [
                            -113.593,
                            40.423
                        ]
                    ]
                ]
            },
            "properties": {
                "airSigmetId": null,
                "airportIcao": "KKCI",
                "airSigmetType": "SIGMET",
                "hazard": "CONVECTIVE",
                "severity": 5,
                "altitudeLow1": null,
                "altitudeLow2": null,
                "altitudeHi1": 35000,
                "altitudeHi2": 35000,
                "movementDir": 230,
                "movementSpd": 10,
                "rawAirSigmet": "WSUS33 KKCI 152055\nSIGW \nCONVECTIVE SIGMET 02W\nVALID UNTIL 2255Z\nUT NV\nFROM 20SSE BVL-30ESE DTA-60S ILC-70SW ELY-20SSE BVL\nAREA TS MOV FROM 23010KT. TOPS TO FL350.\n\nOUTLOOK VALID 152255-160255\nTS ARE NOT EXPD TO REQUIRE WST ISSUANCES.",
                "validTimeTo": [
                    "2026-08-15T22:55"
                ]
            }
        },
        {
            "type": "Feature",
            "geometry": {
                "type": "Polygon",
                "coordinates": [
                    [
                        [
                            -102.844,
                            42.358
                        ],
                        [
                            -102.985,
                            35.178
                        ],
                        [
                            -107.226,
                            35.039
                        ],
                        [
                            -107.565,
                            40.984
                        ],
                        [
                            -104.438,
                            42.591
                        ],
                        [
                            -102.844,
                            42.358
                        ]
                    ]
                ]
            },
            "properties": {
                "airSigmetId": null,
                "airportIcao": "KKCI",
                "airSigmetType": "SIGMET",
                "hazard": "CONVECTIVE",
                "severity": 5,
                "altitudeLow1": null,
                "altitudeLow2": null,
                "altitudeHi1": 45000,
                "altitudeHi2": 60000,
                "movementDir": 270,
                "movementSpd": 15,
                "rawAirSigmet": "WSUS33 KKCI 152055\nSIGW \nCONVECTIVE SIGMET 03W\nVALID UNTIL 2255Z\nTX OK NE CO NM WY\nFROM 40NE BFF-30E TCC-20W ABQ-30NNW CHE-60NW BFF-40NE BFF\nAREA SEV TS MOV FROM 27015KT. TOPS ABV FL450.\nHAIL TO 1.5 IN...WIND GUSTS TO 60KT POSS.\n\nOUTLOOK VALID 152255-160255\nTS ARE NOT EXPD TO REQUIRE WST ISSUANCES.",
                "validTimeTo": [
                    "2026-08-15T22:55"
                ]
            }
        },
        {
            "type": "Feature",
            "geometry": {
                "type": "Polygon",
                "coordinates": [
                    [
                        [
                            -79.357,
                            35.399
                        ],
                        [
                            -75.712,
                            35.328
                        ],
                        [
                            -76.965,
                            32.504
                        ],
                        [
                            -79.962,
                            32.732
                        ],
                        [
                            -79.357,
                            35.399
                        ]
                    ]
                ]
            },
            "properties": {
                "airSigmetId": null,
                "airportIcao": "KKCI",
                "airSigmetType": "SIGMET",
                "hazard": "CONVECTIVE",
                "severity": 5,
                "altitudeLow1": null,
                "altitudeLow2": null,
                "altitudeHi1": 45000,
                "altitudeHi2": 60000,
                "movementDir": 310,
                "movementSpd": 10,
                "rawAirSigmet": "WSUS31 KKCI 152055\nSIGE \nCONVECTIVE SIGMET 09E\nVALID UNTIL 2255Z\nNC SC AND CSTL WTRS\nFROM 40SW RDU-60SSE ECG-120SSE ILM-10SSE CHS-40SW RDU\nAREA TS MOV FROM 31010KT. TOPS ABV FL450.\n\nOUTLOOK VALID 152255-160255\nTS ARE NOT EXPD TO REQUIRE WST ISSUANCES.",
                "validTimeTo": [
                    "2026-08-15T22:55"
                ]
            }
        },
        {
            "type": "Feature",
            "geometry": {
                "type": "Polygon",
                "coordinates": [
                    [
                        [
                            -84.592,
                            33.323
                        ],
                        [
                            -84.664,
                            29.946
                        ],
                        [
                            -89.29,
                            30.102
                        ],
                        [
                            -89.282,
                            31.296
                        ],
                        [
                            -87.636,
                            33.413
                        ],
                        [
                            -84.592,
                            33.323
                        ]
                    ]
                ]
            },
            "properties": {
                "airSigmetId": null,
                "airportIcao": "KKCI",
                "airSigmetType": "SIGMET",
                "hazard": "CONVECTIVE",
                "severity": 5,
                "altitudeLow1": null,
                "altitudeLow2": null,
                "altitudeHi1": 45000,
                "altitudeHi2": 60000,
                "movementDir": null,
                "movementSpd": null,
                "rawAirSigmet": "WSUS31 KKCI 152055\nSIGE \nCONVECTIVE SIGMET 10E\nVALID UNTIL 2255Z\nFL GA AL MS LA AND FL AL MS LA CSTL WTRS\nFROM 20SSW ATL-40SSW TLH-40ENE HRV-50E MCB-40WSW VUZ-20SSW ATL\nAREA TS MOV LTL. TOPS ABV FL450.\n\nOUTLOOK VALID 152255-160255\nTS ARE NOT EXPD TO REQUIRE WST ISSUANCES.",
                "validTimeTo": [
                    "2026-08-15T22:55"
                ]
            }
        },
        {
            "type": "Feature",
            "geometry": {
                "type": "Polygon",
                "coordinates": [
                    [
                        [
                            -104.413,
                            35.177
                        ],
                        [
                            -103.203,
                            30.485
                        ],
                        [
                            -104.243,
                            29.686
                        ],
                        [
                            -106.872,
                            31.819
                        ],
                        [
                            -107.196,
                            35.167
                        ],
                        [
                            -104.413,
                            35.177
                        ]
                    ]
                ]
            },
            "properties": {
                "airSigmetId": null,
                "airportIcao": "KKCI",
                "airSigmetType": "SIGMET",
                "hazard": "CONVECTIVE",
                "severity": 5,
                "altitudeLow1": null,
                "altitudeLow2": null,
                "altitudeHi1": 45000,
                "altitudeHi2": 60000,
                "movementDir": null,
                "movementSpd": null,
                "rawAirSigmet": "WSUS33 KKCI 152055\nSIGW \nCONVECTIVE SIGMET 04W\nVALID UNTIL 2255Z\nTX NM\nFROM 40W TCC-30SSW FST-40SSW MRF-30W ELP-20WNW ABQ-40W TCC\nAREA TS MOV LTL. TOPS ABV FL450.\n\nOUTLOOK VALID 152255-160255\nTS ARE NOT EXPD TO REQUIRE WST ISSUANCES.",
                "validTimeTo": [
                    "2026-08-15T22:55"
                ]
            }
        }
    ],
    "metadata": {
        "creationTime": "2026-08-15T21:27"
    }
}