{
    "type": "FeatureCollection",
    "features": [
        {
            "type": "Feature",
            "geometry": {
                "type": "Polygon",
                "coordinates": [
                    [
                        [
                            -84.04,
                            41.287
                        ],
                        [
                            -80.822,
                            38.015
                        ],
                        [
                            -82.166,
                            35.495
                        ],
                        [
                            -84.837,
                            35.574
                        ],
                        [
                            -86.862,
                            40.625
                        ],
                        [
                            -84.04,
                            41.287
                        ]
                    ]
                ]
            },
            "properties": {
                "airSigmetId": null,
                "airportIcao": "KKCI",
                "airSigmetType": "SIGMET",
                "hazard": "CONVECTIVE",
                "severity": 5,
                "altitudeLow1": null,
                "altitudeLow2": null,
                "altitudeHi1": 45000,
                "altitudeHi2": 60000,
                "movementDir": 300,
                "movementSpd": 15,
                "rawAirSigmet": "WSUS31 KKCI 121255\nSIGE \nCONVECTIVE SIGMET 55E\nVALID UNTIL 1455Z\nVA NC WV OH TN KY IN\nFROM 60N ROD-20NE BKW-30NNW SPA-40NNE GQO-10ENE BVT-60N ROD\nAREA SEV EMBD TS MOV FROM 30015KT. TOPS ABV FL450.\nHAIL TO 1 IN POSS.\n\nOUTLOOK VALID 121455-121855\nAREA 1...FROM 40W PMM-50SSW DXO-50WNW GSO-50E GQO-BWG-TTH-40W PMM\nWST ISSUANCES EXPD. REFER TO MOST RECENT ACUS01 KWNS FROM STORM\nPREDICTION CENTER FOR SYNOPSIS AND METEOROLOGICAL DETAILS.\n\nAREA 2...FROM 140E ACK-190SE ACK-200SSE HTO-60S HTO-140E ACK\nWST ISSUANCES POSS. REFER TO MOST RECENT ACUS01 KWNS FROM STORM\nPREDICTION CENTER FOR SYNOPSIS AND METEOROLOGICAL DETAILS.",
                "validTimeTo": [
                    "2026-08-12T14:55"
                ]
            }
        },
        {
            "type": "Feature",
            "geometry": {
                "type": "Polygon",
                "coordinates": [
                    [
                        [
                            -71.108,
                            40.532
                        ],
                        [
                            -67.209,
                            40.355
                        ],
                        [
                            -67.446,
                            39.25
                        ],
                        [
                            -70.792,
                            39.735
                        ],
                        [
                            -71.108,
                            40.532
                        ]
                    ]
                ]
            },
            "properties": {
                "airSigmetId": null,
                "airportIcao": "KKCI",
                "airSigmetType": "SIGMET",
                "hazard": "CONVECTIVE",
                "severity": 5,
                "altitudeLow1": null,
                "altitudeLow2": null,
                "altitudeHi1": 41000,
                "altitudeHi2": 41000,
                "movementDir": 270,
                "movementSpd": 20,
                "rawAirSigmet": "WSUS31 KKCI 121255\nSIGE \nCONVECTIVE SIGMET 56E\nVALID UNTIL 1455Z\nMA RI CSTL WTRS\nFROM 60ESE HTO-140ESE ACK-170SE ACK-100SE HTO-60ESE HTO\nAREA TS MOV FROM 27020KT. TOPS TO FL410.\n\nOUTLOOK VALID 121455-121855\nAREA 1...FROM 40W PMM-50SSW DXO-50WNW GSO-50E GQO-BWG-TTH-40W PMM\nWST ISSUANCES EXPD. REFER TO MOST RECENT ACUS01 KWNS FROM STORM\nPREDICTION CENTER FOR SYNOPSIS AND METEOROLOGICAL DETAILS.\n\nAREA 2...FROM 140E ACK-190SE ACK-200SSE HTO-60S HTO-140E ACK\nWST ISSUANCES POSS. REFER TO MOST RECENT ACUS01 KWNS FROM STORM\nPREDICTION CENTER FOR SYNOPSIS AND METEOROLOGICAL DETAILS.",
                "validTimeTo": [
                    "2026-08-12T14:55"
                ]
            }
        },
        {
            "type": "Feature",
            "geometry": {
                "type": "Polygon",
                "coordinates": [
                    [
                        [
                            -78.225,
                            32.241
                        ],
                        [
                            -77.154,
                            28.85
                        ],
                        [
                            -78.566,
                            28.368
                        ],
                        [
                            -78.798,
                            30.109
                        ],
                        [
                            -78.225,
                            32.241
                        ]
                    ]
                ]
            },
            "properties": {
                "airSigmetId": null,
                "airportIcao": "KKCI",
                "airSigmetType": "SIGMET",
                "hazard": "CONVECTIVE",
                "severity": 5,
                "altitudeLow1": null,
                "altitudeLow2": null,
                "altitudeHi1": 45000,
                "altitudeHi2": 45000,
                "movementDir": 250,
                "movementSpd": 15,
                "rawAirSigmet": "WSUS31 KKCI 121255\nSIGE \nCONVECTIVE SIGMET 57E\nVALID UNTIL 1455Z\nFL SC GA CSTL WTRS\nFROM 100ESE CHS-190ENE TRV-110ENE TRV-130ENE OMN-100ESE CHS\nAREA TS MOV FROM 25015KT. TOPS TO FL450.\nREFER INTL SIGMET ALFA SERIES.\n\nOUTLOOK VALID 121455-121855\nAREA 1...FROM 40W PMM-50SSW DXO-50WNW GSO-50E GQO-BWG-TTH-40W PMM\nWST ISSUANCES EXPD. REFER TO MOST RECENT ACUS01 KWNS FROM STORM\nPREDICTION CENTER FOR SYNOPSIS AND METEOROLOGICAL DETAILS.\n\nAREA 2...FROM 140E ACK-190SE ACK-200SSE HTO-60S HTO-140E ACK\nWST ISSUANCES POSS. REFER TO MOST RECENT ACUS01 KWNS FROM STORM\nPREDICTION CENTER FOR SYNOPSIS AND METEOROLOGICAL DETAILS.",
                "validTimeTo": [
                    "2026-08-12T14:55"
                ]
            }
        },
        {
            "type": "Feature",
            "geometry": {
                "type": "Polygon",
                "coordinates": [
                    [
                        [
                            -73.767,
                            37.763
                        ],
                        [
                            -72.58,
                            37.313
                        ],
                        [
                            -72.803,
                            35.058
                        ],
                        [
                            -74.325,
                            36.875
                        ],
                        [
                            -73.767,
                            37.763
                        ]
                    ]
                ]
            },
            "properties": {
                "airSigmetId": null,
                "airportIcao": "KKCI",
                "airSigmetType": "SIGMET",
                "hazard": "CONVECTIVE",
                "severity": 5,
                "altitudeLow1": null,
                "altitudeLow2": null,
                "altitudeHi1": 43000,
                "altitudeHi2": 43000,
                "movementDir": 270,
                "movementSpd": 15,
                "rawAirSigmet": "WSUS31 KKCI 121255\nSIGE \nCONVECTIVE SIGMET 58E\nVALID UNTIL 1455Z\nMD NC VA CSTL WTRS\nFROM 90ESE SBY-150SE SIE-180ESE ECG-90E ORF-90ESE SBY\nAREA TS MOV FROM 27015KT. TOPS TO FL430.\n\nOUTLOOK VALID 121455-121855\nAREA 1...FROM 40W PMM-50SSW DXO-50WNW GSO-50E GQO-BWG-TTH-40W PMM\nWST ISSUANCES EXPD. REFER TO MOST RECENT ACUS01 KWNS FROM STORM\nPREDICTION CENTER FOR SYNOPSIS AND METEOROLOGICAL DETAILS.\n\nAREA 2...FROM 140E ACK-190SE ACK-200SSE HTO-60S HTO-140E ACK\nWST ISSUANCES POSS. REFER TO MOST RECENT ACUS01 KWNS FROM STORM\nPREDICTION CENTER FOR SYNOPSIS AND METEOROLOGICAL DETAILS.",
                "validTimeTo": [
                    "2026-08-12T14:55"
                ]
            }
        },
        {
            "type": "Feature",
            "geometry": {
                "type": "Polygon",
                "coordinates": [
                    [
                        [
                            -95.1,
                            43.198
                        ],
                        [
                            -92.898,
                            42.317
                        ],
                        [
                            -96.433,
                            40.2
                        ],
                        [
                            -98.971,
                            41.571
                        ],
                        [
                            -98.602,
                            42.312
                        ],
                        [
                            -95.1,
                            43.198
                        ]
                    ]
                ]
            },
            "properties": {
                "airSigmetId": null,
                "airportIcao": "KKCI",
                "airSigmetType": "SIGMET",
                "hazard": "CONVECTIVE",
                "severity": 5,
                "altitudeLow1": null,
                "altitudeLow2": null,
                "altitudeHi1": 45000,
                "altitudeHi2": 60000,
                "movementDir": 290,
                "movementSpd": 25,
                "rawAirSigmet": "WSUS32 KKCI 121255\nSIGC \nCONVECTIVE SIGMET 69C\nVALID UNTIL 1455Z\nMO IA NE SD\nFROM 50NW FOD-50SSE MCW-10W PWE-30WNW OBH-10SSE ONL-50NW FOD\nAREA SEV TS MOV FROM 29025KT. TOPS ABV FL450.\nHAIL TO 1 IN...WIND GUSTS TO 70KT POSS.\n\nOUTLOOK VALID 121455-121855\nFROM 40W PMM-TTH-GCK-50NNW GCK-ONL-40W PMM\nREF WW 573 574.\nWST ISSUANCES EXPD. REFER TO MOST RECENT ACUS01 KWNS FROM STORM\nPREDICTION CENTER FOR SYNOPSIS AND METEOROLOGICAL DETAILS.",
                "validTimeTo": [
                    "2026-08-12T14:55"
                ]
            }
        },
        {
            "type": "Feature",
            "geometry": {
                "type": "Polygon",
                "coordinates": [
                    [
                        [
                            -113.91,
                            37.328
                        ],
                        [
                            -112.3,
                            37.025
                        ],
                        [
                            -113.725,
                            34.513
                        ],
                        [
                            -115.215,
                            34.513
                        ],
                        [
                            -113.91,
                            37.328
                        ]
                    ]
                ]
            },
            "properties": {
                "airSigmetId": null,
                "airportIcao": "KKCI",
                "airSigmetType": "SIGMET",
                "hazard": "CONVECTIVE",
                "severity": 5,
                "altitudeLow1": null,
                "altitudeLow2": null,
                "altitudeHi1": 35000,
                "altitudeHi2": 35000,
                "movementDir": 220,
                "movementSpd": 15,
                "rawAirSigmet": "WSUS33 KKCI 121255\nSIGW \nCONVECTIVE SIGMET 61W\nVALID UNTIL 1455Z\nAZ UT NV CA\nFROM 60SSE ILC-40S BCE-40ESE EED-40WSW EED-60SSE ILC\nAREA TS MOV FROM 22015KT. TOPS TO FL350.\n\nOUTLOOK VALID 121455-121855\nAREA 1...FROM TBC-70SSW RSK-50S TUS-30SE BZA-30ENE BZA-50S\nPHX-TBC\nWST ISSUANCES POSS. REFER TO MOST RECENT ACUS01 KWNS FROM STORM\nPREDICTION CENTER FOR SYNOPSIS AND METEOROLOGICAL DETAILS.\n\nAREA 2...FROM ILC-30NE BCE-DRK-50WSW EED-ILC\nWST ISSUANCES POSS. REFER TO MOST RECENT ACUS01 KWNS FROM STORM\nPREDICTION CENTER FOR SYNOPSIS AND METEOROLOGICAL DETAILS.",
                "validTimeTo": [
                    "2026-08-12T14:55"
                ]
            }
        },
        {
            "type": "Feature",
            "geometry": {
                "type": "Polygon",
                "coordinates": [
                    [
                        [
                            -91.12,
                            43.295
                        ],
                        [
                            -88.32,
                            41.379
                        ],
                        [
                            -90.073,
                            40.225
                        ],
                        [
                            -96.632,
                            38.606
                        ],
                        [
                            -97.62,
                            39.433
                        ],
                        [
                            -91.12,
                            43.295
                        ]
                    ]
                ]
            },
            "properties": {
                "airSigmetId": null,
                "airportIcao": "KKCI",
                "airSigmetType": "SIGMET",
                "hazard": "CONVECTIVE",
                "severity": 5,
                "altitudeLow1": null,
                "altitudeLow2": null,
                "altitudeHi1": 45000,
                "altitudeHi2": 60000,
                "movementDir": 270,
                "movementSpd": 30,
                "rawAirSigmet": "WSUS32 KKCI 121255\nSIGC \nCONVECTIVE SIGMET 70C\nVALID UNTIL 1455Z\nWI IL MO IA KS NE\nFROM 40SSE ODI-10S JOT-60ENE UIN-50ESE SLN-30N SLN-40SSE ODI\nAREA SEV TS MOV FROM 27030KT. TOPS ABV FL450.\nHAIL TO 1 IN...WIND GUSTS TO 65KT POSS.\n\nOUTLOOK VALID 121455-121855\nFROM 40W PMM-TTH-GCK-50NNW GCK-ONL-40W PMM\nREF WW 573 574.\nWST ISSUANCES EXPD. REFER TO MOST RECENT ACUS01 KWNS FROM STORM\nPREDICTION CENTER FOR SYNOPSIS AND METEOROLOGICAL DETAILS.",
                "validTimeTo": [
                    "2026-08-12T14:55"
                ]
            }
        },
        {
            "type": "Feature",
            "geometry": {
                "type": "Polygon",
                "coordinates": [
                    [
                        [
                            -109.988,
                            35.057
                        ],
                        [
                            -110.131,
                            33.59
                        ],
                        [
                            -111.462,
                            33.621
                        ],
                        [
                            -111.233,
                            34.704
                        ],
                        [
                            -109.988,
                            35.057
                        ]
                    ]
                ]
            },
            "properties": {
                "airSigmetId": null,
                "airportIcao": "KKCI",
                "airSigmetType": "SIGMET",
                "hazard": "CONVECTIVE",
                "severity": 5,
                "altitudeLow1": null,
                "altitudeLow2": null,
                "altitudeHi1": 37000,
                "altitudeHi2": 37000,
                "movementDir": 130,
                "movementSpd": 10,
                "rawAirSigmet": "WSUS33 KKCI 121255\nSIGW \nCONVECTIVE SIGMET 62W\nVALID UNTIL 1455Z\nAZ\nFROM 40E INW-70SW SJN-30ENE PHX-30SW INW-40E INW\nAREA TS MOV FROM 13010KT. TOPS TO FL370.\n\nOUTLOOK VALID 121455-121855\nAREA 1...FROM TBC-70SSW RSK-50S TUS-30SE BZA-30ENE BZA-50S\nPHX-TBC\nWST ISSUANCES POSS. REFER TO MOST RECENT ACUS01 KWNS FROM STORM\nPREDICTION CENTER FOR SYNOPSIS AND METEOROLOGICAL DETAILS.\n\nAREA 2...FROM ILC-30NE BCE-DRK-50WSW EED-ILC\nWST ISSUANCES POSS. REFER TO MOST RECENT ACUS01 KWNS FROM STORM\nPREDICTION CENTER FOR SYNOPSIS AND METEOROLOGICAL DETAILS.",
                "validTimeTo": [
                    "2026-08-12T14:55"
                ]
            }
        },
        {
            "type": "Feature",
            "geometry": {
                "type": "Polygon",
                "coordinates": [
                    [
                        [
                            -110.218,
                            32.689
                        ],
                        [
                            -109.707,
                            31.348
                        ],
                        [
                            -110.92,
                            31.265
                        ],
                        [
                            -111.717,
                            32.815
                        ],
                        [
                            -110.218,
                            32.689
                        ]
                    ]
                ]
            },
            "properties": {
                "airSigmetId": null,
                "airportIcao": "KKCI",
                "airSigmetType": "SIGMET",
                "hazard": "CONVECTIVE",
                "severity": 5,
                "altitudeLow1": null,
                "altitudeLow2": null,
                "altitudeHi1": 31000,
                "altitudeHi2": 31000,
                "movementDir": 120,
                "movementSpd": 5,
                "rawAirSigmet": "WSUS33 KKCI 121255\nSIGW \nCONVECTIVE SIGMET 63W\nVALID UNTIL 1455Z\nAZ\nFROM 50NE TUS-60SSW SSO-50S TUS-40SSE PHX-50NE TUS\nDMSHG AREA EMBD TS MOV FROM 12005KT. TOPS TO FL310.\n\nOUTLOOK VALID 121455-121855\nAREA 1...FROM TBC-70SSW RSK-50S TUS-30SE BZA-30ENE BZA-50S\nPHX-TBC\nWST ISSUANCES POSS. REFER TO MOST RECENT ACUS01 KWNS FROM STORM\nPREDICTION CENTER FOR SYNOPSIS AND METEOROLOGICAL DETAILS.\n\nAREA 2...FROM ILC-30NE BCE-DRK-50WSW EED-ILC\nWST ISSUANCES POSS. REFER TO MOST RECENT ACUS01 KWNS FROM STORM\nPREDICTION CENTER FOR SYNOPSIS AND METEOROLOGICAL DETAILS.",
                "validTimeTo": [
                    "2026-08-12T14:55"
                ]
            }
        },
        {
            "type": "Feature",
            "geometry": {
                "type": "Polygon",
                "coordinates": [
                    [
                        [
                            -112.004,
                            43.338
                        ],
                        [
                            -110.11,
                            43.245
                        ],
                        [
                            -111.364,
                            41.041
                        ],
                        [
                            -112.453,
                            41.205
                        ],
                        [
                            -112.004,
                            43.338
                        ]
                    ]
                ]
            },
            "properties": {
                "airSigmetId": null,
                "airportIcao": "KKCI",
                "airSigmetType": "SIGMET",
                "hazard": "CONVECTIVE",
                "severity": 5,
                "altitudeLow1": null,
                "altitudeLow2": null,
                "altitudeHi1": 31000,
                "altitudeHi2": 31000,
                "movementDir": 200,
                "movementSpd": 15,
                "rawAirSigmet": "WSUS33 KKCI 121255\nSIGW \nCONVECTIVE SIGMET 64W\nVALID UNTIL 1455Z\nWY UT ID\nFROM 40NE PIH-40N BPI-30ENE SLC-30NW SLC-40NE PIH\nDMSHG AREA EMBD TS MOV FROM 20015KT. TOPS TO FL310.\n\nOUTLOOK VALID 121455-121855\nAREA 1...FROM TBC-70SSW RSK-50S TUS-30SE BZA-30ENE BZA-50S\nPHX-TBC\nWST ISSUANCES POSS. REFER TO MOST RECENT ACUS01 KWNS FROM STORM\nPREDICTION CENTER FOR SYNOPSIS AND METEOROLOGICAL DETAILS.\n\nAREA 2...FROM ILC-30NE BCE-DRK-50WSW EED-ILC\nWST ISSUANCES POSS. REFER TO MOST RECENT ACUS01 KWNS FROM STORM\nPREDICTION CENTER FOR SYNOPSIS AND METEOROLOGICAL DETAILS.",
                "validTimeTo": [
                    "2026-08-12T14:55"
                ]
            }
        },
        {
            "type": "Feature",
            "geometry": {
                "type": "Polygon",
                "coordinates": [
                    [
                        [
                            -119.089,
                            38.45
                        ],
                        [
                            -119.1,
                            35.983
                        ],
                        [
                            -119.82,
                            36.215
                        ],
                        [
                            -120.208,
                            38.218
                        ],
                        [
                            -119.089,
                            38.45
                        ]
                    ]
                ]
            },
            "properties": {
                "airSigmetId": null,
                "airportIcao": "KKCI",
                "airSigmetType": "SIGMET",
                "hazard": "CONVECTIVE",
                "severity": 5,
                "altitudeLow1": null,
                "altitudeLow2": null,
                "altitudeHi1": 32000,
                "altitudeHi2": 32000,
                "movementDir": 200,
                "movementSpd": 10,
                "rawAirSigmet": "WSUS33 KKCI 121255\nSIGW \nCONVECTIVE SIGMET 65W\nVALID UNTIL 1455Z\nCA\nFROM 70SSE FMG-30N EHF-40S CZQ-50NE MOD-70SSE FMG\nAREA TS MOV FROM 20010KT. TOPS TO FL320.\n\nOUTLOOK VALID 121455-121855\nAREA 1...FROM TBC-70SSW RSK-50S TUS-30SE BZA-30ENE BZA-50S\nPHX-TBC\nWST ISSUANCES POSS. REFER TO MOST RECENT ACUS01 KWNS FROM STORM\nPREDICTION CENTER FOR SYNOPSIS AND METEOROLOGICAL DETAILS.\n\nAREA 2...FROM ILC-30NE BCE-DRK-50WSW EED-ILC\nWST ISSUANCES POSS. REFER TO MOST RECENT ACUS01 KWNS FROM STORM\nPREDICTION CENTER FOR SYNOPSIS AND METEOROLOGICAL DETAILS.",
                "validTimeTo": [
                    "2026-08-12T14:55"
                ]
            }
        },
        {
            "type": "Feature",
            "geometry": {
                "type": "Polygon",
                "coordinates": [
                    [
                        [
                            -84.683,
                            44.921
                        ],
                        [
                            -83.221,
                            44.571
                        ],
                        [
                            -83.141,
                            43.132
                        ],
                        [
                            -85.15,
                            43.845
                        ],
                        [
                            -84.683,
                            44.921
                        ]
                    ]
                ]
            },
            "properties": {
                "airSigmetId": null,
                "airportIcao": "KKCI",
                "airSigmetType": "SIGMET",
                "hazard": "CONVECTIVE",
                "severity": 5,
                "altitudeLow1": null,
                "altitudeLow2": null,
                "altitudeHi1": 38000,
                "altitudeHi2": 38000,
                "movementDir": 280,
                "movementSpd": 35,
                "rawAirSigmet": "WSUS32 KKCI 121255\nSIGC \nCONVECTIVE SIGMET 71C\nVALID UNTIL 1455Z\nMI LH\nFROM 40ENE TVC-10NE ASP-20WSW ECK-50WNW MBS-40ENE TVC\nAREA TS MOV FROM 28035KT. TOPS TO FL380.\n\nOUTLOOK VALID 121455-121855\nFROM 40W PMM-TTH-GCK-50NNW GCK-ONL-40W PMM\nREF WW 573 574.\nWST ISSUANCES EXPD. REFER TO MOST RECENT ACUS01 KWNS FROM STORM\nPREDICTION CENTER FOR SYNOPSIS AND METEOROLOGICAL DETAILS.",
                "validTimeTo": [
                    "2026-08-12T14:55"
                ]
            }
        },
        {
            "type": "Feature",
            "geometry": {
                "type": "Polygon",
                "coordinates": [
                    [
                        [
                            -101.439,
                            39.854
                        ],
                        [
                            -98.412,
                            39.182
                        ],
                        [
                            -99.25,
                            37.911
                        ],
                        [
                            -102.235,
                            38.555
                        ],
                        [
                            -101.439,
                            39.854
                        ]
                    ]
                ]
            },
            "properties": {
                "airSigmetId": null,
                "airportIcao": "KKCI",
                "airSigmetType": "SIGMET",
                "hazard": "CONVECTIVE",
                "severity": 5,
                "altitudeLow1": null,
                "altitudeLow2": null,
                "altitudeHi1": 44000,
                "altitudeHi2": 44000,
                "movementDir": 260,
                "movementSpd": 15,
                "rawAirSigmet": "WSUS32 KKCI 121255\nSIGC \nCONVECTIVE SIGMET 72C\nVALID UNTIL 1455Z\nKS CO\nFROM 30NNE GLD-40WNW SLN-70E GCK-30NE LAA-30NNE GLD\nAREA TS MOV FROM 26015KT. TOPS TO FL440.\n\nOUTLOOK VALID 121455-121855\nFROM 40W PMM-TTH-GCK-50NNW GCK-ONL-40W PMM\nREF WW 573 574.\nWST ISSUANCES EXPD. REFER TO MOST RECENT ACUS01 KWNS FROM STORM\nPREDICTION CENTER FOR SYNOPSIS AND METEOROLOGICAL DETAILS.",
                "validTimeTo": [
                    "2026-08-12T14:55"
                ]
            }
        }
    ],
    "metadata": {
        "creationTime": "2026-08-12T13:34"
    }
}